{"id":1,"name":"ADANA","cities":[{"name":"city","districts":[{"name":"ALADAĞ","cityName":null,"quarters":[{"name":"SİNANPAŞA MAH.","zip":"01720"}]},{"name":"MADENLİ","cityName":null,"quarters":[{"name":"BOZTAHTA MAH.","zip":"01722"},{"name":"BÜYÜKSOFULU MAH.","zip":"01722"},{"name":"CERİTLER MAH.","zip":"01722"},{"name":"DAİLER MAH.","zip":"01722"},{"name":"DARILIK MAH.","zip":"01722"},{"name":"DÖLEKLİ MAH.","zip":"01722"},{"name":"EBRİŞİM MAH.","zip":"01722"},{"name":"EĞNER MAH.","zip":"01722"},{"name":"GERDİBİ MAH.","zip":"01722"},{"name":"GİREĞİYENİKÖY MAH.","zip":"01722"},{"name":"GÖKÇEKÖY MAH.","zip":"01722"},{"name":"KABASAKAL MAH.","zip":"01722"},{"name":"KARAHAN MAH.","zip":"01722"},{"name":"KICAK MAH.","zip":"01722"},{"name":"KIŞLAK MAH.","zip":"01722"},{"name":"KIZILDAM MAH.","zip":"01722"},{"name":"KÖKEZ MAH.","zip":"01722"},{"name":"KÖPRÜCÜK MAH.","zip":"01722"},{"name":"KÜP MAH.","zip":"01722"},{"name":"MADENLİ MAH.","zip":"01722"},{"name":"MAZILIK MAH.","zip":"01722"},{"name":"POSYAĞBASAN MAH.","zip":"01722"},{"name":"TOPALLI MAH.","zip":"01722"},{"name":"UZUNKUYU MAH.","zip":"01722"},{"name":"YETİMLİ MAH.","zip":"01722"},{"name":"YÜKSEKÖREN MAH.","zip":"01722"}]},{"name":"BÜYÜKMANGIT","cityName":null,"quarters":[{"name":"ADATEPE MAH.","zip":"01922"},{"name":"AĞAÇLI MAH.","zip":"01922"},{"name":"AĞAÇPINAR MAH.","zip":"01922"},{"name":"AKDAM MAH.","zip":"01922"},{"name":"ALTIGÖZ MAH.","zip":"01922"},{"name":"ALTIKARA MAH.","zip":"01922"},{"name":"AYDINLAR MAH.","zip":"01922"},{"name":"AZİZLİ MAH.","zip":"01922"},{"name":"BAŞÖREN MAH.","zip":"01922"},{"name":"BİRKENT MAH.","zip":"01922"},{"name":"BURHANLI MAH.","zip":"01922"},{"name":"BÜYÜKBURHANİYE MAH.","zip":"01922"},{"name":"BÜYÜKMANGIT MAH.","zip":"01922"},{"name":"CAMUZAĞILI MAH.","zip":"01922"},{"name":"CEYHANBEKİRLİ MAH.","zip":"01922"},{"name":"ÇAKALDERE MAH.","zip":"01922"},{"name":"ÇATAKLI MAH.","zip":"01922"},{"name":"ÇATALHÜYÜK MAH.","zip":"01922"},{"name":"ÇEVRETEPE MAH.","zip":"01922"},{"name":"ÇİÇEKLİ MAH.","zip":"01922"},{"name":"ÇİFTLİKLER MAH.","zip":"01922"},{"name":"ÇOKÇAPINAR MAH.","zip":"01922"},{"name":"DAĞISTAN MAH.","zip":"01922"},{"name":"DEĞİRMENDERE MAH.","zip":"01922"},{"name":"DEĞİRMENLİ MAH.","zip":"01922"},{"name":"DİKİLİTAŞ MAH.","zip":"01922"},{"name":"DOKUZTEKNE MAH.","zip":"01922"},{"name":"DORUK MAH.","zip":"01922"},{"name":"DURHASANDEDE MAH.","zip":"01922"},{"name":"DUTLUPINAR MAH.","zip":"01922"},{"name":"EKİNYAZI MAH.","zip":"01922"},{"name":"ELMAGÖLÜ MAH.","zip":"01922"},{"name":"ERENLER MAH.","zip":"01922"},{"name":"GÜMÜRDÜLÜ MAH.","zip":"01922"},{"name":"GÜNDOĞAN MAH.","zip":"01922"},{"name":"GÜNLÜCE MAH.","zip":"01922"},{"name":"GÜNYAZI MAH.","zip":"01922"},{"name":"HAMDİLLİ MAH.","zip":"01922"},{"name":"HAMİDİYE MAH.","zip":"01922"},{"name":"HAMİTBEY MAH.","zip":"01922"},{"name":"HAMİTBEYBUCAĞI MAH.","zip":"01922"},{"name":"IRMAKLI MAH.","zip":"01922"},{"name":"ISIRGANLI MAH.","zip":"01922"},{"name":"İMRAN MAH.","zip":"01922"},{"name":"İNCETARLA MAH.","zip":"01922"},{"name":"İNCEYER MAH.","zip":"01922"},{"name":"İSALI MAH.","zip":"01922"},{"name":"KARAKAYALI MAH.","zip":"01922"},{"name":"KILIÇKAYA MAH.","zip":"01922"},{"name":"KIVRIKLI MAH.","zip":"01922"},{"name":"KIZILDERE MAH.","zip":"01922"},{"name":"KÖPRÜLÜ MAH.","zip":"01922"},{"name":"KÖRKUYU MAH.","zip":"01922"},{"name":"KURTKULAĞI MAH.","zip":"01922"},{"name":"KURTPINAR MAH.","zip":"01922"},{"name":"KUZUCAK MAH.","zip":"01922"},{"name":"KÜÇÜKBURHANİYE MAH.","zip":"01922"},{"name":"KÜÇÜKMANGIT MAH.","zip":"01922"},{"name":"MERCİMEK MAH.","zip":"01922"},{"name":"NARLIK MAH.","zip":"01922"},{"name":"SAĞIRLAR MAH.","zip":"01922"},{"name":"SAĞKAYA MAH.","zip":"01922"},{"name":"SARIBAHÇE MAH.","zip":"01922"},{"name":"SARIMAZI MAH.","zip":"01922"},{"name":"SARIMAZI SB MAH.","zip":"01922"},{"name":"SELİMİYE MAH.","zip":"01922"},{"name":"SİRKELİ MAH.","zip":"01922"},{"name":"SOĞUKPINAR MAH.","zip":"01922"},{"name":"SOYSALLI MAH.","zip":"01922"},{"name":"TATARLI MAH.","zip":"01922"},{"name":"TATLIKUYU MAH.","zip":"01922"},{"name":"TOKTAMIŞ MAH.","zip":"01922"},{"name":"TUMLU MAH.","zip":"01922"},{"name":"ÜÇDUTYEŞİLOVA MAH.","zip":"01922"},{"name":"YALAK MAH.","zip":"01922"},{"name":"YELLİBEL MAH.","zip":"01922"},{"name":"YENİKÖYNAZIMBEY MAH.","zip":"01922"},{"name":"YEŞİLBAHÇE MAH.","zip":"01922"},{"name":"YEŞİLDAM MAH.","zip":"01922"},{"name":"YILANKALE MAH.","zip":"01922"}]},{"name":"CEYHAN","cityName":null,"quarters":[{"name":"AYDEMİROĞLU MAH.","zip":"01920"},{"name":"BELEDİYE EVLERİ MAH.","zip":"01920"},{"name":"BOTA MAH.","zip":"01920"},{"name":"CİVANTAYAK MAH.","zip":"01920"},{"name":"KORUKLU MAH.","zip":"01920"},{"name":"KÜÇÜKKIRIM MAH.","zip":"01920"},{"name":"ŞEHİT HACI İBRAHİM MAH.","zip":"01920"},{"name":"YARSUAT MAH.","zip":"01920"}]},{"name":"EMEK","cityName":null,"quarters":[{"name":"ŞAHİN ÖZBİLEN MAH.","zip":"01940"},{"name":"ULUS MAH.","zip":"01940"}]},{"name":"KÖSRELİ","cityName":null,"quarters":null},{"name":"MUSTAFABEYLİ","cityName":null,"quarters":null},{"name":"NAMIKKEMAL","cityName":null,"quarters":[{"name":"GAZİ OSMAN PAŞA MAH.","zip":"01950"},{"name":"NAMIK KEMAL MAH.","zip":"01950"}]},{"name":"SANAYİ","cityName":null,"quarters":[{"name":"ESENTEPE MAH.","zip":"01930"},{"name":"FATİH SULTAN MEHMET MAH.","zip":"01930"},{"name":"HÜRRİYET MAH.","zip":"01930"},{"name":"İNÖNÜ MAH.","zip":"01930"}]},{"name":"TÜRLÜBAŞ","cityName":null,"quarters":[{"name":"BÜYÜKKIRIM MAH.","zip":"01960"},{"name":"İSTİKLAL MAH.","zip":"01960"},{"name":"KALTAKİYE MAH.","zip":"01960"},{"name":"KELEMETİ MAH.","zip":"01960"},{"name":"KONAKOĞLU MAH.","zip":"01960"},{"name":"MODERNEVLER MAH.","zip":"01960"},{"name":"MURADİYE MAH.","zip":"01960"},{"name":"SARISAKAL MAH.","zip":"01960"},{"name":"TÜRLÜBAŞ MAH.","zip":"01960"}]},{"name":"HUZUREVLERİ","cityName":null,"quarters":[{"name":"HUZUREVLERİ MAH.","zip":"01360"},{"name":"YÜZÜNCÜYIL MAH.","zip":"01360"}]},{"name":"MAHFESIĞMAZ","cityName":null,"quarters":[{"name":"BOZCALAR MAH.","zip":"01170"},{"name":"DÖRTLER MAH.","zip":"01170"},{"name":"ESENTEPE MAH.","zip":"01170"},{"name":"FADIL MAH.","zip":"01170"},{"name":"GÖKKUYU MAH.","zip":"01170"},{"name":"GÜZELYALI MAH.","zip":"01170"},{"name":"KABASAKAL MAH.","zip":"01170"},{"name":"KARAHAN MAH.","zip":"01170"},{"name":"KARSLILAR MAH.","zip":"01170"},{"name":"KAŞOBA MAH.","zip":"01170"},{"name":"KOCATEPE MAH.","zip":"01170"},{"name":"KURTTEPE MAH.","zip":"01170"},{"name":"KÜÇÜKÇINAR MAH.","zip":"01170"},{"name":"MAHFESIĞMAZ MAH.","zip":"01170"},{"name":"MEMİŞLİ MAH.","zip":"01170"},{"name":"ÖRCÜN MAH.","zip":"01170"},{"name":"PİRİLİ MAH.","zip":"01170"},{"name":"SÖĞÜTLÜ MAH.","zip":"01170"},{"name":"ŞAMBAYADI MAH.","zip":"01170"},{"name":"TOROS MAH.","zip":"01170"},{"name":"YENİ MAH.","zip":"01170"},{"name":"YURT MAH.","zip":"01170"}]},{"name":"SALBAŞ","cityName":null,"quarters":null},{"name":"AKKAYA","cityName":null,"quarters":[{"name":"AKOLUK MAH.","zip":"01662"},{"name":"BAĞDATLI MAH.","zip":"01662"},{"name":"BAHÇECİK MAH.","zip":"01662"},{"name":"ÇANDIRLAR MAH.","zip":"01662"},{"name":"ÇONDU MAH.","zip":"01662"},{"name":"ÇÜRÜKLER MAH.","zip":"01662"},{"name":"DEĞİRMENCİUŞAĞI MAH.","zip":"01662"},{"name":"GAFFARUŞAĞI MAH.","zip":"01662"},{"name":"GEDİKLİ MAH.","zip":"01662"},{"name":"GÖBELLİ MAH.","zip":"01662"},{"name":"GÜRÜMZE MAH.","zip":"01662"},{"name":"GÜZPINARI MAH.","zip":"01662"},{"name":"HIDIRUŞAĞI MAH.","zip":"01662"},{"name":"İNCİRCİ MAH.","zip":"01662"},{"name":"KALEYÜZÜ MAH.","zip":"01662"},{"name":"KAŞALTI MAH.","zip":"01662"},{"name":"KAYADİBİ MAH.","zip":"01662"},{"name":"KIRIKUŞAĞI MAH.","zip":"01662"},{"name":"KISACIKLI MAH.","zip":"01662"},{"name":"KIZILYER MAH.","zip":"01662"},{"name":"KOÇYAZI MAH.","zip":"01662"},{"name":"KONAKKURAN MAH.","zip":"01662"},{"name":"KOVUKÇINAR MAH.","zip":"01662"},{"name":"MANSURLU MAH.","zip":"01662"},{"name":"MUSALAR MAH.","zip":"01662"},{"name":"OLUCAK MAH.","zip":"01662"},{"name":"ORMANCIK MAH.","zip":"01662"},{"name":"ORTAKÖY MAH.","zip":"01662"},{"name":"ORUÇLU MAH.","zip":"01662"},{"name":"PAŞALI MAH.","zip":"01662"},{"name":"SÜPHANDERE MAH.","zip":"01662"},{"name":"ŞAHMURATLI MAH.","zip":"01662"},{"name":"TENKERLİ MAH.","zip":"01662"},{"name":"TOKMANAKLI MAH.","zip":"01662"},{"name":"TORTULU MAH.","zip":"01662"},{"name":"UĞURLUBAĞ MAH.","zip":"01662"},{"name":"YAYLAPINAR MAH.","zip":"01662"},{"name":"YEREBAKAN MAH.","zip":"01662"}]},{"name":"FEKE","cityName":null,"quarters":[{"name":"GÖKÇELİ MAH.","zip":"01660"},{"name":"İSLAM MAH.","zip":"01660"},{"name":"KARACAOĞLAN MAH.","zip":"01660"},{"name":"KARACAUŞAĞI MAH.","zip":"01660"},{"name":"KAZANCI MAH.","zip":"01660"},{"name":"KEKLİKÇİ MAH.","zip":"01660"},{"name":"SÜLEMİŞLİ MAH.","zip":"01660"},{"name":"YEŞİL DÜŞMÜŞ MAH.","zip":"01660"}]},{"name":"İMAMOĞLU","cityName":null,"quarters":[{"name":"CUMHURİYET MAH.","zip":"01700"},{"name":"FATİH MAH.","zip":"01700"},{"name":"HÜRRİYET MAH.","zip":"01700"},{"name":"MENTEŞ MAH.","zip":"01700"},{"name":"TUNA MAH.","zip":"01700"}]},{"name":"SAYGEÇİT","cityName":null,"quarters":[{"name":"ALAYBEYİ MAH.","zip":"01702"},{"name":"ALİLER MAH.","zip":"01702"},{"name":"AYVALI MAH.","zip":"01702"},{"name":"CAMİLİ MAH.","zip":"01702"},{"name":"ÇÖRTEN MAH.","zip":"01702"},{"name":"DANACILI MAH.","zip":"01702"},{"name":"HACIHASANLI MAH.","zip":"01702"},{"name":"KOYUNEVİ MAH.","zip":"01702"},{"name":"MALIHIDIRLI MAH.","zip":"01702"},{"name":"OTLUK MAH.","zip":"01702"},{"name":"PEKMEZCİ MAH.","zip":"01702"},{"name":"SAYCA MAH.","zip":"01702"},{"name":"SAYGEÇİT MAH.","zip":"01702"},{"name":"SEVİNÇLİ MAH.","zip":"01702"},{"name":"SOKUTAŞ MAH.","zip":"01702"},{"name":"UFACIKÖREN MAH.","zip":"01702"},{"name":"ULUÇINAR MAH.","zip":"01702"},{"name":"ÜÇTEPE MAH.","zip":"01702"},{"name":"YAZITEPE MAH.","zip":"01702"},{"name":"YENİEVLER MAH.","zip":"01702"}]},{"name":"KARAİSALI","cityName":null,"quarters":[{"name":"AKTAŞ MAH.","zip":"01770"},{"name":"ALTINOVA MAH.","zip":"01770"},{"name":"AŞAĞIBELEMEDİK MAH.","zip":"01770"},{"name":"AŞAĞIYÖRÜKLER MAH.","zip":"01770"},{"name":"AYAKKIF MAH.","zip":"01770"},{"name":"BARAKDAĞI MAH.","zip":"01770"},{"name":"BAŞKIF MAH.","zip":"01770"},{"name":"BEKİRLİ MAH.","zip":"01770"},{"name":"BEYDEMİR MAH.","zip":"01770"},{"name":"BOLACALI MAH.","zip":"01770"},{"name":"BUCAK MAH.","zip":"01770"},{"name":"ÇAKALLI MAH.","zip":"01770"},{"name":"ÇATALAN MAH.","zip":"01770"},{"name":"ÇECELİ MAH.","zip":"01770"},{"name":"ÇEVLİK MAH.","zip":"01770"},{"name":"ÇOCUKLAR MAH.","zip":"01770"},{"name":"ÇORLU MAH.","zip":"01770"},{"name":"ÇUKUR MAH.","zip":"01770"},{"name":"DEMİRÇİT MAH.","zip":"01770"},{"name":"DÖŞEKEVİ MAH.","zip":"01770"},{"name":"DURAK MAH.","zip":"01770"},{"name":"EĞLENCE MAH.","zip":"01770"},{"name":"EMELCİK MAH.","zip":"01770"},{"name":"ETEKLİ MAH.","zip":"01770"},{"name":"FETTAHLI MAH.","zip":"01770"},{"name":"FİLİKLİ MAH.","zip":"01770"},{"name":"GİLDİRLİ MAH.","zip":"01770"},{"name":"GÖKHASANLI MAH.","zip":"01770"},{"name":"GÜLÜŞLÜ MAH.","zip":"01770"},{"name":"GÜVENÇ MAH.","zip":"01770"},{"name":"HACILI MAH.","zip":"01770"},{"name":"HACIMUSALI MAH.","zip":"01770"},{"name":"KALEDAĞI MAH.","zip":"01770"},{"name":"KAPIKAYA MAH.","zip":"01770"},{"name":"KARAHASANLI MAH.","zip":"01770"},{"name":"KARAKILIÇ MAH.","zip":"01770"},{"name":"KARAKUYU MAH.","zip":"01770"},{"name":"KARAPINAR MAH.","zip":"01770"},{"name":"KIRALAN MAH.","zip":"01770"},{"name":"KIRIKLI MAH.","zip":"01770"},{"name":"KOCAVELİLER MAH.","zip":"01770"},{"name":"KÖRÜKLÜ MAH.","zip":"01770"},{"name":"KUŞCUSOFULU MAH.","zip":"01770"},{"name":"KUYUCU MAH.","zip":"01770"},{"name":"KUZGUN MAH.","zip":"01770"},{"name":"MARAŞLI MAH.","zip":"01770"},{"name":"MERKEZBOZTAHTA MAH.","zip":"01770"},{"name":"MURTÇUKURU MAH.","zip":"01770"},{"name":"NERGİZLİK MAH.","zip":"01770"},{"name":"NUHLU MAH.","zip":"01770"},{"name":"ÖMERLİ MAH.","zip":"01770"},{"name":"SADIKALİ MAH.","zip":"01770"},{"name":"SARIMEHMETLİ MAH.","zip":"01770"},{"name":"SAYPINAR MAH.","zip":"01770"},{"name":"SELAMPINAR MAH.","zip":"01770"},{"name":"TATIK MAH.","zip":"01770"},{"name":"TOPAKTAŞ MAH.","zip":"01770"},{"name":"TOPKARALI MAH.","zip":"01770"},{"name":"TORUNSOLAKLI MAH.","zip":"01770"},{"name":"TÜMENLİ MAH.","zip":"01770"},{"name":"YAZIBAŞI MAH.","zip":"01770"}]},{"name":"KARATAŞ","cityName":null,"quarters":[{"name":"ATAKÖY MAH.","zip":"01900"},{"name":"BAHÇE MAH.","zip":"01900"},{"name":"BEBELİ MAH.","zip":"01900"},{"name":"ÇAĞŞIRLI MAH.","zip":"01900"},{"name":"ÇAKIRÖREN MAH.","zip":"01900"},{"name":"ÇAVUŞLU MAH.","zip":"01900"},{"name":"ÇİMELİ MAH.","zip":"01900"},{"name":"ÇUKURKAMIŞ MAH.","zip":"01900"},{"name":"DAMLAPINAR MAH.","zip":"01900"},{"name":"DEVELİÖREN MAH.","zip":"01900"},{"name":"DOLAPLI MAH.","zip":"01900"},{"name":"GÖLKAYA MAH.","zip":"01900"},{"name":"HACIHASAN MAH.","zip":"01900"},{"name":"HASIRAĞACI MAH.","zip":"01900"},{"name":"HELVACI MAH.","zip":"01900"},{"name":"İNNEPLİHÜYÜĞÜ MAH.","zip":"01900"},{"name":"İSAHACILI MAH.","zip":"01900"},{"name":"KAPI MAH.","zip":"01900"},{"name":"KARAGÖÇER MAH.","zip":"01900"},{"name":"KARATAŞ MAH.","zip":"01900"},{"name":"KARŞIYAKA MAH.","zip":"01900"},{"name":"KEMALİYE MAH.","zip":"01900"},{"name":"KESİK MAH.","zip":"01900"},{"name":"KIRHASAN MAH.","zip":"01900"},{"name":"KIZILTAHTA MAH.","zip":"01900"},{"name":"KİREMİTLİ MAH.","zip":"01900"},{"name":"MELETMEZ MAH.","zip":"01900"},{"name":"ORTA MAH.","zip":"01900"},{"name":"OYMAKLI MAH.","zip":"01900"},{"name":"SARIMSAK MAH.","zip":"01900"},{"name":"SİRKENLİ MAH.","zip":"01900"},{"name":"TABAKLAR MAH.","zip":"01900"},{"name":"TABUR MAH.","zip":"01900"},{"name":"TERLİKSİZ MAH.","zip":"01900"},{"name":"TOPRAKLI MAH.","zip":"01900"},{"name":"TUZKUYUSU MAH.","zip":"01900"},{"name":"TUZLA MAH.","zip":"01900"},{"name":"YASSIVEREN MAH.","zip":"01900"},{"name":"YEMİŞLİ MAH.","zip":"01900"},{"name":"YENİ MAH.","zip":"01900"},{"name":"YENİMURAT MAH.","zip":"01900"},{"name":"YÜZBAŞI MAH.","zip":"01900"}]},{"name":"HACIBEYLİ","cityName":null,"quarters":[{"name":"HACIBEYLİ MAH.","zip":"01555"}]},{"name":"KAHVELİ","cityName":null,"quarters":[{"name":"AKARCA MAH.","zip":"01502"},{"name":"AKÇALIUŞAĞI MAH.","zip":"01502"},{"name":"AKDAM MAH.","zip":"01502"},{"name":"AKKAYA MAH.","zip":"01502"},{"name":"ALAPINAR MAH.","zip":"01502"},{"name":"ANDIL MAH.","zip":"01502"},{"name":"ARSLANLI MAH.","zip":"01502"},{"name":"AYDIN MAH.","zip":"01502"},{"name":"AYŞEHOCA MAH.","zip":"01502"},{"name":"BAĞÖZÜ MAH.","zip":"01502"},{"name":"BAĞTEPE MAH.","zip":"01502"},{"name":"BOZTAHTA MAH.","zip":"01502"},{"name":"BUCAK MAH.","zip":"01502"},{"name":"BULDUKLU MAH.","zip":"01502"},{"name":"ÇAMDERE MAH.","zip":"01502"},{"name":"ÇAMLARCA MAH.","zip":"01502"},{"name":"ÇANDIK MAH.","zip":"01502"},{"name":"ÇELENUŞAĞI MAH.","zip":"01502"},{"name":"ÇOBANPINARI MAH.","zip":"01502"},{"name":"ÇOKAK MAH.","zip":"01502"},{"name":"ÇUKURÖREN MAH.","zip":"01502"},{"name":"ÇULLUUŞAĞI MAH.","zip":"01502"},{"name":"ÇÜRÜKLÜ MAH.","zip":"01502"},{"name":"DAMYERİ MAH.","zip":"01502"},{"name":"DİKİLİTAŞ MAH.","zip":"01502"},{"name":"DİLEKKAYA MAH.","zip":"01502"},{"name":"DOĞANALANI MAH.","zip":"01502"},{"name":"DURALUŞAĞI MAH.","zip":"01502"},{"name":"DURMUŞLU MAH.","zip":"01502"},{"name":"DÜZAĞAÇ MAH.","zip":"01502"},{"name":"ENİZÇAKIRI MAH.","zip":"01502"},{"name":"ERGENUŞAĞI MAH.","zip":"01502"},{"name":"ESKİKABASAKAL MAH.","zip":"01502"},{"name":"ESKİMANTAŞ MAH.","zip":"01502"},{"name":"FAYDALI MAH.","zip":"01502"},{"name":"FERHATLI MAH.","zip":"01502"},{"name":"GEDİKLİ MAH.","zip":"01502"},{"name":"GÖKÇEYOL MAH.","zip":"01502"},{"name":"GÖKGÖZ MAH.","zip":"01502"},{"name":"GÖRBEYAZ MAH.","zip":"01502"},{"name":"GÜNERİ MAH.","zip":"01502"},{"name":"HACIMİRZALI MAH.","zip":"01502"},{"name":"HAMAM MAH.","zip":"01502"},{"name":"ILICA MAH.","zip":"01502"},{"name":"IŞIKKAYA MAH.","zip":"01502"},{"name":"IŞIKLI MAH.","zip":"01502"},{"name":"İDEMKÖY MAH.","zip":"01502"},{"name":"KABAKTEPE MAH.","zip":"01502"},{"name":"KAHVELİ MAH.","zip":"01502"},{"name":"KALKUMAÇ MAH.","zip":"01502"},{"name":"KAPIKAYA MAH.","zip":"01502"},{"name":"KARABUCAK MAH.","zip":"01502"},{"name":"KARACAÖREN MAH.","zip":"01502"},{"name":"KARAHAMZALI MAH.","zip":"01502"},{"name":"KARANEBİLİ MAH.","zip":"01502"},{"name":"KEMERKÖY MAH.","zip":"01502"},{"name":"KIBRISLAR MAH.","zip":"01502"},{"name":"KIZILLAR MAH.","zip":"01502"},{"name":"KIZLARSEKİSİ MAH.","zip":"01502"},{"name":"KÖSELİ MAH.","zip":"01502"},{"name":"KUYTUCAK MAH.","zip":"01502"},{"name":"KUYUBELİ MAH.","zip":"01502"},{"name":"KUYULUK MAH.","zip":"01502"},{"name":"MAHYALAR MAH.","zip":"01502"},{"name":"MARANKEÇİLİ MAH.","zip":"01502"},{"name":"MİNNETLİ MAH.","zip":"01502"},{"name":"ORÇAN MAH.","zip":"01502"},{"name":"ORUÇLU MAH.","zip":"01502"},{"name":"ÖRENDERE MAH.","zip":"01502"},{"name":"ÖZBAŞI MAH.","zip":"01502"},{"name":"PEKMEZCİ MAH.","zip":"01502"},{"name":"POSTKABASAKAL MAH.","zip":"01502"},{"name":"SALMANLI MAH.","zip":"01502"},{"name":"ŞERİFLİ MAH.","zip":"01502"},{"name":"TEPECİKÖREN MAH.","zip":"01502"},{"name":"TUFANLI MAH.","zip":"01502"},{"name":"TURGUTLU MAH.","zip":"01502"},{"name":"TURUNÇLU MAH.","zip":"01502"},{"name":"VELİCANLI MAH.","zip":"01502"},{"name":"YANALERİK MAH.","zip":"01502"},{"name":"YASSIÇALI MAH.","zip":"01502"},{"name":"YENİKÖY MAH.","zip":"01502"},{"name":"YUKARIKEÇİLİ MAH.","zip":"01502"},{"name":"YÜKSEKÖREN MAH.","zip":"01502"},{"name":"ZERDALİ MAH.","zip":"01502"}]},{"name":"KOZAN","cityName":null,"quarters":[{"name":"ARSLANPAŞA MAH.","zip":"01500"},{"name":"BAĞLAR MAH.","zip":"01500"},{"name":"CUMHURİYET MAH.","zip":"01500"},{"name":"ÇANAKLI MAH.","zip":"01500"},{"name":"HACIUŞAĞI MAH.","zip":"01500"},{"name":"KARACAOĞLAN MAH.","zip":"01500"},{"name":"MAHMUTLU MAH.","zip":"01500"},{"name":"ŞEVKİYE MAH.","zip":"01500"},{"name":"TAŞ MAH.","zip":"01500"},{"name":"TAVŞANTEPE MAH.","zip":"01500"},{"name":"TUFANPAŞA MAH.","zip":"01500"},{"name":"TÜRKELİ MAH.","zip":"01500"},{"name":"VARSAKLAR MAH.","zip":"01500"},{"name":"YARIMOĞLU MAH.","zip":"01500"}]},{"name":"AKÇATEKİR","cityName":null,"quarters":null},{"name":"GÖKBEZ","cityName":null,"quarters":[{"name":"AŞÇIBEKİRLİ MAH.","zip":"01472"},{"name":"BELEMEDİK MAH.","zip":"01472"},{"name":"ÇAMLIBEL MAH.","zip":"01472"},{"name":"DAĞDİBİ MAH.","zip":"01472"},{"name":"ESKİKONACIK MAH.","zip":"01472"},{"name":"FINDIKLI MAH.","zip":"01472"},{"name":"GÖKBEZ MAH.","zip":"01472"},{"name":"HAMİDİYE MAH.","zip":"01472"},{"name":"KAMIŞLI MAH.","zip":"01472"},{"name":"KARAKIŞLAKÇI MAH.","zip":"01472"},{"name":"ÖMERLİ MAH.","zip":"01472"},{"name":"YAĞLITAŞ MAH.","zip":"01472"},{"name":"YAZICAK MAH.","zip":"01472"},{"name":"YENİKONACIK MAH.","zip":"01472"},{"name":"YUKARIBELEMEDİK MAH.","zip":"01472"}]},{"name":"POZANTI","cityName":null,"quarters":[{"name":"İSTİKLAL MAH.","zip":"01470"},{"name":"KURTULUŞ MAH.","zip":"01470"},{"name":"ZAFER MAH.","zip":"01470"}]},{"name":"SAİMBEYLİ","cityName":null,"quarters":[{"name":"AVCIPINARI MAH.","zip":"01740"},{"name":"AYVACIK MAH.","zip":"01740"},{"name":"BEYPINARI MAH.","zip":"01740"},{"name":"CIVIKLI MAH.","zip":"01740"},{"name":"CUMHURLU MAH.","zip":"01740"},{"name":"ÇATAK MAH.","zip":"01740"},{"name":"ÇERALAN MAH.","zip":"01740"},{"name":"ÇORAK MAH.","zip":"01740"},{"name":"DEĞİRMENCİUŞAĞI MAH.","zip":"01740"},{"name":"EYÜPLÜ MAH.","zip":"01740"},{"name":"FATİH MAH.","zip":"01740"},{"name":"GÖKMENLER MAH.","zip":"01740"},{"name":"GÜRLEŞEN MAH.","zip":"01740"},{"name":"HALİLBEYLİ MAH.","zip":"01740"},{"name":"HİMMETLİ MAH.","zip":"01740"},{"name":"İSLAM MAH.","zip":"01740"},{"name":"KANDİLLİ MAH.","zip":"01740"},{"name":"KAPAKLIKUYU MAH.","zip":"01740"},{"name":"KARAKUYU MAH.","zip":"01740"},{"name":"KIZILAĞAÇ MAH.","zip":"01740"},{"name":"MAHMUTLU MAH.","zip":"01740"},{"name":"NALTAŞ MAH.","zip":"01740"},{"name":"TOPALLAR MAH.","zip":"01740"},{"name":"TÜLÜ MAH.","zip":"01740"},{"name":"YARDİBİ MAH.","zip":"01740"},{"name":"YENİKÖY MAH.","zip":"01740"},{"name":"YEŞİLBAĞLAR MAH.","zip":"01740"}]},{"name":"BAKLALI","cityName":null,"quarters":null},{"name":"BURUK","cityName":null,"quarters":[{"name":"BURUK CUMHURİYET MAH.","zip":"01460"},{"name":"İSTİKLAL MAH.","zip":"01460"},{"name":"SOFUDEDE MAH.","zip":"01460"}]},{"name":"İNCİRLİK","cityName":null,"quarters":[{"name":"KEMALPAŞA MAH.","zip":"01340"},{"name":"YENİ MAH.","zip":"01340"}]},{"name":"OSMANGAZİ","cityName":null,"quarters":[{"name":"AFLAK MAH.","zip":"01790"},{"name":"AKKUYU MAH.","zip":"01790"},{"name":"AVCILAR MAH.","zip":"01790"},{"name":"AYDINYURDU MAH.","zip":"01790"},{"name":"AYVALI MAH.","zip":"01790"},{"name":"BAYRAM HACILI MAH.","zip":"01790"},{"name":"BOYNUYOĞUN MAH.","zip":"01790"},{"name":"BOZTEPE MAH.","zip":"01790"},{"name":"BÜYÜK BAKLALI MAH.","zip":"01790"},{"name":"CERENLİ MAH.","zip":"01790"},{"name":"CİHADİYE MAH.","zip":"01790"},{"name":"ÇAMLICA MAH.","zip":"01790"},{"name":"ÇARKIPARE MAH.","zip":"01790"},{"name":"ÇAYLI MAH.","zip":"01790"},{"name":"ÇINARLI MAH.","zip":"01790"},{"name":"ÇİÇEKLİ MAH.","zip":"01790"},{"name":"ÇİRİŞGEDİĞİ MAH.","zip":"01790"},{"name":"DAĞCI MAH.","zip":"01790"},{"name":"DUTLUCA MAH.","zip":"01790"},{"name":"EĞECİUŞAĞI MAH.","zip":"01790"},{"name":"GÖKBUKET MAH.","zip":"01790"},{"name":"GÖZTEPE MAH.","zip":"01790"},{"name":"HAKKIBEYLİ MAH.","zip":"01790"},{"name":"HASANBEYLİ MAH.","zip":"01790"},{"name":"HOCALLI MAH.","zip":"01790"},{"name":"KARAÖMERLİ MAH.","zip":"01790"},{"name":"KARAYUSUFLU MAH.","zip":"01790"},{"name":"KARGAKEKEÇ MAH.","zip":"01790"},{"name":"KARLIK MAH.","zip":"01790"},{"name":"KARŞIYAKA MAH.","zip":"01790"},{"name":"KAŞOBASI MAH.","zip":"01790"},{"name":"KEPEZTEPE MAH.","zip":"01790"},{"name":"KILBAŞ MAH.","zip":"01790"},{"name":"KILIÇLI MAH.","zip":"01790"},{"name":"KIZILKAŞ MAH.","zip":"01790"},{"name":"KÖSEFAKILI MAH.","zip":"01790"},{"name":"KÜÇÜKBAKLALI MAH.","zip":"01790"},{"name":"MALTEPE MAH.","zip":"01790"},{"name":"MENEKŞE MAH.","zip":"01790"},{"name":"MUSTAFALAR MAH.","zip":"01790"},{"name":"MÜMİNLİ MAH.","zip":"01790"},{"name":"OSMANGAZİ MAH.","zip":"01790"},{"name":"SARIÇAM MAH.","zip":"01790"},{"name":"TURUNÇLU MAH.","zip":"01790"},{"name":"ÜNLÜCE MAH.","zip":"01790"},{"name":"YAĞIZLAR MAH.","zip":"01790"},{"name":"YARIMCA MAH.","zip":"01790"},{"name":"YENİYAYLA MAH.","zip":"01790"},{"name":"YÜREKLİ MAH.","zip":"01790"}]},{"name":"REMZİOĞUZARIK","cityName":null,"quarters":[{"name":"ESENTEPE MAH.","zip":"01250"},{"name":"GÜLTEPE MAH.","zip":"01250"},{"name":"MEHMET AKİF ERSOY MAH.","zip":"01250"},{"name":"ORHANGAZİ MAH.","zip":"01250"},{"name":"REMZİ OĞUZ ARIK MAH.","zip":"01250"},{"name":"ŞAHİNTEPE MAH.","zip":"01250"},{"name":"YAVUZ SULTAN SELİM MAH.","zip":"01250"},{"name":"YEŞİLTEPE MAH.","zip":"01250"},{"name":"YILDIRIM BEYAZIT MAH.","zip":"01250"}]},{"name":"AKKAPI","cityName":null,"quarters":[{"name":"DAĞLIOĞLU MAH.","zip":"01040"}]},{"name":"DENİZLİ","cityName":null,"quarters":[{"name":"DENİZLİ MAH.","zip":"01130"},{"name":"KURTULUŞ MAH.","zip":"01130"},{"name":"MİTHATPAŞA MAH.","zip":"01130"},{"name":"SAKARYA MAH.","zip":"01130"}]},{"name":"EMEK","cityName":null,"quarters":[{"name":"OVA MAH.","zip":"01080"},{"name":"ŞAKİRPAŞA MAH.","zip":"01080"},{"name":"UÇAK MAH.","zip":"01080"}]},{"name":"FEVZİPAŞA","cityName":null,"quarters":[{"name":"BARIŞ MAH.","zip":"01190"},{"name":"FEVZİPAŞA MAH.","zip":"01190"}]},{"name":"GAZİPAŞA","cityName":null,"quarters":[{"name":"REŞATBEY MAH.","zip":"01120"}]},{"name":"GÜLBAHÇESİ","cityName":null,"quarters":null},{"name":"GÜRSELPAŞA","cityName":null,"quarters":[{"name":"BAHÇEŞEHİR MAH.","zip":"01200"},{"name":"GÜRSELPAŞA MAH.","zip":"01200"},{"name":"YENİ MAH.","zip":"01200"}]},{"name":"HADIRLI","cityName":null,"quarters":null},{"name":"HÜKÜMET","cityName":null,"quarters":[{"name":"BEŞOCAK MAH.","zip":"01020"},{"name":"MESTANZADE MAH.","zip":"01020"},{"name":"SARIYAKUP MAH.","zip":"01020"},{"name":"ŞEHİTDURAN MAH.","zip":"01020"},{"name":"TÜRKOCAĞI MAH.","zip":"01020"},{"name":"YENİBEY MAH.","zip":"01020"}]},{"name":"KARAYUSUFLU","cityName":null,"quarters":[{"name":"BÜYÜKÇILDIRIM MAH.","zip":"01355"},{"name":"BÜYÜKDİKİLİ MAH.","zip":"01355"},{"name":"CAMUZCU MAH.","zip":"01355"},{"name":"ÇAPUTÇU MAH.","zip":"01355"},{"name":"DERVİŞLER MAH.","zip":"01355"},{"name":"DÖRTAĞAÇ MAH.","zip":"01355"},{"name":"GÖKÇELER MAH.","zip":"01355"},{"name":"GÖLBAŞI MAH.","zip":"01355"},{"name":"KARAKUYU MAH.","zip":"01355"},{"name":"KARAYUSUFLU MAH.","zip":"01355"},{"name":"KAYIŞLI MAH.","zip":"01355"},{"name":"KOYUNCU MAH.","zip":"01355"},{"name":"KÖYLÜOĞLU MAH.","zip":"01355"},{"name":"KUYUMCULAR MAH.","zip":"01355"},{"name":"KÜÇÜKÇILDIRIM MAH.","zip":"01355"},{"name":"MÜRSELOĞLU MAH.","zip":"01355"},{"name":"SALMANBEYLİ MAH.","zip":"01355"},{"name":"SARIHUĞLAR MAH.","zip":"01355"},{"name":"SERİNEVLER MAH.","zip":"01355"},{"name":"YALMANLI MAH.","zip":"01355"},{"name":"YENİDAM MAH.","zip":"01355"},{"name":"YOLGEÇEN MAH.","zip":"01355"},{"name":"ZEYTİNLİ MAH.","zip":"01355"}]},{"name":"KURUKÖPRÜ","cityName":null,"quarters":[{"name":"DÖŞEME MAH.","zip":"01060"},{"name":"HANEDAN MAH.","zip":"01060"},{"name":"HURMALI MAH.","zip":"01060"},{"name":"İSTİKLAL MAH.","zip":"01060"},{"name":"KOCAVEZİR MAH.","zip":"01060"},{"name":"KURUKÖPRÜ MAH.","zip":"01060"}]},{"name":"KÜÇÜKDİKİLİ","cityName":null,"quarters":[{"name":"KOZA MAH.","zip":"01430"},{"name":"KÜÇÜKDİKİLİ MAH.","zip":"01430"},{"name":"MEKAN MAH.","zip":"01430"}]},{"name":"MAVİ BULVAR YURT","cityName":null,"quarters":[{"name":"PINAR MAH.","zip":"01160"},{"name":"TELLİDERE MAH.","zip":"01160"}]},{"name":"MEYDAN","cityName":null,"quarters":[{"name":"GÜLPINAR MAH.","zip":"01070"},{"name":"MEYDAN MAH.","zip":"01070"},{"name":"MİRZAÇELEBİ MAH.","zip":"01070"},{"name":"YEŞİLYUVA MAH.","zip":"01070"}]},{"name":"SAYDAM","cityName":null,"quarters":[{"name":"BEY MAH.","zip":"01030"},{"name":"HAVUZLUBAHÇE MAH.","zip":"01030"},{"name":"HÜRRİYET MAH.","zip":"01030"},{"name":"MIDIK MAH.","zip":"01030"},{"name":"SUCUZADE MAH.","zip":"01030"}]},{"name":"ŞAKİRPAŞA","cityName":null,"quarters":[{"name":"YEŞİLOBA MAH.","zip":"01100"}]},{"name":"YAĞCAMİ","cityName":null,"quarters":[{"name":"KAYALIBAĞ MAH.","zip":"01010"},{"name":"TEPEBAĞ MAH.","zip":"01010"},{"name":"ULUCAMİİ MAH.","zip":"01010"}]},{"name":"YEŞİLEVLER","cityName":null,"quarters":[{"name":"İSMETPAŞA MAH.","zip":"01180"},{"name":"NARLICA MAH.","zip":"01180"},{"name":"YEŞİLEVLER MAH.","zip":"01180"}]},{"name":"YEŞİLOBA","cityName":null,"quarters":[{"name":"SÖĞÜTLÜ MAH.","zip":"01110"}]},{"name":"YEŞİLYURT","cityName":null,"quarters":[{"name":"YEŞİLYURT MAH.","zip":"01150"}]},{"name":"ZİYAPAŞA","cityName":null,"quarters":[{"name":"NAMIK KEMAL MAH.","zip":"01140"},{"name":"SÜMER MAH.","zip":"01140"},{"name":"ZİYAPAŞA MAH.","zip":"01140"}]},{"name":"DAMLALI","cityName":null,"quarters":[{"name":"AKPINAR MAH.","zip":"01642"},{"name":"AYVAT MAH.","zip":"01642"},{"name":"BOLATPINARI MAH.","zip":"01642"},{"name":"BOZGÜNEY MAH.","zip":"01642"},{"name":"ÇATALÇAM MAH.","zip":"01642"},{"name":"ÇUKURKIŞLA MAH.","zip":"01642"},{"name":"DAMLALI MAH.","zip":"01642"},{"name":"DEMİROLUK MAH.","zip":"01642"},{"name":"DOĞANBEYLİ MAH.","zip":"01642"},{"name":"DOĞANLI MAH.","zip":"01642"},{"name":"ELEMANLI MAH.","zip":"01642"},{"name":"EVCİ MAH.","zip":"01642"},{"name":"FATMAKUYU MAH.","zip":"01642"},{"name":"GÜZELİM MAH.","zip":"01642"},{"name":"HANYERİ MAH.","zip":"01642"},{"name":"İĞDEBEL MAH.","zip":"01642"},{"name":"KARSAVRAN MAH.","zip":"01642"},{"name":"KAYAPINAR MAH.","zip":"01642"},{"name":"KAYARCIK MAH.","zip":"01642"},{"name":"KİRAZLIYURT MAH.","zip":"01642"},{"name":"KOCCAĞIZ MAH.","zip":"01642"},{"name":"ORTAKÖY MAH.","zip":"01642"},{"name":"PEKMEZLİ MAH.","zip":"01642"},{"name":"PINARLAR MAH.","zip":"01642"},{"name":"ŞAR MAH.","zip":"01642"},{"name":"TAŞPINAR MAH.","zip":"01642"},{"name":"TOZLU MAH.","zip":"01642"},{"name":"YAMANLI MAH.","zip":"01642"},{"name":"YEŞİLOVA MAH.","zip":"01642"}]},{"name":"TUFANBEYLİ","cityName":null,"quarters":[{"name":"İSTİKLAL MAH.","zip":"01640"},{"name":"YENİCAMİ MAH.","zip":"01640"}]},{"name":"KALEMLİ","cityName":null,"quarters":[{"name":"AYVALIK MAH.","zip":"01682"},{"name":"DEMİRTAŞ MAH.","zip":"01682"},{"name":"DEVECİUŞAĞI MAH.","zip":"01682"},{"name":"GÖLOVASI MAH.","zip":"01682"},{"name":"HAMZALI MAH.","zip":"01682"},{"name":"HAYLAZLI MAH.","zip":"01682"},{"name":"KALDIRIM MAH.","zip":"01682"},{"name":"KALEMLİ MAH.","zip":"01682"},{"name":"KESMEBURUN MAH.","zip":"01682"},{"name":"KIRMIZIDAM MAH.","zip":"01682"},{"name":"KUZUPINARI MAH.","zip":"01682"},{"name":"NARLIÖREN MAH.","zip":"01682"},{"name":"SUGÖZÜ MAH.","zip":"01682"},{"name":"YENİKÖY MAH.","zip":"01682"},{"name":"YEŞİLKÖY MAH.","zip":"01682"},{"name":"YUMURTALIK MAH.","zip":"01682"},{"name":"ZEYTİNBELİ MAH.","zip":"01682"}]},{"name":"YUMURTALIK","cityName":null,"quarters":[{"name":"AKYUVA MAH.","zip":"01680"},{"name":"AYAS MAH.","zip":"01680"},{"name":"DEVRİŞİYE MAH.","zip":"01680"},{"name":"KEMALPAŞA MAH.","zip":"01680"},{"name":"ÖREN MAH.","zip":"01680"}]},{"name":"ABDİOĞLU","cityName":null,"quarters":null},{"name":"ALİHOCALI","cityName":null,"quarters":[{"name":"AĞZIBÜYÜK MAH.","zip":"01415"},{"name":"AKDAM MAH.","zip":"01415"},{"name":"AKPINAR MAH.","zip":"01415"},{"name":"ALİHOCALI MAH.","zip":"01415"},{"name":"AYDINCIK MAH.","zip":"01415"},{"name":"BELÖREN MAH.","zip":"01415"},{"name":"BEYKÖY MAH.","zip":"01415"},{"name":"BÜYÜKKAPILI MAH.","zip":"01415"},{"name":"CAMİLİ MAH.","zip":"01415"},{"name":"CIRIK MAH.","zip":"01415"},{"name":"CİNE MAH.","zip":"01415"},{"name":"ÇAĞIRKANLI MAH.","zip":"01415"},{"name":"ÇATALPINAR MAH.","zip":"01415"},{"name":"ÇELEMLİ MAH.","zip":"01415"},{"name":"ÇOTLU MAH.","zip":"01415"},{"name":"DANIŞMENT MAH.","zip":"01415"},{"name":"DEDEPINARI MAH.","zip":"01415"},{"name":"DENİZKUYUSU MAH.","zip":"01415"},{"name":"DÜZCE MAH.","zip":"01415"},{"name":"EĞRİAĞAÇ MAH.","zip":"01415"},{"name":"ESENLER MAH.","zip":"01415"},{"name":"GEÇİTLİ CUMHURİYET MAH.","zip":"01415"},{"name":"GÖKÇELİ MAH.","zip":"01415"},{"name":"GÜMÜŞYAZI MAH.","zip":"01415"},{"name":"GÜVELOĞLU MAH.","zip":"01415"},{"name":"HACIALİ MAH.","zip":"01415"},{"name":"HAVRANİYE MAH.","zip":"01415"},{"name":"HEREKLİ MAH.","zip":"01415"},{"name":"IRMAKBAŞI MAH.","zip":"01415"},{"name":"KADIKÖY MAH.","zip":"01415"},{"name":"KAMIŞLI MAH.","zip":"01415"},{"name":"KARAAHMETLİ MAH.","zip":"01415"},{"name":"KAŞLICA MAH.","zip":"01415"},{"name":"KAYARLI MAH.","zip":"01415"},{"name":"KÖKLÜCE MAH.","zip":"01415"},{"name":"KÖPRÜGÖZÜ MAH.","zip":"01415"},{"name":"KÜTÜKLÜ MAH.","zip":"01415"},{"name":"ÖZLER MAH.","zip":"01415"},{"name":"PAŞAKÖY MAH.","zip":"01415"},{"name":"PEKMEZLİ MAH.","zip":"01415"},{"name":"SAĞDIÇLI MAH.","zip":"01415"},{"name":"SAKIZLI MAH.","zip":"01415"},{"name":"SAZAK MAH.","zip":"01415"},{"name":"ŞAHİNAĞA MAH.","zip":"01415"},{"name":"ŞEYHMURAT MAH.","zip":"01415"},{"name":"TAŞÇI MAH.","zip":"01415"},{"name":"VAYVAYLI MAH.","zip":"01415"},{"name":"YAHŞİLER MAH.","zip":"01415"},{"name":"YALNIZCA MAH.","zip":"01415"},{"name":"YENİCE MAH.","zip":"01415"},{"name":"YENİKÖY MAH.","zip":"01415"},{"name":"YERDELEN MAH.","zip":"01415"},{"name":"YUKARIÇİÇEKLİ MAH.","zip":"01415"},{"name":"YUNUSOĞLU CUMHURİYET MAH.","zip":"01415"},{"name":"YUNUSOĞLU HÜRRİYET MAH.","zip":"01415"},{"name":"ZAĞARLI MAH.","zip":"01415"}]},{"name":"BAHÇELİEVLER","cityName":null,"quarters":[{"name":"ANADOLU MAH.","zip":"01285"},{"name":"BAHÇELİEVLER MAH.","zip":"01285"},{"name":"BAŞAK MAH.","zip":"01285"},{"name":"DEDE KORKUT MAH.","zip":"01285"},{"name":"GÜZELEVLER MAH.","zip":"01285"},{"name":"KOZA MAH.","zip":"01285"},{"name":"LEVENT MAH.","zip":"01285"},{"name":"YEŞİL BAĞLAR MAH.","zip":"01285"},{"name":"YUNUS EMRE MAH.","zip":"01285"}]},{"name":"DOĞANKENT","cityName":null,"quarters":[{"name":"DOĞANKENT CUMHURİYET MAH.","zip":"01370"},{"name":"DOĞANKENT KIŞLA MAH.","zip":"01370"},{"name":"GAZİPAŞA MAH.","zip":"01370"}]},{"name":"HAVUTLU","cityName":null,"quarters":[{"name":"HAVUTLU MAH.","zip":"01375"},{"name":"SOLAKLI CUMHURİYET MAH.","zip":"01375"},{"name":"SOLAKLI HÜRRİYET MAH.","zip":"01375"}]},{"name":"İNCİRLİK","cityName":null,"quarters":null},{"name":"KARACAOĞLAN","cityName":null,"quarters":[{"name":"ÇAMLIBEL MAH.","zip":"01260"},{"name":"DERVİŞLER MAH.","zip":"01260"},{"name":"KİREMİTHANE MAH.","zip":"01260"},{"name":"MUTLU MAH.","zip":"01260"},{"name":"ŞEHİT ERKUT AKBAY MAH.","zip":"01260"},{"name":"TAHSİLLİ MAH.","zip":"01260"},{"name":"ULUBATLI HASAN MAH.","zip":"01260"}]},{"name":"KARŞIYAKA","cityName":null,"quarters":[{"name":"GÜNEŞLİ MAH.","zip":"01280"}]},{"name":"KAZIMKARABEKİR","cityName":null,"quarters":[{"name":"KIŞLA MAH.","zip":"01230"},{"name":"KÖPRÜLÜ MAH.","zip":"01230"}]},{"name":"KERESTECİLER","cityName":null,"quarters":null},{"name":"PTTEVLERİ","cityName":null,"quarters":[{"name":"KARACAOĞLAN MAH.","zip":"01240"},{"name":"P.T.T MAH.","zip":"01240"},{"name":"SELAHATTİN EYYUBİ MAH.","zip":"01240"},{"name":"SERİNEVLER MAH.","zip":"01240"}]},{"name":"YAKAPINAR","cityName":null,"quarters":null},{"name":"YAMAÇLI","cityName":null,"quarters":[{"name":"HAYDAROĞLU MAH.","zip":"01291"},{"name":"SEYHAN MAH.","zip":"01291"},{"name":"YAMAÇLI MAH.","zip":"01291"}]},{"name":"YAVUZLAR","cityName":null,"quarters":[{"name":"ÖZGÜR MAH.","zip":"01220"},{"name":"SARIÇAM MAH.","zip":"01220"},{"name":"SİNANPAŞA MAH.","zip":"01220"},{"name":"YAVUZLAR MAH.","zip":"01220"}]}]}]}