{"id":10,"name":"BALIKESİR","cities":[{"name":"city","districts":[{"name":"ALTIEYLÜL","cityName":null,"quarters":[{"name":"ASLIHAN MAH.","zip":"10100"},{"name":"ASLIHANTEPECİĞİ MAH.","zip":"10100"},{"name":"ATKÖY MAH.","zip":"10100"},{"name":"AYNAOĞLU MAH.","zip":"10100"},{"name":"AYŞEBACI MAH.","zip":"10100"},{"name":"AYVATLAR MAH.","zip":"10100"},{"name":"BALIKLI MAH.","zip":"10100"},{"name":"BOĞATEPE MAH.","zip":"10100"},{"name":"BÜYÜKBOSTANCI MAH.","zip":"10100"},{"name":"CİNGE MAH.","zip":"10100"},{"name":"ÇANDIR MAH.","zip":"10100"},{"name":"ÇAYIRHİSAR MAH.","zip":"10100"},{"name":"ÇİFTLİKKÖY MAH.","zip":"10100"},{"name":"DEREÇİFTLİK MAH.","zip":"10100"},{"name":"DİNKÇİLER MAH.","zip":"10100"},{"name":"GAZİOSMANPAŞA MAH.","zip":"10100"},{"name":"GAZİOSMANPAŞA OSB MAH.","zip":"10100"},{"name":"GAZİOSMANPAŞAOSB MAH.","zip":"10100"},{"name":"GÖKÇEÖREN MAH.","zip":"10100"},{"name":"GÖKKÖY MAH.","zip":"10100"},{"name":"HACI İLBEY MAH.","zip":"10100"},{"name":"HALALCA MAH.","zip":"10100"},{"name":"İNKAYA MAH.","zip":"10100"},{"name":"KABAKLI MAH.","zip":"10100"},{"name":"KARAKAYA MAH.","zip":"10100"},{"name":"KARAMAN MAH.","zip":"10100"},{"name":"KASAPLAR MAH.","zip":"10100"},{"name":"KESİRVEN MAH.","zip":"10100"},{"name":"KÖSELER MAH.","zip":"10100"},{"name":"KÖYLÜ KÖYÜ MAH.","zip":"10100"},{"name":"KÜÇÜKBOSTANCI MAH.","zip":"10100"},{"name":"KÜRSE MAH.","zip":"10100"},{"name":"NERGİZ MAH.","zip":"10100"},{"name":"ORHANLI MAH.","zip":"10100"},{"name":"ORTAMANDIRA MAH.","zip":"10100"},{"name":"OVABAYINDIR MAH.","zip":"10100"},{"name":"OVAKÖY MAH.","zip":"10100"},{"name":"PAŞAKÖY MAH.","zip":"10100"},{"name":"SELİMİYE MAH.","zip":"10100"},{"name":"SÜTLÜCE MAH.","zip":"10100"},{"name":"TÜRKALİ MAH.","zip":"10100"},{"name":"YAKUPKÖY MAH.","zip":"10100"},{"name":"YENİCE MAH.","zip":"10100"},{"name":"YILDIZ MAH.","zip":"10100"}]},{"name":"ERTUĞRUL","cityName":null,"quarters":[{"name":"BAĞALAN MAH.","zip":"10190"},{"name":"BAHÇEDERE MAH.","zip":"10190"},{"name":"BEŞPINAR MAH.","zip":"10190"},{"name":"ÇAMKÖY MAH.","zip":"10190"},{"name":"ÇUKURHÜSEYİN MAH.","zip":"10190"},{"name":"DALLIMANDIRA MAH.","zip":"10190"},{"name":"DEREKÖY MAH.","zip":"10190"},{"name":"ERTUĞRUL MAH.","zip":"10190"},{"name":"KARAKAVAK MAH.","zip":"10190"},{"name":"KARAMANLAR MAH.","zip":"10190"},{"name":"KOZÖREN MAH.","zip":"10190"},{"name":"KUTLUDÜĞÜN MAH.","zip":"10190"},{"name":"KUYUALAN MAH.","zip":"10190"},{"name":"KÜPELER MAH.","zip":"10190"},{"name":"MACARLAR MAH.","zip":"10190"},{"name":"MERYEMDERE MAH.","zip":"10190"},{"name":"SARIALAN MAH.","zip":"10190"},{"name":"YEŞİLYURT MAH.","zip":"10190"}]},{"name":"GÜNDOĞAN","cityName":null,"quarters":[{"name":"2.GÜNDOĞAN MAH.","zip":"10040"},{"name":"GÜMÜSÇESME MAH.","zip":"10040"}]},{"name":"KONAKPINAR","cityName":null,"quarters":[{"name":"AYVACIK MAH.","zip":"10195"},{"name":"BAYAT MAH.","zip":"10195"},{"name":"BEREKETLİ MAH.","zip":"10195"},{"name":"BOZEN MAH.","zip":"10195"},{"name":"ÇAKILLIK MAH.","zip":"10195"},{"name":"ÇINARLIDERE MAH.","zip":"10195"},{"name":"ÇİFTÇİDERE MAH.","zip":"10195"},{"name":"DEDEBURNU MAH.","zip":"10195"},{"name":"DİŞBUDAK MAH.","zip":"10195"},{"name":"KARABEYLER MAH.","zip":"10195"},{"name":"KILCILAR MAH.","zip":"10195"},{"name":"KİRAZKÖY MAH.","zip":"10195"},{"name":"KİRAZPINAR MAH.","zip":"10195"},{"name":"KONAKPINAR MAH.","zip":"10195"},{"name":"KOZDEREGÜVEM MAH.","zip":"10195"},{"name":"KUŞKAYA MAH.","zip":"10195"},{"name":"SIVATPINAR MAH.","zip":"10195"},{"name":"TAŞKÖY MAH.","zip":"10195"},{"name":"TAŞPINAR MAH.","zip":"10195"},{"name":"TAYYİPLER MAH.","zip":"10195"},{"name":"TURNALAR MAH.","zip":"10195"},{"name":"YEŞİLLER MAH.","zip":"10195"}]},{"name":"PAMUKÇU","cityName":null,"quarters":null},{"name":"PLEVNE","cityName":null,"quarters":[{"name":"HASAN BASRİ ÇANTAY MAH.","zip":"10050"},{"name":"PLEVNE MAH.","zip":"10050"}]},{"name":"ALİBEYADASI","cityName":null,"quarters":[{"name":"NAMIK KEMAL MAH.","zip":"10405"}]},{"name":"ALTINOVA","cityName":null,"quarters":null},{"name":"AYVALIK","cityName":null,"quarters":[{"name":"AKÇAPINAR MAH.","zip":"10400"},{"name":"ALİ ÇETİNKAYA MAH.","zip":"10400"},{"name":"BAĞYÜZÜ MAH.","zip":"10400"},{"name":"BEŞİKTEPE MAH.","zip":"10400"},{"name":"BULUTÇEŞME MAH.","zip":"10400"},{"name":"ÇAKMAK MAH.","zip":"10400"},{"name":"ÇAMOBA MAH.","zip":"10400"},{"name":"FETHİYE MAH.","zip":"10400"},{"name":"FEVZİPAŞA-VEHBİBEY MAH.","zip":"10400"},{"name":"GAZİ KEMAL PAŞA MAH.","zip":"10400"},{"name":"HACIVELİLER MAH.","zip":"10400"},{"name":"HAMDİBEY MAH.","zip":"10400"},{"name":"HAYRETTİNPAŞA MAH.","zip":"10400"},{"name":"İSMETPAŞA MAH.","zip":"10400"},{"name":"KARAAYIT MAH.","zip":"10400"},{"name":"KAZIM KARABEKİR MAH.","zip":"10400"},{"name":"KIRCALAR MAH.","zip":"10400"},{"name":"MURATELİ MAH.","zip":"10400"},{"name":"MUTLU MAH.","zip":"10400"},{"name":"ODABURNU MAH.","zip":"10400"},{"name":"SAHİL KENT MAH.","zip":"10400"},{"name":"SAKARYA MAH.","zip":"10400"},{"name":"SEFA ÇAMLIK MAH.","zip":"10400"},{"name":"TIFILLAR MAH.","zip":"10400"},{"name":"TÜRKÖZÜ MAH.","zip":"10400"},{"name":"ÜÇKABAAĞAÇ MAH.","zip":"10400"},{"name":"YENİ MAH.","zip":"10400"},{"name":"YENİKÖY MAH.","zip":"10400"},{"name":"ZEKİBEY MAH.","zip":"10400"}]},{"name":"KÜÇÜKKÖY","cityName":null,"quarters":null},{"name":"BALYA","cityName":null,"quarters":[{"name":"KOCA CAMİİ MAH.","zip":"10840"}]},{"name":"PATLAK","cityName":null,"quarters":[{"name":"ALİDEMİRCİ MAH.","zip":"10842"},{"name":"BENGİLER MAH.","zip":"10842"},{"name":"ÇAKALLAR MAH.","zip":"10842"},{"name":"ÇALOVA MAH.","zip":"10842"},{"name":"ÇAMAVŞAR MAH.","zip":"10842"},{"name":"ÇAMUCU MAH.","zip":"10842"},{"name":"ÇİĞDEM MAH.","zip":"10842"},{"name":"ÇUKURCAK MAH.","zip":"10842"},{"name":"DANİŞMENT MAH.","zip":"10842"},{"name":"DEĞİRMENDERE MAH.","zip":"10842"},{"name":"DEREKÖY MAH.","zip":"10842"},{"name":"DOĞANLAR MAH.","zip":"10842"},{"name":"DÖRTYOL MAH.","zip":"10842"},{"name":"FARSAK MAH.","zip":"10842"},{"name":"GÖKMUSA MAH.","zip":"10842"},{"name":"GÖKTEPE MAH.","zip":"10842"},{"name":"GÖLOBA MAH.","zip":"10842"},{"name":"HABİPLER MAH.","zip":"10842"},{"name":"HACIHÜSEYİN MAH.","zip":"10842"},{"name":"HAVUTBAŞI MAH.","zip":"10842"},{"name":"ILICA MAH.","zip":"10842"},{"name":"KADIKÖY MAH.","zip":"10842"},{"name":"KARACAHİSAR MAH.","zip":"10842"},{"name":"KARLIK MAH.","zip":"10842"},{"name":"KAŞIKÇI MAH.","zip":"10842"},{"name":"KAVAKALANI MAH.","zip":"10842"},{"name":"KAYALAR MAH.","zip":"10842"},{"name":"KAYAPINAR MAH.","zip":"10842"},{"name":"KOCABÜK MAH.","zip":"10842"},{"name":"KOYUNERİ MAH.","zip":"10842"},{"name":"MANCILIK MAH.","zip":"10842"},{"name":"MEDRESE MAH.","zip":"10842"},{"name":"MÜSTECAP MAH.","zip":"10842"},{"name":"NARLI MAH.","zip":"10842"},{"name":"ORHANLAR MAH.","zip":"10842"},{"name":"ÖRENKÖY MAH.","zip":"10842"},{"name":"PATLAK MAH.","zip":"10842"},{"name":"SEMİZKÖY MAH.","zip":"10842"},{"name":"SÖBÜCEALAN MAH.","zip":"10842"},{"name":"YARIŞALANI MAH.","zip":"10842"},{"name":"YAYLACIK MAH.","zip":"10842"},{"name":"YAZLIK MAH.","zip":"10842"},{"name":"YENİKAVAK MAH.","zip":"10842"}]},{"name":"AKSAKAL","cityName":null,"quarters":[{"name":"ERGİLİ MAH.","zip":"10245"},{"name":"KİRAZLI MAH.","zip":"10245"},{"name":"KUŞCENNETİ MAH.","zip":"10245"},{"name":"YEŞİLÇOMLU MAH.","zip":"10245"}]},{"name":"AYDINCIK(EDİNCİK)","cityName":null,"quarters":[{"name":"BEZİRCİ MAH.","zip":"10250"},{"name":"ÇARIKKÖY MAH.","zip":"10250"},{"name":"ÇEPNİ MAH.","zip":"10250"},{"name":"ÇİNGE MAH.","zip":"10250"},{"name":"DOĞANPINAR MAH.","zip":"10250"},{"name":"GÖLYAKA MAH.","zip":"10250"},{"name":"HIDIRKÖY MAH.","zip":"10250"},{"name":"KÜLEFLİ MAH.","zip":"10250"},{"name":"MİSAKÇA MAH.","zip":"10250"},{"name":"ORHANİYE MAH.","zip":"10250"},{"name":"ŞİRİNÇAVUŞ MAH.","zip":"10250"}]},{"name":"BANDIRMA","cityName":null,"quarters":[{"name":"17 EYLÜL MAH.","zip":"10200"},{"name":"600 EVLER MAH.","zip":"10200"},{"name":"AKSAKAL MAH.","zip":"10200"},{"name":"AYYILDIZ MAH.","zip":"10200"},{"name":"BENTBAŞI MAH.","zip":"10200"},{"name":"ÇALIŞKANLAR MAH.","zip":"10200"},{"name":"ÇINARLI MAH.","zip":"10200"},{"name":"DERE MAH.","zip":"10200"},{"name":"EDİNCİK MAH.","zip":"10200"},{"name":"GÜNAYDIN MAH.","zip":"10200"},{"name":"HACI YUSUF MAH.","zip":"10200"},{"name":"HAYDAR ÇAVUŞ MAH.","zip":"10200"},{"name":"İHSANİYE MAH.","zip":"10200"},{"name":"KAYACIK MAH.","zip":"10200"},{"name":"LEVENT MAH.","zip":"10200"},{"name":"PAŞABAYIR MAH.","zip":"10200"},{"name":"PAŞAKENT MAH.","zip":"10200"},{"name":"PAŞAKONAK MAH.","zip":"10200"},{"name":"PAŞAMESCİT MAH.","zip":"10200"},{"name":"SUNULLAH MAH.","zip":"10200"},{"name":"YENİ MAH.","zip":"10200"}]},{"name":"DOĞRUCA","cityName":null,"quarters":[{"name":"BEREKETLİ MAH.","zip":"10202"},{"name":"ÇAKILKÖY MAH.","zip":"10202"},{"name":"DEDEOBA MAH.","zip":"10202"},{"name":"DOĞRUCA MAH.","zip":"10202"},{"name":"DUTLİMAN MAH.","zip":"10202"},{"name":"EMRE MAH.","zip":"10202"},{"name":"ERİKLİ MAH.","zip":"10202"},{"name":"ESKİZİRAATLİ MAH.","zip":"10202"},{"name":"MAHBUBELER MAH.","zip":"10202"},{"name":"ÖMERLİ MAH.","zip":"10202"},{"name":"YENİCE MAH.","zip":"10202"},{"name":"YENİSIĞIRCI MAH.","zip":"10202"},{"name":"YENİYENİCE MAH.","zip":"10202"},{"name":"YENİZİRAATLİ MAH.","zip":"10202"}]},{"name":"BİGADİÇ","cityName":null,"quarters":[{"name":"ABACI MAH.","zip":"10440"},{"name":"CAMİİ MAH.","zip":"10440"},{"name":"ÇAVUŞ MAH.","zip":"10440"},{"name":"EMEK MAH.","zip":"10440"},{"name":"FETHİBEY MAH.","zip":"10440"},{"name":"KUYU MAH.","zip":"10440"},{"name":"ORTA MAH.","zip":"10440"},{"name":"SERVİ MAH.","zip":"10440"}]},{"name":"ÇAĞIŞ","cityName":null,"quarters":[{"name":"BAŞÇEŞME MAH.","zip":"10463"},{"name":"ÇAĞIŞ MAH.","zip":"10463"},{"name":"ÇÖMLEKÇİ MAH.","zip":"10463"},{"name":"DEĞİRMENLİ MAH.","zip":"10463"},{"name":"ESENLİ MAH.","zip":"10463"},{"name":"GÜVEMÇETMİ MAH.","zip":"10463"},{"name":"KÜÇÜKYENİKÖY MAH.","zip":"10463"},{"name":"YEŞİLDERE MAH.","zip":"10463"}]},{"name":"SALMANLI","cityName":null,"quarters":[{"name":"ALANKÖY MAH.","zip":"10442"},{"name":"ALTINLAR MAH.","zip":"10442"},{"name":"AŞAĞIÇAMLI MAH.","zip":"10442"},{"name":"AŞAĞIGÖCEK MAH.","zip":"10442"},{"name":"BABAKÖY MAH.","zip":"10442"},{"name":"BADEMLİ MAH.","zip":"10442"},{"name":"BALATLI MAH.","zip":"10442"},{"name":"BEĞENDİKLER MAH.","zip":"10442"},{"name":"BEKİRLER MAH.","zip":"10442"},{"name":"BOZBÜK MAH.","zip":"10442"},{"name":"ÇALDERE MAH.","zip":"10442"},{"name":"ÇAMKÖY MAH.","zip":"10442"},{"name":"ÇAYÜSTÜ MAH.","zip":"10442"},{"name":"ÇEKİRDEKLİ MAH.","zip":"10442"},{"name":"ÇERİBAŞI MAH.","zip":"10442"},{"name":"ÇITAK MAH.","zip":"10442"},{"name":"DAVUTÇA MAH.","zip":"10442"},{"name":"DAVUTLAR MAH.","zip":"10442"},{"name":"DEDEÇINAR MAH.","zip":"10442"},{"name":"DİKKONAK MAH.","zip":"10442"},{"name":"DOĞANÇAM MAH.","zip":"10442"},{"name":"DURASILAR MAH.","zip":"10442"},{"name":"DÜNDARCIK MAH.","zip":"10442"},{"name":"ELYAPAN MAH.","zip":"10442"},{"name":"EMİRLER MAH.","zip":"10442"},{"name":"HACIÖMERDERESİ MAH.","zip":"10442"},{"name":"HAMİDİYE MAH.","zip":"10442"},{"name":"HİSARKÖY MAH.","zip":"10442"},{"name":"IŞIKLAR MAH.","zip":"10442"},{"name":"İĞCİLER MAH.","zip":"10442"},{"name":"İLYASLAR MAH.","zip":"10442"},{"name":"İSKELEKÖY MAH.","zip":"10442"},{"name":"KADIKÖY MAH.","zip":"10442"},{"name":"KALAFAT MAH.","zip":"10442"},{"name":"KARABAHÇE MAH.","zip":"10442"},{"name":"KARGIN MAH.","zip":"10442"},{"name":"KAYALIDERE MAH.","zip":"10442"},{"name":"KAYIRLAR MAH.","zip":"10442"},{"name":"KIRCA MAH.","zip":"10442"},{"name":"KIZILÇUKUR MAH.","zip":"10442"},{"name":"KOZPINAR MAH.","zip":"10442"},{"name":"KÖSELER MAH.","zip":"10442"},{"name":"KÜRSÜ MAH.","zip":"10442"},{"name":"MECİDİYE MAH.","zip":"10442"},{"name":"MEYVALI MAH.","zip":"10442"},{"name":"OKÇULAR MAH.","zip":"10442"},{"name":"OKÇULARYERİ MAH.","zip":"10442"},{"name":"OSMANCA MAH.","zip":"10442"},{"name":"ÖZGÖREN MAH.","zip":"10442"},{"name":"PANAYIR MAH.","zip":"10442"},{"name":"SALMANLI MAH.","zip":"10442"},{"name":"TOPALAK MAH.","zip":"10442"},{"name":"TOZAĞAN MAH.","zip":"10442"},{"name":"TURFULLAR MAH.","zip":"10442"},{"name":"YAĞCIBEDİR MAH.","zip":"10442"},{"name":"YAĞCILAR MAH.","zip":"10442"},{"name":"YENİKÖY MAH.","zip":"10442"},{"name":"YOLBAŞI MAH.","zip":"10442"},{"name":"YUKARIÇAMLI MAH.","zip":"10442"},{"name":"YUKARIGÖÇEK MAH.","zip":"10442"},{"name":"YÜRÜCEKLER MAH.","zip":"10442"}]},{"name":"BURHANİYE","cityName":null,"quarters":[{"name":"GERİŞ MAH.","zip":"10700"},{"name":"HACIAHMET MAH.","zip":"10700"},{"name":"İSKELE MAH.","zip":"10700"},{"name":"KOCACAMİ MAH.","zip":"10700"},{"name":"MAHKEME MAH.","zip":"10700"},{"name":"MEMİŞ MAH.","zip":"10700"},{"name":"ÖĞRETMENLER MAH.","zip":"10700"},{"name":"ÖREN MAH.","zip":"10700"},{"name":"YUNUS MAH.","zip":"10700"}]},{"name":"ÇORUK","cityName":null,"quarters":[{"name":"AVUNDUK MAH.","zip":"10702"},{"name":"BAHADINLI MAH.","zip":"10702"},{"name":"BÖREZLİ MAH.","zip":"10702"},{"name":"ÇALLI MAH.","zip":"10702"},{"name":"ÇAMTEPE MAH.","zip":"10702"},{"name":"ÇORUK MAH.","zip":"10702"},{"name":"DAMLALI MAH.","zip":"10702"},{"name":"DUTLUCA MAH.","zip":"10702"},{"name":"HACIBOZLAR MAH.","zip":"10702"},{"name":"HİSARKÖY MAH.","zip":"10702"},{"name":"KARADERE MAH.","zip":"10702"},{"name":"KIRTIK MAH.","zip":"10702"},{"name":"KIZIKLI MAH.","zip":"10702"},{"name":"KURUCAOLUK MAH.","zip":"10702"},{"name":"KUYUCAK MAH.","zip":"10702"},{"name":"KUYUMCU MAH.","zip":"10702"},{"name":"PELİTKÖY MAH.","zip":"10702"},{"name":"SÜBEYLİDERE MAH.","zip":"10702"},{"name":"ŞAHİNLER MAH.","zip":"10702"},{"name":"ŞARKÖY MAH.","zip":"10702"},{"name":"ŞARKÖY OSB MAH.","zip":"10702"},{"name":"TAHTACI MAH.","zip":"10702"},{"name":"TAYLIELİ MAH.","zip":"10702"},{"name":"YABANCILAR MAH.","zip":"10702"},{"name":"YAYLACIK MAH.","zip":"10702"},{"name":"YUNUSLAR MAH.","zip":"10702"}]},{"name":"PELİTKÖY","cityName":null,"quarters":[{"name":"HÜRRİYET MAH.","zip":"10730"}]},{"name":"DURSUNBEY","cityName":null,"quarters":[{"name":"CEBECİ MAH.","zip":"10800"},{"name":"ÇAKMAK MAH.","zip":"10800"},{"name":"ÇİFTÇİ MAH.","zip":"10800"},{"name":"FERAH MAH.","zip":"10800"},{"name":"İSTASYON MAH.","zip":"10800"},{"name":"MOLLAOĞLU MAH.","zip":"10800"},{"name":"ÜÇEYLÜL MAH.","zip":"10800"},{"name":"VAKIF MAH.","zip":"10800"}]},{"name":"HACILAR","cityName":null,"quarters":[{"name":"AKBAŞLAR MAH.","zip":"10802"},{"name":"AKÇAGÜNEY MAH.","zip":"10802"},{"name":"AKYAYLA MAH.","zip":"10802"},{"name":"ALAÇAM MAH.","zip":"10802"},{"name":"ALAGÜNEY MAH.","zip":"10802"},{"name":"ARIKLAR MAH.","zip":"10802"},{"name":"AŞAĞIMUSALAR MAH.","zip":"10802"},{"name":"AŞAĞIYAĞCILAR MAH.","zip":"10802"},{"name":"AYVACIK MAH.","zip":"10802"},{"name":"AZİZİYE MAH.","zip":"10802"},{"name":"BAYIRYÜZÜGÜNEY MAH.","zip":"10802"},{"name":"BEYCE MAH.","zip":"10802"},{"name":"BEYEL MAH.","zip":"10802"},{"name":"BOYALICA MAH.","zip":"10802"},{"name":"BÜYÜKAKÇAALAN MAH.","zip":"10802"},{"name":"ÇAKIRCA MAH.","zip":"10802"},{"name":"ÇALTICAK MAH.","zip":"10802"},{"name":"ÇAMHARMAN MAH.","zip":"10802"},{"name":"ÇAMKÖY MAH.","zip":"10802"},{"name":"ÇANAKÇI MAH.","zip":"10802"},{"name":"ÇATALÇAM MAH.","zip":"10802"},{"name":"ÇELİKLER MAH.","zip":"10802"},{"name":"ÇINARKÖY MAH.","zip":"10802"},{"name":"DADA MAH.","zip":"10802"},{"name":"DEĞİRMENCİLER MAH.","zip":"10802"},{"name":"DELİCE MAH.","zip":"10802"},{"name":"DEMİRCİLER MAH.","zip":"10802"},{"name":"DEREKÖY MAH.","zip":"10802"},{"name":"DOĞANCILAR MAH.","zip":"10802"},{"name":"DURABEYLER MAH.","zip":"10802"},{"name":"ERİCEK MAH.","zip":"10802"},{"name":"GAZELLİDERE MAH.","zip":"10802"},{"name":"GÖBÜL MAH.","zip":"10802"},{"name":"GÖKÇEDAĞ MAH.","zip":"10802"},{"name":"GÖKÇEPINAR MAH.","zip":"10802"},{"name":"GÖLCÜK MAH.","zip":"10802"},{"name":"GÜĞÜ MAH.","zip":"10802"},{"name":"GÜRLEYEN MAH.","zip":"10802"},{"name":"HACIAHMETPINARI MAH.","zip":"10802"},{"name":"HACILAR MAH.","zip":"10802"},{"name":"HACIÖMERLER MAH.","zip":"10802"},{"name":"HAMZACIK MAH.","zip":"10802"},{"name":"HASANLAR MAH.","zip":"10802"},{"name":"HİNDİKLER MAH.","zip":"10802"},{"name":"HONDULAR MAH.","zip":"10802"},{"name":"HOPANLAR MAH.","zip":"10802"},{"name":"IŞIKLAR MAH.","zip":"10802"},{"name":"İRFANİYE MAH.","zip":"10802"},{"name":"İSMAİLLER MAH.","zip":"10802"},{"name":"KARAGÖZ MAH.","zip":"10802"},{"name":"KARAKAYA MAH.","zip":"10802"},{"name":"KARAMANLAR MAH.","zip":"10802"},{"name":"KARAPINAR MAH.","zip":"10802"},{"name":"KARDEŞLER MAH.","zip":"10802"},{"name":"KARYAĞMAZ MAH.","zip":"10802"},{"name":"KAVACIK MAH.","zip":"10802"},{"name":"KAVAKKÖY MAH.","zip":"10802"},{"name":"KAZİMİYE MAH.","zip":"10802"},{"name":"KIZILCADERE MAH.","zip":"10802"},{"name":"KIZILÖZ MAH.","zip":"10802"},{"name":"KİREÇ MAH.","zip":"10802"},{"name":"KUMLU MAH.","zip":"10802"},{"name":"KURTLAR MAH.","zip":"10802"},{"name":"KUZKÖY MAH.","zip":"10802"},{"name":"KÜÇÜKAKÇAALAN MAH.","zip":"10802"},{"name":"KÜÇÜKLER MAH.","zip":"10802"},{"name":"MAHMUDİYE MAH.","zip":"10802"},{"name":"MAHMUTÇA MAH.","zip":"10802"},{"name":"MEYDANÇAYIRI MAH.","zip":"10802"},{"name":"MICIRLAR MAH.","zip":"10802"},{"name":"NAİPLER MAH.","zip":"10802"},{"name":"ODAKÖY MAH.","zip":"10802"},{"name":"OSMANİYE MAH.","zip":"10802"},{"name":"ÖRENKÖY MAH.","zip":"10802"},{"name":"POYRACIK MAH.","zip":"10802"},{"name":"RAMAZANLAR MAH.","zip":"10802"},{"name":"RESÜLLER MAH.","zip":"10802"},{"name":"REŞADİYE MAH.","zip":"10802"},{"name":"SAÇAYAK MAH.","zip":"10802"},{"name":"SAĞIRLAR MAH.","zip":"10802"},{"name":"SAKIZKÖY MAH.","zip":"10802"},{"name":"SARISİPAHİLER MAH.","zip":"10802"},{"name":"SARNIÇKÖY MAH.","zip":"10802"},{"name":"SEBİLLER MAH.","zip":"10802"},{"name":"SELİMAĞA MAH.","zip":"10802"},{"name":"SİNDERLER MAH.","zip":"10802"},{"name":"SÜLELER MAH.","zip":"10802"},{"name":"ŞABANLAR MAH.","zip":"10802"},{"name":"ŞENKÖY MAH.","zip":"10802"},{"name":"TAFAK MAH.","zip":"10802"},{"name":"TAŞKESİĞİ MAH.","zip":"10802"},{"name":"TAŞPINAR MAH.","zip":"10802"},{"name":"TEPEKÖY MAH.","zip":"10802"},{"name":"TEZLİK MAH.","zip":"10802"},{"name":"TURNACIK MAH.","zip":"10802"},{"name":"UMURLAR MAH.","zip":"10802"},{"name":"VELİLER MAH.","zip":"10802"},{"name":"YASSIÖREN MAH.","zip":"10802"},{"name":"YUKARIMUSALAR MAH.","zip":"10802"},{"name":"YUKARIYAĞCILAR MAH.","zip":"10802"},{"name":"YUNUSLAR MAH.","zip":"10802"}]},{"name":"AKÇAY","cityName":null,"quarters":[{"name":"ALTINKUM MAH.","zip":"10390"},{"name":"CUMHURİYET MAH.","zip":"10390"},{"name":"ÇAMLIBEL MAH.","zip":"10390"},{"name":"DOYRAN MAH.","zip":"10390"},{"name":"GÜRE CUMHURİYET MAH.","zip":"10390"},{"name":"GÜRE MAH.","zip":"10390"},{"name":"İKİZÇAY MAH.","zip":"10390"},{"name":"KAVLAKLAR MAH.","zip":"10390"},{"name":"KIZILKEÇİLİ MAH.","zip":"10390"},{"name":"NARLI MAH.","zip":"10390"},{"name":"SARIKIZ MAH.","zip":"10390"},{"name":"TAHTAKUŞLAR MAH.","zip":"10390"}]},{"name":"ALTINOLUK","cityName":null,"quarters":[{"name":"ARITAŞI MAH.","zip":"10870"},{"name":"AVCILAR MAH.","zip":"10870"},{"name":"İSKELE MAH.","zip":"10870"},{"name":"ŞAHİNDERE MAH.","zip":"10870"}]},{"name":"EDREMİT","cityName":null,"quarters":[{"name":"BEYOBA MAH.","zip":"10300"},{"name":"BOSTANCI MAH.","zip":"10300"},{"name":"CAMİVASAT MAH.","zip":"10300"},{"name":"CENNETAYAĞI MAH.","zip":"10300"},{"name":"ÇAMCI MAH.","zip":"10300"},{"name":"ÇIKRIKÇI MAH.","zip":"10300"},{"name":"DARSOFA MAH.","zip":"10300"},{"name":"DERELİ MAH.","zip":"10300"},{"name":"EROĞLAN MAH.","zip":"10300"},{"name":"GAZİCELAL MAH.","zip":"10300"},{"name":"GAZİİLYAS MAH.","zip":"10300"},{"name":"HACIARSLANLAR MAH.","zip":"10300"},{"name":"HACITUĞRUL MAH.","zip":"10300"},{"name":"HAMİDİYE MAH.","zip":"10300"},{"name":"HEKİMZADE MAH.","zip":"10300"},{"name":"İBRAHİMCE MAH.","zip":"10300"},{"name":"KADIKÖY MAH.","zip":"10300"},{"name":"KAPICIBAŞI MAH.","zip":"10300"},{"name":"MEHMETALAN MAH.","zip":"10300"},{"name":"ORTAOBA MAH.","zip":"10300"},{"name":"PINARBAŞI MAH.","zip":"10300"},{"name":"SOĞANYEMEZ MAH.","zip":"10300"},{"name":"TURHANBEY MAH.","zip":"10300"},{"name":"TUZCUMURAT MAH.","zip":"10300"},{"name":"YAŞYER MAH.","zip":"10300"},{"name":"YAYLAÖNÜ MAH.","zip":"10300"},{"name":"YOLÖREN MAH.","zip":"10300"},{"name":"ZEYTİNLİ MAH.","zip":"10300"}]},{"name":"BELKIS","cityName":null,"quarters":[{"name":"BALLIPINAR MAH.","zip":"10502"},{"name":"BELKIS MAH.","zip":"10502"},{"name":"ÇELTİKÇİ MAH.","zip":"10502"},{"name":"DOĞANLAR MAH.","zip":"10502"},{"name":"HAMAMLI MAH.","zip":"10502"},{"name":"İLHAN MAH.","zip":"10502"},{"name":"KESTANELİK MAH.","zip":"10502"},{"name":"ORMANLI MAH.","zip":"10502"},{"name":"ŞAHİNBURGAZ MAH.","zip":"10502"},{"name":"TATLISU MAH.","zip":"10502"},{"name":"TURAN MAH.","zip":"10502"},{"name":"YUKARIYAPICI MAH.","zip":"10502"}]},{"name":"ERDEK","cityName":null,"quarters":[{"name":"ATATÜRK MAH.","zip":"10500"},{"name":"BALIKLI MAH.","zip":"10500"},{"name":"ÇAKIL MAH.","zip":"10500"},{"name":"HALİTPAŞA MAH.","zip":"10500"},{"name":"HARMANLI MAH.","zip":"10500"},{"name":"KARŞIYAKA MAH.","zip":"10500"},{"name":"NARLI MAH.","zip":"10500"},{"name":"OCAKLAR MAH.","zip":"10500"},{"name":"PAŞALİMANI MAH.","zip":"10500"},{"name":"POYRAZLI MAH.","zip":"10500"},{"name":"SAHİL MAH.","zip":"10500"},{"name":"TUZLA MAH.","zip":"10500"},{"name":"YALI MAH.","zip":"10500"},{"name":"ZEYTİNLİ MAH.","zip":"10500"}]},{"name":"DURSUNLU","cityName":null,"quarters":[{"name":"HACIHÜSEYİNLER MAH.","zip":"10717"},{"name":"HACIOĞLU MAH.","zip":"10717"},{"name":"HACIOSMAN MAH.","zip":"10717"},{"name":"KEREMKÖY MAH.","zip":"10717"},{"name":"KOBAŞLAR MAH.","zip":"10717"},{"name":"KUMGEDİK MAH.","zip":"10717"},{"name":"KUYUALAN MAH.","zip":"10717"},{"name":"ULUBEYLER MAH.","zip":"10717"}]},{"name":"GÖMEÇ","cityName":null,"quarters":[{"name":"MİTHATPAŞA MAH.","zip":"10715"},{"name":"YAYA MAH.","zip":"10715"}]},{"name":"KARAAĞAÇ","cityName":null,"quarters":null},{"name":"GÖNEN","cityName":null,"quarters":[{"name":"AKÇAALİ MAH.","zip":"10900"},{"name":"ALTAY MAH.","zip":"10900"},{"name":"BALCI MAH.","zip":"10900"},{"name":"GÜNDOĞDU MAH.","zip":"10900"},{"name":"KARŞIYAKA MAH.","zip":"10900"},{"name":"KURTULUŞ MAH.","zip":"10900"},{"name":"MALKOÇ MAH.","zip":"10900"},{"name":"PLEVNE MAH.","zip":"10900"},{"name":"REŞADİYE MAH.","zip":"10900"},{"name":"RÜSTEM MAH.","zip":"10900"},{"name":"SARIKÖY MAH.","zip":"10900"},{"name":"SEBEPLİ MAH.","zip":"10900"},{"name":"SÖĞÜT MAH.","zip":"10900"},{"name":"TIRNOVA MAH.","zip":"10900"},{"name":"TUZAKÇI MAH.","zip":"10900"}]},{"name":"HASANBEY","cityName":null,"quarters":[{"name":"ALACAOLUK MAH.","zip":"10902"},{"name":"ALAETTİN MAH.","zip":"10902"},{"name":"ALAŞAR MAH.","zip":"10902"},{"name":"ASMALIDERE MAH.","zip":"10902"},{"name":"ATICIOBA MAH.","zip":"10902"},{"name":"BABAYAKA MAH.","zip":"10902"},{"name":"BAKIRLI MAH.","zip":"10902"},{"name":"BALCIDEDE MAH.","zip":"10902"},{"name":"BAYRAMİÇ MAH.","zip":"10902"},{"name":"BEYOLUK MAH.","zip":"10902"},{"name":"BOSTANCI MAH.","zip":"10902"},{"name":"BUĞDAYLI MAH.","zip":"10902"},{"name":"BÜYÜKSOĞUKLAR MAH.","zip":"10902"},{"name":"CANBAZ MAH.","zip":"10902"},{"name":"ÇAKMAK MAH.","zip":"10902"},{"name":"ÇALICA MAH.","zip":"10902"},{"name":"ÇALIOBA MAH.","zip":"10902"},{"name":"ÇATAK MAH.","zip":"10902"},{"name":"ÇINARLI MAH.","zip":"10902"},{"name":"ÇINARPINAR MAH.","zip":"10902"},{"name":"ÇİFTLİKALAN MAH.","zip":"10902"},{"name":"ÇOBANHAMİDİYE MAH.","zip":"10902"},{"name":"DUMANALAN MAH.","zip":"10902"},{"name":"EKŞİDERE MAH.","zip":"10902"},{"name":"FINDIKLI MAH.","zip":"10902"},{"name":"GAYBULAR MAH.","zip":"10902"},{"name":"GÖKÇESU MAH.","zip":"10902"},{"name":"GÜNEŞLİ MAH.","zip":"10902"},{"name":"HACIMENTEŞ MAH.","zip":"10902"},{"name":"HACIVELİOBA MAH.","zip":"10902"},{"name":"HASANBEY MAH.","zip":"10902"},{"name":"ILICAK MAH.","zip":"10902"},{"name":"ILICAOBA MAH.","zip":"10902"},{"name":"İNCİRLİ MAH.","zip":"10902"},{"name":"KALBURCU MAH.","zip":"10902"},{"name":"KALFAKÖY MAH.","zip":"10902"},{"name":"KAPLANOBA MAH.","zip":"10902"},{"name":"KARAAĞAÇALAN MAH.","zip":"10902"},{"name":"KARALARÇİFTLİĞİ MAH.","zip":"10902"},{"name":"KARASUKABAKLAR MAH.","zip":"10902"},{"name":"KAVAKOBA MAH.","zip":"10902"},{"name":"KEÇELER MAH.","zip":"10902"},{"name":"KİLLİK MAH.","zip":"10902"},{"name":"KOCAPINAR MAH.","zip":"10902"},{"name":"KOÇBAYIR MAH.","zip":"10902"},{"name":"KORUDEĞİRMEN MAH.","zip":"10902"},{"name":"KÖRPEAĞAÇ MAH.","zip":"10902"},{"name":"KÖTEYLİ MAH.","zip":"10902"},{"name":"KUMKÖY MAH.","zip":"10902"},{"name":"KÜÇÜKSOĞUKLAR MAH.","zip":"10902"},{"name":"KÜPÇIKTI MAH.","zip":"10902"},{"name":"MURATLAR MAH.","zip":"10902"},{"name":"ORTAOBA MAH.","zip":"10902"},{"name":"OSMANPAZAR MAH.","zip":"10902"},{"name":"ÖMERLER MAH.","zip":"10902"},{"name":"PAŞAÇİFTLİK MAH.","zip":"10902"},{"name":"PEHLİVANHOCA MAH.","zip":"10902"},{"name":"SARAÇLAR MAH.","zip":"10902"},{"name":"SUÇIKTI MAH.","zip":"10902"},{"name":"ŞAROLUK MAH.","zip":"10902"},{"name":"TAŞTEPE MAH.","zip":"10902"},{"name":"TÜTÜNCÜ MAH.","zip":"10902"},{"name":"ÜÇPINAR MAH.","zip":"10902"},{"name":"ÜZÜMLÜ MAH.","zip":"10902"},{"name":"YENİAKÇAPINAR MAH.","zip":"10902"},{"name":"YÜRÜKKEÇİDERE MAH.","zip":"10902"}]},{"name":"SARIKÖY","cityName":null,"quarters":[{"name":"AYVALIDERE MAH.","zip":"10680"},{"name":"ÇIĞMIŞ MAH.","zip":"10680"},{"name":"ÇİFTEÇEŞMELER MAH.","zip":"10680"},{"name":"DEREKÖY MAH.","zip":"10680"},{"name":"DIŞBUDAK MAH.","zip":"10680"},{"name":"GEBEÇINAR MAH.","zip":"10680"},{"name":"GELGEÇ MAH.","zip":"10680"},{"name":"GEYİKLİ MAH.","zip":"10680"},{"name":"GÜNDOĞAN MAH.","zip":"10680"},{"name":"HAFIZHÜSEYİNBEY MAH.","zip":"10680"},{"name":"HAVUTÇA MAH.","zip":"10680"},{"name":"HODUL MAH.","zip":"10680"},{"name":"KAVAKALAN MAH.","zip":"10680"},{"name":"KINALAR MAH.","zip":"10680"},{"name":"TAHTALI MAH.","zip":"10680"},{"name":"TURPLU MAH.","zip":"10680"},{"name":"ULUKIR MAH.","zip":"10680"}]},{"name":"HAVRAN","cityName":null,"quarters":[{"name":"ÇİĞİTZADE MAH.","zip":"10560"},{"name":"EBUBEKİR MAH.","zip":"10560"},{"name":"HAMAMBAŞI MAH.","zip":"10560"},{"name":"MESCİT MAH.","zip":"10560"},{"name":"TEKKE MAH.","zip":"10560"},{"name":"YENİ MAH.","zip":"10560"}]},{"name":"TEMAŞALIK","cityName":null,"quarters":[{"name":"BÜYÜKŞAPÇI MAH.","zip":"10562"},{"name":"ÇAKIRDERE MAH.","zip":"10562"},{"name":"ÇAKMAK MAH.","zip":"10562"},{"name":"ÇAMDİBİ MAH.","zip":"10562"},{"name":"DEREÖREN MAH.","zip":"10562"},{"name":"EĞMİR MAH.","zip":"10562"},{"name":"ESELER MAH.","zip":"10562"},{"name":"FAZLICA MAH.","zip":"10562"},{"name":"HALILAR MAH.","zip":"10562"},{"name":"HALLAÇLAR MAH.","zip":"10562"},{"name":"HÜSEYİNBEŞELER MAH.","zip":"10562"},{"name":"İNÖNÜ MAH.","zip":"10562"},{"name":"KALABAK MAH.","zip":"10562"},{"name":"KARALAR MAH.","zip":"10562"},{"name":"KARAOĞLANLAR MAH.","zip":"10562"},{"name":"KOBAKLAR MAH.","zip":"10562"},{"name":"KOCADAĞ MAH.","zip":"10562"},{"name":"KOCASEYİT MAH.","zip":"10562"},{"name":"KÖYLÜCE MAH.","zip":"10562"},{"name":"KÜÇÜKDERE MAH.","zip":"10562"},{"name":"KÜÇÜKŞAPÇI MAH.","zip":"10562"},{"name":"SARNIÇ MAH.","zip":"10562"},{"name":"TARLABAŞI MAH.","zip":"10562"},{"name":"TAŞARASI MAH.","zip":"10562"},{"name":"TEMAŞALIK MAH.","zip":"10562"},{"name":"TEPEOBA MAH.","zip":"10562"}]},{"name":"BÜYÜKYENİCE","cityName":null,"quarters":null},{"name":"GÖKÇEYAZI","cityName":null,"quarters":null},{"name":"İVRİNDİ","cityName":null,"quarters":[{"name":"BEDRETTİN MAH.","zip":"10770"},{"name":"KİRAZ ÖREN MAH.","zip":"10770"},{"name":"KURTULUŞ MAH.","zip":"10770"},{"name":"OKÇULAR MAH.","zip":"10770"},{"name":"SAKARYA MAH.","zip":"10770"}]},{"name":"KAYAPA","cityName":null,"quarters":null},{"name":"KORUCU","cityName":null,"quarters":null},{"name":"SARICA","cityName":null,"quarters":[{"name":"AŞAĞIKALEOBA MAH.","zip":"10772"},{"name":"AYAKLI MAH.","zip":"10772"},{"name":"BOZÖREN MAH.","zip":"10772"},{"name":"BÜYÜKFINDIK MAH.","zip":"10772"},{"name":"BÜYÜKILICA MAH.","zip":"10772"},{"name":"ÇARKACI MAH.","zip":"10772"},{"name":"ÇATALAN MAH.","zip":"10772"},{"name":"ÇELİMLER MAH.","zip":"10772"},{"name":"ÇİÇEKLİ MAH.","zip":"10772"},{"name":"ÇOBANLAR MAH.","zip":"10772"},{"name":"ÇUKURLAR MAH.","zip":"10772"},{"name":"ÇUKUROBA MAH.","zip":"10772"},{"name":"DEĞİRMENBAŞI MAH.","zip":"10772"},{"name":"DEMİRCİLER MAH.","zip":"10772"},{"name":"DÖŞEME MAH.","zip":"10772"},{"name":"ERDEL MAH.","zip":"10772"},{"name":"ERİKLİKÖMÜRCÜ MAH.","zip":"10772"},{"name":"EVCİLER MAH.","zip":"10772"},{"name":"GEBEÇINAR MAH.","zip":"10772"},{"name":"GEÇMİŞ MAH.","zip":"10772"},{"name":"GÖKÇELER MAH.","zip":"10772"},{"name":"GÖMENİÇ MAH.","zip":"10772"},{"name":"GÖZLÜÇAYIR MAH.","zip":"10772"},{"name":"GÜMELİ MAH.","zip":"10772"},{"name":"HACIAHMETLER MAH.","zip":"10772"},{"name":"HAYDAR MAH.","zip":"10772"},{"name":"HÜSEYİNBEYOBASI MAH.","zip":"10772"},{"name":"ILICAKPINAR MAH.","zip":"10772"},{"name":"İKİZCE MAH.","zip":"10772"},{"name":"KARAÇEPİŞ MAH.","zip":"10772"},{"name":"KAŞAĞIL MAH.","zip":"10772"},{"name":"KILCILAR MAH.","zip":"10772"},{"name":"KINA MAH.","zip":"10772"},{"name":"KINIK MAH.","zip":"10772"},{"name":"KIPIKLAR MAH.","zip":"10772"},{"name":"KIŞLADERE MAH.","zip":"10772"},{"name":"KOCAELİ MAH.","zip":"10772"},{"name":"KOCAOBA MAH.","zip":"10772"},{"name":"KUŞDERE MAH.","zip":"10772"},{"name":"KÜÇÜKFINDIK MAH.","zip":"10772"},{"name":"KÜÇÜKILICA MAH.","zip":"10772"},{"name":"KÜÇÜKYENİCE MAH.","zip":"10772"},{"name":"MALLICA MAH.","zip":"10772"},{"name":"OSMANKÖY MAH.","zip":"10772"},{"name":"OSMANLAR MAH.","zip":"10772"},{"name":"PELİTÖREN MAH.","zip":"10772"},{"name":"SARICA MAH.","zip":"10772"},{"name":"SARIPINAR MAH.","zip":"10772"},{"name":"SOFULAR MAH.","zip":"10772"},{"name":"SOĞANBÜKÜ MAH.","zip":"10772"},{"name":"SUSUZYAYLA MAH.","zip":"10772"},{"name":"TAŞDİBİ MAH.","zip":"10772"},{"name":"TOPUZLAR MAH.","zip":"10772"},{"name":"YAĞLILAR MAH.","zip":"10772"},{"name":"YAREN MAH.","zip":"10772"},{"name":"YEŞİLKÖY MAH.","zip":"10772"},{"name":"YUKARIKALEOBA MAH.","zip":"10772"},{"name":"YÜREKLİ MAH.","zip":"10772"}]},{"name":"ATATÜRK","cityName":null,"quarters":[{"name":"2.ORUÇGAZİ MAH.","zip":"10020"},{"name":"ALİ HİKMET PAŞA MAH.","zip":"10020"},{"name":"ATATÜRK MAH.","zip":"10020"},{"name":"EGE MAH.","zip":"10020"},{"name":"MALTEPE MAH.","zip":"10020"},{"name":"PAŞA ALANI MAH.","zip":"10020"},{"name":"TOYGAR MAH.","zip":"10020"},{"name":"YENİ MAH.","zip":"10020"}]},{"name":"KARESİ","cityName":null,"quarters":[{"name":"AKINCILAR MAH.","zip":"10010"},{"name":"AKTARMA MAH.","zip":"10010"},{"name":"AYGÖREN MAH.","zip":"10010"},{"name":"BAKACAK MAH.","zip":"10010"},{"name":"BEYKÖY MAH.","zip":"10010"},{"name":"ÇANACIK MAH.","zip":"10010"},{"name":"ÇAYPINAR MAH.","zip":"10010"},{"name":"DAVUTLAR MAH.","zip":"10010"},{"name":"DELİKLİTAŞ MAH.","zip":"10010"},{"name":"DUMLUPINAR MAH.","zip":"10010"},{"name":"ESKİ KUYUMCULAR MAH.","zip":"10010"},{"name":"HACI İSMAİL MAH.","zip":"10010"},{"name":"HİSARİÇİ MAH.","zip":"10010"},{"name":"İBİRLER MAH.","zip":"10010"},{"name":"KABAKDERE MAH.","zip":"10010"},{"name":"KALAYCILAR MAH.","zip":"10010"},{"name":"KAMÇILLI MAH.","zip":"10010"},{"name":"KARAOĞLAN MAH.","zip":"10010"},{"name":"KARESİ MAH.","zip":"10010"},{"name":"KAVAKLI MAH.","zip":"10010"},{"name":"KIRMIZILAR MAH.","zip":"10010"},{"name":"KIZPINAR MAH.","zip":"10010"},{"name":"KOCAAVŞAR MAH.","zip":"10010"},{"name":"KÖTEYLİ MAH.","zip":"10010"},{"name":"MİRZABEY MAH.","zip":"10010"},{"name":"NAİPLİ MAH.","zip":"10010"},{"name":"ORTACA MAH.","zip":"10010"},{"name":"OVACIK MAH.","zip":"10010"},{"name":"TURPLU MAH.","zip":"10010"},{"name":"ÜÇPINAR MAH.","zip":"10010"},{"name":"YAYLABAYIR MAH.","zip":"10010"},{"name":"YENİKÖY MAH.","zip":"10010"},{"name":"YEROLUK MAH.","zip":"10010"},{"name":"YEŞİLOVA MAH.","zip":"10010"},{"name":"YILDIRIM MAH.","zip":"10010"},{"name":"ZİYARETLİ MAH.","zip":"10010"}]},{"name":"SAKARYA","cityName":null,"quarters":[{"name":"2.SAKARYA MAH.","zip":"10030"},{"name":"ÇAY MAH.","zip":"10030"},{"name":"KAYABEY MAH.","zip":"10030"},{"name":"KUVA-İ MİLLİYE MAH.","zip":"10030"},{"name":"VİCDANİYE MAH.","zip":"10030"}]},{"name":"ŞAMLI","cityName":null,"quarters":[{"name":"ARMUTALAN MAH.","zip":"10180"},{"name":"BOĞAZKÖY MAH.","zip":"10180"},{"name":"BÜYÜKPINAR MAH.","zip":"10180"},{"name":"DÜZOBA MAH.","zip":"10180"},{"name":"FETHİYE MAH.","zip":"10180"},{"name":"HALKAPINAR MAH.","zip":"10180"},{"name":"HİSARALAN MAH.","zip":"10180"},{"name":"KARABEYLER MAH.","zip":"10180"},{"name":"KARAKOL MAH.","zip":"10180"},{"name":"KURTDERE MAH.","zip":"10180"},{"name":"ŞAMLI MAH.","zip":"10180"},{"name":"TAŞKESİĞİ MAH.","zip":"10180"},{"name":"TATLIPINAR MAH.","zip":"10180"},{"name":"TOYBELEN MAH.","zip":"10180"},{"name":"YAĞCILAR MAH.","zip":"10180"},{"name":"YAYLACIK MAH.","zip":"10180"},{"name":"YENİİSKENDER MAH.","zip":"10180"}]},{"name":"KEPSUT","cityName":null,"quarters":[{"name":"CAMİİCEDİT MAH.","zip":"10660"},{"name":"İHSANİYE MAH.","zip":"10660"},{"name":"KASAPZADE MAH.","zip":"10660"},{"name":"MAHKEME MAH.","zip":"10660"},{"name":"YENİCE MAH.","zip":"10660"}]},{"name":"SERVET","cityName":null,"quarters":[{"name":"AKÇAKERTİL MAH.","zip":"10662"},{"name":"AKÇAKÖY MAH.","zip":"10662"},{"name":"ALAGÜNEY MAH.","zip":"10662"},{"name":"ARMUTLU MAH.","zip":"10662"},{"name":"BAĞTEPE MAH.","zip":"10662"},{"name":"BEKTAŞLAR MAH.","zip":"10662"},{"name":"BEYKÖY MAH.","zip":"10662"},{"name":"BÜKDERE MAH.","zip":"10662"},{"name":"BÜYÜKKATRANCI MAH.","zip":"10662"},{"name":"ÇALKANDİL MAH.","zip":"10662"},{"name":"DALKÖY MAH.","zip":"10662"},{"name":"DANAHİSAR MAH.","zip":"10662"},{"name":"DARIÇUKURU MAH.","zip":"10662"},{"name":"DEDEKAŞI MAH.","zip":"10662"},{"name":"DERELİ MAH.","zip":"10662"},{"name":"DOMBAYDERE MAH.","zip":"10662"},{"name":"DURAK MAH.","zip":"10662"},{"name":"EŞELER MAH.","zip":"10662"},{"name":"EYÜPBÜKÜ MAH.","zip":"10662"},{"name":"GÖBEL MAH.","zip":"10662"},{"name":"GÖKKÖY MAH.","zip":"10662"},{"name":"HOTAŞLAR MAH.","zip":"10662"},{"name":"IŞIKLAR MAH.","zip":"10662"},{"name":"İSAALAN MAH.","zip":"10662"},{"name":"KALBURCU MAH.","zip":"10662"},{"name":"KARACAAĞAÇ MAH.","zip":"10662"},{"name":"KARACAÖREN MAH.","zip":"10662"},{"name":"KARAÇALTI MAH.","zip":"10662"},{"name":"KARAGÖZ MAH.","zip":"10662"},{"name":"KARAHALİLLER MAH.","zip":"10662"},{"name":"KAYACIKLAR MAH.","zip":"10662"},{"name":"KAYAELİ MAH.","zip":"10662"},{"name":"KEÇİDERE MAH.","zip":"10662"},{"name":"KEPEKLER MAH.","zip":"10662"},{"name":"KIZILOLUK MAH.","zip":"10662"},{"name":"KÜÇÜKKATRANCI MAH.","zip":"10662"},{"name":"MAHMUDİYE MAH.","zip":"10662"},{"name":"MEHMETLER MAH.","zip":"10662"},{"name":"MESTANLAR MAH.","zip":"10662"},{"name":"MEZİTLER MAH.","zip":"10662"},{"name":"NUSRET MAH.","zip":"10662"},{"name":"OSMANİYE MAH.","zip":"10662"},{"name":"OVACIK MAH.","zip":"10662"},{"name":"ÖRENCİK MAH.","zip":"10662"},{"name":"ÖRENHARMAN MAH.","zip":"10662"},{"name":"ÖRENLİ MAH.","zip":"10662"},{"name":"PİYADE MAH.","zip":"10662"},{"name":"RECEP MAH.","zip":"10662"},{"name":"SARAÇ MAH.","zip":"10662"},{"name":"SARIÇAYIR MAH.","zip":"10662"},{"name":"SARIFAKILAR MAH.","zip":"10662"},{"name":"SAYACIK MAH.","zip":"10662"},{"name":"SEÇDERE MAH.","zip":"10662"},{"name":"SERÇEÖREN MAH.","zip":"10662"},{"name":"SERVET MAH.","zip":"10662"},{"name":"ŞEREMETLER MAH.","zip":"10662"},{"name":"TEKKEIŞIKLAR MAH.","zip":"10662"},{"name":"TİLKİCİK MAH.","zip":"10662"},{"name":"TUZAK MAH.","zip":"10662"},{"name":"YAYLABAŞI MAH.","zip":"10662"},{"name":"YEŞİLDAĞ MAH.","zip":"10662"},{"name":"YOĞUNOLUK MAH.","zip":"10662"}]},{"name":"KAYACA","cityName":null,"quarters":[{"name":"BOĞAZPINAR MAH.","zip":"10472"},{"name":"BÖLCEAĞAÇ MAH.","zip":"10472"},{"name":"CUMHURİYET MAH.","zip":"10472"},{"name":"ÇAKIRCA MAH.","zip":"10472"},{"name":"ÇAL MAH.","zip":"10472"},{"name":"ÇAMLI MAH.","zip":"10472"},{"name":"ÇATALTEPE MAH.","zip":"10472"},{"name":"ÇAVUŞKÖY MAH.","zip":"10472"},{"name":"DARICA MAH.","zip":"10472"},{"name":"DEĞİRMENBOĞAZI MAH.","zip":"10472"},{"name":"DEREKÖY MAH.","zip":"10472"},{"name":"DOĞANCI MAH.","zip":"10472"},{"name":"DURA MAH.","zip":"10472"},{"name":"ERECEK MAH.","zip":"10472"},{"name":"ESKİÇATAL MAH.","zip":"10472"},{"name":"ESKİMANYAS MAH.","zip":"10472"},{"name":"EŞEN MAH.","zip":"10472"},{"name":"HACIİBRAHİMPINARI MAH.","zip":"10472"},{"name":"HACIOSMAN MAH.","zip":"10472"},{"name":"HACIYAKUP MAH.","zip":"10472"},{"name":"HAMAMLI MAH.","zip":"10472"},{"name":"HAYDAR MAH.","zip":"10472"},{"name":"HEKİM MAH.","zip":"10472"},{"name":"IŞIKLAR MAH.","zip":"10472"},{"name":"İRŞADİYE MAH.","zip":"10472"},{"name":"KALFA MAH.","zip":"10472"},{"name":"KAPAKLI MAH.","zip":"10472"},{"name":"KARAKABAAĞAÇ MAH.","zip":"10472"},{"name":"KAYACA MAH.","zip":"10472"},{"name":"KIZIK MAH.","zip":"10472"},{"name":"KIZIKSA MAH.","zip":"10472"},{"name":"KOCAGÖL MAH.","zip":"10472"},{"name":"KOÇOĞLU MAH.","zip":"10472"},{"name":"KUBAŞ MAH.","zip":"10472"},{"name":"KULAK MAH.","zip":"10472"},{"name":"NECİP MAH.","zip":"10472"},{"name":"ÖREN MAH.","zip":"10472"},{"name":"PEYNİRKUYU MAH.","zip":"10472"},{"name":"SALUR MAH.","zip":"10472"},{"name":"SÜLEYMANLI MAH.","zip":"10472"},{"name":"ŞEVKETİYE MAH.","zip":"10472"},{"name":"TEPECİK MAH.","zip":"10472"},{"name":"YAYLA MAH.","zip":"10472"},{"name":"YENİKÖY MAH.","zip":"10472"}]},{"name":"MANYAS","cityName":null,"quarters":[{"name":"ÇARŞI MAH.","zip":"10470"},{"name":"KALEBAYIR MAH.","zip":"10470"},{"name":"MALTEPE MAH.","zip":"10470"},{"name":"YENİ MAH.","zip":"10470"}]},{"name":"AVŞA","cityName":null,"quarters":null},{"name":"MARMARA","cityName":null,"quarters":[{"name":"ASMALI MAH.","zip":"10360"},{"name":"AVŞA MAH.","zip":"10360"},{"name":"CUMHURİYET MAH.","zip":"10360"},{"name":"ÇINARLI MAH.","zip":"10360"},{"name":"DENİZ MAH.","zip":"10360"},{"name":"GÜNDOĞDU MAH.","zip":"10360"},{"name":"HÜRRİYET MAH.","zip":"10360"},{"name":"OKULLAR MAH.","zip":"10360"},{"name":"SARAYLAR MAH.","zip":"10360"},{"name":"TOPAĞAÇ MAH.","zip":"10360"},{"name":"YENİ MAH.","zip":"10360"},{"name":"YİĞİTLER MAH.","zip":"10360"}]},{"name":"KARAÇAM","cityName":null,"quarters":[{"name":"ARDIÇLI MAH.","zip":"10582"},{"name":"AŞAĞIDANİŞMENT MAH.","zip":"10582"},{"name":"BEYKÖY MAH.","zip":"10582"},{"name":"BOZALAN MAH.","zip":"10582"},{"name":"ÇALTILI MAH.","zip":"10582"},{"name":"ÇAMURLU MAH.","zip":"10582"},{"name":"ÇAVLI MAH.","zip":"10582"},{"name":"ÇİFTLİKDERE MAH.","zip":"10582"},{"name":"ÇUKURÇAYIR MAH.","zip":"10582"},{"name":"DEVEÖREN MAH.","zip":"10582"},{"name":"DİKMELER MAH.","zip":"10582"},{"name":"EĞERCİ MAH.","zip":"10582"},{"name":"GÜVEM MAH.","zip":"10582"},{"name":"GÜVEMKÜÇÜKTARLA MAH.","zip":"10582"},{"name":"HIDIRBALI MAH.","zip":"10582"},{"name":"İSADERE MAH.","zip":"10582"},{"name":"KALEMKÖY MAH.","zip":"10582"},{"name":"KARACALAR MAH.","zip":"10582"},{"name":"KARAÇAM MAH.","zip":"10582"},{"name":"KARAPINAR MAH.","zip":"10582"},{"name":"KOCABIYIKLAR MAH.","zip":"10582"},{"name":"KOCAÖREN MAH.","zip":"10582"},{"name":"KOĞUKYURT MAH.","zip":"10582"},{"name":"KONGURCA MAH.","zip":"10582"},{"name":"KURUDERE MAH.","zip":"10582"},{"name":"MECİDİYE MAH.","zip":"10582"},{"name":"MİNNETLER MAH.","zip":"10582"},{"name":"PELİTCİK MAH.","zip":"10582"},{"name":"SARIBEYLER MAH.","zip":"10582"},{"name":"SARISÜLEYMANLAR MAH.","zip":"10582"},{"name":"SITMAPINAR MAH.","zip":"10582"},{"name":"SOĞUCAK MAH.","zip":"10582"},{"name":"SÖĞÜTÇÜK MAH.","zip":"10582"},{"name":"SÖĞÜTLÜGÖZLE MAH.","zip":"10582"},{"name":"TAVŞANCIK MAH.","zip":"10582"},{"name":"TÜREDİLER MAH.","zip":"10582"},{"name":"YAZÖREN MAH.","zip":"10582"},{"name":"YEŞİLHİSAR MAH.","zip":"10582"},{"name":"YOLCUPINARI MAH.","zip":"10582"},{"name":"YUKARIDANİŞMENT MAH.","zip":"10582"},{"name":"YUKARIKARAÇAM MAH.","zip":"10582"},{"name":"YUNAKDERE MAH.","zip":"10582"}]},{"name":"SARIBEYLER","cityName":null,"quarters":[{"name":"MADENMEZARI MAH.","zip":"10590"}]},{"name":"SAVAŞTEPE","cityName":null,"quarters":[{"name":"FATİH MAH.","zip":"10580"},{"name":"HÜRRİYET MAH.","zip":"10580"},{"name":"İSTİKLAL MAH.","zip":"10580"},{"name":"ZAFER MAH.","zip":"10580"}]},{"name":"MANDIRA","cityName":null,"quarters":[{"name":"AKTAŞ MAH.","zip":"10332"},{"name":"ALACAATLI MAH.","zip":"10332"},{"name":"ALAKIR MAH.","zip":"10332"},{"name":"ALAYAKA MAH.","zip":"10332"},{"name":"ARMUTLU MAH.","zip":"10332"},{"name":"ASLANDEDE MAH.","zip":"10332"},{"name":"BAYRAKLI MAH.","zip":"10332"},{"name":"BULAK MAH.","zip":"10332"},{"name":"BÜKRECİK MAH.","zip":"10332"},{"name":"BÜYÜKDAĞDERE MAH.","zip":"10332"},{"name":"CÜNEYT MAH.","zip":"10332"},{"name":"ÇAKILLI MAH.","zip":"10332"},{"name":"ÇALTILI MAH.","zip":"10332"},{"name":"ÇAMALANI MAH.","zip":"10332"},{"name":"ÇAYGÖREN MAH.","zip":"10332"},{"name":"ÇAYIR MAH.","zip":"10332"},{"name":"ÇELEBİLER MAH.","zip":"10332"},{"name":"ÇIKRIKÇI MAH.","zip":"10332"},{"name":"ÇILBIRCI MAH.","zip":"10332"},{"name":"ÇOTURTEPE MAH.","zip":"10332"},{"name":"DANAÇAYIR MAH.","zip":"10332"},{"name":"DEDELER MAH.","zip":"10332"},{"name":"DERECİKÖREN MAH.","zip":"10332"},{"name":"DEVLETLİBABA MAH.","zip":"10332"},{"name":"DÜĞÜNCÜLER MAH.","zip":"10332"},{"name":"DÜVERTEPE MAH.","zip":"10332"},{"name":"EĞRİDERE MAH.","zip":"10332"},{"name":"EMENDERE MAH.","zip":"10332"},{"name":"EŞMEDERE MAH.","zip":"10332"},{"name":"GÖLCÜK MAH.","zip":"10332"},{"name":"GÖZÖREN MAH.","zip":"10332"},{"name":"HİSARALAN MAH.","zip":"10332"},{"name":"IŞIKLAR MAH.","zip":"10332"},{"name":"İBİLLER MAH.","zip":"10332"},{"name":"İZZETTİN MAH.","zip":"10332"},{"name":"KARAAĞAÇ MAH.","zip":"10332"},{"name":"KARACALAR MAH.","zip":"10332"},{"name":"KARAGÜR MAH.","zip":"10332"},{"name":"KARAKAYA MAH.","zip":"10332"},{"name":"KEPEZ MAH.","zip":"10332"},{"name":"KERTİL MAH.","zip":"10332"},{"name":"KINIK MAH.","zip":"10332"},{"name":"KIRANKÖY MAH.","zip":"10332"},{"name":"KIZILGÜR MAH.","zip":"10332"},{"name":"KOCABEY MAH.","zip":"10332"},{"name":"KOCASİNAN MAH.","zip":"10332"},{"name":"KOZLU MAH.","zip":"10332"},{"name":"KÜÇÜKBÜKÜ MAH.","zip":"10332"},{"name":"KÜÇÜKDAĞDERE MAH.","zip":"10332"},{"name":"KÜRENDERE MAH.","zip":"10332"},{"name":"MANDIRA MAH.","zip":"10332"},{"name":"MUMCUKÖY MAH.","zip":"10332"},{"name":"ORMANİÇİ MAH.","zip":"10332"},{"name":"OSMANLAR MAH.","zip":"10332"},{"name":"PELİTÖREN MAH.","zip":"10332"},{"name":"PÜRSÜNLER MAH.","zip":"10332"},{"name":"SİNANDEDE MAH.","zip":"10332"},{"name":"SÜLLER MAH.","zip":"10332"},{"name":"ŞAHİNKAYA MAH.","zip":"10332"},{"name":"ŞAPÇI MAH.","zip":"10332"},{"name":"TAŞKÖY MAH.","zip":"10332"},{"name":"UMURLAR MAH.","zip":"10332"},{"name":"YAYLABAYIR MAH.","zip":"10332"},{"name":"YAYLACIK MAH.","zip":"10332"},{"name":"YOLCUPINAR MAH.","zip":"10332"},{"name":"YUSUFÇAMI MAH.","zip":"10332"},{"name":"YÜREĞİL MAH.","zip":"10332"}]},{"name":"SINDIRGI","cityName":null,"quarters":[{"name":"CAMİKEBİR MAH.","zip":"10330"},{"name":"ÇAVDAROĞLU MAH.","zip":"10330"},{"name":"KOCAKONAK MAH.","zip":"10330"},{"name":"KURTULUŞ MAH.","zip":"10330"},{"name":"RIZAİYE MAH.","zip":"10330"}]},{"name":"GÖBEL","cityName":null,"quarters":[{"name":"ILICABOĞAZI MAH.","zip":"10610"},{"name":"KEPEKLER MAH.","zip":"10610"},{"name":"MURADİYE MAH.","zip":"10610"},{"name":"OKÇUGÖL MAH.","zip":"10610"},{"name":"SÖVE MAH.","zip":"10610"},{"name":"ÜMİTELİ MAH.","zip":"10610"}]},{"name":"KAYIKÇI","cityName":null,"quarters":[{"name":"ASMALIDERE MAH.","zip":"10602"},{"name":"AZİZİYE MAH.","zip":"10602"},{"name":"BABAKÖY MAH.","zip":"10602"},{"name":"BALIKLIDERE MAH.","zip":"10602"},{"name":"BOZEN MAH.","zip":"10602"},{"name":"BUZAĞILIK MAH.","zip":"10602"},{"name":"DANAVELİ MAH.","zip":"10602"},{"name":"DEMİRKAPI MAH.","zip":"10602"},{"name":"DEREKÖY MAH.","zip":"10602"},{"name":"DUMAN MAH.","zip":"10602"},{"name":"EKİNLİK MAH.","zip":"10602"},{"name":"EMİNPINARI MAH.","zip":"10602"},{"name":"GÖBEL MAH.","zip":"10602"},{"name":"GÖKÇEAĞAÇ MAH.","zip":"10602"},{"name":"GÖKÇEDERE MAH.","zip":"10602"},{"name":"GÜNAYDIN MAH.","zip":"10602"},{"name":"GÜRECE MAH.","zip":"10602"},{"name":"İCLALİYE MAH.","zip":"10602"},{"name":"KALFAKÖY MAH.","zip":"10602"},{"name":"KARAKÖY MAH.","zip":"10602"},{"name":"KARAPÜRÇEK MAH.","zip":"10602"},{"name":"KAYALIDERE MAH.","zip":"10602"},{"name":"KAYIKÇI MAH.","zip":"10602"},{"name":"KİRAZ MAH.","zip":"10602"},{"name":"KOCAPINAR MAH.","zip":"10602"},{"name":"KULAT MAH.","zip":"10602"},{"name":"KURUCAOLUK MAH.","zip":"10602"},{"name":"ODALIDAM MAH.","zip":"10602"},{"name":"ÖMERKÖY MAH.","zip":"10602"},{"name":"PAŞAKÖY MAH.","zip":"10602"},{"name":"REŞADİYE MAH.","zip":"10602"},{"name":"SÖĞÜTÇAYIR MAH.","zip":"10602"},{"name":"SULTANÇAYIR MAH.","zip":"10602"},{"name":"SÜLECEK MAH.","zip":"10602"},{"name":"ŞEKER MAH.","zip":"10602"},{"name":"YAĞCI MAH.","zip":"10602"},{"name":"YAHYAKÖY MAH.","zip":"10602"},{"name":"YAYLAÇAYIR MAH.","zip":"10602"},{"name":"YILDIZ MAH.","zip":"10602"}]},{"name":"SUSURLUK","cityName":null,"quarters":[{"name":"HAN MAH.","zip":"10600"},{"name":"KARŞIYAKA MAH.","zip":"10600"},{"name":"KIŞLA MAH.","zip":"10600"},{"name":"ORTA MAH.","zip":"10600"},{"name":"SULTANİYE MAH.","zip":"10600"},{"name":"YENİ MAH.","zip":"10600"}]}]}]}