{"id":11,"name":"BİLECİK","cities":[{"name":"city","districts":[{"name":"BOZÜYÜK","cityName":null,"quarters":[{"name":"KASIMPAŞA MAH.","zip":"11300"},{"name":"TEKKE MAH.","zip":"11300"},{"name":"YEDİLER MAH.","zip":"11300"},{"name":"YENİ MAH.","zip":"11300"},{"name":"YENİDOĞAN MAH.","zip":"11300"},{"name":"YEŞİLKENT MAH.","zip":"11300"}]},{"name":"DODURGA","cityName":null,"quarters":[{"name":"CİHANGAZİ KÖYÜ","zip":"11460"},{"name":"ÇOKÇAPINAR KÖYÜ","zip":"11460"},{"name":"DODURGA KÖYÜ","zip":"11460"},{"name":"DOMBAYÇAYIRI KÖYÜ","zip":"11460"},{"name":"DÜZAĞAÇ KÖYÜ","zip":"11460"},{"name":"ECEKÖY KÖYÜ","zip":"11460"},{"name":"ERİKLİ KÖYÜ","zip":"11460"},{"name":"GÖKÇELİ KÖYÜ","zip":"11460"},{"name":"GÖYNÜCEK KÖYÜ","zip":"11460"},{"name":"KARAÇAYIR KÖYÜ","zip":"11460"},{"name":"KETENLİK KÖYÜ","zip":"11460"},{"name":"MEHMET AKİF MAH.","zip":"11460"},{"name":"MERKEZ MAH.","zip":"11460"},{"name":"MİTHATPAŞA MAH.","zip":"11460"},{"name":"NAMIK KEMAL MAH.","zip":"11460"},{"name":"OSMANİYE KÖYÜ","zip":"11460"},{"name":"YENİDODURGA KÖYÜ","zip":"11460"},{"name":"YENİÜREĞİL KÖYÜ","zip":"11460"},{"name":"YEŞİLÇUKURCA KÖYÜ","zip":"11460"},{"name":"ZİYA GÖKALP MAH.","zip":"11460"}]},{"name":"MERKEZKÖYLER","cityName":null,"quarters":[{"name":"AKSUTEKKE KÖYÜ","zip":"11302"},{"name":"ALİBEYDÜZÜ KÖYÜ","zip":"11302"},{"name":"AŞAĞIARMUTLU KÖYÜ","zip":"11302"},{"name":"BOZALAN KÖYÜ","zip":"11302"},{"name":"BOZALAN MÜCAVİR DIŞI MAH.","zip":"11302"},{"name":"ÇAMYAYLA KÖYÜ","zip":"11302"},{"name":"ÇAYDERE KÖYÜ","zip":"11302"},{"name":"DARIDERE KÖYÜ","zip":"11302"},{"name":"DELİELMACIK KÖYÜ","zip":"11302"},{"name":"DÜBEKLİ KÖYÜ","zip":"11302"},{"name":"DÜZDAĞ KÖYÜ","zip":"11302"},{"name":"GÜNYARIK KÖYÜ","zip":"11302"},{"name":"HAMİDİYE KÖYÜ","zip":"11302"},{"name":"KANDİLLİ KÖYÜ","zip":"11302"},{"name":"KANDİLLİ MÜCAVİR DIŞI MAH.","zip":"11302"},{"name":"KAPANALAN KÖYÜ","zip":"11302"},{"name":"KAPANALAN KY MAH.","zip":"11302"},{"name":"KAPANALAN-2 MAH.","zip":"11302"},{"name":"KARAAĞAÇ KÖYÜ","zip":"11302"},{"name":"KARAAĞAÇ MÜCAVİR DIŞI MAH.","zip":"11302"},{"name":"KARABAYIR KÖYÜ","zip":"11302"},{"name":"KIZILCAPINAR KÖYÜ","zip":"11302"},{"name":"KIZILTEPE KÖYÜ","zip":"11302"},{"name":"KOVALICA KÖYÜ","zip":"11302"},{"name":"KOVALICA MÜCAVİR DIŞI MAH.","zip":"11302"},{"name":"KOZPINAR KÖYÜ","zip":"11302"},{"name":"KUYUPINAR KÖYÜ","zip":"11302"},{"name":"METRİSTEPE KÖYÜ","zip":"11302"},{"name":"MEVKİ MAH.","zip":"11302"},{"name":"MURATDERE KÖYÜ","zip":"11302"},{"name":"MÜCAVİR DIŞI MAH.","zip":"11302"},{"name":"NANEDERE MAH.","zip":"11302"},{"name":"ORMANGÜZLE KÖYÜ","zip":"11302"},{"name":"POYRA KÖYÜ","zip":"11302"},{"name":"POYRA MÜCAVİR DIŞI MAH.","zip":"11302"},{"name":"POYRAOSB MAH.","zip":"11302"},{"name":"REVNAK KÖYÜ","zip":"11302"},{"name":"SARAYCIK KÖYÜ","zip":"11302"},{"name":"SARAYCIK MÜCAVİR DIŞI MAH.","zip":"11302"},{"name":"YENİÇEPNİ KÖYÜ","zip":"11302"}]},{"name":"GÖLPAZARI","cityName":null,"quarters":[{"name":"İSMETPAŞA MAH.","zip":"11700"},{"name":"İSTİKLAL MAH.","zip":"11700"},{"name":"ORTA MAH.","zip":"11700"},{"name":"REŞADİYE MAH.","zip":"11700"}]},{"name":"MERKEZKÖYLER","cityName":null,"quarters":[{"name":"AKÇAÖKÜZ MAH.","zip":"11702"},{"name":"AKTAŞ KÖYÜ","zip":"11702"},{"name":"ALIÇ KÖYÜ","zip":"11702"},{"name":"ARICAKLAR KÖYÜ","zip":"11702"},{"name":"ARMUTÇUK KÖYÜ","zip":"11702"},{"name":"BAĞIŞLAR MAH.","zip":"11702"},{"name":"BAHÇELİEVLER MAH.","zip":"11702"},{"name":"BALTALI KÖYÜ","zip":"11702"},{"name":"BAYAT KÖYÜ","zip":"11702"},{"name":"BEDİ KÖYÜ","zip":"11702"},{"name":"BOLATLI KÖYÜ","zip":"11702"},{"name":"BOSTANCILAR MAH.","zip":"11702"},{"name":"BÜYÜKBELEN KÖYÜ","zip":"11702"},{"name":"BÜYÜKSUSUZ KÖYÜ","zip":"11702"},{"name":"BÜYÜKSÜRMELİ KÖYÜ","zip":"11702"},{"name":"CANSIZLAR MAH.","zip":"11702"},{"name":"ÇENGELLER KÖYÜ","zip":"11702"},{"name":"ÇIMIŞKI KÖYÜ","zip":"11702"},{"name":"ÇİFTLİK KÖYÜ","zip":"11702"},{"name":"ÇUKURÖREN KÖYÜ","zip":"11702"},{"name":"DEMİRHANLAR KÖYÜ","zip":"11702"},{"name":"DERECİKÖREN KÖYÜ","zip":"11702"},{"name":"DERELİ DAMLARI MAH.","zip":"11702"},{"name":"DERELİ KÖYÜ","zip":"11702"},{"name":"DOĞANCILAR KÖYÜ","zip":"11702"},{"name":"DOKUZ KÖYÜ","zip":"11702"},{"name":"DUMANLAR MAH.","zip":"11702"},{"name":"ELMÜMİN MAH.","zip":"11702"},{"name":"GEMİCİ MAH.","zip":"11702"},{"name":"GÖKÇELER KÖYÜ","zip":"11702"},{"name":"GÖKÇEÖZÜ KÖYÜ","zip":"11702"},{"name":"GÖLDAĞI KÖYÜ","zip":"11702"},{"name":"GÖZAÇANLAR KÖYÜ","zip":"11702"},{"name":"HACIDURMUŞLAR MAH.","zip":"11702"},{"name":"HACIKÖY KÖYÜ","zip":"11702"},{"name":"HAMİDİYE KÖYÜ","zip":"11702"},{"name":"İNCİRLİ KÖYÜ","zip":"11702"},{"name":"KARAAĞAÇ KÖYÜ","zip":"11702"},{"name":"KARAAHMETLER KÖYÜ","zip":"11702"},{"name":"KARACALAR KÖYÜ","zip":"11702"},{"name":"KASIMLAR KÖYÜ","zip":"11702"},{"name":"KAVAK KÖYÜ","zip":"11702"},{"name":"KESKİN KÖYÜ","zip":"11702"},{"name":"KÖPRÜCEK KÖYÜ","zip":"11702"},{"name":"KÖPRÜCEK MAH.","zip":"11702"},{"name":"KURŞUNLU KÖYÜ","zip":"11702"},{"name":"KUŞÇUÖREN KÖYÜ","zip":"11702"},{"name":"KÜÇÜKSUSUZ KÖYÜ","zip":"11702"},{"name":"KÜÇÜKYENİCE KÖYÜ","zip":"11702"},{"name":"KÜMBET KÖYÜ","zip":"11702"},{"name":"MURATLAR MAH.","zip":"11702"},{"name":"NEÇİNLER MAH.","zip":"11702"},{"name":"ORMANCILAR MAH.","zip":"11702"},{"name":"SARIHACILAR KÖYÜ","zip":"11702"},{"name":"SEYFİLER MAH.","zip":"11702"},{"name":"SOFTALAR KÖYÜ","zip":"11702"},{"name":"SÖĞÜTCÜK KÖYÜ","zip":"11702"},{"name":"ŞAHİNLER KÖYÜ","zip":"11702"},{"name":"ŞIHLAR MAH.","zip":"11702"},{"name":"TAŞÇIAHİLER KÖYÜ","zip":"11702"},{"name":"TAŞÇIAHİLER MAH.","zip":"11702"},{"name":"TONGURLAR KÖYÜ","zip":"11702"},{"name":"TÜRKMEN KÖYÜ","zip":"11702"},{"name":"URGANCILAR MAH.","zip":"11702"},{"name":"ÜYÜK KÖYÜ","zip":"11702"},{"name":"YAĞCI MAH.","zip":"11702"},{"name":"YAĞCILAR MAH.","zip":"11702"}]},{"name":"İNHİSAR","cityName":null,"quarters":[{"name":"GÜNER ORBAY MAH.","zip":"11640"},{"name":"KARAAĞAÇ MAH.","zip":"11640"},{"name":"ZAFER MAH.","zip":"11640"}]},{"name":"MERKEZKÖYLER","cityName":null,"quarters":[{"name":"ÇAYKÖY KÖYÜ","zip":"11642"},{"name":"HARMANKÖY KÖYÜ","zip":"11642"},{"name":"HİSARCIK KÖYÜ","zip":"11642"},{"name":"KOYUNLU KÖYÜ","zip":"11642"},{"name":"MERKEZ MAH.","zip":"11642"},{"name":"MURATÇA KÖYÜ","zip":"11642"},{"name":"SAMRI KÖYÜ","zip":"11642"},{"name":"TARPAK KÖYÜ","zip":"11642"},{"name":"TOZMAN KÖYÜ","zip":"11642"}]},{"name":"BİLECİK","cityName":null,"quarters":[{"name":"BEŞİKTAŞ MAH.","zip":"11100"},{"name":"CUMHURİYET MAH.","zip":"11100"},{"name":"ERTUĞRULGAZİ MAH.","zip":"11100"},{"name":"GAZİPAŞA MAH.","zip":"11100"},{"name":"HÜRRİYET 1.OSB MAH.","zip":"11100"},{"name":"HÜRRİYET 2.OSB MAH.","zip":"11100"},{"name":"HÜRRİYET MAH.","zip":"11100"},{"name":"İSMETPAŞA MAH.","zip":"11100"},{"name":"İSTASYON MAH.","zip":"11100"},{"name":"İSTİKLAL MAH.","zip":"11100"},{"name":"ORHANGAZİ MAH.","zip":"11100"},{"name":"OSMANGAZİ MAH.","zip":"11100"}]},{"name":"MERKEZKÖYLER","cityName":null,"quarters":[{"name":"ABBASLIK KÖYÜ","zip":"11230"},{"name":"AHMETPINAR KÖYÜ","zip":"11230"},{"name":"ALPAĞUT KÖYÜ","zip":"11230"},{"name":"AŞAĞIKÖY KÖYÜ","zip":"11230"},{"name":"AYVACIK KÖYÜ","zip":"11230"},{"name":"BAHÇECİK KÖYÜ","zip":"11230"},{"name":"BAŞKÖY KÖYÜ","zip":"11230"},{"name":"BAŞKÖY MERKEZ MAH.","zip":"11230"},{"name":"BAYIRKÖY KÖYÜ","zip":"11230"},{"name":"BEKDEMİR KÖYÜ","zip":"11230"},{"name":"BEYCE KÖYÜ","zip":"11230"},{"name":"BEYCE MÜCAVİR MAH.","zip":"11230"},{"name":"CUMALI KÖYÜ","zip":"11230"},{"name":"ÇAKIRPINAR KÖYÜ","zip":"11230"},{"name":"ÇAKIRPINAR MÜCAVİR MAH.","zip":"11230"},{"name":"ÇAMLIK MAH.","zip":"11230"},{"name":"ÇAVUŞKÖY KÖYÜ","zip":"11230"},{"name":"ÇUKURÖREN KÖYÜ","zip":"11230"},{"name":"DERESAKARI KÖYÜ","zip":"11230"},{"name":"DEREŞEMSETTİN KÖYÜ","zip":"11230"},{"name":"DEREŞEMSETTİN MÜCAVİR MAH.","zip":"11230"},{"name":"ELMABAHÇE KÖYÜ","zip":"11230"},{"name":"ERKOCA KÖYÜ","zip":"11230"},{"name":"ERTUĞRULGAZİ MAH.","zip":"11230"},{"name":"FATİH MAH.","zip":"11230"},{"name":"GAZİ MAH.","zip":"11230"},{"name":"GÖKPINAR KÖYÜ","zip":"11230"},{"name":"GÖKPINAR MÜCAVİR MAH.","zip":"11230"},{"name":"GÜLÜMBE KÖYÜ","zip":"11230"},{"name":"GÜLÜMBE MÜCAVİR DIŞI MAH.","zip":"11230"},{"name":"HASANDERE KÖYÜ","zip":"11230"},{"name":"HÜRRİYET MAH.","zip":"11230"},{"name":"İKİZCE KÖYÜ","zip":"11230"},{"name":"İLYASBEY KÖYÜ","zip":"11230"},{"name":"İLYASÇA KÖYÜ","zip":"11230"},{"name":"İSTASYON MAH.","zip":"11230"},{"name":"KAPAKLI KÖYÜ","zip":"11230"},{"name":"KARAAĞAÇ KÖYÜ","zip":"11230"},{"name":"KARASU MEVKİ MAH.","zip":"11230"},{"name":"KAVAKLI KÖYÜ","zip":"11230"},{"name":"KAYALAR MAH.","zip":"11230"},{"name":"KENDİRLİ KÖYÜ","zip":"11230"},{"name":"KEPİRLER KÖYÜ","zip":"11230"},{"name":"KEPİRLER MÜCAVİR MAH.","zip":"11230"},{"name":"KINIK KÖYÜ","zip":"11230"},{"name":"KIZILDAMLAR KÖYÜ","zip":"11230"},{"name":"KOYUNKÖY KÖYÜ","zip":"11230"},{"name":"KÖPRÜLÜ MEHMET PAŞA MAH.","zip":"11230"},{"name":"KURTKÖY KÖYÜ","zip":"11230"},{"name":"KURTULUŞ MAH.","zip":"11230"},{"name":"KURULAR MAH.","zip":"11230"},{"name":"KUYUBAŞI KÖYÜ","zip":"11230"},{"name":"KÜNCEĞİZ KÖYÜ","zip":"11230"},{"name":"KÜPLÜ KÖYÜ","zip":"11230"},{"name":"KÜPLÜ MERKEZ MAH.","zip":"11230"},{"name":"MÜCAVİR DIŞI MAH.","zip":"11230"},{"name":"NECMİYEKÖY KÖYÜ","zip":"11230"},{"name":"NECMİYEKÖY MÜCAVİR MAH.","zip":"11230"},{"name":"OKLUCA KÖYÜ","zip":"11230"},{"name":"OKLUCA MÜCAVİR MAH.","zip":"11230"},{"name":"ÖREN KÖYÜ","zip":"11230"},{"name":"PELİTÖZÜ KÖYÜ","zip":"11230"},{"name":"SARMAŞIK MAH.","zip":"11230"},{"name":"SELBÜKÜ KÖYÜ","zip":"11230"},{"name":"SELÖZ KÖYÜ","zip":"11230"},{"name":"SELÖZ MÜCAVİR MAH.","zip":"11230"},{"name":"SÜTLÜK KÖYÜ","zip":"11230"},{"name":"ŞÜKRANİYE KÖYÜ","zip":"11230"},{"name":"TAŞÇILAR KÖYÜ","zip":"11230"},{"name":"TAŞÇILAR MÜCAVİR MAH.","zip":"11230"},{"name":"ULUPINAR KÖYÜ","zip":"11230"},{"name":"VEZİRHAN KÖYÜ","zip":"11230"},{"name":"YENİ MAH.","zip":"11230"},{"name":"YENİKÖY KÖYÜ","zip":"11230"},{"name":"YENİKÖY MÜCAVİR MAH.","zip":"11230"},{"name":"YUNUSLAR MAH.","zip":"11230"},{"name":"ADLİYE KÖYÜ","zip":"11502"},{"name":"AĞLAN KÖYÜ","zip":"11502"},{"name":"AKÇAPINAR KÖYÜ","zip":"11502"},{"name":"AKÇAPINAR MAH.","zip":"11502"},{"name":"AVDAN KÖYÜ","zip":"11502"},{"name":"BALÇIKHİSAR KÖYÜ","zip":"11502"},{"name":"BELENALAN KÖYÜ","zip":"11502"},{"name":"BENLİ MAH.","zip":"11502"},{"name":"BEREKET KÖYÜ","zip":"11502"},{"name":"BEŞEVLER MAH.","zip":"11502"},{"name":"BORCAK KÖYÜ","zip":"11502"},{"name":"BOYUNKAYA KÖYÜ","zip":"11502"},{"name":"BÜYÜKYENİCE KÖYÜ","zip":"11502"},{"name":"BÜYÜKYENİCE MÜCAVİR MAH.","zip":"11502"},{"name":"CİCİLER KÖYÜ","zip":"11502"},{"name":"ÇERKEŞLİ KÖYÜ","zip":"11502"},{"name":"ÇİFTLİK KÖYÜ","zip":"11502"},{"name":"DEREYÖRÜK KÖYÜ","zip":"11502"},{"name":"DÜZMEŞE KÖYÜ","zip":"11502"},{"name":"ERİCEK KÖYÜ","zip":"11502"},{"name":"GAZİLER MAH.","zip":"11502"},{"name":"GÜNÜÖREN KÖYÜ","zip":"11502"},{"name":"HİSARCIK KÖYÜ","zip":"11502"},{"name":"HİSARCIK MAH.","zip":"11502"},{"name":"KAŞIKÇI MAH.","zip":"11502"},{"name":"KAZANCI KÖYÜ","zip":"11502"},{"name":"KIZILÖZ KÖYÜ","zip":"11502"},{"name":"MEDETLİ KÖYÜ","zip":"11502"},{"name":"OĞULPAŞA KÖYÜ","zip":"11502"},{"name":"OĞULPAŞA MAH.","zip":"11502"},{"name":"ORHANİYE KÖYÜ","zip":"11502"},{"name":"SARIYAZI KÖYÜ","zip":"11502"},{"name":"SARIYAZI MAH.","zip":"11502"},{"name":"SELÇİK KÖYÜ","zip":"11502"},{"name":"SELÇİK MÜCAVİR MAH.","zip":"11502"},{"name":"SELİMİYE KÖYÜ","zip":"11502"},{"name":"SELİMİYE MÜCAVİR MAH.","zip":"11502"},{"name":"SELİMİYEOSB MAH.","zip":"11502"},{"name":"SOĞUCAKPINAR KÖYÜ","zip":"11502"},{"name":"SOĞUCAKPINAR MAH.","zip":"11502"},{"name":"YEŞİLÇİMEN MAH.","zip":"11502"}]},{"name":"OSMANELİ","cityName":null,"quarters":[{"name":"CAMİKEBİR MAH.","zip":"11500"},{"name":"HACELOĞLU MAH.","zip":"11500"},{"name":"İNÖNÜ MAH.","zip":"11500"}]},{"name":"MERKEZKÖYLER","cityName":null,"quarters":[{"name":"ALINCA KÖYÜ","zip":"11802"},{"name":"ARAPDEDE KÖYÜ","zip":"11802"},{"name":"ARAPDEDE MÜCAVİR MAH.","zip":"11802"},{"name":"ARPADERE KÖYÜ","zip":"11802"},{"name":"BAHÇESULTAN KÖYÜ","zip":"11802"},{"name":"BALIKLI GÜNEY MAH.","zip":"11802"},{"name":"BALIKLI MAH.","zip":"11802"},{"name":"BOZCAARMUT KÖYÜ","zip":"11802"},{"name":"BULDUK KÖYÜ","zip":"11802"},{"name":"BURÇALIK KÖYÜ","zip":"11802"},{"name":"BÜYÜKELMALI KÖYÜ","zip":"11802"},{"name":"DEMİRKÖY KÖYÜ","zip":"11802"},{"name":"DEMİRKÖY KÖYÜ MAH.","zip":"11802"},{"name":"DEREKÖY KÖYÜ","zip":"11802"},{"name":"DEREKÖY MÜCAVİR MAH.","zip":"11802"},{"name":"DORUK MAH.","zip":"11802"},{"name":"DÜLGEROĞLU KÖYÜ","zip":"11802"},{"name":"ESEMEN KÖYÜ","zip":"11802"},{"name":"FIRANLAR 1 MAH.","zip":"11802"},{"name":"FIRANLAR KÖYÜ","zip":"11802"},{"name":"FIRANLAR MAH.","zip":"11802"},{"name":"FIRANLAR MÜCAVİR MAH.","zip":"11802"},{"name":"GÜDE KÖYÜ","zip":"11802"},{"name":"GÜMÜŞDERE KÖYÜ","zip":"11802"},{"name":"GÜNYURDU KÖYÜ","zip":"11802"},{"name":"KARADEDE KÖYÜ","zip":"11802"},{"name":"KARAKÖY KÖYÜ","zip":"11802"},{"name":"KARAKÖY MÜCAVİR MAH.","zip":"11802"},{"name":"KARAKÖY-2 MAH.","zip":"11802"},{"name":"KINIK KÖYÜ","zip":"11802"},{"name":"KIŞLA MAH.","zip":"11802"},{"name":"KÜÇÜKELMALI KÖYÜ","zip":"11802"},{"name":"LEYEN İÇİ MAH.","zip":"11802"},{"name":"NAZİFPAŞA KÖYÜ","zip":"11802"},{"name":"SARIDAYI KÖYÜ","zip":"11802"},{"name":"SARNIÇ KÖYÜ","zip":"11802"},{"name":"SAZAK MAH.","zip":"11802"},{"name":"SORGUN MAH.","zip":"11802"},{"name":"SORKUN BEYÇAYIR TAVŞAN TEPE MAH.","zip":"11802"},{"name":"SÜLEYMANİYE MAH.","zip":"11802"},{"name":"YENİ YERLEŞİM YERİ MAH.","zip":"11802"}]},{"name":"PAZARYERİ","cityName":null,"quarters":[{"name":"ÇARŞI MAH.","zip":"11800"},{"name":"DEREBOĞAZ MAH.","zip":"11800"},{"name":"DOĞANLAR MAH.","zip":"11800"},{"name":"PAMUCAKOSB MAH.","zip":"11800"},{"name":"YENİ MAH.","zip":"11800"},{"name":"YÜZBAŞI MAH.","zip":"11800"}]},{"name":"MERKEZKÖYLER","cityName":null,"quarters":[{"name":"AKÇASU KÖYÜ","zip":"11602"},{"name":"BORCAK KÖYÜ","zip":"11602"},{"name":"ÇALTI KÖYÜ","zip":"11602"},{"name":"DEREBOYU KÖYÜ","zip":"11602"},{"name":"DÖMEZ KÖYÜ","zip":"11602"},{"name":"DUDAŞ KÖYÜ","zip":"11602"},{"name":"GEÇİTLİ KÖYÜ","zip":"11602"},{"name":"GÜNDÜZBEY KÖYÜ","zip":"11602"},{"name":"GÜR MAH.","zip":"11602"},{"name":"HAMİTABAT KÖYÜ","zip":"11602"},{"name":"HAYRİYE KÖYÜ","zip":"11602"},{"name":"KAYABALI KÖYÜ","zip":"11602"},{"name":"KEPEN KÖYÜ","zip":"11602"},{"name":"KIZILSARAY KÖYÜ","zip":"11602"},{"name":"KÜRE KÖYÜ","zip":"11602"},{"name":"KÜREOSB MAH.","zip":"11602"},{"name":"MERKEZ MAH.","zip":"11602"},{"name":"OLUKLU KÖYÜ","zip":"11602"},{"name":"ORTACA KÖYÜ","zip":"11602"},{"name":"RIZAPAŞA KÖYÜ","zip":"11602"},{"name":"SAVCIBEY KÖYÜ","zip":"11602"},{"name":"SIRHOCA KÖYÜ","zip":"11602"},{"name":"ŞEN MAH.","zip":"11602"},{"name":"TUZAKLI KÖYÜ","zip":"11602"},{"name":"YAKACIK KÖYÜ","zip":"11602"},{"name":"YEŞİLYURT KÖYÜ","zip":"11602"},{"name":"ZEMZEMİYE KÖYÜ","zip":"11602"}]},{"name":"SÖĞÜT","cityName":null,"quarters":[{"name":"CUMHURİYET MAH.","zip":"11600"},{"name":"KAYHAN MAH.","zip":"11600"},{"name":"ORTA MAH.","zip":"11600"},{"name":"TÜRKMENBAŞI MAH.","zip":"11600"}]},{"name":"MERKEZKÖYLER","cityName":null,"quarters":[{"name":"AŞAĞIÇAYLI KÖYÜ","zip":"11782"},{"name":"BATIBELENÖREN KÖYÜ","zip":"11782"},{"name":"BELKESE KÖYÜ","zip":"11782"},{"name":"CAFERLER KÖYÜ","zip":"11782"},{"name":"CAFERLER MAH.","zip":"11782"},{"name":"DANİŞMENT KÖYÜ","zip":"11782"},{"name":"DEREKÖY KÖYÜ","zip":"11782"},{"name":"DOĞUBELENÖREN KÖYÜ","zip":"11782"},{"name":"ESENKÖY KÖYÜ","zip":"11782"},{"name":"ESENKÖY MAH.","zip":"11782"},{"name":"KARAHASANLAR KÖYÜ","zip":"11782"},{"name":"KATRAN KÖYÜ","zip":"11782"},{"name":"KAVACIK KÖYÜ","zip":"11782"},{"name":"KÖSÜRE KÖYÜ","zip":"11782"},{"name":"KUŞÇA KÖYÜ","zip":"11782"},{"name":"KÜKÜRT KÖYÜ","zip":"11782"},{"name":"NASUHLAR KÖYÜ","zip":"11782"},{"name":"SELİM KÖYÜ","zip":"11782"},{"name":"SORGUNCUKAHİLER KÖYÜ","zip":"11782"},{"name":"TEKECİLER MAH.","zip":"11782"},{"name":"TOHUMLAR KÖYÜ","zip":"11782"},{"name":"ULUCAK KÖYÜ","zip":"11782"},{"name":"ÜMİTLER MAH.","zip":"11782"},{"name":"YUKARIBOĞAZ KÖYÜ","zip":"11782"},{"name":"YUKARIÇAYLI KÖYÜ","zip":"11782"},{"name":"YUMAKLI KÖYÜ","zip":"11782"}]},{"name":"YENİPAZAR","cityName":null,"quarters":[{"name":"OSMANGAZİ MAH.","zip":"11780"},{"name":"YENİ MAH.","zip":"11780"},{"name":"ZAFER MAH.","zip":"11780"}]}]}]}