{"id":12,"name":"BİNGÖL","cities":[{"name":"city","districts":[{"name":"ADAKLI","cityName":null,"quarters":[{"name":"DÖŞLÜCE MAH.","zip":"12600"},{"name":"GÜNGÖRSÜN MAH.","zip":"12600"},{"name":"MERKEZ MAH.","zip":"12600"},{"name":"YEŞİLTEPE MAH.","zip":"12600"}]},{"name":"MERKEZKÖYLER","cityName":null,"quarters":[{"name":"AFETKONUTLARI 2 MAH.","zip":"12602"},{"name":"AFETKONUTLARI MAH.","zip":"12602"},{"name":"AĞA KÖY MAH.","zip":"12602"},{"name":"AKBİNEK KÖYÜ","zip":"12602"},{"name":"AKKUŞ MAH.","zip":"12602"},{"name":"AKTAŞ KÖYÜ","zip":"12602"},{"name":"ALTINBAŞAK MAH.","zip":"12602"},{"name":"ALTINEVLER KÖYÜ","zip":"12602"},{"name":"ALTINYAYIK MAH.","zip":"12602"},{"name":"ARZU 1 MAH.","zip":"12602"},{"name":"ARZU MAH.","zip":"12602"},{"name":"AYRANLI MAH.","zip":"12602"},{"name":"AYSAKLI KÖYÜ","zip":"12602"},{"name":"AYVADÜZÜ KÖYÜ","zip":"12602"},{"name":"BAĞLARPINARI KÖYÜ","zip":"12602"},{"name":"BEKAN MAH.","zip":"12602"},{"name":"BENT MAH.","zip":"12602"},{"name":"BOÇ MAH.","zip":"12602"},{"name":"BOYALI KÖYÜ","zip":"12602"},{"name":"CAFERAN MAH.","zip":"12602"},{"name":"CEVİZLİ KÖYÜ","zip":"12602"},{"name":"ÇAKILCA MAH.","zip":"12602"},{"name":"ÇAMLICA KÖYÜ","zip":"12602"},{"name":"ÇANAKÇİ MAH.","zip":"12602"},{"name":"ÇATKUYU MAH.","zip":"12602"},{"name":"ÇATMA KÖYÜ","zip":"12602"},{"name":"ÇAYAĞZI MAH.","zip":"12602"},{"name":"ÇELEBİ MAH.","zip":"12602"},{"name":"ÇEM MAH.","zip":"12602"},{"name":"ÇEVRECİK MAH.","zip":"12602"},{"name":"ÇEVRELİ KÖYÜ","zip":"12602"},{"name":"ÇİÇEK MAH.","zip":"12602"},{"name":"ÇİÇEKLİ MAH.","zip":"12602"},{"name":"ÇOMAK MAH.","zip":"12602"},{"name":"ÇÖREKLİ MAH.","zip":"12602"},{"name":"DAĞDELEN MAH.","zip":"12602"},{"name":"DOĞANCA MAH.","zip":"12602"},{"name":"DOĞANKAYA KÖYÜ","zip":"12602"},{"name":"DOĞLICA MAH.","zip":"12602"},{"name":"DOLUÇAY KÖYÜ","zip":"12602"},{"name":"DOLUTEKNE KÖYÜ","zip":"12602"},{"name":"ELMAAĞAÇ KÖYÜ","zip":"12602"},{"name":"ELMADÜZÜ KÖYÜ","zip":"12602"},{"name":"ERBAŞLAR KÖYÜ","zip":"12602"},{"name":"ERLER KÖYÜ","zip":"12602"},{"name":"GOŞAN MAH.","zip":"12602"},{"name":"GÖKÇELİ KÖYÜ","zip":"12602"},{"name":"GÖZÜTEK MAH.","zip":"12602"},{"name":"GURBET MAH.","zip":"12602"},{"name":"GÜVERCİN MAH.","zip":"12602"},{"name":"HARABA MAH.","zip":"12602"},{"name":"HASBAĞLAR KÖYÜ","zip":"12602"},{"name":"İKİZ MAH.","zip":"12602"},{"name":"KABAÇALI KÖYÜ","zip":"12602"},{"name":"KALE MAH.","zip":"12602"},{"name":"KAMIŞGÖLÜ KÖYÜ","zip":"12602"},{"name":"KANTAR MAH.","zip":"12602"},{"name":"KARAÇUBUK KÖYÜ","zip":"12602"},{"name":"KARAKOÇ MAH.","zip":"12602"},{"name":"KARAMAN MAH.","zip":"12602"},{"name":"KAYNAKDÜZÜ KÖYÜ","zip":"12602"},{"name":"KIRKPINAR KÖYÜ","zip":"12602"},{"name":"KORKMAZ MAH.","zip":"12602"},{"name":"KOZLU KÖYÜ","zip":"12602"},{"name":"KÖMÜR MAH.","zip":"12602"},{"name":"KURİ MAH.","zip":"12602"},{"name":"MERCAN KÖYÜ","zip":"12602"},{"name":"MERGAN MAH.","zip":"12602"},{"name":"OSMANUŞAĞI MAH.","zip":"12602"},{"name":"SARIDİBEK KÖYÜ","zip":"12602"},{"name":"SEVKAR KÖYÜ","zip":"12602"},{"name":"SIRALISÖĞÜTLER MAH.","zip":"12602"},{"name":"SÜTLÜCE KÖYÜ","zip":"12602"},{"name":"ŞABAN MAH.","zip":"12602"},{"name":"TOPAĞAÇLAR KÖYÜ","zip":"12602"},{"name":"TOSUNLU MAH.","zip":"12602"},{"name":"UZUNPAZAR MAH.","zip":"12602"},{"name":"YAKINCA MAH.","zip":"12602"},{"name":"YAYLAKONAK MAH.","zip":"12602"},{"name":"YELDEĞİRMENİ KÖYÜ","zip":"12602"},{"name":"YONCALIK MAH.","zip":"12602"}]},{"name":"GENÇ","cityName":null,"quarters":[{"name":"KÜLTÜR MAH.","zip":"12500"},{"name":"YEŞİLDERE MAH.","zip":"12500"},{"name":"YOLDAŞAN MAH.","zip":"12500"}]},{"name":"MERKEZKÖYLER","cityName":null,"quarters":[{"name":"AÇIKALAN MAH.","zip":"12502"},{"name":"AKARSU MAH.","zip":"12502"},{"name":"AKBÜYÜK MAH.","zip":"12502"},{"name":"AKÇASÜT MAH.","zip":"12502"},{"name":"AKPINAR MAH.","zip":"12502"},{"name":"AKSUNGUR MAH.","zip":"12502"},{"name":"AKTOPRAK KÖYÜ","zip":"12502"},{"name":"AKYUMAK MAH.","zip":"12502"},{"name":"ALAADDİN KÖYÜ","zip":"12502"},{"name":"ALANCIK MAH.","zip":"12502"},{"name":"ALATLI MAH.","zip":"12502"},{"name":"ALİÇAPAN MAH.","zip":"12502"},{"name":"AMERAN MAH.","zip":"12502"},{"name":"ARDIÇDİBİ KÖYÜ","zip":"12502"},{"name":"ARDİVEN MAH.","zip":"12502"},{"name":"ARITAŞ MAH.","zip":"12502"},{"name":"ARPA ÇAY MAH.","zip":"12502"},{"name":"ARPACİK MAH.","zip":"12502"},{"name":"ASLANCIK MAH.","zip":"12502"},{"name":"AŞAĞIBİÇER MAH.","zip":"12502"},{"name":"AŞAĞIELMAGÜNÜ MAH.","zip":"12502"},{"name":"AŞAĞIGEM MAH.","zip":"12502"},{"name":"AYDINCIK MAH.","zip":"12502"},{"name":"AYDINLI MAH.","zip":"12502"},{"name":"AYDOĞMUŞ MAH.","zip":"12502"},{"name":"AYRANCI MAH.","zip":"12502"},{"name":"BAHÇEBAŞI KÖYÜ","zip":"12502"},{"name":"BAHÇEBAŞI MAH.","zip":"12502"},{"name":"BALGÖZE KÖYÜ","zip":"12502"},{"name":"BARDACIK MAH.","zip":"12502"},{"name":"BARIŞ MAH.","zip":"12502"},{"name":"BAŞMAKLI MAH.","zip":"12502"},{"name":"BAYIRCIK MAH.","zip":"12502"},{"name":"BAYIRLI KÖYÜ","zip":"12502"},{"name":"BAYRAMLI MAH.","zip":"12502"},{"name":"BEKÇİLER MAH.","zip":"12502"},{"name":"BEREKET MAH.","zip":"12502"},{"name":"BIRNEK MAH.","zip":"12502"},{"name":"BİNDALLI MAH.","zip":"12502"},{"name":"BİNEKLİ KÖYÜ","zip":"12502"},{"name":"BOYLU MAH.","zip":"12502"},{"name":"BÖLÜKLÜ MAH.","zip":"12502"},{"name":"BUDAK MAH.","zip":"12502"},{"name":"BULGURLU MAH.","zip":"12502"},{"name":"BULGURLUK KÖYÜ","zip":"12502"},{"name":"BÜYÜKÇAĞ KÖYÜ","zip":"12502"},{"name":"BÜYÜKKÖY MAH.","zip":"12502"},{"name":"CİM MAH.","zip":"12502"},{"name":"COŞKUNLAR MAH.","zip":"12502"},{"name":"ÇALIŞKANLAR MAH.","zip":"12502"},{"name":"ÇAMLIYURT KÖYÜ","zip":"12502"},{"name":"ÇANAKÇI KÖYÜ","zip":"12502"},{"name":"ÇAYBAŞI KÖYÜ","zip":"12502"},{"name":"ÇAYTEPE KÖYÜ","zip":"12502"},{"name":"ÇEKMECE MAH.","zip":"12502"},{"name":"ÇETİNKAYA MAH.","zip":"12502"},{"name":"ÇEVİRME KÖYÜ","zip":"12502"},{"name":"ÇEVRELİ MAH.","zip":"12502"},{"name":"ÇİÇEKLİ MAH.","zip":"12502"},{"name":"ÇOBANÇEŞMESİ KÖYÜ","zip":"12502"},{"name":"ÇOBANKAYA MAH.","zip":"12502"},{"name":"ÇÖĞÜRLÜ MAH.","zip":"12502"},{"name":"DAHLEK MAH.","zip":"12502"},{"name":"DEDEBAĞI KÖYÜ","zip":"12502"},{"name":"DEMİRKAPI MAH.","zip":"12502"},{"name":"DEMİRLİBAĞ MAH.","zip":"12502"},{"name":"DEMİRÖREN MAH.","zip":"12502"},{"name":"DEREKÖY KÖYÜ","zip":"12502"},{"name":"DEREMURT MAH.","zip":"12502"},{"name":"DERMAN MAH.","zip":"12502"},{"name":"DEVELİ MAH.","zip":"12502"},{"name":"DİBEK MAH.","zip":"12502"},{"name":"DİKMECİ MAH.","zip":"12502"},{"name":"DİKMELİ MAH.","zip":"12502"},{"name":"DİKMETAŞ MAH.","zip":"12502"},{"name":"DİKPINAR KÖYÜ","zip":"12502"},{"name":"DİLEKTAŞI KÖYÜ","zip":"12502"},{"name":"DİREKLİ KÖYÜ","zip":"12502"},{"name":"DİREKLİ MAH.","zip":"12502"},{"name":"DOGANLAR MAH.","zip":"12502"},{"name":"DOĞANCA KÖYÜ","zip":"12502"},{"name":"DOĞANCA MAH.","zip":"12502"},{"name":"DOĞANEVLER KÖYÜ","zip":"12502"},{"name":"DOĞANLAR MAH.","zip":"12502"},{"name":"DOĞANLI KÖYÜ","zip":"12502"},{"name":"DOĞRULAR MAH.","zip":"12502"},{"name":"DOĞUKENT MAH.","zip":"12502"},{"name":"DOLUDERE KÖYÜ","zip":"12502"},{"name":"DOLUDERE MAH.","zip":"12502"},{"name":"DOMLUCA MAH.","zip":"12502"},{"name":"DOYUMLU MAH.","zip":"12502"},{"name":"DÖŞ MAH.","zip":"12502"},{"name":"DÖŞEKKAYA KÖYÜ","zip":"12502"},{"name":"DÖŞEMIRNE MAH.","zip":"12502"},{"name":"DURMUŞLAR MAH.","zip":"12502"},{"name":"DURMUŞLU MAH.","zip":"12502"},{"name":"DUTLUCA MAH.","zip":"12502"},{"name":"DÜZ YAYLA MAH.","zip":"12502"},{"name":"EKİNCİK MAH.","zip":"12502"},{"name":"EKMEKLİ MAH.","zip":"12502"},{"name":"ELMAGÜNÜ KÖYÜ","zip":"12502"},{"name":"ERDOĞDU MAH.","zip":"12502"},{"name":"ERENLER MAH.","zip":"12502"},{"name":"ERİCEK KÖYÜ","zip":"12502"},{"name":"ESENLER MAH.","zip":"12502"},{"name":"ESKİ KEKLİKDERE MAH.","zip":"12502"},{"name":"ESKİ KÖY MAH.","zip":"12502"},{"name":"ESKİBAĞ KÖYÜ","zip":"12502"},{"name":"FIRAT MAH.","zip":"12502"},{"name":"GELBE MAH.","zip":"12502"},{"name":"GELİNGİK MAH.","zip":"12502"},{"name":"GERÇEKLİ KÖYÜ","zip":"12502"},{"name":"GEYİKDERE KÖYÜ","zip":"12502"},{"name":"GILGÖR MAH.","zip":"12502"},{"name":"GÖKYAZI MAH.","zip":"12502"},{"name":"GÖNÜLAÇAN KÖYÜ","zip":"12502"},{"name":"GÖRSÜ MAH.","zip":"12502"},{"name":"GÖRT MAH.","zip":"12502"},{"name":"GÖZBASAN MAH.","zip":"12502"},{"name":"GÖZERTEPE KÖYÜ","zip":"12502"},{"name":"GÖZLÜCE MAH.","zip":"12502"},{"name":"GÖZÜTOK KÖYÜ","zip":"12502"},{"name":"GÜLLÜCE MAH.","zip":"12502"},{"name":"GÜMÜŞLÜ MAH.","zip":"12502"},{"name":"GÜNGÖRMEZ MAH.","zip":"12502"},{"name":"GÜNKONDU KÖYÜ","zip":"12502"},{"name":"GÜNKONDU MAH.","zip":"12502"},{"name":"GÜNLÜCE MAH.","zip":"12502"},{"name":"GÜREŞLİ MAH.","zip":"12502"},{"name":"GÜVERCİNLİ MAH.","zip":"12502"},{"name":"GÜZELDERE KÖYÜ","zip":"12502"},{"name":"HARMANCIK KÖYÜ","zip":"12502"},{"name":"HASANAN MAH.","zip":"12502"},{"name":"HASİNAN MAH.","zip":"12502"},{"name":"HEGEHIRBON MAH.","zip":"12502"},{"name":"HEGEPİR MAH.","zip":"12502"},{"name":"HENGİMAL MAH.","zip":"12502"},{"name":"HERKİN MAH.","zip":"12502"},{"name":"HOŞEK MAH.","zip":"12502"},{"name":"HUZGUNUS MAH.","zip":"12502"},{"name":"HÜLÜCEK MAH.","zip":"12502"},{"name":"IŞIKLI MAH.","zip":"12502"},{"name":"IŞIKULUK MAH.","zip":"12502"},{"name":"İBRAMAN MAH.","zip":"12502"},{"name":"İĞDECİK MAH.","zip":"12502"},{"name":"İKİZLER MAH.","zip":"12502"},{"name":"İMECELİ MAH.","zip":"12502"},{"name":"KABATAŞ MAH.","zip":"12502"},{"name":"KALDIRIM MAH.","zip":"12502"},{"name":"KALEDİBİ MAH.","zip":"12502"},{"name":"KALKANLI MAH.","zip":"12502"},{"name":"KANATLI MAH.","zip":"12502"},{"name":"KAPAKLI MAH.","zip":"12502"},{"name":"KAPILI MAH.","zip":"12502"},{"name":"KARABULUT MAH.","zip":"12502"},{"name":"KARAOLUK MAH.","zip":"12502"},{"name":"KARATAŞ MAH.","zip":"12502"},{"name":"KARCI KÖYÜ","zip":"12502"},{"name":"KARDEŞLER MAH.","zip":"12502"},{"name":"KAVACIK MAH.","zip":"12502"},{"name":"KAVAKLI KÖYÜ","zip":"12502"},{"name":"KAYACIK MAH.","zip":"12502"},{"name":"KAYASIRTI MAH.","zip":"12502"},{"name":"KAYGISIZ MAH.","zip":"12502"},{"name":"KAYMAKCI MAH.","zip":"12502"},{"name":"KAYMAZ MAH.","zip":"12502"},{"name":"KAYNAKLI MAH.","zip":"12502"},{"name":"KAZANCIK MAH.","zip":"12502"},{"name":"KEBİR MAH.","zip":"12502"},{"name":"KEHEKELENİN MAH.","zip":"12502"},{"name":"KEKLİKDERE KÖYÜ","zip":"12502"},{"name":"KELMER MAH.","zip":"12502"},{"name":"KEPÇELİ KÖYÜ","zip":"12502"},{"name":"KESKİN MAH.","zip":"12502"},{"name":"KILIÇLI MAH.","zip":"12502"},{"name":"KILIÇLI YAYLA MAH.","zip":"12502"},{"name":"KİLİMLİ MAH.","zip":"12502"},{"name":"KİRİŞLİ MAH.","zip":"12502"},{"name":"KOCAKAYA MAH.","zip":"12502"},{"name":"KOÇSIRTI KÖYÜ","zip":"12502"},{"name":"KORÇİYAN MAH.","zip":"12502"},{"name":"KORKUT MAH.","zip":"12502"},{"name":"KOSİYA MAH.","zip":"12502"},{"name":"KOVACIK MAH.","zip":"12502"},{"name":"KOYUNCUK MAH.","zip":"12502"},{"name":"KOYUNLU MAH.","zip":"12502"},{"name":"KOZANKAYA MAH.","zip":"12502"},{"name":"KÖKLÜ MAH.","zip":"12502"},{"name":"KURUCA KÜME EVLERİ MAH.","zip":"12502"},{"name":"KURUCA MAH.","zip":"12502"},{"name":"KUYUCAK MAH.","zip":"12502"},{"name":"KÜÇÜK MAH.","zip":"12502"},{"name":"KÜÇÜKMEZRA MAH.","zip":"12502"},{"name":"KÜLTÜR MAH.","zip":"12502"},{"name":"KÜMELİK MAH.","zip":"12502"},{"name":"KÜPELİ MAH.","zip":"12502"},{"name":"LAVDERE MAH.","zip":"12502"},{"name":"MALA MAH.","zip":"12502"},{"name":"MERKEZ MAH.","zip":"12502"},{"name":"MEŞEDALI KÖYÜ","zip":"12502"},{"name":"METEŞAN MAH.","zip":"12502"},{"name":"MİRHİCAN MAH.","zip":"12502"},{"name":"MOLLAİBRAHİM KÖYÜ","zip":"12502"},{"name":"MUCUARE MAH.","zip":"12502"},{"name":"MUMDAN MAH.","zip":"12502"},{"name":"MUTLUCA MAH.","zip":"12502"},{"name":"OĞLAKLI MAH.","zip":"12502"},{"name":"OĞLAKTEPE MAH.","zip":"12502"},{"name":"OLUKBAŞI MAH.","zip":"12502"},{"name":"OLUKLU MAH.","zip":"12502"},{"name":"ONBAŞI MAH.","zip":"12502"},{"name":"ORGUNLAR MAH.","zip":"12502"},{"name":"ORUÇLU MAH.","zip":"12502"},{"name":"OSMANLAR MAH.","zip":"12502"},{"name":"OTLUCA MAH.","zip":"12502"},{"name":"ÖRENCİK MAH.","zip":"12502"},{"name":"ÖRTÜLÜ MAH.","zip":"12502"},{"name":"ÖZKAYA MAH.","zip":"12502"},{"name":"ÖZLÜCE MAH.","zip":"12502"},{"name":"ÖZLÜCE YAYLA MAH.","zip":"12502"},{"name":"ÖZYURT MAH.","zip":"12502"},{"name":"PALACIK MAH.","zip":"12502"},{"name":"PALANCIK MAH.","zip":"12502"},{"name":"PINARALTI KÖYÜ","zip":"12502"},{"name":"PINARBAŞI MAH.","zip":"12502"},{"name":"S.ŞEFİK DURSUN MAH.","zip":"12502"},{"name":"SAĞAN MAH.","zip":"12502"},{"name":"SAĞGÖZE KÖYÜ","zip":"12502"},{"name":"SAĞLIK MAH.","zip":"12502"},{"name":"SAHUK MAH.","zip":"12502"},{"name":"SAKLICA MAH.","zip":"12502"},{"name":"SALUCA MAH.","zip":"12502"},{"name":"SANCAKLI MAH.","zip":"12502"},{"name":"SARIBUDAK KÖYÜ","zip":"12502"},{"name":"SARIKAYA MAH.","zip":"12502"},{"name":"SARISAMAN KÖYÜ","zip":"12502"},{"name":"SARISU MAH.","zip":"12502"},{"name":"SARMAKAYA KÖYÜ","zip":"12502"},{"name":"SAVAŞ MAH.","zip":"12502"},{"name":"SAYREK-GUMEYMUS MAH.","zip":"12502"},{"name":"SEĞEL MAH.","zip":"12502"},{"name":"SEMAT MAH.","zip":"12502"},{"name":"SERVİ KÖYÜ","zip":"12502"},{"name":"SEVİMLİ MAH.","zip":"12502"},{"name":"SIRMALIOYA KÖYÜ","zip":"12502"},{"name":"SOĞANLI MAH.","zip":"12502"},{"name":"SOĞUKPINAR KÖYÜ","zip":"12502"},{"name":"SOR MAH.","zip":"12502"},{"name":"SÖĞÜTLÜ MAH.","zip":"12502"},{"name":"SUVEREN MAH.","zip":"12502"},{"name":"SÜREKLİ KÖYÜ","zip":"12502"},{"name":"SÜVEREN MAH.","zip":"12502"},{"name":"ŞABAN MAH.","zip":"12502"},{"name":"ŞEHİTKÖY KÖYÜ","zip":"12502"},{"name":"ŞEHİTTEPE KÖYÜ","zip":"12502"},{"name":"TANRIVERDİ MAH.","zip":"12502"},{"name":"TARLABAŞI KÖYÜ","zip":"12502"},{"name":"TAŞDAM MAH.","zip":"12502"},{"name":"TAŞKAPI MAH.","zip":"12502"},{"name":"TAŞLIK MAH.","zip":"12502"},{"name":"TAŞÖREN MAH.","zip":"12502"},{"name":"TEMELİ MAH.","zip":"12502"},{"name":"TEPECİK MAH.","zip":"12502"},{"name":"TIMARLI MAH.","zip":"12502"},{"name":"TOKLU MAH.","zip":"12502"},{"name":"TULUMLU MAH.","zip":"12502"},{"name":"TÜRKTAŞ MAH.","zip":"12502"},{"name":"ULAKLI MAH.","zip":"12502"},{"name":"ULUPINAR MAH.","zip":"12502"},{"name":"ULUTAŞ MAH.","zip":"12502"},{"name":"UMURLU MAH.","zip":"12502"},{"name":"USLUCA MAH.","zip":"12502"},{"name":"UYSAL MAH.","zip":"12502"},{"name":"ÜÇGÜL KÖYÜ","zip":"12502"},{"name":"ÜÇKARDEŞ MAH.","zip":"12502"},{"name":"ÜNVEREN MAH.","zip":"12502"},{"name":"ÜRÜNLÜ MAH.","zip":"12502"},{"name":"ÜSTKAYA MAH.","zip":"12502"},{"name":"ÜZÜMCÜK MAH.","zip":"12502"},{"name":"YAĞIZCA KÖYÜ","zip":"12502"},{"name":"YAĞMURLU MAH.","zip":"12502"},{"name":"YAMAÇLI MAH.","zip":"12502"},{"name":"YAPRAKLI MAH.","zip":"12502"},{"name":"YARDIM MAH.","zip":"12502"},{"name":"YATANSÖĞÜT KÖYÜ","zip":"12502"},{"name":"YAYDERE KÖYÜ","zip":"12502"},{"name":"YAYLA KÖYÜ","zip":"12502"},{"name":"YAYLA MAH.","zip":"12502"},{"name":"YAZICIK MAH.","zip":"12502"},{"name":"YAZILI KÖYÜ","zip":"12502"},{"name":"YAZKONAĞI KÖYÜ","zip":"12502"},{"name":"YAZMALI MAH.","zip":"12502"},{"name":"YELKAYA KÖYÜ","zip":"12502"},{"name":"YENİ ÇİÇEKLİ MAH.","zip":"12502"},{"name":"YENİCE MAH.","zip":"12502"},{"name":"YENİÇAĞ MAH.","zip":"12502"},{"name":"YENİÇEVRE KÖYÜ","zip":"12502"},{"name":"YENİÇEVRE MAH.","zip":"12502"},{"name":"YENİSU KÖYÜ","zip":"12502"},{"name":"YENİŞEHİR MAH.","zip":"12502"},{"name":"YENİYAZI KÖYÜ","zip":"12502"},{"name":"YEŞİLLER MAH.","zip":"12502"},{"name":"YEŞİLYURT MAH.","zip":"12502"},{"name":"YILDIRIM MAH.","zip":"12502"},{"name":"YILDIZ MAH.","zip":"12502"},{"name":"YILDIZLI MAH.","zip":"12502"},{"name":"YİBO MAH.","zip":"12502"},{"name":"YİĞİTBAŞI KÖYÜ","zip":"12502"},{"name":"YOĞUNTAŞ MAH.","zip":"12502"},{"name":"YOĞURTLU MAH.","zip":"12502"},{"name":"YOLAÇTI KÖYÜ","zip":"12502"},{"name":"YORULMAZ MAH.","zip":"12502"},{"name":"YUKARI BİÇER MAH.","zip":"12502"},{"name":"YUKARI ELMAGÜNÜ MAH.","zip":"12502"},{"name":"YUKARIGEM MAH.","zip":"12502"},{"name":"YUMRULU MAH.","zip":"12502"},{"name":"YUMURTALİ MAH.","zip":"12502"},{"name":"YUVAKLI MAH.","zip":"12502"},{"name":"YÜCELER MAH.","zip":"12502"},{"name":"YÜREKLİ MAH.","zip":"12502"}]},{"name":"KARLIOVA","cityName":null,"quarters":[{"name":"SEYRAN TEPE MAH.","zip":"12900"},{"name":"TURGUT ÖZAL MAH.","zip":"12900"},{"name":"YEŞİLYURT MAH.","zip":"12900"}]},{"name":"MERKEZKÖYLER","cityName":null,"quarters":[{"name":"ALİ MAH.","zip":"12902"},{"name":"ALTI EVLER MAH.","zip":"12902"},{"name":"AŞAĞI ÇIR MAH.","zip":"12902"},{"name":"AŞAĞIYAĞMURLU KÖYÜ","zip":"12902"},{"name":"AYNİK MAH.","zip":"12902"},{"name":"BAĞLIİSA KÖYÜ","zip":"12902"},{"name":"BAHÇEKÖY KÖYÜ","zip":"12902"},{"name":"BEDRAN MAH.","zip":"12902"},{"name":"BİNKOZ MAH.","zip":"12902"},{"name":"BONCUKGÖZE KÖYÜ","zip":"12902"},{"name":"BOYHANE MAH.","zip":"12902"},{"name":"BURMATAŞ MAH.","zip":"12902"},{"name":"CİLLİGÖL KÖYÜ","zip":"12902"},{"name":"ÇATAK KÖYÜ","zip":"12902"},{"name":"ÇATAK MAH.","zip":"12902"},{"name":"ÇİÇEKLİ MAH.","zip":"12902"},{"name":"ÇİÇEKPINAR MAH.","zip":"12902"},{"name":"ÇİFTLİKKÖY KÖYÜ","zip":"12902"},{"name":"ÇUKURTEPE KÖYÜ","zip":"12902"},{"name":"DAĞ ÇAYIR MAH.","zip":"12902"},{"name":"DÖRTYOL KÖYÜ","zip":"12902"},{"name":"GEÇİTLİ KÖYÜ","zip":"12902"},{"name":"GOLA USE MAH.","zip":"12902"},{"name":"GÖYNÜK KÖYÜ","zip":"12902"},{"name":"GÜLABİ MAH.","zip":"12902"},{"name":"HACI FEVZLİ MAH.","zip":"12902"},{"name":"HACILAR KÖYÜ","zip":"12902"},{"name":"HALİFAN KÖYÜ","zip":"12902"},{"name":"HARMANTEPE KÖYÜ","zip":"12902"},{"name":"HASANOVA KÖYÜ","zip":"12902"},{"name":"HASAR MAH.","zip":"12902"},{"name":"ILIPINAR KÖYÜ","zip":"12902"},{"name":"KALE MAH.","zip":"12902"},{"name":"KALENCİK KÖYÜ","zip":"12902"},{"name":"KANİTAHT MAH.","zip":"12902"},{"name":"KANTARKAYA KÖYÜ","zip":"12902"},{"name":"KARABALÇIK KÖYÜ","zip":"12902"},{"name":"KARGAPAZARI KÖYÜ","zip":"12902"},{"name":"KARLICA KÖYÜ","zip":"12902"},{"name":"KARŞIYAKA MAH.","zip":"12902"},{"name":"KAŞIKÇI KÖYÜ","zip":"12902"},{"name":"KAVAKAN MAH.","zip":"12902"},{"name":"KAYNAK KÖYÜ","zip":"12902"},{"name":"KAYNARPINAR KÖYÜ","zip":"12902"},{"name":"KAZANLI KÖYÜ","zip":"12902"},{"name":"KIRAÇTEPE KÖYÜ","zip":"12902"},{"name":"KIZILAĞAÇ KÖYÜ","zip":"12902"},{"name":"KIZILÇUBUK KÖYÜ","zip":"12902"},{"name":"KONAK MAH.","zip":"12902"},{"name":"KÜMBET KÖYÜ","zip":"12902"},{"name":"KÜRÜK KÖYÜ","zip":"12902"},{"name":"MEŞELİ MAH.","zip":"12902"},{"name":"MEZRACIK MAH.","zip":"12902"},{"name":"MOLLA HÜSEYİN MAH.","zip":"12902"},{"name":"MOLLAŞAKİR KÖYÜ","zip":"12902"},{"name":"MORKOYUN MAH.","zip":"12902"},{"name":"ORTAKÖY KÖYÜ","zip":"12902"},{"name":"SAKAÖREN KÖYÜ","zip":"12902"},{"name":"SARIKUŞAK KÖYÜ","zip":"12902"},{"name":"SERİNCE MAH.","zip":"12902"},{"name":"SERPMEKAYA KÖYÜ","zip":"12902"},{"name":"SEYRANA MAH.","zip":"12902"},{"name":"SOĞUKPINAR KÖYÜ","zip":"12902"},{"name":"SUÇATI KÖYÜ","zip":"12902"},{"name":"SUDURAĞI KÖYÜ","zip":"12902"},{"name":"TAŞLIÇAY KÖYÜ","zip":"12902"},{"name":"TOKLULAR KÖYÜ","zip":"12902"},{"name":"TUZLUCA KÖYÜ","zip":"12902"},{"name":"ULUKAPI MAH.","zip":"12902"},{"name":"ÜÇ EVLER MAH.","zip":"12902"},{"name":"VİRANŞEHİR KÖYÜ","zip":"12902"},{"name":"YALNIZLAR MAH.","zip":"12902"},{"name":"YAZLIKONAK MAH.","zip":"12902"},{"name":"YENİKÖY KÖYÜ","zip":"12902"},{"name":"YİĞİTLER KÖYÜ","zip":"12902"},{"name":"YONCALIK KÖYÜ","zip":"12902"},{"name":"YORGANÇAYIR KÖYÜ","zip":"12902"},{"name":"YUKARI ÇIR MAH.","zip":"12902"},{"name":"YUKARIYAĞMURLU KÖYÜ","zip":"12902"}]},{"name":"KİĞI","cityName":null,"quarters":[{"name":"YENİŞEHİR MAH.","zip":"12800"},{"name":"YEŞİLYURT MAH.","zip":"12800"}]},{"name":"MERKEZKÖYLER","cityName":null,"quarters":[{"name":"AĞAÇÖVEN KÖYÜ","zip":"12802"},{"name":"AKÇALI MAH.","zip":"12802"},{"name":"ALAGÖZ KÖYÜ","zip":"12802"},{"name":"ALİCAN MAH.","zip":"12802"},{"name":"ALTINDİŞ MAH.","zip":"12802"},{"name":"ARİK MAH.","zip":"12802"},{"name":"BAKLALI KÖYÜ","zip":"12802"},{"name":"BAKLALI MAH.","zip":"12802"},{"name":"BALIKLI MAH.","zip":"12802"},{"name":"BİLLİCE KÖYÜ","zip":"12802"},{"name":"ÇANAKÇI KÖYÜ","zip":"12802"},{"name":"ÇİÇEKTEPE KÖYÜ","zip":"12802"},{"name":"DALLICA KÖYÜ","zip":"12802"},{"name":"DARKÖPRÜ KÖYÜ","zip":"12802"},{"name":"DEMİRDÖŞ KÖYÜ","zip":"12802"},{"name":"DEMİRKANAT KÖYÜ","zip":"12802"},{"name":"DEVETAŞI MAH.","zip":"12802"},{"name":"DİKENLİ MAH.","zip":"12802"},{"name":"DURANLAR KÖYÜ","zip":"12802"},{"name":"DÜZAĞAÇ MAH.","zip":"12802"},{"name":"ESKİKAVAK KÖYÜ","zip":"12802"},{"name":"EŞME KÖYÜ","zip":"12802"},{"name":"FINDIKLI MAH.","zip":"12802"},{"name":"GEDİKLİ MAH.","zip":"12802"},{"name":"GÜNEYAĞIL KÖYÜ","zip":"12802"},{"name":"HACİKOĞLU MAH.","zip":"12802"},{"name":"HALMEK MAH.","zip":"12802"},{"name":"İLBEYİ KÖYÜ","zip":"12802"},{"name":"İNCESU MAH.","zip":"12802"},{"name":"KADIKÖY KÖYÜ","zip":"12802"},{"name":"KARA KAMU MAH.","zip":"12802"},{"name":"KARATAŞ MAH.","zip":"12802"},{"name":"KARINCA MAH.","zip":"12802"},{"name":"KILICAN MAH.","zip":"12802"},{"name":"KÖPRÜBAŞI MAH.","zip":"12802"},{"name":"KURŞUNLU MAH.","zip":"12802"},{"name":"KUŞÇİMENİ KÖYÜ","zip":"12802"},{"name":"KUŞLUCA MAH.","zip":"12802"},{"name":"KUTLUCA KÖYÜ","zip":"12802"},{"name":"MELEKAN MAH.","zip":"12802"},{"name":"MEZRA MAH.","zip":"12802"},{"name":"NACAKLI KÖYÜ","zip":"12802"},{"name":"ÖRÜK MAH.","zip":"12802"},{"name":"PAYAMLI MAH.","zip":"12802"},{"name":"SABIRTAŞI KÖYÜ","zip":"12802"},{"name":"SAMANTEPE MAH.","zip":"12802"},{"name":"SELENK MAH.","zip":"12802"},{"name":"SIĞIRTMAÇ MAH.","zip":"12802"},{"name":"SIRMAÇEK KÖYÜ","zip":"12802"},{"name":"SOLMAZ MAH.","zip":"12802"},{"name":"SÜTLÜCE MAH.","zip":"12802"},{"name":"TAŞAĞIL MAH.","zip":"12802"},{"name":"TAŞBAŞI MAH.","zip":"12802"},{"name":"TEKBAŞ KÖYÜ","zip":"12802"},{"name":"UZUNDAL MAH.","zip":"12802"},{"name":"YAZGÜNÜ KÖYÜ","zip":"12802"},{"name":"YONCALI MAH.","zip":"12802"},{"name":"YUKARISERİNYER KÖYÜ","zip":"12802"},{"name":"ZENGOK MAH.","zip":"12802"}]},{"name":"AĞAÇELİ","cityName":null,"quarters":[{"name":"ALATEPE KÖYÜ","zip":"12400"},{"name":"AŞAĞI MAH.","zip":"12400"},{"name":"ATÇAYIR MAH.","zip":"12400"},{"name":"BAHÇELİ MAH.","zip":"12400"},{"name":"ÇAVŞAN DERESİ MAH.","zip":"12400"},{"name":"ÇAVUŞLAR KÖYÜ","zip":"12400"},{"name":"ÇAY MAH.","zip":"12400"},{"name":"ÇOBANTAŞI KÖYÜ","zip":"12400"},{"name":"DALLITEPE KÖYÜ","zip":"12400"},{"name":"DALSİ MAH.","zip":"12400"},{"name":"DERİNCE MAH.","zip":"12400"},{"name":"ELMA MAH.","zip":"12400"},{"name":"ELMALI KÖYÜ","zip":"12400"},{"name":"GEVİR MAH.","zip":"12400"},{"name":"GÖKÇELİ KÖYÜ","zip":"12400"},{"name":"GÖL MAH.","zip":"12400"},{"name":"GÖZER KÖYÜ","zip":"12400"},{"name":"GÖZER MÜCAVİR MAH.","zip":"12400"},{"name":"GÜZEL MAH.","zip":"12400"},{"name":"HEŞVARE MAH.","zip":"12400"},{"name":"HEVİR MAH.","zip":"12400"},{"name":"HEZAZ MAH.","zip":"12400"},{"name":"HEZAZ YAYLA EVLERİ MAH.","zip":"12400"},{"name":"HIRTIK MAH.","zip":"12400"},{"name":"ILICA MAH.","zip":"12400"},{"name":"ILICALAR KÖYÜ","zip":"12400"},{"name":"İÇPINAR MAH.","zip":"12400"},{"name":"K.KEŞKARE MAH.","zip":"12400"},{"name":"KAMIŞLI MAH.","zip":"12400"},{"name":"KILIÇLI MAH.","zip":"12400"},{"name":"KÖÇEK MAH.","zip":"12400"},{"name":"KÖKLÜ KÖYÜ","zip":"12400"},{"name":"KÖME MAH.","zip":"12400"},{"name":"KÜRKÜRÜ MAH.","zip":"12400"},{"name":"LER MAH.","zip":"12400"},{"name":"LEYMAN MAH.","zip":"12400"},{"name":"MAHKAR MAH.","zip":"12400"},{"name":"MERKEZ MAH.","zip":"12400"},{"name":"NAMAN MAH.","zip":"12400"},{"name":"ORTAÇANAK KÖYÜ","zip":"12400"},{"name":"ÖMERLİ MAH.","zip":"12400"},{"name":"PINARLI MAH.","zip":"12400"},{"name":"SAMANLI MAH.","zip":"12400"},{"name":"SEYDAN MAH.","zip":"12400"},{"name":"SOFYAN MAH.","zip":"12400"},{"name":"SOĞUK ÇEŞME MAH.","zip":"12400"},{"name":"SUBAŞI MAH.","zip":"12400"},{"name":"ŞENLİK MAH.","zip":"12400"},{"name":"ŞEYHALAN MAH.","zip":"12400"},{"name":"TAŞLI MAH.","zip":"12400"},{"name":"TIRŞINEK MAH.","zip":"12400"},{"name":"UZUNDERE MAH.","zip":"12400"},{"name":"Y.AĞAÇELİ MAH.","zip":"12400"},{"name":"Y.KOMSARİK MAH.","zip":"12400"},{"name":"YENİBAŞLAR KÖYÜ","zip":"12400"},{"name":"YENİYERLEŞİM MAH.","zip":"12400"},{"name":"YEŞİL MAH.","zip":"12400"},{"name":"YEŞİLMEZRA MAH.","zip":"12400"},{"name":"YEŞİLTEPE MAH.","zip":"12400"},{"name":"YUKARI MAH.","zip":"12400"},{"name":"YUKARI YENİBAŞLAR MAH.","zip":"12400"}]},{"name":"BİNGÖL","cityName":null,"quarters":[{"name":"İÇMELER MAH.","zip":"12010"},{"name":"İNALI MAH.","zip":"12010"},{"name":"İNÖNÜ MAH.","zip":"12010"},{"name":"KARŞIYAKA MAH.","zip":"12010"},{"name":"KÜLTÜR MAH.","zip":"12010"},{"name":"MİRZAN MAH.","zip":"12010"},{"name":"RECEP TAYYİP ERDOĞAN MAH.","zip":"12010"},{"name":"SARAY MAH.","zip":"12010"},{"name":"SELAHADDİN-İ EYYUBİ MAH.","zip":"12010"},{"name":"SİMANİ MAH.","zip":"12010"},{"name":"ŞEHİT MUSTAFA GÜNDOĞDU MAH.","zip":"12010"},{"name":"YENİ MAH.","zip":"12010"},{"name":"YENİŞEHİR MAH.","zip":"12010"},{"name":"YEŞİLYURT MAH.","zip":"12010"}]},{"name":"MERKEZKÖYLER","cityName":null,"quarters":[{"name":"AĞAÇYOLU KÖYÜ","zip":"12002"},{"name":"AKDURMUŞ KÖYÜ","zip":"12002"},{"name":"ALATAŞ MAH.","zip":"12002"},{"name":"ALİ MEZRASI MAH.","zip":"12002"},{"name":"ALİBİR KÖYÜ","zip":"12002"},{"name":"ALTINIŞIK KÖYÜ","zip":"12002"},{"name":"ARDIÇTEPE KÖYÜ","zip":"12002"},{"name":"ARDIÇTEPEOSB MAH.","zip":"12002"},{"name":"AŞAĞI MAH.","zip":"12002"},{"name":"AŞAĞI PAYMERK MAH.","zip":"12002"},{"name":"AŞAĞI YUMAKLI MAH.","zip":"12002"},{"name":"AŞAĞI ZEYNEP MAH.","zip":"12002"},{"name":"AŞAĞIAKPINAR KÖYÜ","zip":"12002"},{"name":"AŞAĞIKÖY KÖYÜ","zip":"12002"},{"name":"AZ KÖYÜ","zip":"12002"},{"name":"BAHÇELİ KÖYÜ","zip":"12002"},{"name":"BALPINAR KÖYÜ","zip":"12002"},{"name":"BANİ MAH.","zip":"12002"},{"name":"BATI MAH.","zip":"12002"},{"name":"BEYAZTOPRAK MAH.","zip":"12002"},{"name":"BİLALOĞLU KÖYÜ","zip":"12002"},{"name":"BÜYÜKTEKÖREN KÖYÜ","zip":"12002"},{"name":"CELAL MAH.","zip":"12002"},{"name":"CEVİZLİ MAH.","zip":"12002"},{"name":"ÇALLAR MAH.","zip":"12002"},{"name":"ÇANAKALIN MAH.","zip":"12002"},{"name":"ÇAYAĞZI KÖYÜ","zip":"12002"},{"name":"ÇAYBOYU KÖYÜ","zip":"12002"},{"name":"ÇAYIRLI MAH.","zip":"12002"},{"name":"ÇELTİKSUYU KÖYÜ","zip":"12002"},{"name":"ÇEVRİMPINAR KÖYÜ","zip":"12002"},{"name":"ÇİÇEKDERE KÖYÜ","zip":"12002"},{"name":"ÇİÇEKYAYLA KÖYÜ","zip":"12002"},{"name":"ÇİRİŞ KÖYÜ","zip":"12002"},{"name":"ÇUKURCA KÖYÜ","zip":"12002"},{"name":"ÇUKURCAK MAH.","zip":"12002"},{"name":"DAMCIK MAH.","zip":"12002"},{"name":"DİKKÖY KÖYÜ","zip":"12002"},{"name":"DİKME KÖYÜ","zip":"12002"},{"name":"DİKME MAH.","zip":"12002"},{"name":"DİREKLİ KÖYÜ","zip":"12002"},{"name":"DİŞBUDAK KÖYÜ","zip":"12002"},{"name":"DÜGERNAN KÖYÜ","zip":"12002"},{"name":"DÜZYAYLA KÖYÜ","zip":"12002"},{"name":"EKİNYOLU KÖYÜ","zip":"12002"},{"name":"EMTAĞ KÖYÜ","zip":"12002"},{"name":"ERDEMLİ KÖYÜ","zip":"12002"},{"name":"ERENTEPE KÖYÜ","zip":"12002"},{"name":"ESKİ KÖY MAH.","zip":"12002"},{"name":"ESKİ YERLEŞİM MAH.","zip":"12002"},{"name":"ESKİKÖY MAH.","zip":"12002"},{"name":"EVCİLER MAH.","zip":"12002"},{"name":"GARİP KÖYÜ","zip":"12002"},{"name":"GAYT MAH.","zip":"12002"},{"name":"GERMİK MAH.","zip":"12002"},{"name":"GÖKÇEKANAT KÖYÜ","zip":"12002"},{"name":"GÖKDERE KÖYÜ","zip":"12002"},{"name":"GÖLTEPESİ KÖYÜ","zip":"12002"},{"name":"GÖZELER KÖYÜ","zip":"12002"},{"name":"GÜMÜŞLÜ KÖYÜ","zip":"12002"},{"name":"GÜRPINAR KÖYÜ","zip":"12002"},{"name":"GÜVEÇLİ KÖYÜ","zip":"12002"},{"name":"HACIÇAYIR MAH.","zip":"12002"},{"name":"HARTINI MAH.","zip":"12002"},{"name":"HAVSAL MAH.","zip":"12002"},{"name":"HAZİRAN KÖYÜ","zip":"12002"},{"name":"HEVSEL MAH.","zip":"12002"},{"name":"İKİZGÖL MAH.","zip":"12002"},{"name":"İNCESU KÖYÜ","zip":"12002"},{"name":"KAMIŞLI MAH.","zip":"12002"},{"name":"KANTAR MAH.","zip":"12002"},{"name":"KARAKOÇ MAH.","zip":"12002"},{"name":"KARDEŞLER KÖYÜ","zip":"12002"},{"name":"KARŞI MAH.","zip":"12002"},{"name":"KARTAL KÖYÜ","zip":"12002"},{"name":"KEMALAN MAH.","zip":"12002"},{"name":"KILÇADIR KÖYÜ","zip":"12002"},{"name":"KIRAN KÖYÜ","zip":"12002"},{"name":"KONAK-DEREYGAZAN MAH.","zip":"12002"},{"name":"KÖPRÜBAŞI MAH.","zip":"12002"},{"name":"KÖRCÜPINAR MAH.","zip":"12002"},{"name":"KUMGEÇİT KÖYÜ","zip":"12002"},{"name":"KURUCA KÖYÜ","zip":"12002"},{"name":"KURUDERE KÖYÜ","zip":"12002"},{"name":"KUŞBURNU KÖYÜ","zip":"12002"},{"name":"KUŞLUCA MAH.","zip":"12002"},{"name":"KÜÇÜKTEKÖREN KÖYÜ","zip":"12002"},{"name":"LINCIK MAH.","zip":"12002"},{"name":"MERKEZ MAH.","zip":"12002"},{"name":"MERKEZ MÜCAVİR MAH.","zip":"12002"},{"name":"MERKEZ-Y.YUMAKLI MAH.","zip":"12002"},{"name":"OLUKPINAR KÖYÜ","zip":"12002"},{"name":"ORMANARDI KÖYÜ","zip":"12002"},{"name":"ORTAKÖY KÖYÜ","zip":"12002"},{"name":"OVACIK MAH.","zip":"12002"},{"name":"ÖZLÜCE MAH.","zip":"12002"},{"name":"POLATLI MAH.","zip":"12002"},{"name":"RENG MAH.","zip":"12002"},{"name":"SANCAKLI KÖYÜ","zip":"12002"},{"name":"SARIÇİÇEK KÖYÜ","zip":"12002"},{"name":"SUVARAN KÖYÜ","zip":"12002"},{"name":"ŞABANKÖY KÖYÜ","zip":"12002"},{"name":"TOPALAN KÖYÜ","zip":"12002"},{"name":"VALİREK MAH.","zip":"12002"},{"name":"YAMAÇ KÖYÜ","zip":"12002"},{"name":"YAYLA EVLERİ MAH.","zip":"12002"},{"name":"YEDİEVLER MAH.","zip":"12002"},{"name":"YELESEN KÖYÜ","zip":"12002"},{"name":"YENİ YERLEŞİM MAH.","zip":"12002"},{"name":"YENİKÖY KÖYÜ","zip":"12002"},{"name":"YEŞİLKÖY KÖYÜ","zip":"12002"},{"name":"YOLÇATI KÖYÜ","zip":"12002"},{"name":"YUKARI KEMALAN MAH.","zip":"12002"},{"name":"YUKARI MAH.","zip":"12002"},{"name":"YUKARI PAYMERK MAH.","zip":"12002"},{"name":"YUKARI ZEYNEP MAH.","zip":"12002"},{"name":"YUKARIAKPINAR KÖYÜ","zip":"12002"},{"name":"YUMAKLI KÖYÜ","zip":"12002"}]},{"name":"SANCAK","cityName":null,"quarters":[{"name":"ARICILAR KÖYÜ","zip":"12300"},{"name":"BALIKLIÇAY KÖYÜ","zip":"12300"},{"name":"BEKMEZLİ MAH.","zip":"12300"},{"name":"BÜYÜKBAŞKÖY MAH.","zip":"12300"},{"name":"CAMİ MAH.","zip":"12300"},{"name":"ÇİMENLİ MAH.","zip":"12300"},{"name":"ELMAÇAYIR MAH.","zip":"12300"},{"name":"ERENLER MAH.","zip":"12300"},{"name":"ESENLER MAH.","zip":"12300"},{"name":"ESKİKÖY MAH.","zip":"12300"},{"name":"GÜNGÖREN KÖYÜ","zip":"12300"},{"name":"HAROÇAYIRI MAH.","zip":"12300"},{"name":"HOŞKAR MAH.","zip":"12300"},{"name":"KARAPINAR MAH.","zip":"12300"},{"name":"KİLSEK MAH.","zip":"12300"},{"name":"KORK MAH.","zip":"12300"},{"name":"KURTULUŞ KÖYÜ","zip":"12300"},{"name":"KUŞKONDU KÖYÜ","zip":"12300"},{"name":"KÜÇÜKBAŞKÖY MAH.","zip":"12300"},{"name":"MERKEZ MAH.","zip":"12300"},{"name":"OĞULDERE KÖYÜ","zip":"12300"},{"name":"ORTAOKUL MAH.","zip":"12300"},{"name":"SANCAK KÖYÜ","zip":"12300"},{"name":"SARIGÜMÜŞ MAH.","zip":"12300"},{"name":"SUDÜĞÜNÜ KÖYÜ","zip":"12300"},{"name":"SÜTGÖLÜ KÖYÜ","zip":"12300"},{"name":"ŞEREF MAH.","zip":"12300"},{"name":"TAŞ MAH.","zip":"12300"},{"name":"TEPEBAŞI KÖYÜ","zip":"12300"},{"name":"TÜRKAN MAH.","zip":"12300"},{"name":"UĞUROVA KÖYÜ","zip":"12300"},{"name":"UZUNSAVAT KÖYÜ","zip":"12300"},{"name":"ÜNLÜCE MAH.","zip":"12300"},{"name":"ÜSKÜDAR MAH.","zip":"12300"},{"name":"YAYGINÇAYIR KÖYÜ","zip":"12300"},{"name":"YAYIMLI MAH.","zip":"12300"},{"name":"YAZGÜLÜ KÖYÜ","zip":"12300"},{"name":"YENİ YERLEŞİM MAH.","zip":"12300"},{"name":"YEŞİLOVA MAH.","zip":"12300"}]},{"name":"MERKEZKÖYLER","cityName":null,"quarters":[{"name":"AKDERE MAH.","zip":"12702"},{"name":"AKSAKAL KOMLER MAH.","zip":"12702"},{"name":"AKSAKAL MAH.","zip":"12702"},{"name":"AKTASOR MAH.","zip":"12702"},{"name":"AKYÜREK MAH.","zip":"12702"},{"name":"ALACA MAH.","zip":"12702"},{"name":"ALAK MAH.","zip":"12702"},{"name":"ALLO MAH.","zip":"12702"},{"name":"ALTINDÜZÜ MAH.","zip":"12702"},{"name":"ALTINSU MAH.","zip":"12702"},{"name":"ARAKONAK KÖYÜ","zip":"12702"},{"name":"ARDİK MAH.","zip":"12702"},{"name":"ARMUT MAH.","zip":"12702"},{"name":"ARSLANBEYLİ KÖYÜ","zip":"12702"},{"name":"ASLANLAR MAH.","zip":"12702"},{"name":"ASMAKAYA KÖYÜ","zip":"12702"},{"name":"AŞAĞI CEMALAN MAH.","zip":"12702"},{"name":"AŞAĞI KÖPRÜBAŞI MAH.","zip":"12702"},{"name":"AŞAĞI KULAN MAH.","zip":"12702"},{"name":"AŞAĞI OTLUCA MAH.","zip":"12702"},{"name":"AŞAĞI YAYIKLI MAH.","zip":"12702"},{"name":"AŞAĞI ZORK MAH.","zip":"12702"},{"name":"AYDIN MAH.","zip":"12702"},{"name":"BAĞIZLAR MAH.","zip":"12702"},{"name":"BALLI MAH.","zip":"12702"},{"name":"BARAKALAR MAH.","zip":"12702"},{"name":"BARBARA MAH.","zip":"12702"},{"name":"BARDAKLI MAH.","zip":"12702"},{"name":"BAŞDERE MAH.","zip":"12702"},{"name":"BEJAV MAH.","zip":"12702"},{"name":"BEŞEVLER MAH.","zip":"12702"},{"name":"BEŞİKLİ MAH.","zip":"12702"},{"name":"BEYAZKÖM MAH.","zip":"12702"},{"name":"BİRİK MAH.","zip":"12702"},{"name":"BOZKANAT KÖYÜ","zip":"12702"},{"name":"CANUT MAH.","zip":"12702"},{"name":"CEMALAN MAH.","zip":"12702"},{"name":"CEMİL MAH.","zip":"12702"},{"name":"CEVİZLİ MAH.","zip":"12702"},{"name":"ÇALLI MAH.","zip":"12702"},{"name":"ÇATALDERE MAH.","zip":"12702"},{"name":"ÇEŞMELİ MAH.","zip":"12702"},{"name":"ÇIKRIKLI MAH.","zip":"12702"},{"name":"ÇIRALTI MAH.","zip":"12702"},{"name":"DARICA MAH.","zip":"12702"},{"name":"DEĞİRMEN DERE MAH.","zip":"12702"},{"name":"DEĞİRMENDERE MAH.","zip":"12702"},{"name":"DELİ MAH.","zip":"12702"},{"name":"DEMİRKAPI KÖYÜ","zip":"12702"},{"name":"DEREMALAN MAH.","zip":"12702"},{"name":"DERİNDERE MAH.","zip":"12702"},{"name":"DERSOR MAH.","zip":"12702"},{"name":"DERVİŞ MAH.","zip":"12702"},{"name":"DİKKAYA MAH.","zip":"12702"},{"name":"DİLEKTEPE KÖYÜ","zip":"12702"},{"name":"DİLOVA MAH.","zip":"12702"},{"name":"DİYAR MAH.","zip":"12702"},{"name":"DOĞUYELİ KÖYÜ","zip":"12702"},{"name":"DÖRTPARMAK MAH.","zip":"12702"},{"name":"DURAKLI MAH.","zip":"12702"},{"name":"DURMUŞLU MAH.","zip":"12702"},{"name":"DUYGULU MAH.","zip":"12702"},{"name":"DÜZ MAH.","zip":"12702"},{"name":"DÜZAĞAÇ KÖYÜ","zip":"12702"},{"name":"EFENDİDERESİ MAH.","zip":"12702"},{"name":"EĞRİDERE MAH.","zip":"12702"},{"name":"ELBAŞI KÖYÜ","zip":"12702"},{"name":"ELMASIRTI KÖYÜ","zip":"12702"},{"name":"ELYAN MAH.","zip":"12702"},{"name":"ERDEMLER MAH.","zip":"12702"},{"name":"ESKİKÖY MAH.","zip":"12702"},{"name":"EŞMETAŞ KÖYÜ","zip":"12702"},{"name":"GAÇIR MAH.","zip":"12702"},{"name":"GAMIR MAH.","zip":"12702"},{"name":"GELİNTEPE KÖYÜ","zip":"12702"},{"name":"GENÇTAVUS KÖYÜ","zip":"12702"},{"name":"GERMİK MAH.","zip":"12702"},{"name":"GIRBOĞAN MAH.","zip":"12702"},{"name":"GIRİS MAH.","zip":"12702"},{"name":"GOZER MAH.","zip":"12702"},{"name":"GÖKSU KÖYÜ","zip":"12702"},{"name":"GÖL MAH.","zip":"12702"},{"name":"GÖMDEVDO MAH.","zip":"12702"},{"name":"GÖMME MAH.","zip":"12702"},{"name":"GÖRT MAH.","zip":"12702"},{"name":"GÖZÜBÜYÜK MAH.","zip":"12702"},{"name":"GÜLTEPE MAH.","zip":"12702"},{"name":"GÜNDOĞDU MAH.","zip":"12702"},{"name":"GÜZELDERE MAH.","zip":"12702"},{"name":"HALİDAN MAH.","zip":"12702"},{"name":"HALİLLER MAH.","zip":"12702"},{"name":"HALKPINAR MAH.","zip":"12702"},{"name":"HARABEDÜZÜ MAH.","zip":"12702"},{"name":"HASAN MAH.","zip":"12702"},{"name":"HASENAN MAH.","zip":"12702"},{"name":"HATUN MAH.","zip":"12702"},{"name":"HAZARŞAH KÖYÜ","zip":"12702"},{"name":"HINCIK MAH.","zip":"12702"},{"name":"HOR MAH.","zip":"12702"},{"name":"HORKUM MAH.","zip":"12702"},{"name":"HOSİR MAH.","zip":"12702"},{"name":"HUN MAH.","zip":"12702"},{"name":"İNANDIK KÖYÜ","zip":"12702"},{"name":"KABAKLI MAH.","zip":"12702"},{"name":"KAFZELİN MAH.","zip":"12702"},{"name":"KALE KÖYÜ","zip":"12702"},{"name":"KANDOZ MAH.","zip":"12702"},{"name":"KAPAKLI MAH.","zip":"12702"},{"name":"KARAN MAH.","zip":"12702"},{"name":"KARAOLUK MAH.","zip":"12702"},{"name":"KARATAY MAH.","zip":"12702"},{"name":"KARŞIYAKA MAH.","zip":"12702"},{"name":"KARTAL MAH.","zip":"12702"},{"name":"KARYAĞDI MAH.","zip":"12702"},{"name":"KAVACIK MAH.","zip":"12702"},{"name":"KAVAKLI MAH.","zip":"12702"},{"name":"KAVAKLIDERE MAH.","zip":"12702"},{"name":"KAYABAĞ MAH.","zip":"12702"},{"name":"KAYALAR MAH.","zip":"12702"},{"name":"KEŞKAN MAH.","zip":"12702"},{"name":"KINCAL MAH.","zip":"12702"},{"name":"KIRIK KÖYÜ","zip":"12702"},{"name":"KOKULUPINAR MAH.","zip":"12702"},{"name":"KONAKBAŞI MAH.","zip":"12702"},{"name":"KÖPRÜBAŞI MAH.","zip":"12702"},{"name":"KÖŞK MAH.","zip":"12702"},{"name":"KUÇ MAH.","zip":"12702"},{"name":"KULAN MAH.","zip":"12702"},{"name":"KUŞTEPE MAH.","zip":"12702"},{"name":"KÜÇÜKMEZRA MAH.","zip":"12702"},{"name":"KÜLLÜCE MAH.","zip":"12702"},{"name":"KÜLTÜR MAH.","zip":"12702"},{"name":"KÜMBET MAH.","zip":"12702"},{"name":"LİÇ MAH.","zip":"12702"},{"name":"MERGAN MAH.","zip":"12702"},{"name":"MERKEZ KOMLER MAH.","zip":"12702"},{"name":"MERKEZ MAH.","zip":"12702"},{"name":"MEVLAGİRİŞ MAH.","zip":"12702"},{"name":"MURAT KÖYÜ","zip":"12702"},{"name":"MURATÜSTÜ MAH.","zip":"12702"},{"name":"MUTLUCA KÖYÜ","zip":"12702"},{"name":"NASIRAN MAH.","zip":"12702"},{"name":"NİŞRİK MAH.","zip":"12702"},{"name":"OLUKLU MAH.","zip":"12702"},{"name":"ORMANİÇİ MAH.","zip":"12702"},{"name":"ORTA MAH.","zip":"12702"},{"name":"ORTACA MAH.","zip":"12702"},{"name":"OSMANAN MAH.","zip":"12702"},{"name":"OYMAPINAR KÖYÜ","zip":"12702"},{"name":"ÖĞRENCİK MAH.","zip":"12702"},{"name":"ÖMERLER MAH.","zip":"12702"},{"name":"ÖZENGİLİ MAH.","zip":"12702"},{"name":"PİSKİSOR MAH.","zip":"12702"},{"name":"PİYAMİ MAH.","zip":"12702"},{"name":"POST MAH.","zip":"12702"},{"name":"RÖLE ALTI MAH.","zip":"12702"},{"name":"SAHAK MAH.","zip":"12702"},{"name":"SAMANLIK MAH.","zip":"12702"},{"name":"SANSARLI MAH.","zip":"12702"},{"name":"SARIBAŞAK MAH.","zip":"12702"},{"name":"SEDAT MAH.","zip":"12702"},{"name":"SEPETLİ MAH.","zip":"12702"},{"name":"SEYDANGÖLÜ MAH.","zip":"12702"},{"name":"SIMIK MAH.","zip":"12702"},{"name":"SİMAN MAH.","zip":"12702"},{"name":"SİNİKAN MAH.","zip":"12702"},{"name":"SİVRİTEPE MAH.","zip":"12702"},{"name":"SUSAN MAH.","zip":"12702"},{"name":"SÜKYAN KÖYÜ","zip":"12702"},{"name":"SÜLÜNKAŞ KÖYÜ","zip":"12702"},{"name":"ŞENLİK MAH.","zip":"12702"},{"name":"ŞENOVA MAH.","zip":"12702"},{"name":"ŞEREFMEYDANI MAH.","zip":"12702"},{"name":"ŞİMŞİRPINAR KÖYÜ","zip":"12702"},{"name":"TANZUT MAH.","zip":"12702"},{"name":"TARBAŞ MAH.","zip":"12702"},{"name":"TARHAN KÖYÜ","zip":"12702"},{"name":"TAŞ MAH.","zip":"12702"},{"name":"TAŞLIDERE MAH.","zip":"12702"},{"name":"TAŞOLUK MAH.","zip":"12702"},{"name":"TOPLUCA MAH.","zip":"12702"},{"name":"TURNA İSTASYONU MAH.","zip":"12702"},{"name":"TURNACIK MAH.","zip":"12702"},{"name":"UYANIK MAH.","zip":"12702"},{"name":"ÜNLÜCE MAH.","zip":"12702"},{"name":"ÜSTKARAN MAH.","zip":"12702"},{"name":"YAMANLAR MAH.","zip":"12702"},{"name":"YAYLA EVLERİ MAH.","zip":"12702"},{"name":"YAYLADÜZÜ MAH.","zip":"12702"},{"name":"YAZMALI MAH.","zip":"12702"},{"name":"YENİ MAH.","zip":"12702"},{"name":"YENİBAŞAK KÖYÜ","zip":"12702"},{"name":"YENİDAL KÖYÜ","zip":"12702"},{"name":"YENİYERLEŞİM MAH.","zip":"12702"},{"name":"YENYERLEŞİM KOMLER MAH.","zip":"12702"},{"name":"YEŞİLOVA MAH.","zip":"12702"},{"name":"YİĞİTHARMAN KÖYÜ","zip":"12702"},{"name":"YUKARI ÇEŞMELİ MAH.","zip":"12702"},{"name":"YUKARI KARAN MAH.","zip":"12702"},{"name":"YUKARI KÖPRÜBAŞI MAH.","zip":"12702"},{"name":"YUKARI OTLUCA MAH.","zip":"12702"},{"name":"YUKARI YAYIKLI MAH.","zip":"12702"},{"name":"YUKARI ZORK MAH.","zip":"12702"},{"name":"YUVA MAH.","zip":"12702"},{"name":"YÜKSEKOVA MAH.","zip":"12702"},{"name":"YÜREKLİ MAH.","zip":"12702"},{"name":"YÜZENADA MAH.","zip":"12702"},{"name":"ZAKARAN MAH.","zip":"12702"},{"name":"ZEBYAGOĞÜ MAH.","zip":"12702"},{"name":"ZEDİK MAH.","zip":"12702"},{"name":"ZİYARET MAH.","zip":"12702"}]},{"name":"SOLHAN","cityName":null,"quarters":[{"name":"HALİME PINAR MAH.","zip":"12700"},{"name":"YENİ MAH.","zip":"12700"},{"name":"YEŞİLOVA MAH.","zip":"12700"}]},{"name":"MERKEZKÖYLER","cityName":null,"quarters":[{"name":"ALPAKMEZ MAH.","zip":"12652"},{"name":"AYDINLAR KÖYÜ","zip":"12652"},{"name":"BAKIMLI MAH.","zip":"12652"},{"name":"BAŞPARMAK MAH.","zip":"12652"},{"name":"BATIAYAZ KÖYÜ","zip":"12652"},{"name":"BİLEKKAYA KÖYÜ","zip":"12652"},{"name":"BOĞAZKÖY KÖYÜ","zip":"12652"},{"name":"BÖLÜKÖREN MAH.","zip":"12652"},{"name":"ÇALIKAĞIL KÖYÜ","zip":"12652"},{"name":"ÇATALKAYA KÖYÜ","zip":"12652"},{"name":"ÇAVUŞLU MAH.","zip":"12652"},{"name":"ÇAY MAH.","zip":"12652"},{"name":"ÇAYAĞZI KÖYÜ","zip":"12652"},{"name":"ÇAYLICA MAH.","zip":"12652"},{"name":"ÇİKAN KÖYÜ","zip":"12652"},{"name":"DAĞARCIK MAH.","zip":"12652"},{"name":"DALBASAN KÖYÜ","zip":"12652"},{"name":"DİKİLİTAŞ MAH.","zip":"12652"},{"name":"DURUSU MAH.","zip":"12652"},{"name":"DÜĞÜNLÜ MAH.","zip":"12652"},{"name":"EĞRİCE MAH.","zip":"12652"},{"name":"ELMACIK MAH.","zip":"12652"},{"name":"EYÜPHAN MAH.","zip":"12652"},{"name":"GÖKÇEDAL KÖYÜ","zip":"12652"},{"name":"GÖL MAH.","zip":"12652"},{"name":"GÜNEŞLİK KÖYÜ","zip":"12652"},{"name":"GÜNLÜK KÖYÜ","zip":"12652"},{"name":"HACI KÖMÜ MAH.","zip":"12652"},{"name":"HACI MAH.","zip":"12652"},{"name":"HALİL MAH.","zip":"12652"},{"name":"KALECİK MAH.","zip":"12652"},{"name":"KALKANLI KÖYÜ","zip":"12652"},{"name":"KARADİKEN MAH.","zip":"12652"},{"name":"KAYADİBİ MAH.","zip":"12652"},{"name":"KIRKAĞAÇ MAH.","zip":"12652"},{"name":"KIRKÖY KÖYÜ","zip":"12652"},{"name":"KORLU KÖYÜ","zip":"12652"},{"name":"KULLAN MAH.","zip":"12652"},{"name":"KURT MAH.","zip":"12652"},{"name":"MERKEZ MAH.","zip":"12652"},{"name":"OVA MAH.","zip":"12652"},{"name":"ÖĞRENCİK MAH.","zip":"12652"},{"name":"ÖMERLER MAH.","zip":"12652"},{"name":"ÖZLÜCE MAH.","zip":"12652"},{"name":"PINARCIK MAH.","zip":"12652"},{"name":"SARIKONAK MAH.","zip":"12652"},{"name":"SARMAŞIK MAH.","zip":"12652"},{"name":"SARP MAH.","zip":"12652"},{"name":"SÜRMELİKOÇ KÖYÜ","zip":"12652"},{"name":"TAŞDİREK MAH.","zip":"12652"},{"name":"YAĞMURDERE MAH.","zip":"12652"},{"name":"YAKALI MAH.","zip":"12652"},{"name":"YAVUZTAŞ KÖYÜ","zip":"12652"},{"name":"YAVUZTAŞ MAH.","zip":"12652"},{"name":"YAYLABAĞ KÖYÜ","zip":"12652"},{"name":"YELLİCE MAH.","zip":"12652"},{"name":"YILDIZLI MAH.","zip":"12652"},{"name":"YUKARI SETER MAH.","zip":"12652"},{"name":"ZEYNELLİ KÖYÜ","zip":"12652"}]},{"name":"YAYLADERE","cityName":null,"quarters":[{"name":"CONAG MAH.","zip":"12650"},{"name":"HAKTANIR MAH.","zip":"12650"},{"name":"HASKÖY MAH.","zip":"12650"},{"name":"MERKEZ MAH.","zip":"12650"},{"name":"YOLGÜDEN MAH.","zip":"12650"}]},{"name":"MERKEZKÖYLER","cityName":null,"quarters":[{"name":"AŞAĞI SALKIMLAR MAH.","zip":"12832"},{"name":"AYANOĞLU KÖYÜ","zip":"12832"},{"name":"BÜYÜKDERE MAH.","zip":"12832"},{"name":"ÇALTEPE MAH.","zip":"12832"},{"name":"ÇİÇEKLİ MEZRASI MAH.","zip":"12832"},{"name":"DİNARBEY KÖYÜ","zip":"12832"},{"name":"EKŞİPINAR MAH.","zip":"12832"},{"name":"ELMALI KÖYÜ","zip":"12832"},{"name":"ESKİBALTA KÖYÜ","zip":"12832"},{"name":"GAZİ MAH.","zip":"12832"},{"name":"GELİNCİK MAH.","zip":"12832"},{"name":"GELİNPERTEK KÖYÜ","zip":"12832"},{"name":"GİYİMLİ MAH.","zip":"12832"},{"name":"GÖL MAH.","zip":"12832"},{"name":"GÜLEÇ MAH.","zip":"12832"},{"name":"GÜZGÜLÜ KÖYÜ","zip":"12832"},{"name":"HARMANLI MAH.","zip":"12832"},{"name":"HATUNTARLA MAH.","zip":"12832"},{"name":"HIRABA MAH.","zip":"12832"},{"name":"İBİŞ MAH.","zip":"12832"},{"name":"K.Ç.DİNARBEY MAH.","zip":"12832"},{"name":"KABAYEL KÖYÜ","zip":"12832"},{"name":"KARAPOLAT KÖYÜ","zip":"12832"},{"name":"KASAR MAH.","zip":"12832"},{"name":"KAŞIKLI KÖYÜ","zip":"12832"},{"name":"KATIRCI MAH.","zip":"12832"},{"name":"KOM MAH.","zip":"12832"},{"name":"KONUKLU MAH.","zip":"12832"},{"name":"KOYUNCULAR MAH.","zip":"12832"},{"name":"KÖY KARŞI MAH.","zip":"12832"},{"name":"MERKEZ MAH.","zip":"12832"},{"name":"MEZRA MAH.","zip":"12832"},{"name":"SARIÇUBUK MAH.","zip":"12832"},{"name":"ŞEMO MEZRASI MAH.","zip":"12832"},{"name":"ŞENKÖY KÖYÜ","zip":"12832"},{"name":"UMURLU MAH.","zip":"12832"},{"name":"YAĞMURPINAR KÖYÜ","zip":"12832"},{"name":"YAZIPINAR MAH.","zip":"12832"},{"name":"YEŞİLGÖL KÖYÜ","zip":"12832"},{"name":"YUKARI SALKIMLAR MAH.","zip":"12832"},{"name":"YURT İÇİ MAH.","zip":"12832"}]},{"name":"YEDİSU","cityName":null,"quarters":[{"name":"KABAOLUK MAH.","zip":"12830"},{"name":"KOŞAN MAH.","zip":"12830"},{"name":"MERKEZ MAH.","zip":"12830"},{"name":"YENİ MAH.","zip":"12830"}]}]}]}