{"id":13,"name":"BİTLİS","cities":[{"name":"city","districts":[{"name":"ADİLCEVAZ","cityName":null,"quarters":[{"name":"ÇAYIR MAH.","zip":"13500"},{"name":"HIDIRŞAH MAH.","zip":"13500"},{"name":"KALEBOYNU MAH.","zip":"13500"},{"name":"ORTA MAH.","zip":"13500"},{"name":"SELÇUKLU MAH.","zip":"13500"}]},{"name":"MERKEZKÖYLER","cityName":null,"quarters":[{"name":"AKYAZI KÖYÜ","zip":"13502"},{"name":"ASVALT ÜSTÜ MAH.","zip":"13502"},{"name":"AŞAĞI MAH.","zip":"13502"},{"name":"AŞAĞISÜPHAN KÖYÜ","zip":"13502"},{"name":"ATATÜRK MAH.","zip":"13502"},{"name":"AYDINLAR KÖYÜ","zip":"13502"},{"name":"AYGIRGÖLÜ KÖYÜ","zip":"13502"},{"name":"AYVACIK MAH.","zip":"13502"},{"name":"BAHÇEDERE KÖYÜ","zip":"13502"},{"name":"BUDAKLI MAH.","zip":"13502"},{"name":"CİHANGİR KÖYÜ","zip":"13502"},{"name":"ÇANAKYAYLA KÖYÜ","zip":"13502"},{"name":"DİZDAR KÖYÜ","zip":"13502"},{"name":"ERİKBAĞI KÖYÜ","zip":"13502"},{"name":"ESENKIYI KÖYÜ","zip":"13502"},{"name":"ESENTEPE MAH.","zip":"13502"},{"name":"GÖLBAŞI MAH.","zip":"13502"},{"name":"GÖLDÜZÜ KÖYÜ","zip":"13502"},{"name":"GÖLÜSTÜ KÖYÜ","zip":"13502"},{"name":"GÜLTEPE MAH.","zip":"13502"},{"name":"GÜMÜŞDÜVEN KÖYÜ","zip":"13502"},{"name":"HARMANTEPE KÖYÜ","zip":"13502"},{"name":"HEYBELİ KÖYÜ","zip":"13502"},{"name":"IŞIKLAR MAH.","zip":"13502"},{"name":"İPEKÇAYIR KÖYÜ","zip":"13502"},{"name":"İSMET PAŞA MAH.","zip":"13502"},{"name":"KARAKOL KÖYÜ","zip":"13502"},{"name":"KARAŞEYH KÖYÜ","zip":"13502"},{"name":"KARŞIYAKA KÖYÜ","zip":"13502"},{"name":"KAVUŞTUK KÖYÜ","zip":"13502"},{"name":"KIŞKILI MAH.","zip":"13502"},{"name":"KÖMÜRLÜ KÖYÜ","zip":"13502"},{"name":"KUZEL MAH.","zip":"13502"},{"name":"MENDERES MAH.","zip":"13502"},{"name":"MOLLAFADIL KÖYÜ","zip":"13502"},{"name":"ÖRENTAŞ KÖYÜ","zip":"13502"},{"name":"SARIÇAY MAH.","zip":"13502"},{"name":"SEFASAHİL KÖYÜ","zip":"13502"},{"name":"YARIMADA KÖYÜ","zip":"13502"},{"name":"YAZLIK MAH.","zip":"13502"},{"name":"YILDIZKÖY KÖYÜ","zip":"13502"},{"name":"YOLÇATI KÖYÜ","zip":"13502"},{"name":"YUKARI MAH.","zip":"13502"},{"name":"YUKARISÜPHAN KÖYÜ","zip":"13502"}]},{"name":"AHLAT","cityName":null,"quarters":[{"name":"HARABA ŞEHİR MAH.","zip":"13400"},{"name":"İKİ KUBBE MAH.","zip":"13400"},{"name":"KACER MAH.","zip":"13400"},{"name":"KALE MAH.","zip":"13400"},{"name":"KIRKLAR MAH.","zip":"13400"},{"name":"KULAKSIZ MAH.","zip":"13400"},{"name":"SELÇUKLU MAH.","zip":"13400"},{"name":"TAHTI SÜLEYMAN MAH.","zip":"13400"},{"name":"TUNUS MAH.","zip":"13400"}]},{"name":"MERKEZKÖYLER","cityName":null,"quarters":[{"name":"2.KÜME MAH.","zip":"13402"},{"name":"AŞAĞI KÜME MAH.","zip":"13402"},{"name":"CEMALETTİN KÖYÜ","zip":"13402"},{"name":"ÇATALAĞZI KÖYÜ","zip":"13402"},{"name":"ÇUKURTARLA KÖYÜ","zip":"13402"},{"name":"DEVELİK KÖYÜ","zip":"13402"},{"name":"KINALIKOÇ KÖYÜ","zip":"13402"},{"name":"KIRKDÖNÜM KÖYÜ","zip":"13402"},{"name":"KUŞHANE KÖYÜ","zip":"13402"},{"name":"SAKA KÖYÜ","zip":"13402"},{"name":"SERİNBAYIR KÖYÜ","zip":"13402"},{"name":"SEYRANTEPE KÖYÜ","zip":"13402"},{"name":"SOĞANLI KÖYÜ","zip":"13402"},{"name":"TAŞHARMAN KÖYÜ","zip":"13402"},{"name":"ULUDERE KÖYÜ","zip":"13402"},{"name":"YENİKÖPRÜ KÖYÜ","zip":"13402"},{"name":"YOLUN ALT MEVKİİ MAH.","zip":"13402"},{"name":"YOLUN SAĞI MAH.","zip":"13402"},{"name":"YOLUN SOLU MAH.","zip":"13402"},{"name":"YOLUN ÜST MEVKİİ MAH.","zip":"13402"},{"name":"YUKARI KÜME MAH.","zip":"13402"},{"name":"YUVADAMI KÖYÜ","zip":"13402"}]},{"name":"OVAKIŞLA","cityName":null,"quarters":[{"name":"1.KÜME MAH.","zip":"13403"},{"name":"2.KÜME MAH.","zip":"13403"},{"name":"3.KÜME MAH.","zip":"13403"},{"name":"AKÇAÖREN KÖYÜ","zip":"13403"},{"name":"ALAKIR KÖYÜ","zip":"13403"},{"name":"BAHÇE KÖYÜ","zip":"13403"},{"name":"BURCUKAYA KÖYÜ","zip":"13403"},{"name":"DİLBURNU KÖYÜ","zip":"13403"},{"name":"GÖLGÖREN KÖYÜ","zip":"13403"},{"name":"GÜZELSU KÖYÜ","zip":"13403"},{"name":"KARAAĞAÇ MAH.","zip":"13403"},{"name":"KIRIKKAYA KÖYÜ","zip":"13403"},{"name":"KURTULUŞ MAH.","zip":"13403"},{"name":"KÜLTÜR MAH.","zip":"13403"},{"name":"NAZİK KÖYÜ","zip":"13403"},{"name":"ORTA MAH.","zip":"13403"},{"name":"OTLUYAZI KÖYÜ","zip":"13403"},{"name":"OVAKIŞLA KÖYÜ","zip":"13403"},{"name":"SARAY MAH.","zip":"13403"},{"name":"YILDIZLAR MAH.","zip":"13403"},{"name":"YOĞURTYEMEZ KÖYÜ","zip":"13403"}]},{"name":"GÜROYMAK","cityName":null,"quarters":[{"name":"BARAJYOLU MAH.","zip":"13800"},{"name":"BARIŞ MAH.","zip":"13800"},{"name":"BÖLMEDERE MAH.","zip":"13800"},{"name":"ERENTEPE MAH.","zip":"13800"},{"name":"GİRNE MAH.","zip":"13800"},{"name":"HAYDAR MAH.","zip":"13800"},{"name":"KÜMBET MAH.","zip":"13800"},{"name":"NURTEPE MAH.","zip":"13800"},{"name":"ŞENEVLER MAH.","zip":"13800"},{"name":"ŞENOVA MAH.","zip":"13800"},{"name":"ŞENTEPE MAH.","zip":"13800"},{"name":"ŞİRİNTEPE MAH.","zip":"13800"},{"name":"UĞURLU MAH.","zip":"13800"},{"name":"YEŞİLOVA MAH.","zip":"13800"}]},{"name":"MERKEZKÖYLER","cityName":null,"quarters":[{"name":"ARPACIK KÖYÜ","zip":"13802"},{"name":"AŞAĞIKOLBAŞI KÖYÜ","zip":"13802"},{"name":"BUDAKLI KÖYÜ","zip":"13802"},{"name":"CAMİ MAH.","zip":"13802"},{"name":"CEVİZYATAĞI KÖYÜ","zip":"13802"},{"name":"CUMHURİYET MAH.","zip":"13802"},{"name":"ÇALLI KÖYÜ","zip":"13802"},{"name":"ÇAYARASI KÖYÜ","zip":"13802"},{"name":"ÇITAK KÖYÜ","zip":"13802"},{"name":"DEĞİRMEN KÖYÜ","zip":"13802"},{"name":"GEDİKPINAR KÖYÜ","zip":"13802"},{"name":"GÖLBAŞI KÖYÜ","zip":"13802"},{"name":"GÜLTEPE MAH.","zip":"13802"},{"name":"GÜNKIRI KÖYÜ","zip":"13802"},{"name":"GÜZELLİ KÖYÜ","zip":"13802"},{"name":"HÜRRİYET MAH.","zip":"13802"},{"name":"IŞIKLI MAH.","zip":"13802"},{"name":"KALELİ KÖYÜ","zip":"13802"},{"name":"KANİ REŞ MAH.","zip":"13802"},{"name":"KAVUNLU KÖYÜ","zip":"13802"},{"name":"KEKLİKPINAR TESCİLSİZ MEZRASI MAH.","zip":"13802"},{"name":"KEKLİKTEPE KÖYÜ","zip":"13802"},{"name":"KONAK MAH.","zip":"13802"},{"name":"KÖŞK MAH.","zip":"13802"},{"name":"KUŞTAŞI KÖYÜ","zip":"13802"},{"name":"ODUNCULAR KÖYÜ","zip":"13802"},{"name":"ÖZKAVAK KÖYÜ","zip":"13802"},{"name":"PINARBAŞI MAH.","zip":"13802"},{"name":"REFAHİYE MAH.","zip":"13802"},{"name":"SAKLI KÖYÜ","zip":"13802"},{"name":"SORANİ MAH.","zip":"13802"},{"name":"SÜTDERESİ KÖYÜ","zip":"13802"},{"name":"ŞENKAYA MAH.","zip":"13802"},{"name":"ŞENYAYLA MAH.","zip":"13802"},{"name":"ŞENYURT MAH.","zip":"13802"},{"name":"TAHTALI KÖYÜ","zip":"13802"},{"name":"TAŞÜSTÜ KÖYÜ","zip":"13802"},{"name":"ÜZÜMVEREN KÖYÜ","zip":"13802"},{"name":"YAĞMURLU MAH.","zip":"13802"},{"name":"YAMAÇKÖY KÖYÜ","zip":"13802"},{"name":"YAYLADERE KÖYÜ","zip":"13802"},{"name":"YAZIKONAK KÖYÜ","zip":"13802"},{"name":"YEMİŞVEREN KÖYÜ","zip":"13802"},{"name":"YENİ MAH.","zip":"13802"},{"name":"YEŞİLTEPE MAH.","zip":"13802"},{"name":"YEŞİLYURT MAH.","zip":"13802"},{"name":"YUKARIKOLBAŞI KÖYÜ","zip":"13802"}]},{"name":"HİZAN","cityName":null,"quarters":[{"name":"AŞAĞIKARASU MAH.","zip":"13600"},{"name":"BAHÇELİEVLER MAH.","zip":"13600"},{"name":"ESENTEPE MAH.","zip":"13600"},{"name":"GÖKÇİMEN MAH.","zip":"13600"},{"name":"KÜLTÜR MAH.","zip":"13600"},{"name":"TAŞLI PINAR MAH.","zip":"13600"},{"name":"YEMİŞLİ MAH.","zip":"13600"},{"name":"YENİ KENT MAH.","zip":"13600"},{"name":"YEŞİL OVA MAH.","zip":"13600"}]},{"name":"MERKEZKÖYLER","cityName":null,"quarters":[{"name":"AĞILÖZÜ KÖYÜ","zip":"13602"},{"name":"AKBAŞ MAH.","zip":"13602"},{"name":"AKBIYIK KÖYÜ","zip":"13602"},{"name":"AKÇA KÖYÜ","zip":"13602"},{"name":"AKÇAKONAK MAH.","zip":"13602"},{"name":"AKÇEVRE KÖYÜ","zip":"13602"},{"name":"AKDİK KÖYÜ","zip":"13602"},{"name":"AKDİK MAH.","zip":"13602"},{"name":"AKDİKEN MAH.","zip":"13602"},{"name":"AKKÖPRÜ MAH.","zip":"13602"},{"name":"AKŞAR KÖYÜ","zip":"13602"},{"name":"AKYAZI MAH.","zip":"13602"},{"name":"AKYOL MAH.","zip":"13602"},{"name":"ALADANA KÖYÜ","zip":"13602"},{"name":"ALANCIK MAH.","zip":"13602"},{"name":"ALYANAK MAH.","zip":"13602"},{"name":"AŞAĞI AKSÜT MAH.","zip":"13602"},{"name":"AŞAĞI AYVACIK MAH.","zip":"13602"},{"name":"AŞAĞI KAZANLI MAH.","zip":"13602"},{"name":"AŞAĞI ŞENLİK MAH.","zip":"13602"},{"name":"AVLAK MAH.","zip":"13602"},{"name":"AYBATTI MAH.","zip":"13602"},{"name":"AYRANCI MAH.","zip":"13602"},{"name":"BAĞBAŞI MAH.","zip":"13602"},{"name":"BAĞIŞLI MAH.","zip":"13602"},{"name":"BAĞLARARASI MAH.","zip":"13602"},{"name":"BAHÇEDERE MAH.","zip":"13602"},{"name":"BALLI KÖYÜ","zip":"13602"},{"name":"BALLICA KÖYÜ","zip":"13602"},{"name":"BAŞAKLI MAH.","zip":"13602"},{"name":"BAYIR MAH.","zip":"13602"},{"name":"BEREKET MAH.","zip":"13602"},{"name":"BESİLİ MAH.","zip":"13602"},{"name":"BEYARİ MAH.","zip":"13602"},{"name":"BİLGİLİ MAH.","zip":"13602"},{"name":"BOZPINAR KÖYÜ","zip":"13602"},{"name":"BÖLÜKLÜ KÖYÜ","zip":"13602"},{"name":"BUDAKLI KÖYÜ","zip":"13602"},{"name":"CEVİZLİ MAH.","zip":"13602"},{"name":"ÇAKIRKAYA MAH.","zip":"13602"},{"name":"ÇALIŞKANLAR KÖYÜ","zip":"13602"},{"name":"ÇATAKDEĞİRMEN KÖYÜ","zip":"13602"},{"name":"ÇAVUŞLAR MAH.","zip":"13602"},{"name":"ÇAYIR KÖYÜ","zip":"13602"},{"name":"ÇAYIRLI MAH.","zip":"13602"},{"name":"ÇEVRECİK MAH.","zip":"13602"},{"name":"ÇIKÇIK MAH.","zip":"13602"},{"name":"ÇİÇEKLİ MAH.","zip":"13602"},{"name":"ÇİTLİ MAH.","zip":"13602"},{"name":"ÇÖKEKYAZI KÖYÜ","zip":"13602"},{"name":"DAĞÖREN KÖYÜ","zip":"13602"},{"name":"DAYILAR KÖYÜ","zip":"13602"},{"name":"DELİKLİTAŞ MAH.","zip":"13602"},{"name":"DEREAĞZI MAH.","zip":"13602"},{"name":"DERİNCE KÖYÜ","zip":"13602"},{"name":"DİBEKLİ MAH.","zip":"13602"},{"name":"DİLEK MAH.","zip":"13602"},{"name":"DOĞANCI KÖYÜ","zip":"13602"},{"name":"DOĞRULAR MAH.","zip":"13602"},{"name":"DOYUMLU MAH.","zip":"13602"},{"name":"DÖKÜKTAŞ KÖYÜ","zip":"13602"},{"name":"DURAK MAH.","zip":"13602"},{"name":"DÜZTEPE MAH.","zip":"13602"},{"name":"EKİNLİ KÖYÜ","zip":"13602"},{"name":"EKİNTEPE KÖYÜ","zip":"13602"},{"name":"ELMACIK KÖYÜ","zip":"13602"},{"name":"ELMALI MAH.","zip":"13602"},{"name":"ERENCİK KÖYÜ","zip":"13602"},{"name":"ESENLER KÖYÜ","zip":"13602"},{"name":"FISTIKLI MAH.","zip":"13602"},{"name":"GAYDA KÖYÜ","zip":"13602"},{"name":"GEÇİT MAH.","zip":"13602"},{"name":"GEDİK MAH.","zip":"13602"},{"name":"GELİNCİK MAH.","zip":"13602"},{"name":"GÖKAY KÖYÜ","zip":"13602"},{"name":"GÖKTEPE KÖYÜ","zip":"13602"},{"name":"GÖNÜLLÜ KÖYÜ","zip":"13602"},{"name":"GÖZE MAH.","zip":"13602"},{"name":"GÜÇLÜ MAH.","zip":"13602"},{"name":"GÜMÜŞOLUK MAH.","zip":"13602"},{"name":"GÜMÜŞÖREN MAH.","zip":"13602"},{"name":"GÜNGÖREN KÖYÜ","zip":"13602"},{"name":"GÜRECE KÖYÜ","zip":"13602"},{"name":"GÜVENDİK MAH.","zip":"13602"},{"name":"HACIMEHMET KÖYÜ","zip":"13602"},{"name":"HARMANDÖVEN KÖYÜ","zip":"13602"},{"name":"HIDIR MAH.","zip":"13602"},{"name":"HOROZDERE KÖYÜ","zip":"13602"},{"name":"İÇLİKAVAL KÖYÜ","zip":"13602"},{"name":"İNCİRLİ KÖYÜ","zip":"13602"},{"name":"KALKANLI KÖYÜ","zip":"13602"},{"name":"KAPISUYU KÖYÜ","zip":"13602"},{"name":"KARAAĞAÇ KÖYÜ","zip":"13602"},{"name":"KARADAL MAH.","zip":"13602"},{"name":"KARADUMAN MAH.","zip":"13602"},{"name":"KARAKOYUN MAH.","zip":"13602"},{"name":"KARBASTI KÖYÜ","zip":"13602"},{"name":"KARDEŞLİK MAH.","zip":"13602"},{"name":"KARLITEPE KÖYÜ","zip":"13602"},{"name":"KAVAL MAH.","zip":"13602"},{"name":"KAYADELER KÖYÜ","zip":"13602"},{"name":"KAYALAR MAH.","zip":"13602"},{"name":"KAYALI KÖYÜ","zip":"13602"},{"name":"KAYAŞ MAH.","zip":"13602"},{"name":"KAYMAKLI KÖYÜ","zip":"13602"},{"name":"KEÇELİ KÖYÜ","zip":"13602"},{"name":"KEKLİK KÖYÜ","zip":"13602"},{"name":"KESTANELİ MAH.","zip":"13602"},{"name":"KEZER MAH.","zip":"13602"},{"name":"KILAVUZ MAH.","zip":"13602"},{"name":"KIRATLI MAH.","zip":"13602"},{"name":"KİLİMLİ MAH.","zip":"13602"},{"name":"KİŞ MAH.","zip":"13602"},{"name":"KOÇ MAH.","zip":"13602"},{"name":"KOÇLU KÖYÜ","zip":"13602"},{"name":"KOÇYİĞİT KÖYÜ","zip":"13602"},{"name":"KOLLUDERE KÖYÜ","zip":"13602"},{"name":"KONAK MAH.","zip":"13602"},{"name":"KONAKLAR MAH.","zip":"13602"},{"name":"KOŞLUCA MAH.","zip":"13602"},{"name":"KOYUNLU MAH.","zip":"13602"},{"name":"KÖPRÜ MAH.","zip":"13602"},{"name":"MAHMUTLAR MAH.","zip":"13602"},{"name":"MEŞELİK MAH.","zip":"13602"},{"name":"MEYDAN KÖYÜ","zip":"13602"},{"name":"MUT MAH.","zip":"13602"},{"name":"NUH KÖYÜ","zip":"13602"},{"name":"NURS KÖYÜ","zip":"13602"},{"name":"OCAK MAH.","zip":"13602"},{"name":"OĞLAKLI KÖYÜ","zip":"13602"},{"name":"OĞLAKLI MAH.","zip":"13602"},{"name":"ORTACA KÖYÜ","zip":"13602"},{"name":"OTLU MAH.","zip":"13602"},{"name":"OTLUCA MAH.","zip":"13602"},{"name":"OVİ MAH.","zip":"13602"},{"name":"OYMAPINAR KÖYÜ","zip":"13602"},{"name":"ÖLÇÜLÜ MAH.","zip":"13602"},{"name":"ÖRENBAŞ MAH.","zip":"13602"},{"name":"ÖRGÜLÜ KÖYÜ","zip":"13602"},{"name":"ÖZENLİ MAH.","zip":"13602"},{"name":"ÖZTOPRAK MAH.","zip":"13602"},{"name":"SAĞINLI KÖYÜ","zip":"13602"},{"name":"SAĞIRKAYA KÖYÜ","zip":"13602"},{"name":"SAMANYOLU MAH.","zip":"13602"},{"name":"SARIBAL MAH.","zip":"13602"},{"name":"SARITAŞ KÖYÜ","zip":"13602"},{"name":"SARPKAYA KÖYÜ","zip":"13602"},{"name":"SOĞUKSU KÖYÜ","zip":"13602"},{"name":"SÜRÜCÜLER KÖYÜ","zip":"13602"},{"name":"SÜTTAŞI KÖYÜ","zip":"13602"},{"name":"TAŞ MAH.","zip":"13602"},{"name":"TAŞEVLER MAH.","zip":"13602"},{"name":"TOPAĞACI MAH.","zip":"13602"},{"name":"TOPLUCA MAH.","zip":"13602"},{"name":"TOPRAĞACI MAH.","zip":"13602"},{"name":"TOPRAKLI MAH.","zip":"13602"},{"name":"TUĞLU MAH.","zip":"13602"},{"name":"TUTUMLU KÖYÜ","zip":"13602"},{"name":"UZUNTAŞ KÖYÜ","zip":"13602"},{"name":"ÜÇKARDEŞ MAH.","zip":"13602"},{"name":"ÜRÜNVEREN KÖYÜ","zip":"13602"},{"name":"ÜSPİİSLAM MAH.","zip":"13602"},{"name":"ÜZÜMLÜ MAH.","zip":"13602"},{"name":"VERİMLİ MAH.","zip":"13602"},{"name":"YAMAÇ MAH.","zip":"13602"},{"name":"YAPAĞI MAH.","zip":"13602"},{"name":"YAYLACIK KÖYÜ","zip":"13602"},{"name":"YAYLALI MAH.","zip":"13602"},{"name":"YAZMALI MAH.","zip":"13602"},{"name":"YEDİKARDEŞ MAH.","zip":"13602"},{"name":"YELKIRAN KÖYÜ","zip":"13602"},{"name":"YENİCİK KÖYÜ","zip":"13602"},{"name":"YENİÇAY MAH.","zip":"13602"},{"name":"YENİGÜN MAH.","zip":"13602"},{"name":"YIĞINKAYA KÖYÜ","zip":"13602"},{"name":"YOĞURTLU KÖYÜ","zip":"13602"},{"name":"YOLBAŞI MAH.","zip":"13602"},{"name":"YOLBİLEN KÖYÜ","zip":"13602"},{"name":"YOLUSLU MAH.","zip":"13602"},{"name":"YUKARI AKSÜT MAH.","zip":"13602"},{"name":"YUKARI GELİNCİK MAH.","zip":"13602"},{"name":"YUKARI KAZANLI MAH.","zip":"13602"},{"name":"YUKARI ŞENLİK MAH.","zip":"13602"},{"name":"YUKARIAYVACIK KÖYÜ","zip":"13602"},{"name":"YUKARIÇALI KÖYÜ","zip":"13602"},{"name":"YUMACIK MAH.","zip":"13602"},{"name":"YURTİÇİ MAH.","zip":"13602"},{"name":"ZİVİ MAH.","zip":"13602"}]},{"name":"BİTLİS","cityName":null,"quarters":[{"name":"BEŞ MİNARE MAH.","zip":"13100"},{"name":"GAZİ BEY MAH.","zip":"13100"},{"name":"HERSAN MAH.","zip":"13100"},{"name":"HÜSREV PAŞA MAH.","zip":"13100"},{"name":"İNÖNÜ MAH.","zip":"13100"},{"name":"MUŞTAKBABA MAH.","zip":"13100"},{"name":"SARAY MAH.","zip":"13100"},{"name":"SEKİZ AĞUSTOS MAH.","zip":"13100"},{"name":"ŞEMSİ BİTLİS MAH.","zip":"13100"},{"name":"TAŞ MAH.","zip":"13100"},{"name":"YÜKSELİŞ MAH.","zip":"13100"},{"name":"ZEYDAN MAH.","zip":"13100"}]},{"name":"BÖLÜKYAZI","cityName":null,"quarters":[{"name":"ARIDAĞ KÖYÜ","zip":"13001"},{"name":"AŞAĞIBALCILAR KÖYÜ","zip":"13001"},{"name":"AŞAĞIÖLEK KÖYÜ","zip":"13001"},{"name":"BAŞMAKLI KÖYÜ","zip":"13001"},{"name":"BAYRAMALAN KÖYÜ","zip":"13001"},{"name":"BOYLU MAH.","zip":"13001"},{"name":"BÖLÜKYAZI KÖYÜ","zip":"13001"},{"name":"ÇADIRLI MAH.","zip":"13001"},{"name":"ÇAYIRBAŞI KÖYÜ","zip":"13001"},{"name":"ÇAYLI MAH.","zip":"13001"},{"name":"ÇUBUK MAH.","zip":"13001"},{"name":"DEREAĞZI KÖYÜ","zip":"13001"},{"name":"DOĞRUYOL KÖYÜ","zip":"13001"},{"name":"GEÇİTBAŞI KÖYÜ","zip":"13001"},{"name":"ILICAK KÖYÜ","zip":"13001"},{"name":"İÇGEÇİT KÖYÜ","zip":"13001"},{"name":"KAPLI MAH.","zip":"13001"},{"name":"KAVAKDİBİ KÖYÜ","zip":"13001"},{"name":"KAYABAŞI KÖYÜ","zip":"13001"},{"name":"KEKLİKDÜZÜ KÖYÜ","zip":"13001"},{"name":"KOKARSU KÖYÜ","zip":"13001"},{"name":"KULİBİK TESCİLSİZ MEZRA MAH.","zip":"13001"},{"name":"KUŞLU MAH.","zip":"13001"},{"name":"OĞULCAK KÖYÜ","zip":"13001"},{"name":"ÖREN MAH.","zip":"13001"},{"name":"SAMANLI MAH.","zip":"13001"},{"name":"ÜÇEVLER KÖYÜ","zip":"13001"},{"name":"YAYALAR KÖYÜ","zip":"13001"},{"name":"YOLAĞZI KÖYÜ","zip":"13001"},{"name":"YOLCULAR KÖYÜ","zip":"13001"},{"name":"YUKARI YUVACIK MAH.","zip":"13001"},{"name":"YUKARIBALCILAR KÖYÜ","zip":"13001"},{"name":"YUKARIÖLEK KÖYÜ","zip":"13001"},{"name":"YUVACIK KÖYÜ","zip":"13001"}]},{"name":"MERKEZKÖYLER","cityName":null,"quarters":[{"name":"AĞAÇKÖPRÜ KÖYÜ","zip":"13002"},{"name":"AĞAÇPINAR KÖYÜ","zip":"13002"},{"name":"AKÇALI MAH.","zip":"13002"},{"name":"AKGÜN MAH.","zip":"13002"},{"name":"AKTAŞ MAH.","zip":"13002"},{"name":"ALANİÇİ KÖYÜ","zip":"13002"},{"name":"AŞAĞI DİKME MAH.","zip":"13002"},{"name":"AŞAĞIKARABOY KÖYÜ","zip":"13002"},{"name":"AŞAĞIKOÇ MAH.","zip":"13002"},{"name":"AŞAĞIYOLAK KÖYÜ","zip":"13002"},{"name":"AYRANCILAR KÖYÜ","zip":"13002"},{"name":"BAŞHAN KÖYÜ","zip":"13002"},{"name":"BAYIRLI MAH.","zip":"13002"},{"name":"BEŞKAYNAK KÖYÜ","zip":"13002"},{"name":"BOZTEPE MAH.","zip":"13002"},{"name":"BUĞDAYLI MAH.","zip":"13002"},{"name":"CEVİZDALI KÖYÜ","zip":"13002"},{"name":"CEVİZÜSTÜ MAH.","zip":"13002"},{"name":"CUMHURİYET 2 MAH.","zip":"13002"},{"name":"CUMHURİYET KÖYÜ","zip":"13002"},{"name":"ÇALIDÜZÜ KÖYÜ","zip":"13002"},{"name":"ÇALLI MAH.","zip":"13002"},{"name":"ÇAYIR MAH.","zip":"13002"},{"name":"ÇELTİKLİ KÖYÜ","zip":"13002"},{"name":"ÇINARBAŞI MAH.","zip":"13002"},{"name":"ÇOBANSUYU KÖYÜ","zip":"13002"},{"name":"DEĞİRMENALTI KÖYÜ","zip":"13002"},{"name":"DELİKTAŞ KÖYÜ","zip":"13002"},{"name":"DİKME KÖYÜ","zip":"13002"},{"name":"DİREKTAŞI KÖYÜ","zip":"13002"},{"name":"DOĞANLI MAH.","zip":"13002"},{"name":"DÖRTAĞAÇ KÖYÜ","zip":"13002"},{"name":"DÖŞKAYA KÖYÜ","zip":"13002"},{"name":"DÜZ MAH.","zip":"13002"},{"name":"EKİNLİ KÖYÜ","zip":"13002"},{"name":"ESEN MAH.","zip":"13002"},{"name":"ESENBURUN KÖYÜ","zip":"13002"},{"name":"İÇMELİ KÖYÜ","zip":"13002"},{"name":"KALE MAH.","zip":"13002"},{"name":"KARAKAŞ MAH.","zip":"13002"},{"name":"KARBASTI KÖYÜ","zip":"13002"},{"name":"KARINCA KÖYÜ","zip":"13002"},{"name":"KAYADAĞ KÖYÜ","zip":"13002"},{"name":"KAYADAĞ MAH.","zip":"13002"},{"name":"KAYALIBAĞ KÖYÜ","zip":"13002"},{"name":"KEÇELİ MAH.","zip":"13002"},{"name":"KILYAT MAH.","zip":"13002"},{"name":"KINALI KÖYÜ","zip":"13002"},{"name":"KİREÇTAŞI KÖYÜ","zip":"13002"},{"name":"KONAÇ MAH.","zip":"13002"},{"name":"KONALGA KÖYÜ","zip":"13002"},{"name":"KONUKSAYAR KÖYÜ","zip":"13002"},{"name":"KORUK KÖYÜ","zip":"13002"},{"name":"KÖMÜRYAKAN KÖYÜ","zip":"13002"},{"name":"KUTLU MAH.","zip":"13002"},{"name":"KÜLLİCE MAH.","zip":"13002"},{"name":"KÜLLÜCE KÖYÜ","zip":"13002"},{"name":"NARLIDERE KÖYÜ","zip":"13002"},{"name":"ORTAKAPI KÖYÜ","zip":"13002"},{"name":"OTLUK MAH.","zip":"13002"},{"name":"PINARBAŞI MAH.","zip":"13002"},{"name":"SARIKONAK KÖYÜ","zip":"13002"},{"name":"SARIYILDIZ MAH.","zip":"13002"},{"name":"SARPKAYA KÖYÜ","zip":"13002"},{"name":"SİNEKAR MAH.","zip":"13002"},{"name":"ŞEHİTLİK TESCİLSİZ MEZRASI MAH.","zip":"13002"},{"name":"TABANÖZÜ KÖYÜ","zip":"13002"},{"name":"TANRIYAR KÖYÜ","zip":"13002"},{"name":"TAŞ MAH.","zip":"13002"},{"name":"TATLIKAYNAK KÖYÜ","zip":"13002"},{"name":"TINAR KÖYÜ","zip":"13002"},{"name":"UÇANKUŞ KÖYÜ","zip":"13002"},{"name":"ÜÇ KARDEŞ MAH.","zip":"13002"},{"name":"ÜNALDI KÖYÜ","zip":"13002"},{"name":"YANLIZÇAMLAR KÖYÜ","zip":"13002"},{"name":"YARÖNÜ KÖYÜ","zip":"13002"},{"name":"YAVUZLAR MAH.","zip":"13002"},{"name":"YAYGIN KÖYÜ","zip":"13002"},{"name":"YENİ MAH.","zip":"13002"},{"name":"YENİCE MAH.","zip":"13002"},{"name":"YEŞİLSIRT KÖYÜ","zip":"13002"},{"name":"YOLALAN KÖYÜ","zip":"13002"},{"name":"YOLALAN MAH.","zip":"13002"},{"name":"YOLYAZI KÖYÜ","zip":"13002"},{"name":"YUKARIKARABOY KÖYÜ","zip":"13002"},{"name":"YUKARIYOLAK KÖYÜ","zip":"13002"},{"name":"YUMURTATEPE KÖYÜ","zip":"13002"},{"name":"YÜCEBAŞ KÖYÜ","zip":"13002"},{"name":"ZİYARET MAH.","zip":"13002"}]},{"name":"GEYİKPINAR","cityName":null,"quarters":[{"name":"BEYAZ SU MAH.","zip":"13703"},{"name":"BEYAZSU MAH.","zip":"13703"},{"name":"ÇİĞDEMALAN KÖYÜ","zip":"13703"},{"name":"ESENYURT MAH.","zip":"13703"},{"name":"GEYİKPINAR KÖYÜ","zip":"13703"},{"name":"KAPIKAYA KÖYÜ","zip":"13703"},{"name":"KAŞAK KÖYÜ","zip":"13703"},{"name":"KAYRAN KÖYÜ","zip":"13703"},{"name":"KÖPRÜBAŞI MAH.","zip":"13703"},{"name":"OCAKBAŞI MAH.","zip":"13703"},{"name":"ÖLÇÜLÜ MAH.","zip":"13703"},{"name":"SİVRİCE MAH.","zip":"13703"},{"name":"TAŞ MAH.","zip":"13703"},{"name":"TAŞYOL MAH.","zip":"13703"},{"name":"TOLGALI KÖYÜ","zip":"13703"},{"name":"YANIKÇAKIR KÖYÜ","zip":"13703"},{"name":"YAZICIK KÖYÜ","zip":"13703"},{"name":"YUVALIDAM KÖYÜ","zip":"13703"}]},{"name":"MERKEZKÖYLER","cityName":null,"quarters":[{"name":"AKÇAAĞAÇ KÖYÜ","zip":"13702"},{"name":"AKINCI KÖYÜ","zip":"13702"},{"name":"AKPINAR KÖYÜ","zip":"13702"},{"name":"AKSAKAL MAH.","zip":"13702"},{"name":"ALATOPRAK KÖYÜ","zip":"13702"},{"name":"ALICIK KÖYÜ","zip":"13702"},{"name":"ALKOYUN KÖYÜ","zip":"13702"},{"name":"ARPALISEKİ MAH.","zip":"13702"},{"name":"AYDEMİR KÖYÜ","zip":"13702"},{"name":"AYDINLAR MAH.","zip":"13702"},{"name":"AYDOĞDU MAH.","zip":"13702"},{"name":"BAHÇELİ MAH.","zip":"13702"},{"name":"BALKAYA MAH.","zip":"13702"},{"name":"BEŞEVLER KÖYÜ","zip":"13702"},{"name":"BOĞAZÖNÜ KÖYÜ","zip":"13702"},{"name":"BOZBURUN KÖYÜ","zip":"13702"},{"name":"CAMİ MAH.","zip":"13702"},{"name":"ÇAĞDAŞ MAH.","zip":"13702"},{"name":"ÇANAKLI MAH.","zip":"13702"},{"name":"ÇATALSÖĞÜT KÖYÜ","zip":"13702"},{"name":"ÇAYGEÇİT KÖYÜ","zip":"13702"},{"name":"ÇAYIRLI KÖYÜ","zip":"13702"},{"name":"ÇEVRELİ MAH.","zip":"13702"},{"name":"ÇIĞIR KÖYÜ","zip":"13702"},{"name":"ÇİMEN MAH.","zip":"13702"},{"name":"ÇİTLİYOL KÖYÜ","zip":"13702"},{"name":"ÇUKURCA MAH.","zip":"13702"},{"name":"DAĞARCIK KÖYÜ","zip":"13702"},{"name":"DAĞLIK KÖYÜ","zip":"13702"},{"name":"DEREÖNÜ MAH.","zip":"13702"},{"name":"DEREYOLU KÖYÜ","zip":"13702"},{"name":"EKİZLER KÖYÜ","zip":"13702"},{"name":"ERLER KÖYÜ","zip":"13702"},{"name":"EVCİLER MAH.","zip":"13702"},{"name":"EYUBİYE MAH.","zip":"13702"},{"name":"FATİH MAH.","zip":"13702"},{"name":"GÖLBAŞI MAH.","zip":"13702"},{"name":"GÖZTEPE KÖYÜ","zip":"13702"},{"name":"GÜVENLİ MAH.","zip":"13702"},{"name":"HAVARİK MAH.","zip":"13702"},{"name":"ILICAK MAH.","zip":"13702"},{"name":"İKİZLER KÖYÜ","zip":"13702"},{"name":"İNİŞLİ MAH.","zip":"13702"},{"name":"KAPAKLI KÖYÜ","zip":"13702"},{"name":"KAVAKBAŞI KÖYÜ","zip":"13702"},{"name":"KAYABAŞI KÖYÜ","zip":"13702"},{"name":"KOCAİNİŞ KÖYÜ","zip":"13702"},{"name":"KOYUNLU KÖYÜ","zip":"13702"},{"name":"KUŞCU MAH.","zip":"13702"},{"name":"KUŞDİLİ KÖYÜ","zip":"13702"},{"name":"KÜLLÜCE KÖYÜ","zip":"13702"},{"name":"LEVENT MAH.","zip":"13702"},{"name":"MEZRA MAH.","zip":"13702"},{"name":"OCAKLI MAH.","zip":"13702"},{"name":"OLUKLU KÖYÜ","zip":"13702"},{"name":"ONBAŞI MAH.","zip":"13702"},{"name":"ORTA MAH.","zip":"13702"},{"name":"ÖMERİYE MAH.","zip":"13702"},{"name":"ÖZENLİ KÖYÜ","zip":"13702"},{"name":"SARIÇİÇEK KÖYÜ","zip":"13702"},{"name":"SEKİLİYAZI KÖYÜ","zip":"13702"},{"name":"SERİNCE MAH.","zip":"13702"},{"name":"ŞEREFHAN MAH.","zip":"13702"},{"name":"TAŞKAPI MAH.","zip":"13702"},{"name":"TOSUNLAR MAH.","zip":"13702"},{"name":"UĞUR MAH.","zip":"13702"},{"name":"ULAŞ MAH.","zip":"13702"},{"name":"URAN KÖYÜ","zip":"13702"},{"name":"ÜSTYAYLA KÖYÜ","zip":"13702"},{"name":"YALINTAŞ KÖYÜ","zip":"13702"},{"name":"YENİ MAH.","zip":"13702"},{"name":"YENİDOĞAN KÖYÜ","zip":"13702"},{"name":"YENİKÖY KÖYÜ","zip":"13702"},{"name":"YEŞİLCE MAH.","zip":"13702"},{"name":"YEŞİLYURT MAH.","zip":"13702"},{"name":"YİĞİTLER MAH.","zip":"13702"},{"name":"YONCALI MAH.","zip":"13702"},{"name":"YUMRUMEŞE KÖYÜ","zip":"13702"},{"name":"YÜKSEKOVA MAH.","zip":"13702"}]},{"name":"MEYDAN","cityName":null,"quarters":[{"name":"AKARSU MAH.","zip":"13704"},{"name":"AŞAĞI UZUNYAR MAH.","zip":"13704"},{"name":"ATBAŞI MAH.","zip":"13704"},{"name":"AYDINLIK MAH.","zip":"13704"},{"name":"BAĞARASI KÖYÜ","zip":"13704"},{"name":"BAĞLIK MAH.","zip":"13704"},{"name":"BALLI KÖYÜ","zip":"13704"},{"name":"BAŞÇAVUŞ MAH.","zip":"13704"},{"name":"BEKÇİLER MAH.","zip":"13704"},{"name":"CEVİZLİ MAH.","zip":"13704"},{"name":"Ç.MEŞE MAH.","zip":"13704"},{"name":"ÇATALERİK KÖYÜ","zip":"13704"},{"name":"DERE MAH.","zip":"13704"},{"name":"GOSİNG MAH.","zip":"13704"},{"name":"GÜL MAH.","zip":"13704"},{"name":"GÜMÜŞKANAT KÖYÜ","zip":"13704"},{"name":"KARABUDAK KÖYÜ","zip":"13704"},{"name":"KAŞIKLI KÖYÜ","zip":"13704"},{"name":"KOÇYATAĞI MAH.","zip":"13704"},{"name":"KOVANLI KÖYÜ","zip":"13704"},{"name":"KURTYAN MAH.","zip":"13704"},{"name":"KÜTÜKLÜ MAH.","zip":"13704"},{"name":"MERKEZ MAH.","zip":"13704"},{"name":"MEŞELİK MAH.","zip":"13704"},{"name":"MEYDAN KÖYÜ","zip":"13704"},{"name":"ÖVENCİK MAH.","zip":"13704"},{"name":"SALMAN KÖYÜ","zip":"13704"},{"name":"SARIÇUBUK MAH.","zip":"13704"},{"name":"TAŞBOĞAZ KÖYÜ","zip":"13704"},{"name":"TAŞLIK MAH.","zip":"13704"},{"name":"TESCİLSİZ MAH.","zip":"13704"},{"name":"UZUNYAR KÖYÜ","zip":"13704"},{"name":"UZUNYOL MAH.","zip":"13704"},{"name":"ÜÇADIM KÖYÜ","zip":"13704"},{"name":"ÜÇEVLER MAH.","zip":"13704"},{"name":"VASKAR MAH.","zip":"13704"},{"name":"VEZİK MAH.","zip":"13704"},{"name":"YAĞLICA MAH.","zip":"13704"},{"name":"YALÇINKAYA MAH.","zip":"13704"},{"name":"YILDIZ MAH.","zip":"13704"},{"name":"YUVALI MAH.","zip":"13704"},{"name":"YÜNLÜ MAH.","zip":"13704"},{"name":"ZEYDAN MAH.","zip":"13704"}]},{"name":"MUTKİ","cityName":null,"quarters":[{"name":"TAŞLI PINAR MAH.","zip":"13700"},{"name":"YENİ MAH.","zip":"13700"},{"name":"YENİBAĞ MAH.","zip":"13700"}]},{"name":"MERKEZKÖYLER","cityName":null,"quarters":[{"name":"ADABAĞ KÖYÜ","zip":"13202"},{"name":"BENEKLİ KÖYÜ","zip":"13202"},{"name":"BEŞTAŞ MAH.","zip":"13202"},{"name":"ÇEKMECE KÖYÜ","zip":"13202"},{"name":"DALDA KÖYÜ","zip":"13202"},{"name":"KIYIDÜZÜ KÖYÜ","zip":"13202"},{"name":"ÖRENLİK KÖYÜ","zip":"13202"},{"name":"SARIKUM KÖYÜ","zip":"13202"},{"name":"YUMURTATEPE KÖYÜ","zip":"13202"}]},{"name":"TATVAN","cityName":null,"quarters":[{"name":"BAHÇELİEVLER MAH.","zip":"13200"},{"name":"CUMHURİYET MAH.","zip":"13200"},{"name":"ÇAĞLAYAN MAH.","zip":"13200"},{"name":"DUMLUPINAR MAH.","zip":"13200"},{"name":"ESENTEPE MAH.","zip":"13200"},{"name":"FATİH MAH.","zip":"13200"},{"name":"FUAR MAH.","zip":"13200"},{"name":"HİDAYET MAH.","zip":"13200"},{"name":"İŞLETME MAH.","zip":"13200"},{"name":"KALE MAH.","zip":"13200"},{"name":"KARATAŞ MAH.","zip":"13200"},{"name":"KARŞIYAKA MAH.","zip":"13200"},{"name":"KÜLTÜR MAH.","zip":"13200"},{"name":"PINARBAŞI MAH.","zip":"13200"},{"name":"SAHİL MAH.","zip":"13200"},{"name":"SARAY MAH.","zip":"13200"},{"name":"SOSYAL MAH.","zip":"13200"},{"name":"ŞİRİNEVLER MAH.","zip":"13200"},{"name":"TUĞ MAH.","zip":"13200"},{"name":"YENİ MAH.","zip":"13200"},{"name":"YEŞİLMEZRA MAH.","zip":"13200"}]},{"name":"YELKENLİ","cityName":null,"quarters":[{"name":"AKTOPRAK MAH.","zip":"13201"},{"name":"ALACABÜK KÖYÜ","zip":"13201"},{"name":"ANADERE KÖYÜ","zip":"13201"},{"name":"ARILI MAH.","zip":"13201"},{"name":"BAĞMEŞESİ MAH.","zip":"13201"},{"name":"BEŞİKLİ MAH.","zip":"13201"},{"name":"BEŞPARMAK MAH.","zip":"13201"},{"name":"BOLALAN KÖYÜ","zip":"13201"},{"name":"BUDAKLI KÖYÜ","zip":"13201"},{"name":"ÇALIDÜZÜ KÖYÜ","zip":"13201"},{"name":"ÇAMALTI MAH.","zip":"13201"},{"name":"ÇANAKDÜZÜ KÖYÜ","zip":"13201"},{"name":"ÇATALTAŞ MAH.","zip":"13201"},{"name":"ÇAVUŞLAR KÖYÜ","zip":"13201"},{"name":"ÇEVRE KÖYÜ","zip":"13201"},{"name":"ÇÖREKLİ MAH.","zip":"13201"},{"name":"DAĞDİBİ KÖYÜ","zip":"13201"},{"name":"DİBEKLİ KÖYÜ","zip":"13201"},{"name":"DİREKLİ MAH.","zip":"13201"},{"name":"DİRLİK MAH.","zip":"13201"},{"name":"DOLUCA MAH.","zip":"13201"},{"name":"DÖNERTAŞ KÖYÜ","zip":"13201"},{"name":"DÜZCEALAN KÖYÜ","zip":"13201"},{"name":"EĞRİTAŞ KÖYÜ","zip":"13201"},{"name":"EKİNDÜZÜ MAH.","zip":"13201"},{"name":"EMEK MAH.","zip":"13201"},{"name":"GÖLGELE MAH.","zip":"13201"},{"name":"GÖLLÜ KÖYÜ","zip":"13201"},{"name":"GÜNTEPE KÖYÜ","zip":"13201"},{"name":"GÜREŞÇİ KÖYÜ","zip":"13201"},{"name":"GÜVENLİ MAH.","zip":"13201"},{"name":"HANELMALI KÖYÜ","zip":"13201"},{"name":"HARMANLI KÖYÜ","zip":"13201"},{"name":"İNCEKAYA MAH.","zip":"13201"},{"name":"KAĞANLI KÖYÜ","zip":"13201"},{"name":"KARAÇALI MAH.","zip":"13201"},{"name":"KAYNARCA KÖYÜ","zip":"13201"},{"name":"KEPENEK MAH.","zip":"13201"},{"name":"KIRKBULAK KÖYÜ","zip":"13201"},{"name":"KISIKLI KÖYÜ","zip":"13201"},{"name":"KOLBAŞI KÖYÜ","zip":"13201"},{"name":"KORUKLU KÖYÜ","zip":"13201"},{"name":"KOYLUCA KÖYÜ","zip":"13201"},{"name":"KOYUNPINARI KÖYÜ","zip":"13201"},{"name":"KÖMÜRLÜ MAH.","zip":"13201"},{"name":"KÖPRÜCÜK KÖYÜ","zip":"13201"},{"name":"KURUYAKA KÖYÜ","zip":"13201"},{"name":"KUŞLUCA KÖYÜ","zip":"13201"},{"name":"KÜÇÜKSU KÖYÜ","zip":"13201"},{"name":"KÜLBASTI MAH.","zip":"13201"},{"name":"NOHUTLU KÖYÜ","zip":"13201"},{"name":"OBUZ KÖYÜ","zip":"13201"},{"name":"ODABAŞI KÖYÜ","zip":"13201"},{"name":"ORTAKLAR MAH.","zip":"13201"},{"name":"ÖZEKLİ MAH.","zip":"13201"},{"name":"PAŞAELMALI MAH.","zip":"13201"},{"name":"PEKMEZLİ MAH.","zip":"13201"},{"name":"PINARLI MAH.","zip":"13201"},{"name":"SALLICA KÖYÜ","zip":"13201"},{"name":"SANDIKLI MAH.","zip":"13201"},{"name":"SARIDAL KÖYÜ","zip":"13201"},{"name":"SÖĞÜTLÜ KÖYÜ","zip":"13201"},{"name":"SUBOYU KÖYÜ","zip":"13201"},{"name":"SUGURLU MAH.","zip":"13201"},{"name":"TAŞDEMİR MAH.","zip":"13201"},{"name":"TAŞTOP MAH.","zip":"13201"},{"name":"TEKNECİK KÖYÜ","zip":"13201"},{"name":"TOKAÇLI KÖYÜ","zip":"13201"},{"name":"TOP MAH.","zip":"13201"},{"name":"TOPRAKLI KÖYÜ","zip":"13201"},{"name":"TOSUNLU KÖYÜ","zip":"13201"},{"name":"TUZLUCA MAH.","zip":"13201"},{"name":"UÇANKUŞ MAH.","zip":"13201"},{"name":"ULUSOY KÖYÜ","zip":"13201"},{"name":"UNCULAR KÖYÜ","zip":"13201"},{"name":"USLU KÖYÜ","zip":"13201"},{"name":"USTABAŞI MAH.","zip":"13201"},{"name":"ÜÇTEPE MAH.","zip":"13201"},{"name":"ÜZÜMLÜ MAH.","zip":"13201"},{"name":"YALINAĞAÇ MAH.","zip":"13201"},{"name":"YAPRAKLI MAH.","zip":"13201"},{"name":"YASSICA KÖYÜ","zip":"13201"},{"name":"YAYGILI MAH.","zip":"13201"},{"name":"YAYIKLI MAH.","zip":"13201"},{"name":"YEDİVEREN KÖYÜ","zip":"13201"},{"name":"YELKENLİ KÖYÜ","zip":"13201"},{"name":"YENİTOPRAK MAH.","zip":"13201"},{"name":"YONCABAŞI KÖYÜ","zip":"13201"},{"name":"YORGALAR MAH.","zip":"13201"},{"name":"YUMRUKAYA KÖYÜ","zip":"13201"}]}]}]}