{"id":14,"name":"BOLU","cities":[{"name":"city","districts":[{"name":"DÖRTDİVAN","cityName":null,"quarters":[{"name":"ÇİTLER MAH.","zip":"14910"},{"name":"DEVECİLER MAH.","zip":"14910"},{"name":"HACETLER MAH.","zip":"14910"},{"name":"KADILAR MAH.","zip":"14910"},{"name":"KARGIBAYRAMLAR MAH.","zip":"14910"}]},{"name":"MERKEZKÖYLER","cityName":null,"quarters":[{"name":"ADAKÖY MERKEZ MAH.","zip":"14912"},{"name":"ALADAĞ MAH.","zip":"14912"},{"name":"ALADAĞ YAYLASI MAH.","zip":"14912"},{"name":"AŞAĞI MAH.","zip":"14912"},{"name":"AŞAĞI MANDIRA MAH.","zip":"14912"},{"name":"AŞAĞI YAYLA MAH.","zip":"14912"},{"name":"AŞAĞIDÜĞER KÖYÜ","zip":"14912"},{"name":"AŞAĞIDÜĞER MERKEZ MAH.","zip":"14912"},{"name":"AŞAĞIDÜĞER YAYLASI MAH.","zip":"14912"},{"name":"AŞAĞIDÜLGER MAH.","zip":"14912"},{"name":"AŞAĞISAYIK KÖYÜ","zip":"14912"},{"name":"AŞAĞISAYIK MERKEZ MAH.","zip":"14912"},{"name":"AZAPLAR MAH.","zip":"14912"},{"name":"BATI MAH.","zip":"14912"},{"name":"BAYIR MAH.","zip":"14912"},{"name":"BIÇKI YAYLASI MAH.","zip":"14912"},{"name":"BÜNÜŞ ALADAĞI MAH.","zip":"14912"},{"name":"BÜNÜŞ KÖYÜ","zip":"14912"},{"name":"BÜNÜŞ MANDIRASI MAH.","zip":"14912"},{"name":"BÜNÜŞ MERKEZ MAH.","zip":"14912"},{"name":"CEMALLER ÇİÇEKLİ YAYLASI MAH.","zip":"14912"},{"name":"CEMALLER HOKAK YAYLASI MAH.","zip":"14912"},{"name":"CEMALLER KARAGÖZ YAYLASI MAH.","zip":"14912"},{"name":"CEMALLER KİRAZLI YAYLASI MAH.","zip":"14912"},{"name":"CEMALLER KÖYÜ","zip":"14912"},{"name":"CEMALLER MERKEZ MAH.","zip":"14912"},{"name":"ÇALKÖY BEYDÜŞLÜH MAH.YAYLASI MAH.","zip":"14912"},{"name":"ÇALKÖY KÖROĞLU YAYLASI MAH.","zip":"14912"},{"name":"ÇALKÖY KÖYÜ","zip":"14912"},{"name":"ÇALKÖY MERKEZ MAH.","zip":"14912"},{"name":"ÇAMPINAR YAYLASI MAH.","zip":"14912"},{"name":"ÇARDAK KÖYÜ","zip":"14912"},{"name":"ÇARDAK YAYLASI MAH.","zip":"14912"},{"name":"ÇETİKÖREN ALADAĞ YAYLASI MAH.","zip":"14912"},{"name":"ÇETİKÖREN GÖKÇE ALAN YAYLASI MAH.","zip":"14912"},{"name":"ÇETİKÖREN KİRAZLI YAYLASI MAH.","zip":"14912"},{"name":"ÇETİKÖREN KÖYÜ","zip":"14912"},{"name":"ÇETİKÖREN MANDIRALARI MAH.","zip":"14912"},{"name":"ÇİMENCİK YAYLASI MAH.","zip":"14912"},{"name":"ÇUKURCA ALADAĞI MAH.","zip":"14912"},{"name":"ÇUKURCA YAYLASI MAH.","zip":"14912"},{"name":"DOĞANCILAR KÖYÜ","zip":"14912"},{"name":"DÜLGER KÖYÜ","zip":"14912"},{"name":"DÜLGER MERKEZ MAH.","zip":"14912"},{"name":"DÜLGER YAYLASI MAH.","zip":"14912"},{"name":"GEREDE YOLU MAH.","zip":"14912"},{"name":"GÖBÜLER KÖYÜ","zip":"14912"},{"name":"GÖBÜLER MERKEZ MAH.","zip":"14912"},{"name":"GÖL YAYLA MAH.","zip":"14912"},{"name":"GÖLLÜ YAYLA MAH.","zip":"14912"},{"name":"GÜCÜKLER KÖYÜ","zip":"14912"},{"name":"GÜCÜKLER MERKEZ MAH.","zip":"14912"},{"name":"GÜCÜKLER YAYLASI MAH.","zip":"14912"},{"name":"HASİNLER MAH.","zip":"14912"},{"name":"İMAMLAR MAH.","zip":"14912"},{"name":"KABAKLAR MAH.","zip":"14912"},{"name":"KABAKLAR YAYLASI MAH.","zip":"14912"},{"name":"KADİRLER MAH.","zip":"14912"},{"name":"KARAÇAYIR YAYLASI MAH.","zip":"14912"},{"name":"KARSLAR MAH.","zip":"14912"},{"name":"KILIÇLAR KÖYÜ","zip":"14912"},{"name":"KILIÇLAR MERKEZ MAH.","zip":"14912"},{"name":"KILIÇLAR YAYLASI MAH.","zip":"14912"},{"name":"KİRAZLI YAYLA MAH.","zip":"14912"},{"name":"KONAKLAR MAH.","zip":"14912"},{"name":"KURUCA ÇAMPINAR YAYLASI MAH.","zip":"14912"},{"name":"KURUCA KÖYÜ","zip":"14912"},{"name":"KUZKÖY MAH.","zip":"14912"},{"name":"MANDIRA MAH.","zip":"14912"},{"name":"MURSALLAR  YAYLASI MAH.","zip":"14912"},{"name":"MURSALLAR MAH.","zip":"14912"},{"name":"NAHÇIVAN MAH.","zip":"14912"},{"name":"NUHÖREN YAYLASI MAH.","zip":"14912"},{"name":"ORTAKÖY KÖYÜ","zip":"14912"},{"name":"ORTAKÖY MERKEZ MAH.","zip":"14912"},{"name":"ÖMERPAŞALAR KÖYÜ","zip":"14912"},{"name":"ÖMERPAŞALAR MERKEZ MAH.","zip":"14912"},{"name":"SEYİTALİLER KÖYÜ","zip":"14912"},{"name":"SEYİTALİLER MERKEZ MAH.","zip":"14912"},{"name":"SOFTALAR MAH.","zip":"14912"},{"name":"SORKUN KÖYÜ","zip":"14912"},{"name":"SÜLELER KÖYÜ","zip":"14912"},{"name":"SÜLELER MERKEZ MAH.","zip":"14912"},{"name":"ŞAHALLAR MAH.","zip":"14912"},{"name":"TABAKLAR MAH.","zip":"14912"},{"name":"TEPECİK MAH.","zip":"14912"},{"name":"UZUNLAR MAH.","zip":"14912"},{"name":"YAĞBAŞLAR KÖYÜ","zip":"14912"},{"name":"YAĞBAŞLAR MERKEZ MAH.","zip":"14912"},{"name":"YAĞBAŞLAR YAYLASI MAH.","zip":"14912"},{"name":"YALACIK AŞAĞI YAYLASI MAH.","zip":"14912"},{"name":"YALACIK KÖYÜ","zip":"14912"},{"name":"YALACIK YAYLASI MAH.","zip":"14912"},{"name":"YASLICALI YAYLASI MAH.","zip":"14912"},{"name":"YAYALAR KÖYÜ","zip":"14912"},{"name":"YAYLA MAH.","zip":"14912"},{"name":"YENİ MAH.","zip":"14912"},{"name":"YUKARI MAH.","zip":"14912"},{"name":"YUKARI MANDIRA MAH.","zip":"14912"},{"name":"YUKARI YAYLA MAH.","zip":"14912"},{"name":"YUKARIDÜĞER KÖYÜ","zip":"14912"},{"name":"YUKARISAYIK KÖYÜ","zip":"14912"},{"name":"YUKARISAYIK MERKEZ MAH.","zip":"14912"}]},{"name":"GEREDE","cityName":null,"quarters":[{"name":"DAYIOĞLU MAH.","zip":"14900"},{"name":"DEMİRCİLER MAH.","zip":"14900"},{"name":"DEMİRCİLEROSB MAH.","zip":"14900"},{"name":"KABİLLER MAH.","zip":"14900"},{"name":"KİTİRLER MAH.","zip":"14900"},{"name":"ORTA MAH.","zip":"14900"},{"name":"SEVİLLER MAH.","zip":"14900"},{"name":"YENİ MAH.","zip":"14900"}]},{"name":"MERKEZKÖYLER","cityName":null,"quarters":[{"name":"AFATLAR YAYLA MAH.","zip":"14902"},{"name":"AFŞARTARAKÇI KÖYÜ","zip":"14902"},{"name":"AĞAGİL MAH.","zip":"14902"},{"name":"AĞIZÖRENGÜNEY KÖYÜ","zip":"14902"},{"name":"AHMETLER KÖYÜ","zip":"14902"},{"name":"AKBAŞ KÖYÜ","zip":"14902"},{"name":"AKÇABEY KÖYÜ","zip":"14902"},{"name":"AKÇAGİL MAH.","zip":"14902"},{"name":"AKÇAŞEHİR KÖYÜ","zip":"14902"},{"name":"AKKADİM MAH.","zip":"14902"},{"name":"AKKADİM YAYLA MAH.","zip":"14902"},{"name":"AKTAŞ KÖYÜ","zip":"14902"},{"name":"AKTAŞ MAH.","zip":"14902"},{"name":"AKTAŞKURTLAR KÖYÜ","zip":"14902"},{"name":"APSARI MAH.","zip":"14902"},{"name":"ASMACA KÖYÜ","zip":"14902"},{"name":"AŞAĞI MAH.","zip":"14902"},{"name":"AŞAĞI YAYLA MAH.","zip":"14902"},{"name":"AŞAĞIOVACIK KÖYÜ","zip":"14902"},{"name":"AŞAĞIÖRENBAŞI KÖYÜ","zip":"14902"},{"name":"AVCILAR MAH.","zip":"14902"},{"name":"AVLASIZGİL MAH.","zip":"14902"},{"name":"AYDINLAR KÖYÜ","zip":"14902"},{"name":"AYVATLAR MAH.","zip":"14902"},{"name":"BAHÇEDERE KÖYÜ","zip":"14902"},{"name":"BALCILAR KÖYÜ","zip":"14902"},{"name":"BALTACILAR MAH.","zip":"14902"},{"name":"BATTALLAR MAH.","zip":"14902"},{"name":"BEŞKONAK KÖYÜ","zip":"14902"},{"name":"BIÇAKCILAR MAH.","zip":"14902"},{"name":"BIÇAKCILAR YAYLA MAH.","zip":"14902"},{"name":"BİRİNCİAFŞAR KÖYÜ","zip":"14902"},{"name":"BOZKUŞ MAH.","zip":"14902"},{"name":"BOZUKLAR MAH.","zip":"14902"},{"name":"BURGUCU MAH.","zip":"14902"},{"name":"BÜNÜŞ KÖYÜ","zip":"14902"},{"name":"ÇAĞIŞ KÖYÜ","zip":"14902"},{"name":"ÇAĞIŞ MAH.","zip":"14902"},{"name":"ÇAĞIŞ YAYLASI MAH.","zip":"14902"},{"name":"ÇALAMAN KÖYÜ","zip":"14902"},{"name":"ÇALAMAN MAH.","zip":"14902"},{"name":"ÇALCA MAH.","zip":"14902"},{"name":"ÇALIŞLAR KÖYÜ","zip":"14902"},{"name":"ÇAYÖREN KÖYÜ","zip":"14902"},{"name":"ÇAYÖRENGÜNEY KÖYÜ","zip":"14902"},{"name":"ÇENGELLER MAH.","zip":"14902"},{"name":"ÇENGELLER YAYLA MAH.","zip":"14902"},{"name":"ÇOBANLAR MAH.","zip":"14902"},{"name":"ÇOĞULLU KÖYÜ","zip":"14902"},{"name":"ÇONGALLAR MAH.","zip":"14902"},{"name":"ÇUKUR MAH.","zip":"14902"},{"name":"ÇUKUR YAYLA MAH.","zip":"14902"},{"name":"ÇUKURCA KÖYÜ","zip":"14902"},{"name":"ÇUKURCA YAYLASI MAH.","zip":"14902"},{"name":"DAĞKARA KÖYÜ","zip":"14902"},{"name":"DANİŞMENTLER KÖYÜ","zip":"14902"},{"name":"DAVUTBEYLİ KÖYÜ","zip":"14902"},{"name":"DEMİRCİ MAH.","zip":"14902"},{"name":"DEMİRCİLER (MERKEZ) MAH.","zip":"14902"},{"name":"DEMİRCİSOPRAN KÖYÜ","zip":"14902"},{"name":"DEMİRLER KÖYÜ","zip":"14902"},{"name":"DERE (MERKEZ) MAH.","zip":"14902"},{"name":"DERE MAH.","zip":"14902"},{"name":"DEREKÖY MAH.","zip":"14902"},{"name":"DEVEYATAĞI YAYLASI MAH.","zip":"14902"},{"name":"DEYİŞLER MAH.","zip":"14902"},{"name":"DEYİŞLER YAYLASI MAH.","zip":"14902"},{"name":"DİKMEN KÖYÜ","zip":"14902"},{"name":"DOĞANCILAR MAH.","zip":"14902"},{"name":"DURSUNFAKI KÖYÜ","zip":"14902"},{"name":"DURSUNLAR MAH.","zip":"14902"},{"name":"DÜMENLER MAH.","zip":"14902"},{"name":"DÜMENLER YAYLA MAH.","zip":"14902"},{"name":"ECİNLİOĞLU MAH.","zip":"14902"},{"name":"EKMENLER MAH.","zip":"14902"},{"name":"ELÖREN KÖYÜ","zip":"14902"},{"name":"EMİNAĞA MAH.","zip":"14902"},{"name":"EMİRLER MAH.","zip":"14902"},{"name":"ENSELİLER KÖYÜ","zip":"14902"},{"name":"ERTUĞRULKÖY KÖYÜ","zip":"14902"},{"name":"EVRENLER MAH.","zip":"14902"},{"name":"EYMÜR KÖYÜ","zip":"14902"},{"name":"FADILLAR MAH.","zip":"14902"},{"name":"GAZİLER MAH.","zip":"14902"},{"name":"GAZİLER YAYLA MAH.","zip":"14902"},{"name":"GEÇİTLER KÖYÜ","zip":"14902"},{"name":"GÖKÇELER MAH.","zip":"14902"},{"name":"GÖLCÜK MAH.","zip":"14902"},{"name":"GÖYNÜKÖREN KÖYÜ","zip":"14902"},{"name":"GÖZÜMLER MAH.","zip":"14902"},{"name":"GÜNEY MAH.","zip":"14902"},{"name":"GÜNEYDEMİRCİLER KÖYÜ","zip":"14902"},{"name":"HACI İPEKLER MAH.","zip":"14902"},{"name":"HACI MUSLAR MAH.","zip":"14902"},{"name":"HACILAR KÖYÜ","zip":"14902"},{"name":"HALAÇLAR KÖYÜ","zip":"14902"},{"name":"HASANLAR KÖYÜ","zip":"14902"},{"name":"HATIPLAR MAH.","zip":"14902"},{"name":"HAVULLU KÖYÜ","zip":"14902"},{"name":"IBRICAK KÖYÜ","zip":"14902"},{"name":"IBRICAK MAH.","zip":"14902"},{"name":"ISPAHLAR MAH.","zip":"14902"},{"name":"IŞIKLI MAH.","zip":"14902"},{"name":"IŞIKLI YAYLASI MAH.","zip":"14902"},{"name":"İKİNCİAFŞAR KÖYÜ","zip":"14902"},{"name":"İMAMLAR KÖYÜ","zip":"14902"},{"name":"İMAMLAR MAH.","zip":"14902"},{"name":"İMANLAR MAH.","zip":"14902"},{"name":"İMREŞE MAH.","zip":"14902"},{"name":"İNKÖY KÖYÜ","zip":"14902"},{"name":"KABAKLAR MAH.","zip":"14902"},{"name":"KADİMLER MAH.","zip":"14902"},{"name":"KALAÇ KÖYÜ","zip":"14902"},{"name":"KANDAK MAH.","zip":"14902"},{"name":"KAPAKLI KÖYÜ","zip":"14902"},{"name":"KAPÇI EVİ MAH.","zip":"14902"},{"name":"KARACADAĞ KÖYÜ","zip":"14902"},{"name":"KARACADAĞDEMİRCİLER KÖYÜ","zip":"14902"},{"name":"KARAKUZ MAH.","zip":"14902"},{"name":"KARAPAZAR KÖYÜ","zip":"14902"},{"name":"KARŞI MAH.","zip":"14902"},{"name":"KARŞI YAYLA MAH.","zip":"14902"},{"name":"KATIRCIOĞLU MAH.","zip":"14902"},{"name":"KAVACIK KÖYÜ","zip":"14902"},{"name":"KAYABAŞI MAH.","zip":"14902"},{"name":"KAYIKİRAZ KÖYÜ","zip":"14902"},{"name":"KAYISOPRAN KÖYÜ","zip":"14902"},{"name":"KAZANLAR KÖYÜ","zip":"14902"},{"name":"KINCALLAR MAH.","zip":"14902"},{"name":"KINCALLAR YAYLASI MAH.","zip":"14902"},{"name":"KIRBIZLAR MAH.","zip":"14902"},{"name":"KOÇLAR MAH.","zip":"14902"},{"name":"KOÇLAR YAYLASI MAH.","zip":"14902"},{"name":"KOÇUMLAR KÖYÜ","zip":"14902"},{"name":"KÖSELER MAH.","zip":"14902"},{"name":"KÖSRELİ KÖYÜ","zip":"14902"},{"name":"KÖY YAYLASI MAH.","zip":"14902"},{"name":"KURTÇA MAH.","zip":"14902"},{"name":"KURTLAR MAH.","zip":"14902"},{"name":"KÜLEF KÖYÜ","zip":"14902"},{"name":"KÜLLÜ YAYLA MAH.","zip":"14902"},{"name":"KÜRKÇÜLER KÖYÜ","zip":"14902"},{"name":"MACARLAR KÖYÜ","zip":"14902"},{"name":"MACARLAR MAH.","zip":"14902"},{"name":"MANDIRA MAH.","zip":"14902"},{"name":"MANDIRALAR MAH.","zip":"14902"},{"name":"MANGALLAR KÖYÜ","zip":"14902"},{"name":"MARKUŞA YAYLASI MAH.","zip":"14902"},{"name":"MATIRLAR YAYLASI MAH.","zip":"14902"},{"name":"MEHMET BEYLİK MAH.","zip":"14902"},{"name":"MEHMET BEYLİK YAYLASI MAH.","zip":"14902"},{"name":"MERKEZ MAH.","zip":"14902"},{"name":"MERKEZ YAYLA MAH.","zip":"14902"},{"name":"MERKEZ YAYLASI MAH.","zip":"14902"},{"name":"MİRCEKİRAZ KÖYÜ","zip":"14902"},{"name":"MUKAMLAR KÖYÜ","zip":"14902"},{"name":"MURATFAKILAR KÖYÜ","zip":"14902"},{"name":"MÜRDÜKLER KÖYÜ","zip":"14902"},{"name":"NUHÖREN KÖYÜ","zip":"14902"},{"name":"ORTA MAH.","zip":"14902"},{"name":"ORTACA KÖYÜ","zip":"14902"},{"name":"ÖRENCİK KÖYÜ","zip":"14902"},{"name":"SAĞLIK MAH.","zip":"14902"},{"name":"SALUR KÖYÜ","zip":"14902"},{"name":"SAMAT KÖYÜ","zip":"14902"},{"name":"SAPANLIURGANCILAR KÖYÜ","zip":"14902"},{"name":"SARIOĞLU KÖYÜ","zip":"14902"},{"name":"SEYFE MAH.","zip":"14902"},{"name":"SEYİTLER MAH.","zip":"14902"},{"name":"SEYİTLER YAYLASI MAH.","zip":"14902"},{"name":"SİNANLAR MAH.","zip":"14902"},{"name":"SİNANLAR YAYLA MAH.","zip":"14902"},{"name":"SİPAHİLER KÖYÜ","zip":"14902"},{"name":"SİYAMLAR MAH.","zip":"14902"},{"name":"SOFULAR KÖYÜ","zip":"14902"},{"name":"SOFULAR YAYLASI MAH.","zip":"14902"},{"name":"SÖMERCİLER MAH.","zip":"14902"},{"name":"SÖMERCİLER YAYLA MAH.","zip":"14902"},{"name":"SUNGURLAR KÖYÜ","zip":"14902"},{"name":"SÜLLER MAH.","zip":"14902"},{"name":"SÜLLER YAYLASI MAH.","zip":"14902"},{"name":"SÜLLERTOKLAR KÖYÜ","zip":"14902"},{"name":"ŞAHALLAR MAH.","zip":"14902"},{"name":"ŞÜKÜRLER MAH.","zip":"14902"},{"name":"TATAROĞLU MAH.","zip":"14902"},{"name":"TATLAR KÖYÜ","zip":"14902"},{"name":"TEÇÇEBEL YAYLASI MAH.","zip":"14902"},{"name":"TEKFUR MAH.","zip":"14902"},{"name":"TEPE MAH.","zip":"14902"},{"name":"TOKLAR MAH.","zip":"14902"},{"name":"TOKLAR YAYLASI MAH.","zip":"14902"},{"name":"TOZAKLAR MAH.","zip":"14902"},{"name":"ULAŞLAR KÖYÜ","zip":"14902"},{"name":"ÜÇPINAR MAH.","zip":"14902"},{"name":"ÜÇPINAR YAYLA MAH.","zip":"14902"},{"name":"ÜMİTKÖY KÖYÜ","zip":"14902"},{"name":"YAĞDAŞ KÖYÜ","zip":"14902"},{"name":"YAKABOY KÖYÜ","zip":"14902"},{"name":"YAKAKAYA KÖYÜ","zip":"14902"},{"name":"YAMAN MAH.","zip":"14902"},{"name":"YAMAN YAYLASI MAH.","zip":"14902"},{"name":"YANIKLAR MAH.","zip":"14902"},{"name":"YANŞABA MAH.","zip":"14902"},{"name":"YANŞABA YAYLASI MAH.","zip":"14902"},{"name":"YARIŞ MAH.","zip":"14902"},{"name":"YAYLA MAH.","zip":"14902"},{"name":"YAZIKARA KÖYÜ","zip":"14902"},{"name":"YAZIKÖY KÖYÜ","zip":"14902"},{"name":"YELKENLER KÖYÜ","zip":"14902"},{"name":"YENECİK KÖYÜ","zip":"14902"},{"name":"YENİ MAH.","zip":"14902"},{"name":"YENİYAPAR KÖYÜ","zip":"14902"},{"name":"YEŞİLVADİ KÖYÜ","zip":"14902"},{"name":"YUKARI MAH.","zip":"14902"},{"name":"YUKARIOVACIK KÖYÜ","zip":"14902"},{"name":"YUKARIÖRENBAŞI KÖYÜ","zip":"14902"},{"name":"YUNUSLAR KÖYÜ","zip":"14902"},{"name":"YUNUSLAR MAH.","zip":"14902"},{"name":"ZADATLAR MAH.","zip":"14902"},{"name":"ZEYNELLER KÖYÜ","zip":"14902"}]},{"name":"GÖYNÜK","cityName":null,"quarters":[{"name":"ÇEŞME MAH.","zip":"14780"},{"name":"HACI ABDİ MAH.","zip":"14780"},{"name":"KEPKEBİR MAH.","zip":"14780"},{"name":"SOFU ALİ MAH.","zip":"14780"},{"name":"YENİCE MAH.","zip":"14780"}]},{"name":"MERKEZKÖYLER","cityName":null,"quarters":[{"name":"AKÇAALAN KÖYÜ","zip":"14782"},{"name":"AKÇAALAN MERKEZ MAH.","zip":"14782"},{"name":"AKSAKLAR KÖYÜ","zip":"14782"},{"name":"AKSAKLAR MERKEZ MAH.","zip":"14782"},{"name":"AKTAŞ MAH.","zip":"14782"},{"name":"ALAN MERKEZ MAH.","zip":"14782"},{"name":"ALAN YAYLASI MAH.","zip":"14782"},{"name":"ALANCIK MAH.","zip":"14782"},{"name":"ALANKÖY KÖYÜ","zip":"14782"},{"name":"ALTINCILAR MAH.","zip":"14782"},{"name":"ARABACILAR MAH.","zip":"14782"},{"name":"ARIKÇAYIRI KÖYÜ","zip":"14782"},{"name":"ARIKÇAYIRI MERKEZ MAH.","zip":"14782"},{"name":"ARIZLAR KÖYÜ","zip":"14782"},{"name":"AŞAĞI MAH.","zip":"14782"},{"name":"AŞAĞIKINIK KÖYÜ","zip":"14782"},{"name":"AŞAĞIKINIK MERKEZ(ÇATACIK) MAH.","zip":"14782"},{"name":"AŞAĞIKOZCAĞIZ MAH.","zip":"14782"},{"name":"AŞAĞISAFRANLAR MAH.","zip":"14782"},{"name":"AYDINLAR MAH.","zip":"14782"},{"name":"AYVATLAR MAH.","zip":"14782"},{"name":"BAYINDIR KÖYÜ","zip":"14782"},{"name":"BAYINDIR MERKEZ MAH.","zip":"14782"},{"name":"BEKİRFAKILAR KÖYÜ","zip":"14782"},{"name":"BEKİRFAKILAR MERKEZ MAH.","zip":"14782"},{"name":"BEKİRLER MAH.","zip":"14782"},{"name":"BOYACILAR KÖYÜ","zip":"14782"},{"name":"BOYACILAR MERKEZ MAH.","zip":"14782"},{"name":"BOYALICA MAH.","zip":"14782"},{"name":"BOZCAARMUT KÖYÜ","zip":"14782"},{"name":"BÖLÜCEKOVA KÖYÜ","zip":"14782"},{"name":"BÖLÜCEKOVA MERKEZ MAH.","zip":"14782"},{"name":"BULANIK KÖYÜ","zip":"14782"},{"name":"BULANIK MERKEZ MAH.","zip":"14782"},{"name":"CAFERLER MAH.","zip":"14782"},{"name":"CEYLANLI KÖYÜ","zip":"14782"},{"name":"CONLAR MAH.","zip":"14782"},{"name":"ÇALICA MAH.","zip":"14782"},{"name":"ÇAMLICA KÖYÜ","zip":"14782"},{"name":"ÇAMLICA MERKEZ MAH.","zip":"14782"},{"name":"ÇAPAR KÖYÜ","zip":"14782"},{"name":"ÇATACIK KÖYÜ","zip":"14782"},{"name":"ÇATACIK MERKEZ MAH.","zip":"14782"},{"name":"ÇATAK MAH.","zip":"14782"},{"name":"ÇAYKOL MAH.","zip":"14782"},{"name":"ÇAYKÖY KÖYÜ","zip":"14782"},{"name":"ÇAYLAK KÖYÜ","zip":"14782"},{"name":"ÇAYLAK MERKEZ MAH.","zip":"14782"},{"name":"ÇİFTLİK MAH.","zip":"14782"},{"name":"ÇİFTLİK MAH.YAYLASI MAH.","zip":"14782"},{"name":"ÇUBUK MERKEZ MAH.","zip":"14782"},{"name":"ÇUBUKKÖY KÖYÜ","zip":"14782"},{"name":"DAĞHACILAR KÖYÜ","zip":"14782"},{"name":"DAĞHACILAR MERKEZ MAH.","zip":"14782"},{"name":"DAĞŞEYHLERİ KÖYÜ","zip":"14782"},{"name":"DEDELER KÖYÜ","zip":"14782"},{"name":"DEĞİRMENÖZÜ KÖYÜ","zip":"14782"},{"name":"DEMİRHANLAR KÖYÜ","zip":"14782"},{"name":"DEPO MAH.","zip":"14782"},{"name":"DERE MAH.","zip":"14782"},{"name":"DOĞRUK MAH.","zip":"14782"},{"name":"EKİNCİLER KÖYÜ","zip":"14782"},{"name":"EKİNCİLER MERKEZ MAH.","zip":"14782"},{"name":"ELMACILAR MAH.","zip":"14782"},{"name":"FAKILAR MAH.","zip":"14782"},{"name":"FINDICAK MAH.","zip":"14782"},{"name":"GAVURLAR PINARI MAH.","zip":"14782"},{"name":"GERİŞLER KÖYÜ","zip":"14782"},{"name":"GÖBELLER MAH.","zip":"14782"},{"name":"GÖKÇESARAY KÖYÜ","zip":"14782"},{"name":"GÖKÇESARAY MERKEZ MAH.","zip":"14782"},{"name":"GÖKÇESARAY YAYLA EVLERİ MAH.","zip":"14782"},{"name":"GÖLBAŞI MAH.","zip":"14782"},{"name":"GÖLÖZÜ MAH.","zip":"14782"},{"name":"GÖZLER MAH.","zip":"14782"},{"name":"GÜNEYÇALICA KÖYÜ","zip":"14782"},{"name":"GÜNEYÇALICA MERKEZ MAH.","zip":"14782"},{"name":"GÜRPINAR KÖYÜ","zip":"14782"},{"name":"GÜRPINAR MERKEZ MAH.","zip":"14782"},{"name":"HACIAHMETLER MAH.","zip":"14782"},{"name":"HACIMAHMUT KÖYÜ","zip":"14782"},{"name":"HACIMAHMUT MERKEZ MAH.","zip":"14782"},{"name":"HACIMAHMUT MERKEZ MAH.YAYLASI MAH.","zip":"14782"},{"name":"HALLAR MAH.","zip":"14782"},{"name":"HAPŞANLAR MAH.","zip":"14782"},{"name":"HASANLAR KÖYÜ","zip":"14782"},{"name":"HEBİLLER MAH.","zip":"14782"},{"name":"HİLALLER KÖYÜ","zip":"14782"},{"name":"HİMMETOĞLU KÖYÜ","zip":"14782"},{"name":"HİMMETOĞLU MERKEZ MAH.","zip":"14782"},{"name":"HİSARÖZÜ KÖYÜ","zip":"14782"},{"name":"HİSARÖZÜ MERKEZ MAH.","zip":"14782"},{"name":"ILICA MAH.","zip":"14782"},{"name":"İBRAHİMÖZÜ KÖYÜ","zip":"14782"},{"name":"KABAKULAK MAH.","zip":"14782"},{"name":"KABAKULAKALTI MAH.","zip":"14782"},{"name":"KABALAR MAH.","zip":"14782"},{"name":"KARAALİLER KÖYÜ","zip":"14782"},{"name":"KARAALİLER MERKEZ MAH.","zip":"14782"},{"name":"KARAARDIÇ KÖYÜ","zip":"14782"},{"name":"KARAARDIÇ MERKEZ MAH.","zip":"14782"},{"name":"KARACALAR KÖYÜ","zip":"14782"},{"name":"KARAFAKILAR MAH.","zip":"14782"},{"name":"KARISIKLAR MAH.","zip":"14782"},{"name":"KAŞIKÇIŞEYHLER KÖYÜ","zip":"14782"},{"name":"KAŞIKÇIŞEYHLER MERKEZ MAH.","zip":"14782"},{"name":"KAVACIK MAH.","zip":"14782"},{"name":"KAYABAŞI KÖYÜ","zip":"14782"},{"name":"KAYALIDERE KÖYÜ","zip":"14782"},{"name":"KAYALIDERE MERKEZ MAH.","zip":"14782"},{"name":"KILAVUZLAR KÖYÜ","zip":"14782"},{"name":"KILAVUZLAR YAYLASI MAH.","zip":"14782"},{"name":"KIZILKUYU KÖYÜ","zip":"14782"},{"name":"KIZILKUYU MERKEZ MAH.","zip":"14782"},{"name":"KİLCİLER KÖYÜ","zip":"14782"},{"name":"KİLLER MAH.","zip":"14782"},{"name":"KOZCAĞIZ KÖYÜ","zip":"14782"},{"name":"KOZCAĞIZ MERKEZ MAH.","zip":"14782"},{"name":"KOZDERE MAH.","zip":"14782"},{"name":"KÖROĞLU MAH.","zip":"14782"},{"name":"KÖSTEK MAH.","zip":"14782"},{"name":"KÖSTEKLER MAH.","zip":"14782"},{"name":"KÖYBAŞI KÖYÜ","zip":"14782"},{"name":"KUMARLAR MAH.","zip":"14782"},{"name":"KUMCUK KÖYÜ","zip":"14782"},{"name":"KUMCUK MERKEZ MAH.","zip":"14782"},{"name":"KURTULUŞ MAH.","zip":"14782"},{"name":"KUYUPINAR KÖYÜ","zip":"14782"},{"name":"KUYUPINAR MERKEZ MAH.","zip":"14782"},{"name":"KÜRNÜÇ KÖYÜ","zip":"14782"},{"name":"MADEN AKSA MAH.","zip":"14782"},{"name":"MANTARLAR MAH.","zip":"14782"},{"name":"MEMECELER KÖYÜ","zip":"14782"},{"name":"MEMECELER MERKEZ MAH.","zip":"14782"},{"name":"MEMECELER YAYLASI MAH.","zip":"14782"},{"name":"MERKEZ MAH.","zip":"14782"},{"name":"MEŞELİ MAH.","zip":"14782"},{"name":"MURATLAR MAH.","zip":"14782"},{"name":"MUSTANLAR KÖYÜ","zip":"14782"},{"name":"MUSTANLAR MERKEZ MAH.","zip":"14782"},{"name":"NARZANLAR KÖYÜ","zip":"14782"},{"name":"NASUHLAR MAH.","zip":"14782"},{"name":"NİĞİT MAH.","zip":"14782"},{"name":"OKÇULAR MAH.","zip":"14782"},{"name":"ORTA MAH.","zip":"14782"},{"name":"OVABOYU MAH.","zip":"14782"},{"name":"ÖRENCİK KÖYÜ","zip":"14782"},{"name":"ÖRENCİK MERKEZ MAH.","zip":"14782"},{"name":"ÖRENCİK YAYLASI MAH.","zip":"14782"},{"name":"PELİTCİK KÖYÜ","zip":"14782"},{"name":"SAFALAR MAH.","zip":"14782"},{"name":"SAFRANLAR MAH.","zip":"14782"},{"name":"SARICALAR KÖYÜ","zip":"14782"},{"name":"SARILAR KÖYÜ","zip":"14782"},{"name":"SARILAR MERKEZ MAH.","zip":"14782"},{"name":"SEFERLER MAH.","zip":"14782"},{"name":"SEKİ MAH.","zip":"14782"},{"name":"SİFYANLAR MAH.","zip":"14782"},{"name":"SOĞUKÇAM KÖYÜ","zip":"14782"},{"name":"SUSUZ KÖYÜ","zip":"14782"},{"name":"SÜNNET KÖYÜ","zip":"14782"},{"name":"SÜNNET MERKEZ MAH.","zip":"14782"},{"name":"ŞABANLAR MAH.","zip":"14782"},{"name":"TEKİRLER KÖYÜ","zip":"14782"},{"name":"TEKİRLER MERKEZ MAH.","zip":"14782"},{"name":"TEMBELLER MAH.","zip":"14782"},{"name":"TEPEBAŞI KÖYÜ","zip":"14782"},{"name":"TURGUTLAR MAH.","zip":"14782"},{"name":"UMURLAR KÖYÜ","zip":"14782"},{"name":"UMUTDERE MAH.","zip":"14782"},{"name":"YAĞCILAR MAH.","zip":"14782"},{"name":"YAHYALAR MAH.","zip":"14782"},{"name":"YAPRAKLI MAH.","zip":"14782"},{"name":"YENİ MAH.","zip":"14782"},{"name":"YENİKÖY KÖYÜ","zip":"14782"},{"name":"YENİKÖY MERKEZ MAH.","zip":"14782"},{"name":"YEŞİLOVA MAHALLESİ MAH.","zip":"14782"},{"name":"YEŞİLYAZI  MERKEZ MAH.","zip":"14782"},{"name":"YEŞİLYAZI KÖYÜ","zip":"14782"},{"name":"YÖRÜKLER MAH.","zip":"14782"},{"name":"YUKARIKINIK KÖYÜ","zip":"14782"},{"name":"YUKARIKINIK MERKEZ MAH.","zip":"14782"}]},{"name":"KIBRISCIK","cityName":null,"quarters":[{"name":"KÖROĞLU MAH.","zip":"14610"}]},{"name":"MERKEZKÖYLER","cityName":null,"quarters":[{"name":"ALANHİMMETLER KÖYÜ","zip":"14612"},{"name":"ALEMDAR KÖYÜ","zip":"14612"},{"name":"ALPAĞUT MAH.","zip":"14612"},{"name":"ARDALAN MAH.","zip":"14612"},{"name":"AŞAĞI ALADAĞ YAYLASI MAH.","zip":"14612"},{"name":"BAĞIŞLAR MAH.","zip":"14612"},{"name":"BALI KÖYÜ","zip":"14612"},{"name":"BATAKLIK MAH.","zip":"14612"},{"name":"BEDESTE MAH.","zip":"14612"},{"name":"BEDESTEN MAH.","zip":"14612"},{"name":"BELEN KÖYÜ","zip":"14612"},{"name":"BORUCAK KÖYÜ","zip":"14612"},{"name":"BÖLÜCEKKAYA KÖYÜ","zip":"14612"},{"name":"BÖLÜCEKKAYA MAH.","zip":"14612"},{"name":"BULKAZ MAH.","zip":"14612"},{"name":"BULKAZ YAYLASI MAH.","zip":"14612"},{"name":"ÇALKARA MAH.","zip":"14612"},{"name":"ÇARIKLAR MAH.","zip":"14612"},{"name":"ÇORLUK YAYLASI MAH.","zip":"14612"},{"name":"ÇÖKELER KÖYÜ","zip":"14612"},{"name":"ÇUKUR MAH.","zip":"14612"},{"name":"ÇUKUR YAYLASI MAH.","zip":"14612"},{"name":"DEVECİ KÖYÜ","zip":"14612"},{"name":"DEVEÖREN KÖYÜ","zip":"14612"},{"name":"DİKMEN TEPEGÖZ MAH.","zip":"14612"},{"name":"DOKUMACILAR KÖYÜ","zip":"14612"},{"name":"ELMALI MAH.","zip":"14612"},{"name":"ERİKLİ MAH.","zip":"14612"},{"name":"GERİŞ KÖYÜ","zip":"14612"},{"name":"GERİŞ MAH.","zip":"14612"},{"name":"GÜNEYOLUK MAH.","zip":"14612"},{"name":"KARACAÖREN KÖYÜ","zip":"14612"},{"name":"KARAKİSE MAH.","zip":"14612"},{"name":"KARAKÖY KÖYÜ","zip":"14612"},{"name":"KILKARA KÖYÜ","zip":"14612"},{"name":"KIZIK MAH.","zip":"14612"},{"name":"KIZIK YAYLASI MAH.","zip":"14612"},{"name":"KIZILCAÖREN KÖYÜ","zip":"14612"},{"name":"KÖKEZ KÖYÜ","zip":"14612"},{"name":"KÖSDENLİK MAH.","zip":"14612"},{"name":"KÖSELER KÖYÜ","zip":"14612"},{"name":"KUZCA KÖYÜ","zip":"14612"},{"name":"MERKEZ MAH.","zip":"14612"},{"name":"MONDU MAH.","zip":"14612"},{"name":"NADAS KÖYÜ","zip":"14612"},{"name":"ÖRENCİK MAH.","zip":"14612"},{"name":"PEÇENEK MAH.","zip":"14612"},{"name":"SAKAL MAH.","zip":"14612"},{"name":"SARAYCIK MAH.","zip":"14612"},{"name":"SARIBASIM YAYLASI MAH.","zip":"14612"},{"name":"SARIKAYA KÖYÜ","zip":"14612"},{"name":"SARIKAYA MAH.","zip":"14612"},{"name":"SARIKAYA YAYLASI MAH.","zip":"14612"},{"name":"SERKE YAYLASI MAH.","zip":"14612"},{"name":"SİNNECİK MAH.","zip":"14612"},{"name":"SİNNECİK YAYLASI MAH.","zip":"14612"},{"name":"SOĞUKSU MAH.","zip":"14612"},{"name":"SOLACA HATBOL TARLASI YAYLASI MAH.","zip":"14612"},{"name":"SORUDAK YAYLASI MAH.","zip":"14612"},{"name":"TAŞLIK KÖYÜ","zip":"14612"},{"name":"TAŞLIK MAH.","zip":"14612"},{"name":"TEMBEL MAH.","zip":"14612"},{"name":"YAYLA BÖLGESİ MAH.","zip":"14612"},{"name":"YAZICA KÖYÜ","zip":"14612"},{"name":"YUKARI ALADAĞ YAYLASI MAH.","zip":"14612"},{"name":"YUKARI BEDESTEN MAH.","zip":"14612"},{"name":"YUKARI KÖY YAYLASI MAH.","zip":"14612"}]},{"name":"GÖKÇESU","cityName":null,"quarters":[{"name":"AFŞAR KÖYÜ","zip":"14850"},{"name":"AKMEHMETOĞLU MAH.","zip":"14850"},{"name":"ALİOĞLU MAH.","zip":"14850"},{"name":"AŞAĞI  EMİRLER MAH.","zip":"14850"},{"name":"ATATÜRK MAH.","zip":"14850"},{"name":"AVLANLAR MAH.","zip":"14850"},{"name":"BALATOĞLU MAH.","zip":"14850"},{"name":"BEKTAŞLAR MAH.","zip":"14850"},{"name":"BIYIKLAR MAH.","zip":"14850"},{"name":"BÖKRÜ MAH.","zip":"14850"},{"name":"CAMİYANI MAH.","zip":"14850"},{"name":"CİVCİLER MAH.","zip":"14850"},{"name":"ÇAKIRLAR MAH.","zip":"14850"},{"name":"ÇAMLI KÖY MAH.","zip":"14850"},{"name":"ÇORAKKADİRLER KÖYÜ","zip":"14850"},{"name":"ÇORAKMITIRLAR KÖYÜ","zip":"14850"},{"name":"DEĞİRMENCİLER MAH.","zip":"14850"},{"name":"DEMİRCİLER MAH.","zip":"14850"},{"name":"DEMİRCİOĞLU MAH.","zip":"14850"},{"name":"DERE MAH.","zip":"14850"},{"name":"DOPLAR MAH.","zip":"14850"},{"name":"DÖMBEKÇİOĞLU MAH.","zip":"14850"},{"name":"DURALLAR MAH.","zip":"14850"},{"name":"DURAN BAHÇESİ MAH.","zip":"14850"},{"name":"ELEMEN  YAYLASI MAH.","zip":"14850"},{"name":"ELEMEN KÖYÜ","zip":"14850"},{"name":"ELLEZLER MAH.","zip":"14850"},{"name":"EMİRLER KÖYÜ","zip":"14850"},{"name":"ESENLER MAH.","zip":"14850"},{"name":"GÖÇLER MAH.","zip":"14850"},{"name":"GÖKÇESU KÖYÜ","zip":"14850"},{"name":"GÖLYANI MAH.","zip":"14850"},{"name":"GÖNCÜ MAH.","zip":"14850"},{"name":"GURLAR MAH.","zip":"14850"},{"name":"GÜCÜKLER MAH.","zip":"14850"},{"name":"GÜNEYGÖKÇESU KÖYÜ","zip":"14850"},{"name":"HACIGÜZEL MAH.","zip":"14850"},{"name":"HACIMEHMETOĞLU MAH.","zip":"14850"},{"name":"HACIOĞLU MAH.","zip":"14850"},{"name":"HALİLOĞLU MAH.","zip":"14850"},{"name":"HAMZALAR MAH.","zip":"14850"},{"name":"HATİPOĞLU MAH.","zip":"14850"},{"name":"HAYRANLAR KÖYÜ","zip":"14850"},{"name":"HOŞCANLAR MAH.","zip":"14850"},{"name":"HÜRRİYET MAH.","zip":"14850"},{"name":"İSLAMLAR MAH.","zip":"14850"},{"name":"İSMAİLLER MAH.","zip":"14850"},{"name":"İYİSAN MAH.","zip":"14850"},{"name":"KADIKÖY MAH.","zip":"14850"},{"name":"KADILAR KÖYÜ","zip":"14850"},{"name":"KADİRLER MAH.","zip":"14850"},{"name":"KALAYCILAR MAH.","zip":"14850"},{"name":"KANTAROĞLU MAH.","zip":"14850"},{"name":"KARABACAKLAR MAH.","zip":"14850"},{"name":"KARAGEYİKLER MAH.","zip":"14850"},{"name":"KARAHÜSEYİNLER MAH.","zip":"14850"},{"name":"KARAKAYA KÖYÜ","zip":"14850"},{"name":"KARAPINAR MAH.","zip":"14850"},{"name":"KASIMLAR MAH.","zip":"14850"},{"name":"KAVŞAKLAR MAH.","zip":"14850"},{"name":"KAYAALTI MAH.","zip":"14850"},{"name":"KAYABAŞI KÖYÜ","zip":"14850"},{"name":"KAYABÜKÜ KÖYÜ","zip":"14850"},{"name":"KAYIŞLAR KÖYÜ","zip":"14850"},{"name":"KESEROĞLU MAH.","zip":"14850"},{"name":"KEYFANOĞLU MAH.","zip":"14850"},{"name":"KULAKSIZOĞLU MAH.","zip":"14850"},{"name":"KULEŞLER MAH.","zip":"14850"},{"name":"KURUHALİLLER MAH.","zip":"14850"},{"name":"KUŞLAR MAH.","zip":"14850"},{"name":"KÜÇÜKKUZ KÖYÜ","zip":"14850"},{"name":"KÜRTOĞLU MAH.","zip":"14850"},{"name":"MAMATLAR KÖYÜ","zip":"14850"},{"name":"MERKEZ MAH.","zip":"14850"},{"name":"MISIRLI MAH.","zip":"14850"},{"name":"MUHARREMOĞLU MAH.","zip":"14850"},{"name":"MUSLUOĞLU MAH.","zip":"14850"},{"name":"NOKTALAR MAH.","zip":"14850"},{"name":"OLUCAK MAH.","zip":"14850"},{"name":"ORTA MAH.","zip":"14850"},{"name":"ORUÇOĞLU MAH.","zip":"14850"},{"name":"OTLAK MAH.","zip":"14850"},{"name":"PAŞAKÖYÜ MAH.","zip":"14850"},{"name":"SEFERLER MAH.","zip":"14850"},{"name":"SEPETCİ MAH.","zip":"14850"},{"name":"SOMUNCUOĞLU MAH.","zip":"14850"},{"name":"ŞABANLAR MAH.","zip":"14850"},{"name":"ŞAHBAZLAR KÖYÜ","zip":"14850"},{"name":"ŞEMBELEK MAH.","zip":"14850"},{"name":"ŞEVKİOĞLU MAH.","zip":"14850"},{"name":"ŞIHLAR MAH.","zip":"14850"},{"name":"TAŞCAMİ MAH.","zip":"14850"},{"name":"TAVUKCUOĞLU MAH.","zip":"14850"},{"name":"TEKEOĞLU MAH.","zip":"14850"},{"name":"TERZİLER MAH.","zip":"14850"},{"name":"TİLKİOĞLU MAH.","zip":"14850"},{"name":"TOKATLI DEĞİRMENİ MAH.","zip":"14850"},{"name":"TOMASOĞLU MAH.","zip":"14850"},{"name":"TURNA KÖYÜ","zip":"14850"},{"name":"TÜRDÜOĞLU MAH.","zip":"14850"},{"name":"VELİLER MAH.","zip":"14850"},{"name":"YANASI YAYLASI MAH.","zip":"14850"},{"name":"YAYLA EVLERİ MAH.","zip":"14850"},{"name":"YENİ MAH.","zip":"14850"},{"name":"YEŞİLLER MAH.","zip":"14850"},{"name":"YİRMİALTIOĞLU MAH.","zip":"14850"},{"name":"YİRMİBEŞOĞLU MAH.","zip":"14850"},{"name":"YUKARI  EMİRLER MAH.","zip":"14850"},{"name":"YUKARI MAH.","zip":"14850"},{"name":"YUNUSLAR MAH.","zip":"14850"}]},{"name":"MENGEN","cityName":null,"quarters":[{"name":"KARAPINAR MAH.","zip":"14840"},{"name":"TABAKLAR YAZIYAKA MAH.","zip":"14840"},{"name":"TÜRKBEYLİ MAH.","zip":"14840"}]},{"name":"MERKEZKÖYLER","cityName":null,"quarters":[{"name":"AĞALAR KÖYÜ","zip":"14842"},{"name":"AHMETLER MAH.","zip":"14842"},{"name":"AHMETOĞLU MAH.","zip":"14842"},{"name":"AKBÜK MAH.","zip":"14842"},{"name":"AKÇAKOCA KÖYÜ","zip":"14842"},{"name":"AKÇAOĞLU MAH.","zip":"14842"},{"name":"AKKAYA YAYLASI MAH.","zip":"14842"},{"name":"AKÖREN KÖYÜ","zip":"14842"},{"name":"AKTEPE KÖYÜ","zip":"14842"},{"name":"ALAGERİŞ MAH.","zip":"14842"},{"name":"ALİBEYLER KÖYÜ","zip":"14842"},{"name":"ALİÇELEBİLER MAH.","zip":"14842"},{"name":"ALİEFENDİLER MAH.","zip":"14842"},{"name":"APTİ MAH.","zip":"14842"},{"name":"ARAK KÖYÜ","zip":"14842"},{"name":"ARAK MAH.","zip":"14842"},{"name":"ARSLANLAR MAH.","zip":"14842"},{"name":"ASTI MAH.","zip":"14842"},{"name":"AŞAĞI KARŞI MAH.","zip":"14842"},{"name":"AŞAĞI MAH.","zip":"14842"},{"name":"AŞIKOĞLU MAH.","zip":"14842"},{"name":"BABAHIZIR KÖYÜ","zip":"14842"},{"name":"BALLAR MAH.","zip":"14842"},{"name":"BANAZ KÖYÜ","zip":"14842"},{"name":"BARAJ ALANI MAH.","zip":"14842"},{"name":"BARAKLAR MAH.","zip":"14842"},{"name":"BAŞYELLİCE KÖYÜ","zip":"14842"},{"name":"BAYRAKTARLAR MAH.","zip":"14842"},{"name":"BAYRAMBEYLER MAH.","zip":"14842"},{"name":"BAYRAMOĞLU MAH.","zip":"14842"},{"name":"BEKİRLER MAH.","zip":"14842"},{"name":"BELENGÖLCÜK MAH.","zip":"14842"},{"name":"BEŞEVLER MAH.","zip":"14842"},{"name":"BÖLÜKÖREN KÖYÜ","zip":"14842"},{"name":"BÜRNÜK KÖYÜ","zip":"14842"},{"name":"CAZLAR MAH.","zip":"14842"},{"name":"CURUR YAYLA MAH.","zip":"14842"},{"name":"CÜNÜTLER MAH.","zip":"14842"},{"name":"ÇAY OBA MAH.","zip":"14842"},{"name":"ÇAYBOYU MAH.","zip":"14842"},{"name":"ÇAYKÖY KÖYÜ","zip":"14842"},{"name":"ÇELEBİLER MAH.","zip":"14842"},{"name":"ÇENGELLER MAH.","zip":"14842"},{"name":"ÇIRAKLAR MAH.","zip":"14842"},{"name":"ÇIRALIKÖPRÜ MAH.","zip":"14842"},{"name":"ÇIRDAK KÖYÜ","zip":"14842"},{"name":"ÇUBUK KÖYÜ","zip":"14842"},{"name":"ÇUKUR YAYLA MAH.","zip":"14842"},{"name":"ÇUKURCA KÖYÜ","zip":"14842"},{"name":"DEĞİRMENBÜKÜ MAH.","zip":"14842"},{"name":"DEĞİRMENYANI MAH.","zip":"14842"},{"name":"DELİAHMETLER MAH.","zip":"14842"},{"name":"DEMİRCİLER KÖYÜ","zip":"14842"},{"name":"DEMİRCİLER MAH.","zip":"14842"},{"name":"DERE MAH.","zip":"14842"},{"name":"DEREKÖY KÖYÜ","zip":"14842"},{"name":"DEREKÖY MAH.","zip":"14842"},{"name":"DERELER MAH.","zip":"14842"},{"name":"DOĞANLAR MAH.","zip":"14842"},{"name":"DORUK MAH.","zip":"14842"},{"name":"DOST MAH.","zip":"14842"},{"name":"DÖRTYOL MAH.","zip":"14842"},{"name":"DUMANLAR MAH.","zip":"14842"},{"name":"DURANLAR MAH.","zip":"14842"},{"name":"DÜZAĞAÇ KÖYÜ","zip":"14842"},{"name":"DÜZKÖY KÖYÜ","zip":"14842"},{"name":"ELLEZLER MAH.","zip":"14842"},{"name":"ELLEZOĞLU MAH.","zip":"14842"},{"name":"ENCİOĞLU MAH.","zip":"14842"},{"name":"ESATLAR MAH.","zip":"14842"},{"name":"ESKİ MAH.","zip":"14842"},{"name":"EVCİK MAH.","zip":"14842"},{"name":"EYNEBEYLER MAH.","zip":"14842"},{"name":"GEBEŞOĞLU MAH.","zip":"14842"},{"name":"GERİŞ MAH.","zip":"14842"},{"name":"GÖKMENOĞLU MAH.","zip":"14842"},{"name":"GÖL MAH.","zip":"14842"},{"name":"GÖLCÜK MAH.","zip":"14842"},{"name":"GÖZECİK KÖYÜ","zip":"14842"},{"name":"GÜLİSTAN MAH.","zip":"14842"},{"name":"GÜNEYHİSAR MAH.","zip":"14842"},{"name":"H.ÇELEBİLER MAH.","zip":"14842"},{"name":"HACCELLER MAH.","zip":"14842"},{"name":"HACIAHMETLER KÖYÜ","zip":"14842"},{"name":"HACIOĞLU MAH.","zip":"14842"},{"name":"HALİLOĞLU MAH.","zip":"14842"},{"name":"HARCIGÖLÜ MAH.","zip":"14842"},{"name":"HASANBEYLER MAH.","zip":"14842"},{"name":"HATIPLAR MAH.","zip":"14842"},{"name":"HATİPLER MAH.","zip":"14842"},{"name":"HAYRANLAR MAH.","zip":"14842"},{"name":"HOCALAR MAH.","zip":"14842"},{"name":"İLYASLAR KÖYÜ","zip":"14842"},{"name":"İMAMOĞLU MAH.","zip":"14842"},{"name":"İSMAİL BEYLER MAH.","zip":"14842"},{"name":"K.YAYLASI MAH.","zip":"14842"},{"name":"KADI MAH.","zip":"14842"},{"name":"KADIOĞLU MAH.","zip":"14842"},{"name":"KADISUSUZ KÖYÜ","zip":"14842"},{"name":"KADİRLER MAH.","zip":"14842"},{"name":"KAHYALAR MAH.","zip":"14842"},{"name":"KAHYAOĞLU MAH.","zip":"14842"},{"name":"KALEMLER MAH.","zip":"14842"},{"name":"KANCILAR MAH.","zip":"14842"},{"name":"KARACAAĞAÇ MAH.","zip":"14842"},{"name":"KARACALAR KÖYÜ","zip":"14842"},{"name":"KARAÇAM MAH.","zip":"14842"},{"name":"KARAEYÜPLER MAH.","zip":"14842"},{"name":"KARAHACILAR MAH.","zip":"14842"},{"name":"KARAİSHAK KÖYÜ","zip":"14842"},{"name":"KARAKAŞLAR MAH.","zip":"14842"},{"name":"KARAKUZ MAH.","zip":"14842"},{"name":"KARAMAN MAH.","zip":"14842"},{"name":"KARANDU MAH.","zip":"14842"},{"name":"KARAŞEYHLER KÖYÜ","zip":"14842"},{"name":"KARAŞEYHLER YAYLASA MAH.","zip":"14842"},{"name":"KARATAŞ MAH.","zip":"14842"},{"name":"KARGALAR MAH.","zip":"14842"},{"name":"KARŞI MAH.","zip":"14842"},{"name":"KARŞIYAKA MAH.","zip":"14842"},{"name":"KATIRCIOĞLU MAH.","zip":"14842"},{"name":"KAVACIK KÖYÜ","zip":"14842"},{"name":"KAYILAR MAH.","zip":"14842"},{"name":"KAYNARCA MAH.","zip":"14842"},{"name":"KEDİLER MAH.","zip":"14842"},{"name":"KELEŞLER MAH.","zip":"14842"},{"name":"KELLER MAH.","zip":"14842"},{"name":"KEMALLER MAH.","zip":"14842"},{"name":"KEMİKLER MAH.","zip":"14842"},{"name":"KERTİL MAH.","zip":"14842"},{"name":"KILAVUZLAR MAH.","zip":"14842"},{"name":"KIYASLAR KÖYÜ","zip":"14842"},{"name":"KİREMİTLİK MAH.","zip":"14842"},{"name":"KOCABEYLER MAH.","zip":"14842"},{"name":"KOCAOĞLU MAH.","zip":"14842"},{"name":"KONAK KÖYÜ","zip":"14842"},{"name":"KORKUTLAR MAH.","zip":"14842"},{"name":"KÖKEM MAH.","zip":"14842"},{"name":"KÖPRÜBAŞI KÖYÜ","zip":"14842"},{"name":"KÖSEKADILAR MAH.","zip":"14842"},{"name":"KUZGÖL KÖYÜ","zip":"14842"},{"name":"KÜLTÜR MAH.","zip":"14842"},{"name":"MARAZLAR MAH.","zip":"14842"},{"name":"MEKEZ MAH.","zip":"14842"},{"name":"MERKEZ MAH.","zip":"14842"},{"name":"MESLER MAH.","zip":"14842"},{"name":"MESUTLAR MAH.","zip":"14842"},{"name":"MUTİOĞLU MAH.","zip":"14842"},{"name":"MÜRSEL MAH.","zip":"14842"},{"name":"MÜŞÜRLER MAH.","zip":"14842"},{"name":"NAZIRLAR KÖYÜ","zip":"14842"},{"name":"OKULYANI MAH.","zip":"14842"},{"name":"ON EVLER MAH.","zip":"14842"},{"name":"ORTA MAH.","zip":"14842"},{"name":"ORTA-SÜLEYMAN KADILAR MAH.","zip":"14842"},{"name":"OSMANKADILAR MAH.","zip":"14842"},{"name":"OSMANOĞLU MAH.","zip":"14842"},{"name":"ÖMER SİPAHİ MAH.","zip":"14842"},{"name":"ÖREM MAH.","zip":"14842"},{"name":"ÖTEKEÇE MAH.","zip":"14842"},{"name":"PAZARBAŞI MAH.","zip":"14842"},{"name":"PAZARKÖY KÖYÜ","zip":"14842"},{"name":"RÜKNETTİN KÖYÜ","zip":"14842"},{"name":"SAĞIRKAYA MAH.","zip":"14842"},{"name":"SARAY MAH.","zip":"14842"},{"name":"SARIKADILAR KÖYÜ","zip":"14842"},{"name":"SARIKIZLAR MAH.","zip":"14842"},{"name":"SAZLAR KÖYÜ","zip":"14842"},{"name":"SELAMOĞLU MAH.","zip":"14842"},{"name":"SELDİREN MAH.","zip":"14842"},{"name":"SEYİTLER MAH.","zip":"14842"},{"name":"SEYREK MAH.","zip":"14842"},{"name":"SOFTALAR MAH.","zip":"14842"},{"name":"SUSUZ MAH.","zip":"14842"},{"name":"ŞAHİNLER MAH.","zip":"14842"},{"name":"ŞEMBELEK MAH.","zip":"14842"},{"name":"ŞIHLAR MAH.","zip":"14842"},{"name":"TAŞAN MAH.","zip":"14842"},{"name":"TEBERİKLER KÖYÜ","zip":"14842"},{"name":"TÜRKMENLER MAH.","zip":"14842"},{"name":"VELİLER MAH.","zip":"14842"},{"name":"YAĞLAR MAH.","zip":"14842"},{"name":"YAKA MAH.","zip":"14842"},{"name":"YAYLA EVLERİ MAH.","zip":"14842"},{"name":"YAZICILAR MAH.","zip":"14842"},{"name":"YAZIYAKA MAH.","zip":"14842"},{"name":"YELLİCEDEMİRCİLER KÖYÜ","zip":"14842"},{"name":"YENİ MAH.","zip":"14842"},{"name":"YILDIZ MAH.","zip":"14842"},{"name":"YONSAKLAR MAH.","zip":"14842"},{"name":"YÖRÜKLER MAH.","zip":"14842"},{"name":"YUKARI MAH.","zip":"14842"},{"name":"YUMRUTAŞ KÖYÜ","zip":"14842"},{"name":"ZAYIMLAR MAH.","zip":"14842"},{"name":"ZEBUNLAR MAH.","zip":"14842"},{"name":"ZİLFEROĞLU MAH.","zip":"14842"}]},{"name":"AŞAĞISOKU","cityName":null,"quarters":[{"name":"ALPAĞUTBEY MAH.","zip":"14300"},{"name":"AŞAĞISOKU MAH.","zip":"14300"},{"name":"BEŞKAVAKLAR MAH.","zip":"14300"},{"name":"ÇAKMAKLAR MAH.","zip":"14300"},{"name":"ÇİVRİL MAH.","zip":"14300"},{"name":"DAĞKENT MAH.","zip":"14300"},{"name":"DODURGA MAH.","zip":"14300"},{"name":"İZZET BAYSAL MAH.","zip":"14300"},{"name":"KARACAAĞAÇ MAH.","zip":"14300"},{"name":"KILIÇARSLAN MAH.","zip":"14300"},{"name":"KURUÇAY MAH.","zip":"14300"},{"name":"KÜLTÜR MAH.","zip":"14300"},{"name":"KÜRKÇÜLER MAH.","zip":"14300"},{"name":"SAĞLIK MAH.","zip":"14300"},{"name":"SALIBEYLER MAH.","zip":"14300"},{"name":"SARICALAR MAH.","zip":"14300"},{"name":"UMUTKENT MAH.","zip":"14300"},{"name":"YAŞAMKENT MAH.","zip":"14300"}]},{"name":"İHSANİYE","cityName":null,"quarters":[{"name":"AKTAŞ MAH.","zip":"14200"},{"name":"ÇIKINLAR MAH.","zip":"14200"},{"name":"GÖLYÜZÜ MAH.","zip":"14200"},{"name":"İHSANİYE MAH.","zip":"14200"},{"name":"KARAÇAYIR MAH.","zip":"14200"},{"name":"KÖROĞLU MAH.","zip":"14200"},{"name":"OVADÜZÜ MAH.","zip":"14200"},{"name":"SEMERKANT MAH.","zip":"14200"}]},{"name":"KARACASU","cityName":null,"quarters":[{"name":"KARAKÖY MAH.","zip":"14020"},{"name":"KÜÇÜKBERK MAH.","zip":"14020"},{"name":"YENİMAHALLE MAH.","zip":"14020"},{"name":"YUKARISOKU MAH.","zip":"14020"}]},{"name":"KARAMANLI","cityName":null,"quarters":[{"name":"BORAZANLAR MAH.","zip":"14100"},{"name":"KARAMANLI MAH.","zip":"14100"},{"name":"KASAPLAR MAH.","zip":"14100"},{"name":"PAŞAKÖY MAH.","zip":"14100"},{"name":"SANDALLAR MAH.","zip":"14100"},{"name":"SEYİT MAH.","zip":"14100"},{"name":"SÜMER MAH.","zip":"14100"},{"name":"TABAKLAR MAH.","zip":"14100"},{"name":"TEPECİK MAH.","zip":"14100"}]},{"name":"MERKEZKÖYLER","cityName":null,"quarters":[{"name":"AFTALLAR MAH.","zip":"14030"},{"name":"AĞAÇCILAR KÖYÜ","zip":"14030"},{"name":"AĞALAN MAH.","zip":"14030"},{"name":"AHMETLER KÖYÜ","zip":"14030"},{"name":"AKÇAALAN KÖYÜ","zip":"14030"},{"name":"AKÇALAR MAH.","zip":"14030"},{"name":"ALAGÖZLER MAH.","zip":"14030"},{"name":"ALIÇÖREN KÖYÜ","zip":"14030"},{"name":"ALIÇÖREN MERKEZ MAH.","zip":"14030"},{"name":"ALIÇÖREN YAYLASI MAH.","zip":"14030"},{"name":"APALAR MAH.","zip":"14030"},{"name":"ARAP MAH.","zip":"14030"},{"name":"ARDIÇ YAYLASI MAH.","zip":"14030"},{"name":"ARIKLAR MAH.","zip":"14030"},{"name":"AŞAĞI (MÜCAVİR) MAH.","zip":"14030"},{"name":"AŞAĞI ÇANDIR MAH.","zip":"14030"},{"name":"AŞAĞI MAH.","zip":"14030"},{"name":"AŞAĞI YAYLA MAH.","zip":"14030"},{"name":"AŞAĞI YAYLASI MAH.","zip":"14030"},{"name":"AŞAĞIÇAMLI KÖYÜ","zip":"14030"},{"name":"AŞAĞIÇAMLI YAYLASI MAH.","zip":"14030"},{"name":"AŞAĞIKUZÖREN KÖYÜ","zip":"14030"},{"name":"AŞAĞIKUZÖREN YAYLASI MAH.","zip":"14030"},{"name":"AŞÇILAR MAH.","zip":"14030"},{"name":"AVDAN KÖYÜ","zip":"14030"},{"name":"AYDINCIK KÖYÜ","zip":"14030"},{"name":"AYDINLAR MAH.","zip":"14030"},{"name":"BAĞIŞLAR KÖYÜ","zip":"14030"},{"name":"BAHÇEKÖY KÖYÜ","zip":"14030"},{"name":"BAHÇEKÖY MEZRASI MAH.","zip":"14030"},{"name":"BAHÇEKÖY YAYLASI MAH.","zip":"14030"},{"name":"BAKIRLI KÖYÜ","zip":"14030"},{"name":"BAKIRLI MAH.","zip":"14030"},{"name":"BALLI YERİ MAH.","zip":"14030"},{"name":"BALTALI KÖYÜ","zip":"14030"},{"name":"BALTALI YAYLASI MAH.","zip":"14030"},{"name":"BANAZ KÖYÜ","zip":"14030"},{"name":"BASMACI YAYLASI MAH.","zip":"14030"},{"name":"BATI MAH.","zip":"14030"},{"name":"BAYAT MAH.","zip":"14030"},{"name":"BAYRAMLAR MAH.","zip":"14030"},{"name":"BELKARAAĞAÇ KÖYÜ","zip":"14030"},{"name":"BERK KÖYÜ","zip":"14030"},{"name":"BOZARMUT KÖYÜ","zip":"14030"},{"name":"BOZCAARMUT MAH.","zip":"14030"},{"name":"BULUTLAR MAH.","zip":"14030"},{"name":"BÜNÜŞ KÖYÜ","zip":"14030"},{"name":"BÜRNÜK KÖYÜ","zip":"14030"},{"name":"BÜRNÜK MERKEZ MAH.","zip":"14030"},{"name":"BÜRNÜK YAYLASI MAH.","zip":"14030"},{"name":"CAMİ YANI MAH.","zip":"14030"},{"name":"CAMİLİBÖLÜK MAH.","zip":"14030"},{"name":"ÇAKILDERE MAH.","zip":"14030"},{"name":"ÇAMPINAR GÜZLEME MAH.","zip":"14030"},{"name":"ÇAMPINAR KÖYÜ","zip":"14030"},{"name":"ÇAMPINAR MAH.","zip":"14030"},{"name":"ÇAMPINAR MERKEZ MAH.","zip":"14030"},{"name":"ÇAMYAYLA KÖYÜ","zip":"14030"},{"name":"ÇAMYAYLA MÜCAVİR MAH.","zip":"14030"},{"name":"ÇAMYAYLA YAYLASI MAH.","zip":"14030"},{"name":"ÇANAKÇILAR KÖYÜ","zip":"14030"},{"name":"ÇATAK MAH.","zip":"14030"},{"name":"ÇATAKÖREN KÖYÜ","zip":"14030"},{"name":"ÇATAKÖREN YAYLASI MAH.","zip":"14030"},{"name":"ÇAYDURT EVLERİ MAH.","zip":"14030"},{"name":"ÇAYDURT MAH.","zip":"14030"},{"name":"ÇAYGÖKPINAR KÖYÜ","zip":"14030"},{"name":"ÇAYGÖKPINAR YAYLASI MAH.","zip":"14030"},{"name":"ÇAYIRKÖY KÖYÜ","zip":"14030"},{"name":"ÇENGELLER MAH.","zip":"14030"},{"name":"ÇEPNİ KÖYÜ","zip":"14030"},{"name":"ÇEPNİ YAYLASI MAH.","zip":"14030"},{"name":"ÇITAKLAR MAH.","zip":"14030"},{"name":"ÇİLİNGİRLER MAH.","zip":"14030"},{"name":"ÇİMENTO FABRİKASI YANI MAH.","zip":"14030"},{"name":"ÇOBANKAYA KÖYÜ","zip":"14030"},{"name":"ÇORAK MAH.","zip":"14030"},{"name":"ÇÖMLEKÇİLER KÖYÜ","zip":"14030"},{"name":"ÇUKUR MAH.","zip":"14030"},{"name":"ÇUKURÖREN KÖYÜ","zip":"14030"},{"name":"DAĞDELEN MAH.","zip":"14030"},{"name":"DEĞİRMENBELİ KÖYÜ","zip":"14030"},{"name":"DEĞİRMENDERESİ KÖYÜ","zip":"14030"},{"name":"DEĞİRMENÖZÜ MAH.","zip":"14030"},{"name":"DEĞİRMENÖZÜ YAYLASI MAH.","zip":"14030"},{"name":"DEĞİRMENYANI MAH.","zip":"14030"},{"name":"DEMİRCİLER KÖYÜ","zip":"14030"},{"name":"DEMİRCİLER MAH.","zip":"14030"},{"name":"DEMİRCİLER MÜCAVİR MAH.","zip":"14030"},{"name":"DEMİRCİLER YAYLASI MAH.","zip":"14030"},{"name":"DEPO SANAYİ MAH.","zip":"14030"},{"name":"DERE KARŞI (MÜCAVİR) MAH.","zip":"14030"},{"name":"DERE MAH.","zip":"14030"},{"name":"DERECEÖREN KÖYÜ","zip":"14030"},{"name":"DEREKARŞI MAH.","zip":"14030"},{"name":"DEVREN MAH.","zip":"14030"},{"name":"DOĞANCI KÖYÜ","zip":"14030"},{"name":"DOĞU MAH.","zip":"14030"},{"name":"DUMAN TEPE VİLLALARI MAH.","zip":"14030"},{"name":"DUMANOĞLU MAH.","zip":"14030"},{"name":"DÜVENLİK MAH.","zip":"14030"},{"name":"ECİRLER MAH.","zip":"14030"},{"name":"EDİLLER MAH.","zip":"14030"},{"name":"ELMACIK MAH.","zip":"14030"},{"name":"ELMALIK KÖYÜ","zip":"14030"},{"name":"ELMALIK MAH.","zip":"14030"},{"name":"ELMALIK MÜCAVİR MAH.","zip":"14030"},{"name":"EMEN MAH.","zip":"14030"},{"name":"ERCEK MAH.","zip":"14030"},{"name":"ERİCEK KÖYÜ","zip":"14030"},{"name":"ESELER MAH.","zip":"14030"},{"name":"EVRİL MAH.","zip":"14030"},{"name":"FAKILAR MAH.","zip":"14030"},{"name":"FAKILAR YAYLASI MAH.","zip":"14030"},{"name":"FASIL KÖYÜ","zip":"14030"},{"name":"FERDİNLER MAH.","zip":"14030"},{"name":"FERDİNLER YAYLASI MAH.","zip":"14030"},{"name":"FINDICAK MAH.","zip":"14030"},{"name":"FIRINLIK MAH.","zip":"14030"},{"name":"GİDİRİŞ MAH.","zip":"14030"},{"name":"GİDİRİŞ YAYLASI MAH.","zip":"14030"},{"name":"GÖKLEMEZLER MAH.","zip":"14030"},{"name":"GÖKPINAR KÖYÜ","zip":"14030"},{"name":"GÖKPINAR YAYLASI MAH.","zip":"14030"},{"name":"GÖL MAH.","zip":"14030"},{"name":"GÖLCÜK KÖYÜ","zip":"14030"},{"name":"GÖLCÜK MAH.","zip":"14030"},{"name":"GÖLKÖY KÖYÜ","zip":"14030"},{"name":"GÖVEM KÖYÜ","zip":"14030"},{"name":"GÜÇÖMERLER MAH.","zip":"14030"},{"name":"GÜDÜKLER MAH.","zip":"14030"},{"name":"GÜNEYFELEKETTİN KÖYÜ","zip":"14030"},{"name":"GÜVEM YAYLASI MAH.","zip":"14030"},{"name":"GÜZLEME YAYLASI MAH.","zip":"14030"},{"name":"HACILAR MAH.","zip":"14030"},{"name":"HALLAR MAH.","zip":"14030"},{"name":"HAMİDİYE  MH MAH.","zip":"14030"},{"name":"HAMZABEY KÖYÜ","zip":"14030"},{"name":"HAN MAH.","zip":"14030"},{"name":"HASAN KÖYÜ MAH.","zip":"14030"},{"name":"HASANLAR MAH.","zip":"14030"},{"name":"HIDIRŞEYHLER GÜZLEME MAH.","zip":"14030"},{"name":"HIDIRŞEYHLER KÖYÜ","zip":"14030"},{"name":"HIDIRŞEYHLER MAH.","zip":"14030"},{"name":"HIDIRŞEYHLER MERKEZ MAH.","zip":"14030"},{"name":"HORBACI MAH.","zip":"14030"},{"name":"HÜMMETLER MAH.","zip":"14030"},{"name":"IĞDIR MAH.","zip":"14030"},{"name":"ILICAKINIK KÖYÜ","zip":"14030"},{"name":"IŞIKLAR KÖYÜ","zip":"14030"},{"name":"İMAMLAR MAH.","zip":"14030"},{"name":"İZELER MAH.","zip":"14030"},{"name":"KABAKÇI KIRI MAH.","zip":"14030"},{"name":"KADILAR MAH.","zip":"14030"},{"name":"KÂHYALAR MAH.","zip":"14030"},{"name":"KALENDEROĞLU MAH.","zip":"14030"},{"name":"KANDAMIŞ KÖYÜ","zip":"14030"},{"name":"KARAALIÇ MAH.","zip":"14030"},{"name":"KARABOZLAR MAH.","zip":"14030"},{"name":"KARACALAR MAH.","zip":"14030"},{"name":"KARACASU FATİH MAH.","zip":"14030"},{"name":"KARACASU KÖYÜ","zip":"14030"},{"name":"KARAGÖZLER MAH.","zip":"14030"},{"name":"KARAKAYA YAYLASI MAH.","zip":"14030"},{"name":"KARALAR MAH.","zip":"14030"},{"name":"KARALAR YAYLASI MAH.","zip":"14030"},{"name":"KARAMANLAR ÇATAK MAH.","zip":"14030"},{"name":"KARAMANLAR KÖYÜ","zip":"14030"},{"name":"KARAMANLAR MAH.","zip":"14030"},{"name":"KARAMANYAKA MAH.","zip":"14030"},{"name":"KARASEFERLER MAH.","zip":"14030"},{"name":"KARCA KÖYÜ","zip":"14030"},{"name":"KARŞI MAH.","zip":"14030"},{"name":"KARŞIYAKA MAH.","zip":"14030"},{"name":"KARTALLAR MAH.","zip":"14030"},{"name":"KAVAK YAZISI MAH.","zip":"14030"},{"name":"KAVAKLI MAH.","zip":"14030"},{"name":"KAYACIK MAH.","zip":"14030"},{"name":"KAYI MAH.","zip":"14030"},{"name":"KAYSELLER MAH.","zip":"14030"},{"name":"KENDİGELENLER MAH.","zip":"14030"},{"name":"KETENLER KÖYÜ","zip":"14030"},{"name":"KINDIRA KÖYÜ","zip":"14030"},{"name":"KINDIRA YAYLASI MAH.","zip":"14030"},{"name":"KIRAN MAH.","zip":"14030"},{"name":"KIRHA KÖYÜ","zip":"14030"},{"name":"KIRHA YAYLASI MAH.","zip":"14030"},{"name":"KIRIK YAYLASI MAH.","zip":"14030"},{"name":"KIZILAĞIL KÖYÜ","zip":"14030"},{"name":"KOLCA MAH.","zip":"14030"},{"name":"KOLKÖY KÖYÜ","zip":"14030"},{"name":"KOLKÖY YAYLASI MAH.","zip":"14030"},{"name":"KONAK MAH.","zip":"14030"},{"name":"KOVALAKLAR MAH.","zip":"14030"},{"name":"KOZLU KÖYÜ","zip":"14030"},{"name":"KÖPRÜCÜLER KÖYÜ","zip":"14030"},{"name":"KÖROĞLU MAH.","zip":"14030"},{"name":"KÖSELER MAH.","zip":"14030"},{"name":"KUZFINDIK KÖYÜ","zip":"14030"},{"name":"KUZFINDIK YAYLASI MAH.","zip":"14030"},{"name":"KUZÖREN YAYLASI MAH.","zip":"14030"},{"name":"KUZÖRENDAĞLI KÖYÜ","zip":"14030"},{"name":"KUZÖRENDAĞLI YAYLASI MAH.","zip":"14030"},{"name":"KUZÖRENEMİRLER KÖYÜ","zip":"14030"},{"name":"KUZÖRENEMİRLER YAYLASI MAH.","zip":"14030"},{"name":"KUZULUK MAH.","zip":"14030"},{"name":"KÜÇÜK SANAYİ MAH.","zip":"14030"},{"name":"KÜPLÜCE KÖYÜ","zip":"14030"},{"name":"KÜTÜKÇÜLER MAH.","zip":"14030"},{"name":"MERKEŞLER KÖYÜ","zip":"14030"},{"name":"MERKEŞLER YAYLASI MAH.","zip":"14030"},{"name":"MERKEZ (MÜCAVİR) MAH.","zip":"14030"},{"name":"MERKEZ MAH.","zip":"14030"},{"name":"MERKEZ MÜCAVİR MAH.","zip":"14030"},{"name":"MERKEZ YAYLA MAH.","zip":"14030"},{"name":"MERKEZ YAYLASI MAH.","zip":"14030"},{"name":"MESCİÇELE KÖYÜ","zip":"14030"},{"name":"MESCİLER KÖYÜ","zip":"14030"},{"name":"MESCİLER MAH.","zip":"14030"},{"name":"MEŞECİ MAH.","zip":"14030"},{"name":"MURATLAR KÖYÜ","zip":"14030"},{"name":"MUSA MAH.","zip":"14030"},{"name":"MUSLAR MAH.","zip":"14030"},{"name":"MUSLUKLAR KÖYÜ","zip":"14030"},{"name":"MUSTAFA VEHBİ KOÇ MAH.","zip":"14030"},{"name":"MÜSTAKİMLER KÖYÜ","zip":"14030"},{"name":"NAKIBLAR MAH.","zip":"14030"},{"name":"NUHLAR KÖYÜ","zip":"14030"},{"name":"NUHLAR YAYLASI MAH.","zip":"14030"},{"name":"OCUKLAR MAH.","zip":"14030"},{"name":"OCUKLAR YAYLASI MAH.","zip":"14030"},{"name":"OĞULCAN MAH.","zip":"14030"},{"name":"OĞULDURUK KÖYÜ","zip":"14030"},{"name":"OĞULDURUK MAH.","zip":"14030"},{"name":"OĞULDURUK MERKEZ MAH.","zip":"14030"},{"name":"OĞULDURUK YAYLASI MAH.","zip":"14030"},{"name":"OKÇULAR KÖYÜ","zip":"14030"},{"name":"ORTA MAH.","zip":"14030"},{"name":"OTOBAN ÜSTÜ MAH.","zip":"14030"},{"name":"ÖMERLER KÖYÜ","zip":"14030"},{"name":"ÖMERLER MERKEZ MAH.","zip":"14030"},{"name":"ÖMERTEPE MAH.","zip":"14030"},{"name":"ÖRENCİK KÖYÜ","zip":"14030"},{"name":"ÖRENCİK MAH.","zip":"14030"},{"name":"PELİTCİK KÖYÜ","zip":"14030"},{"name":"PELİTÇİK YAYLASI MAH.","zip":"14030"},{"name":"PİRAHMETLER KÖYÜ","zip":"14030"},{"name":"PİROĞLU KÖYÜ","zip":"14030"},{"name":"PİROĞLU YAYLASI MAH.","zip":"14030"},{"name":"POYRAZLAR MAH.","zip":"14030"},{"name":"RIFATLAR MAH.","zip":"14030"},{"name":"RÜZGARLAR KÖYÜ","zip":"14030"},{"name":"RÜZGARLAR YAYLASI MAH.","zip":"14030"},{"name":"SAÇCILAR YAYLASI MAH.","zip":"14030"},{"name":"SAÇÇILAR KÖYÜ","zip":"14030"},{"name":"SADIKLAR MAH.","zip":"14030"},{"name":"SARAÇ MAH.","zip":"14030"},{"name":"SARAYCIK KÖYÜ","zip":"14030"},{"name":"SARAYCIK MÜCAVİR MAH.","zip":"14030"},{"name":"SARAYCIK YAYLASI MAH.","zip":"14030"},{"name":"SARIAHMETLER MAH.","zip":"14030"},{"name":"SARIALAN YAYLASI MAH.","zip":"14030"},{"name":"SAZAKKINIK KÖYÜ","zip":"14030"},{"name":"SAZAKKINIK YAYLASI MAH.","zip":"14030"},{"name":"SAZAKŞEYHLER KÖYÜ","zip":"14030"},{"name":"SAZAKŞEYHLER YAYLASI MAH.","zip":"14030"},{"name":"SEBENARDI KÖYÜ","zip":"14030"},{"name":"SEMERCİLER KÖYÜ","zip":"14030"},{"name":"SIĞINDI MAH.","zip":"14030"},{"name":"SİNİR MAH.","zip":"14030"},{"name":"SİYAMOĞLU MAH.","zip":"14030"},{"name":"SOFTALAR MAH.","zip":"14030"},{"name":"SULTAN KÖYÜ","zip":"14030"},{"name":"SULTANBEY KÖYÜ","zip":"14030"},{"name":"SUSUZKINIK KÖYÜ","zip":"14030"},{"name":"SUSUZKINIK YAYLASI MAH.","zip":"14030"},{"name":"SUSUZKINIKOSB MAH.","zip":"14030"},{"name":"ŞABANLAR MAH.","zip":"14030"},{"name":"ŞEREMETLER MAH.","zip":"14030"},{"name":"ŞOSE MAH.","zip":"14030"},{"name":"TARAKÇI KÖYÜ","zip":"14030"},{"name":"TARAKÇI YAYLASI MAH.","zip":"14030"},{"name":"TAŞÇILAR KÖYÜ","zip":"14030"},{"name":"TAŞOLUK KÖYÜ","zip":"14030"},{"name":"TAŞOLUK MAH.","zip":"14030"},{"name":"TAŞOLUK MERKEZ MAH.","zip":"14030"},{"name":"TATARLAR MAH.","zip":"14030"},{"name":"TATAROĞLU MAH.","zip":"14030"},{"name":"TATLAR KÖYÜ","zip":"14030"},{"name":"TATLAR YAYLASI MAH.","zip":"14030"},{"name":"TEKELER MAH.","zip":"14030"},{"name":"TEKKEDERE KÖYÜ","zip":"14030"},{"name":"TEKNELER MAH.","zip":"14030"},{"name":"TETEMEÇELE KÖYÜ","zip":"14030"},{"name":"TİLKİCEK MAH.","zip":"14030"},{"name":"TOKMAKLAR KÖYÜ","zip":"14030"},{"name":"TOPARDIÇ KÖYÜ","zip":"14030"},{"name":"TOYLUK MAH.","zip":"14030"},{"name":"TÜRKMENLER MAH.","zip":"14030"},{"name":"ULUMESCİT KÖYÜ","zip":"14030"},{"name":"URAN MAH.","zip":"14030"},{"name":"ÜÇKÜNER MEVKİİ MAH.","zip":"14030"},{"name":"VAKIF MAH.","zip":"14030"},{"name":"VAKIFGEÇİTVEREN KÖYÜ","zip":"14030"},{"name":"VAKIFGEÇİTVEREN MERKEZ MAH.","zip":"14030"},{"name":"VAYISLAR MAH.","zip":"14030"},{"name":"VİRANE YAYLASI MAH.","zip":"14030"},{"name":"YAKA MAH.","zip":"14030"},{"name":"YAKABAYAT KÖYÜ","zip":"14030"},{"name":"YAKUPLAR KÖYÜ","zip":"14030"},{"name":"YANIKLAR MAH.","zip":"14030"},{"name":"YAYLA EVLERİ MAH.","zip":"14030"},{"name":"YAYLA MAH.","zip":"14030"},{"name":"YAYLADINLAR KÖYÜ","zip":"14030"},{"name":"YAYLADINLAR YAYLASI MAH.","zip":"14030"},{"name":"YAZIÖREN KÖYÜ","zip":"14030"},{"name":"YAZIÖREN MAH.","zip":"14030"},{"name":"YENİ MAH.","zip":"14030"},{"name":"YENİAKÇAKAVAK KÖYÜ","zip":"14030"},{"name":"YENİAKÇAKAVAK MERKEZ MAH.","zip":"14030"},{"name":"YENİCEPINAR KÖYÜ","zip":"14030"},{"name":"YENİÇAYDURT KÖYÜ","zip":"14030"},{"name":"YENİÇAYDURT MERKEZ MAH.","zip":"14030"},{"name":"YENİGEÇİTVEREN GÜZLEME YAYLASI MAH.","zip":"14030"},{"name":"YENİGEÇİTVEREN KÖYÜ","zip":"14030"},{"name":"YENİGEÇİTVEREN MERKEZ MAH.","zip":"14030"},{"name":"YENİGÜNEY KÖYÜ","zip":"14030"},{"name":"YENİGÜNEY YAYLASI MAH.","zip":"14030"},{"name":"YENİKÖY KÖYÜ","zip":"14030"},{"name":"YENİKÖY MAH.","zip":"14030"},{"name":"YENİPELİTCİK KÖYÜ","zip":"14030"},{"name":"YENİSEFA KÖYÜ","zip":"14030"},{"name":"YEŞİLÇELE KÖYÜ","zip":"14030"},{"name":"YEŞİLÇELE YAYLASI MAH.","zip":"14030"},{"name":"YEŞİLKÖY KÖYÜ","zip":"14030"},{"name":"YOLÇATI KÖYÜ","zip":"14030"},{"name":"YUKARI MAH.","zip":"14030"},{"name":"YUKARI YAYLASI MAH.","zip":"14030"},{"name":"YUKARIÇAMLI KÖYÜ","zip":"14030"},{"name":"YUKARIÇAMLI YAYLASI MAH.","zip":"14030"},{"name":"YUMRUKAYA KÖYÜ","zip":"14030"},{"name":"YUVA AŞAĞI (MÜCAVİR) MAH.","zip":"14030"},{"name":"YUVA AŞAĞI MAH.","zip":"14030"},{"name":"YUVA ÇAYDURT MAH.","zip":"14030"},{"name":"YUVA KÖYÜ","zip":"14030"},{"name":"YUVA MERKEZ (MÜCAVİR) MAH.","zip":"14030"},{"name":"YUVA MERKEZ MAH.","zip":"14030"},{"name":"YUVA YAYLASI MAH.","zip":"14030"},{"name":"YUVALCA MAH.","zip":"14030"},{"name":"ZAHMANLAR MAH.","zip":"14030"},{"name":"ZAHMANLAR YAYLASI MAH.","zip":"14030"},{"name":"(HAYALLAR)YAYLA EVLERİ MAH.","zip":"14802"},{"name":"100.YIL MAH.","zip":"14802"},{"name":"ABAZALAR MAH.","zip":"14802"},{"name":"ABDULLAR MAH.","zip":"14802"},{"name":"ACEMLER MAH.","zip":"14802"},{"name":"AKBAŞLAR MAH.","zip":"14802"},{"name":"AKÇAALAN MAH.","zip":"14802"},{"name":"AKYOKUŞ KÖYÜ","zip":"14802"},{"name":"ALAÇAM MAH.","zip":"14802"},{"name":"ALANBAŞI MAH.","zip":"14802"},{"name":"ALASİNİR MAH.","zip":"14802"},{"name":"ALASİNİR YAYLA EVİ MAH.","zip":"14802"},{"name":"ALBALAR MAH.","zip":"14802"},{"name":"ALIÇ MAH.","zip":"14802"},{"name":"ALPAGUT KÖYÜ","zip":"14802"},{"name":"ASARLIK MAH.","zip":"14802"},{"name":"ASMA MAH.","zip":"14802"},{"name":"AŞAĞI ANAYOL MAH.","zip":"14802"},{"name":"AŞAĞI DEDEKAN MAH.","zip":"14802"},{"name":"AŞAĞI MAH.","zip":"14802"},{"name":"AŞAĞI(OVA) MAH.","zip":"14802"},{"name":"AŞAĞI(YAYAL EVLERİ) MAH.","zip":"14802"},{"name":"AVDULLAR KÖYÜ","zip":"14802"},{"name":"AVDULLAR MAH.","zip":"14802"},{"name":"BABALAR MAH.","zip":"14802"},{"name":"BABALAR(YAYLA EVLERİ) MAH.","zip":"14802"},{"name":"BAYRAMLI MAH.","zip":"14802"},{"name":"BEĞENDİK MAH.","zip":"14802"},{"name":"BEKDEMİRLER KÖYÜ","zip":"14802"},{"name":"BEŞLİ MAH.","zip":"14802"},{"name":"BEYDERESİ KÖYÜ","zip":"14802"},{"name":"BEYDERESİ MAH.","zip":"14802"},{"name":"BOSTANCILAR KÖYÜ","zip":"14802"},{"name":"BULANIK KÖYÜ","zip":"14802"},{"name":"BÜRÜCEK MAH.","zip":"14802"},{"name":"BÜYÜK MAH.","zip":"14802"},{"name":"CAFERLER MAH.","zip":"14802"},{"name":"CAMİ YANI MAH.","zip":"14802"},{"name":"CUMA KÖYÜ","zip":"14802"},{"name":"ÇAĞŞAK KÖYÜ","zip":"14802"},{"name":"ÇAMURLUK KÖYÜ","zip":"14802"},{"name":"ÇAMYURDU KÖYÜ","zip":"14802"},{"name":"ÇAMYURDU MAH.","zip":"14802"},{"name":"ÇAVUŞDERESİ KÖYÜ","zip":"14802"},{"name":"ÇAYIRALTI MAH.","zip":"14802"},{"name":"ÇAYKÖY MAH.","zip":"14802"},{"name":"ÇEPNİ KÖYÜ","zip":"14802"},{"name":"ÇEVRELİ KÖYÜ","zip":"14802"},{"name":"ÇOBANLAR MAH.","zip":"14802"},{"name":"DAĞYOLU KÖYÜ","zip":"14802"},{"name":"DAVUTLAR MAH.","zip":"14802"},{"name":"DEDELER KÖYÜ","zip":"14802"},{"name":"DEDELER MAH.","zip":"14802"},{"name":"DELİCE KÖYÜ","zip":"14802"},{"name":"DELİCELER MAH.","zip":"14802"},{"name":"DEMİRCİLER MAH.","zip":"14802"},{"name":"DERE MAH.","zip":"14802"},{"name":"DERECEÖREN MAH.","zip":"14802"},{"name":"DEREÇETİNÖREN KÖYÜ","zip":"14802"},{"name":"DEREKÖY KÖYÜ","zip":"14802"},{"name":"DİBEKTAŞI MAH.","zip":"14802"},{"name":"DİBEKTAŞI-ESELER-KANELLER-MUSTANLAR-YAYLA EVLERİ MAH.","zip":"14802"},{"name":"DODORAZ MAH.","zip":"14802"},{"name":"DODURGA KÖYÜ","zip":"14802"},{"name":"DODURGA MAH.","zip":"14802"},{"name":"DOLAYÜZ KÖYÜ","zip":"14802"},{"name":"DOLAYÜZ MAH.","zip":"14802"},{"name":"DOLAYÜZ MÜCAVİR MAH.","zip":"14802"},{"name":"EKİNCİK MAH.","zip":"14802"},{"name":"EKİNÖREN KÖYÜ","zip":"14802"},{"name":"ELMACIKDERE KÖYÜ","zip":"14802"},{"name":"ELMACILAR MAH.","zip":"14802"},{"name":"ENCEVEZ-KAYABOĞAZI MAH.","zip":"14802"},{"name":"ERCEŞLER MAH.","zip":"14802"},{"name":"ESELER MAH.","zip":"14802"},{"name":"ESENKAYA KÖYÜ","zip":"14802"},{"name":"FERÜZ KÖYÜ","zip":"14802"},{"name":"FINDICAK KÖYÜ","zip":"14802"},{"name":"FINDICAK MÜCAVİR MAH.","zip":"14802"},{"name":"GEBEM MAH.","zip":"14802"},{"name":"GEDİKLER MAH.","zip":"14802"},{"name":"GELİNÖZÜ KÖYÜ","zip":"14802"},{"name":"GELİNÖZÜ MAH.","zip":"14802"},{"name":"GEMBERUZ MAH.","zip":"14802"},{"name":"GÖKÖREN KÖYÜ","zip":"14802"},{"name":"GÖLCÜK KÖYÜ","zip":"14802"},{"name":"GÖLDERESİ MAH.","zip":"14802"},{"name":"GÖLLÜÖREN KÖYÜ","zip":"14802"},{"name":"GÖNCEK KÖYÜ","zip":"14802"},{"name":"GÜNEY MAH.","zip":"14802"},{"name":"GÜRÇAM KÖYÜ","zip":"14802"},{"name":"GÜRÇAM MÜCAVİR MAH.","zip":"14802"},{"name":"GÜVEYTEPE KÖYÜ","zip":"14802"},{"name":"HACI MAH.","zip":"14802"},{"name":"HACIALİLER MAH.","zip":"14802"},{"name":"HACIHALİMLER KÖYÜ","zip":"14802"},{"name":"HACIMUSALAR KÖYÜ","zip":"14802"},{"name":"HACIMUSALAR MAH.","zip":"14802"},{"name":"HALA MAH.","zip":"14802"},{"name":"HAN MAH.","zip":"14802"},{"name":"HANİCEBİLER MAH.","zip":"14802"},{"name":"HARMANSEKİ MAH.","zip":"14802"},{"name":"HATİPLER MAH.","zip":"14802"},{"name":"HAYALLAR MAH.","zip":"14802"},{"name":"HAYRETTİNLER MAH.","zip":"14802"},{"name":"HÜSAMETTİNDERE KÖYÜ","zip":"14802"},{"name":"HÜSEYİNPAŞALAR MAH.","zip":"14802"},{"name":"ILICA KÖYÜ","zip":"14802"},{"name":"İDRİSLER MAH.","zip":"14802"},{"name":"İĞNECİLER KÖYÜ","zip":"14802"},{"name":"İLEÇİN MAH.","zip":"14802"},{"name":"İMAMLAR MAH.","zip":"14802"},{"name":"KABALAR MAH.","zip":"14802"},{"name":"KACIK KÖYÜ","zip":"14802"},{"name":"KAHYALAR MAH.","zip":"14802"},{"name":"KANELLER MAH.","zip":"14802"},{"name":"KARAAĞAÇ MAH.","zip":"14802"},{"name":"KARAAHMETLER MAH.","zip":"14802"},{"name":"KARACASU MAH.","zip":"14802"},{"name":"KARACASUMANDIRA MAH.","zip":"14802"},{"name":"KARAÇOMAK MAH.","zip":"14802"},{"name":"KARAMURAT KÖYÜ","zip":"14802"},{"name":"KARAPINAR MAH.","zip":"14802"},{"name":"KARAPINARKAVAĞI KÖYÜ","zip":"14802"},{"name":"KARATAŞ KÖYÜ","zip":"14802"},{"name":"KARŞIKÖY KÖYÜ","zip":"14802"},{"name":"KAVALLAR KÖYÜ","zip":"14802"},{"name":"KAYA MAH.","zip":"14802"},{"name":"KAYABAŞI MAH.","zip":"14802"},{"name":"KAYAPINAR MAH.","zip":"14802"},{"name":"KEÇİKIRAN KÖYÜ","zip":"14802"},{"name":"KEPEZ MAH.","zip":"14802"},{"name":"KINGILAR MAH.","zip":"14802"},{"name":"KIZILCIKLI MAH.","zip":"14802"},{"name":"KİLÖZÜ KÖYÜ","zip":"14802"},{"name":"KOVUCAK KÖYÜ","zip":"14802"},{"name":"KÖSELER MAH.","zip":"14802"},{"name":"KURTLAR KÖYÜ","zip":"14802"},{"name":"KUZALIÇ MAH.","zip":"14802"},{"name":"KUZÖREN MAH.","zip":"14802"},{"name":"KUZYAKA MAH.","zip":"14802"},{"name":"KÜSEM MAH.","zip":"14802"},{"name":"MANGIRLAR KÖYÜ","zip":"14802"},{"name":"MERKEZ MAH.","zip":"14802"},{"name":"MERKEZ ÖTE MAH.","zip":"14802"},{"name":"MERKEZ YAYLA MAH.","zip":"14802"},{"name":"MEŞE YAYLASI MAH.","zip":"14802"},{"name":"MONGOŞLAR MAH.","zip":"14802"},{"name":"MUNDUŞLAR KÖYÜ","zip":"14802"},{"name":"MUNDUŞLAR KÖYÜ MAH.","zip":"14802"},{"name":"MURATLAR MAH.","zip":"14802"},{"name":"MUSTANLAR MAH.","zip":"14802"},{"name":"OKUŞLAR MAH.","zip":"14802"},{"name":"ORDULAR KÖYÜ","zip":"14802"},{"name":"ORMAN İŞLETME MAH.","zip":"14802"},{"name":"ORMAN MAH.","zip":"14802"},{"name":"ORMANPINAR KÖYÜ","zip":"14802"},{"name":"ORMANPINAR MAH.","zip":"14802"},{"name":"ORTA MAH.","zip":"14802"},{"name":"ORTAKÖY KÖYÜ","zip":"14802"},{"name":"ORTA-YUKARI YAYLA EVLERİ MAH.","zip":"14802"},{"name":"OSMANÇAVUŞLAR MAH.","zip":"14802"},{"name":"OVA MAH.","zip":"14802"},{"name":"ÖKÜZ OVA MAH.","zip":"14802"},{"name":"ÖRENCİK KÖYÜ","zip":"14802"},{"name":"PELİTÖZÜ KÖYÜ","zip":"14802"},{"name":"PİRLER MAH.","zip":"14802"},{"name":"SALMANLAR MAH.","zip":"14802"},{"name":"SAMAT KÖYÜ","zip":"14802"},{"name":"SAMSAÇAVUŞ KÖYÜ","zip":"14802"},{"name":"SAMUTLAR MAH.","zip":"14802"},{"name":"SARICALAR MAH.","zip":"14802"},{"name":"SARIYAR KÖYÜ","zip":"14802"},{"name":"SARPINCIK KÖYÜ","zip":"14802"},{"name":"SEYİTALLER MAH.","zip":"14802"},{"name":"SIRÇALI KÖYÜ","zip":"14802"},{"name":"SÜRMELİ KÖYÜ","zip":"14802"},{"name":"SÜVEYKÖY MAH.","zip":"14802"},{"name":"ŞEMSİ MAH.","zip":"14802"},{"name":"ŞUAYİPLER MAH.","zip":"14802"},{"name":"TAŞCILAR KÖYÜ","zip":"14802"},{"name":"TAŞÇILAR MAH.","zip":"14802"},{"name":"TAŞKESTİ KÖYÜ","zip":"14802"},{"name":"TATARLAR MAH.","zip":"14802"},{"name":"TAVŞANSUYU KÖYÜ","zip":"14802"},{"name":"TAVŞANSUYU MAH.","zip":"14802"},{"name":"TEKİRLER MAH.","zip":"14802"},{"name":"TEPE MAH.","zip":"14802"},{"name":"TIMARAKTAŞ KÖYÜ","zip":"14802"},{"name":"TOPALLAR MAH.","zip":"14802"},{"name":"TOPYERİ MAH.","zip":"14802"},{"name":"TORAMAN MAH.","zip":"14802"},{"name":"TOSUNLAR MAH.","zip":"14802"},{"name":"UĞURLUALAN KÖYÜ","zip":"14802"},{"name":"UĞURLUALAN MAH.","zip":"14802"},{"name":"ULUÇAY MAH.","zip":"14802"},{"name":"UZUNÇAM KÖYÜ","zip":"14802"},{"name":"VAKIFAKTAŞ KÖYÜ","zip":"14802"},{"name":"YALAMALAR MAH.","zip":"14802"},{"name":"YARBAŞI MAH.","zip":"14802"},{"name":"YAYLA EVİ(ALANBAŞI) MAH.","zip":"14802"},{"name":"YAYLA EVİ(BEYDERESİ) MAH.","zip":"14802"},{"name":"YAYLA EVLERİ MAH.","zip":"14802"},{"name":"YAYLA EVLERİ(BAYRAMLI) MAH.","zip":"14802"},{"name":"YAYLA EVLERİ(CUMA) MAH.","zip":"14802"},{"name":"YAYLA EVLERİ(MERKEZ) MAH.","zip":"14802"},{"name":"YAYLA EVLERİ(OSMANÇAVUŞLAR) MAH.","zip":"14802"},{"name":"YAYLA MAH.","zip":"14802"},{"name":"YAYLABELİ KÖYÜ","zip":"14802"},{"name":"YAZILAR KÖYÜ","zip":"14802"},{"name":"YAZILAR YAYLASI MAH.","zip":"14802"},{"name":"YEĞENDERESİ MAH.","zip":"14802"},{"name":"YENİ MAH.","zip":"14802"},{"name":"YENİ YERLEŞİM YERİ MAH.","zip":"14802"},{"name":"YENİ(ABANT SAPAĞI) MAH.","zip":"14802"},{"name":"YENİCEŞEYHLER KÖYÜ","zip":"14802"},{"name":"YENİMAHALLE MAH.","zip":"14802"},{"name":"YUKARI DEDEKAN MAH.","zip":"14802"},{"name":"YUKARI GÜNEY MAH.","zip":"14802"},{"name":"YUKARI MAH.","zip":"14802"},{"name":"YUKARI(MERKEZ) MAH.","zip":"14802"}]},{"name":"MUDURNU","cityName":null,"quarters":[{"name":"HIZIRFAKI MAH.","zip":"14800"},{"name":"KARACAKAYA MAH.","zip":"14800"},{"name":"KAYGANA MAH.","zip":"14800"},{"name":"MUSALLA MAH.","zip":"14800"},{"name":"SEYRANCIK MAH.","zip":"14800"},{"name":"YILDIRIM BAYAZID MAH.","zip":"14800"}]},{"name":"MERKEZKÖYLER","cityName":null,"quarters":[{"name":"AŞAĞI MAH.","zip":"14752"},{"name":"AŞAĞI YAYLA MAH.","zip":"14752"},{"name":"AVDAN MAH.","zip":"14752"},{"name":"AVUDAN ÇAVUŞLAR YAYLA MAH.","zip":"14752"},{"name":"AVUDAN DEMİRCİLER YAYLA MAH.","zip":"14752"},{"name":"AVUDAN YAYLA MAH.","zip":"14752"},{"name":"BAĞ EVLERİ MAH.","zip":"14752"},{"name":"BAKIRLI KÖYÜ","zip":"14752"},{"name":"BEKİRFAKILAR MAH.","zip":"14752"},{"name":"BEYLİK MAH.","zip":"14752"},{"name":"BIYIKLAR MAH.","zip":"14752"},{"name":"BIYIKLAR YAYLA MAH.","zip":"14752"},{"name":"BOZYER KÖYÜ","zip":"14752"},{"name":"ÇATAK MAH.","zip":"14752"},{"name":"ÇAVUŞLAR MAH.","zip":"14752"},{"name":"ÇAVUŞLAR YAYLA MAH.","zip":"14752"},{"name":"ÇELTİKDERE KÖYÜ","zip":"14752"},{"name":"ÇİRKİNLER MAH.","zip":"14752"},{"name":"ÇİRKİNLER YAYLA MAH.","zip":"14752"},{"name":"DAĞ YAYLA MAH.","zip":"14752"},{"name":"DEDELER KÖYÜ","zip":"14752"},{"name":"DEDELER MAH.","zip":"14752"},{"name":"DEĞİRMENKAYA KÖYÜ","zip":"14752"},{"name":"DEMİRCİLER MAH.","zip":"14752"},{"name":"DEMİRCİLER YAYLA MAH.","zip":"14752"},{"name":"DENİZLER MAH.","zip":"14752"},{"name":"DENİZLER YAYLA MAH.","zip":"14752"},{"name":"DEREBOY KÖYÜ","zip":"14752"},{"name":"DEREBOY YAYLA MAH.","zip":"14752"},{"name":"DERECEVİRAN MAH.","zip":"14752"},{"name":"DİKENLİ MAH.","zip":"14752"},{"name":"DİKENLİ YAYLA MAH.","zip":"14752"},{"name":"DİKMEN MAH.","zip":"14752"},{"name":"EKİCİLER KÖYÜ","zip":"14752"},{"name":"EYVAZLAR MAH.","zip":"14752"},{"name":"GERENÖZÜ KÖYÜ","zip":"14752"},{"name":"GÖKHALİLLER KÖYÜ","zip":"14752"},{"name":"GÖLCÜK MAH.","zip":"14752"},{"name":"GÜNEŞLER MAH.","zip":"14752"},{"name":"GÜNEY MAH.","zip":"14752"},{"name":"GÜNEYCE KÖYÜ","zip":"14752"},{"name":"GÜNEYCE YAYLA MAH.","zip":"14752"},{"name":"HACCAĞIZ  YAYLA MAH.","zip":"14752"},{"name":"HACCAĞIZ KÖYÜ","zip":"14752"},{"name":"HACCAĞIZ MAH.","zip":"14752"},{"name":"HAYDAR YAYLA MAH.","zip":"14752"},{"name":"HIDIRLAR MAH.","zip":"14752"},{"name":"HOÇAŞ KÖYÜ","zip":"14752"},{"name":"HOÇAŞ YAYLA MAH.","zip":"14752"},{"name":"İNEKLİKURUK MAH.","zip":"14752"},{"name":"KABAK KÖYÜ","zip":"14752"},{"name":"KABAK YAYLA MAH.","zip":"14752"},{"name":"KALINCAK MAH.","zip":"14752"},{"name":"KALINCAK YAYLA MAH.","zip":"14752"},{"name":"KANDUZLA YAYLA MAH.","zip":"14752"},{"name":"KARAAĞAÇ KÖYÜ","zip":"14752"},{"name":"KARABUNAR MAH.","zip":"14752"},{"name":"KARACAÖREN MAH.","zip":"14752"},{"name":"KAŞ MAH.","zip":"14752"},{"name":"KAŞBIYIKLAR KÖYÜ","zip":"14752"},{"name":"KAVAKLIDAĞ YAYLA MAH.","zip":"14752"},{"name":"KESENÖZÜ KÖYÜ","zip":"14752"},{"name":"KINIKÇI MAH.","zip":"14752"},{"name":"KINIKÇI YAYLA MAH.","zip":"14752"},{"name":"KIVRI MAH.","zip":"14752"},{"name":"KIZIK KÖYÜ","zip":"14752"},{"name":"KIZIK YAYLA MAH.","zip":"14752"},{"name":"KOÇCEVAZ YAYLASI MAH.","zip":"14752"},{"name":"KORUCUK KÖYÜ","zip":"14752"},{"name":"KORUCUK YAYLA MAH.","zip":"14752"},{"name":"KOZYAKA KÖYÜ","zip":"14752"},{"name":"KUZ MAH.","zip":"14752"},{"name":"KUZGÖLCÜK KÖYÜ","zip":"14752"},{"name":"MANDIR MAH.","zip":"14752"},{"name":"MERKEZ MAH.","zip":"14752"},{"name":"MUSASOFULAR KÖYÜ","zip":"14752"},{"name":"MUSASOFULAR YAYLA MAH.","zip":"14752"},{"name":"MUSLAR MAH.","zip":"14752"},{"name":"NİMETLİ KÖYÜ","zip":"14752"},{"name":"NİMETLİ YAYLA MAH.","zip":"14752"},{"name":"ORTA MAH.","zip":"14752"},{"name":"ORTA YAYLA MAH.","zip":"14752"},{"name":"SOLAKLAR KÖYÜ","zip":"14752"},{"name":"SOLAKLAR YAYLA MAH.","zip":"14752"},{"name":"SÖĞÜT MAH.","zip":"14752"},{"name":"SUSUZ KÖYÜ","zip":"14752"},{"name":"ŞAHMANLAR MAH.","zip":"14752"},{"name":"ŞIHLAR MAH.","zip":"14752"},{"name":"TAŞOLUK MAH.","zip":"14752"},{"name":"TAZILAR KÖYÜ","zip":"14752"},{"name":"TEPE KÖYÜ","zip":"14752"},{"name":"TEPECİK MAH.","zip":"14752"},{"name":"TEPECİK YAYLA MAH.","zip":"14752"},{"name":"YAĞMA KÖYÜ","zip":"14752"},{"name":"YAYLA MAH.","zip":"14752"},{"name":"YENİ MAH.","zip":"14752"},{"name":"YUKARI KUCAK MAH.","zip":"14752"},{"name":"YUKARI MAH.","zip":"14752"},{"name":"YUKARI YAYLA MAH.","zip":"14752"},{"name":"YUVA KÖYÜ","zip":"14752"}]},{"name":"SEBEN","cityName":null,"quarters":[{"name":"KESKİNLİ MAH.","zip":"14750"}]},{"name":"MERKEZKÖYLER","cityName":null,"quarters":[{"name":"ADAKÖY KÖYÜ","zip":"14652"},{"name":"AHMETLER MAH.","zip":"14652"},{"name":"AKINCILAR KÖYÜ","zip":"14652"},{"name":"ALAYCILAR MAH.","zip":"14652"},{"name":"ARPALIK MAH.","zip":"14652"},{"name":"AŞAĞI MAH.","zip":"14652"},{"name":"AŞAĞIKULDAN KÖYÜ","zip":"14652"},{"name":"AVDAN MAH.","zip":"14652"},{"name":"BALLAR MAH.","zip":"14652"},{"name":"BAŞÇAYIR MAH.","zip":"14652"},{"name":"BEY MAH.","zip":"14652"},{"name":"BOYA DERESİ-TEPER MAH.","zip":"14652"},{"name":"CEVEKELLER MAH.","zip":"14652"},{"name":"ÇAKIRLAR MAH.","zip":"14652"},{"name":"ÇAMLIK KÖYÜ","zip":"14652"},{"name":"ÇAMURCUK MAH.","zip":"14652"},{"name":"ÇAY MAH.","zip":"14652"},{"name":"DEREKÖY KÖYÜ","zip":"14652"},{"name":"DEREKÖY MAH.","zip":"14652"},{"name":"DOĞANCI KÖYÜ","zip":"14652"},{"name":"DUMANLAR MAH.","zip":"14652"},{"name":"DUMANLAR YAYLA MAH.","zip":"14652"},{"name":"ELA MAH.","zip":"14652"},{"name":"EROĞLU MAH.","zip":"14652"},{"name":"ESKİÇAĞA KÖYÜ","zip":"14652"},{"name":"GIGALAR MAH.","zip":"14652"},{"name":"GÖLBAŞI KÖYÜ","zip":"14652"},{"name":"GÜLLÜK MAH.","zip":"14652"},{"name":"HAMZABEY KÖYÜ","zip":"14652"},{"name":"HAMZALAR MAH.","zip":"14652"},{"name":"HASANAĞALAR MAH.","zip":"14652"},{"name":"İZMİRLİ MAH.","zip":"14652"},{"name":"KARABEYLER MAH.","zip":"14652"},{"name":"KARABEYLER YAYLA MAH.","zip":"14652"},{"name":"KARAMANLAR MAH.","zip":"14652"},{"name":"KARŞI MAH.","zip":"14652"},{"name":"KEMALLER KÖYÜ","zip":"14652"},{"name":"KINDIRA KÖYÜ","zip":"14652"},{"name":"KOZBAYIRI MAH.","zip":"14652"},{"name":"MERKEZ MAH.","zip":"14652"},{"name":"MİTATLAR MAH.","zip":"14652"},{"name":"MÜEZZİNLER MAH.","zip":"14652"},{"name":"NALLAR MAH.","zip":"14652"},{"name":"NALLARALTI MAH.","zip":"14652"},{"name":"ORTA MAH.","zip":"14652"},{"name":"OSMAN AĞALAR MAH.","zip":"14652"},{"name":"ÖREN KÖYÜ","zip":"14652"},{"name":"SAĞIRLAR MAH.","zip":"14652"},{"name":"SAĞIRLAR YAYLA MAH.","zip":"14652"},{"name":"SARAY MAH.","zip":"14652"},{"name":"SARAYKÖY KÖYÜ","zip":"14652"},{"name":"SAZLIK MAH.","zip":"14652"},{"name":"SÜLEYMANLAR MAH.","zip":"14652"},{"name":"ŞAHNALAR KÖYÜ","zip":"14652"},{"name":"TAVŞALLAR MAH.","zip":"14652"},{"name":"TEPE MAH.","zip":"14652"},{"name":"ÜÇ EVLER MAH.","zip":"14652"},{"name":"YAMANLAR KÖYÜ","zip":"14652"},{"name":"YAYALAR MAH.","zip":"14652"},{"name":"YAYALAR YAYLA MAH.","zip":"14652"},{"name":"YAYLA EVLERİ MAH.","zip":"14652"},{"name":"YAYLA MAH.","zip":"14652"},{"name":"YUKARI MAH.","zip":"14652"},{"name":"YUKARIKULDAN KÖYÜ","zip":"14652"}]},{"name":"YENİÇAĞA","cityName":null,"quarters":[{"name":"CAMİATİK MAH.","zip":"14650"},{"name":"GÖLYÜZÜ MAH.","zip":"14650"}]}]}]}