{"id":15,"name":"BURDUR","cities":[{"name":"city","districts":[{"name":"AĞLASUN","cityName":null,"quarters":[{"name":"KIRAÇ MAH.","zip":"15800"},{"name":"KUM MAH.","zip":"15800"},{"name":"SAKARCA MAH.","zip":"15800"}]},{"name":"MERKEZKÖYLER","cityName":null,"quarters":[{"name":"BAKIRLI MAH.","zip":"15802"},{"name":"ÇAMLIDERE KÖYÜ","zip":"15802"},{"name":"ÇAMOVA MAH.","zip":"15802"},{"name":"DEREGÖZÜ MAH.","zip":"15802"},{"name":"DEREKÖY KÖYÜ","zip":"15802"},{"name":"EYNAZLI MAH.","zip":"15802"},{"name":"FATİH MAH.","zip":"15802"},{"name":"GÖKBEL MAH.","zip":"15802"},{"name":"HARMANCIK MAH.","zip":"15802"},{"name":"HİSAR KÖYÜ","zip":"15802"},{"name":"KARAGÖL MAH.","zip":"15802"},{"name":"KİPRİT KÖYÜ","zip":"15802"},{"name":"MAMAK KÖYÜ","zip":"15802"},{"name":"SAKARLAR MAH.","zip":"15802"},{"name":"SAKIZLIK MAH.","zip":"15802"},{"name":"YAVUZ MAH.","zip":"15802"},{"name":"YAZIR KÖYÜ","zip":"15802"},{"name":"YEŞİLBAŞKÖY KÖYÜ","zip":"15802"},{"name":"YUMRUTAŞ KÖYÜ","zip":"15802"}]},{"name":"DİRMİL","cityName":null,"quarters":[{"name":"HEYBELİ MAH.","zip":"15420"},{"name":"TAŞYAKA MAH.","zip":"15420"},{"name":"YENİ MAH.","zip":"15420"}]},{"name":"MERKEZKÖYLER","cityName":null,"quarters":[{"name":"ASMABAĞ KÖYÜ","zip":"15422"},{"name":"BALLIK KÖYÜ","zip":"15422"},{"name":"BEL MAH.","zip":"15422"},{"name":"ÇATAK KÖYÜ","zip":"15422"},{"name":"ÇÖRTEN KÖYÜ","zip":"15422"},{"name":"ÇUKURKAVAK MAH.","zip":"15422"},{"name":"KAVAKPINARI MAH.","zip":"15422"},{"name":"KAYMAKCI MAH.","zip":"15422"},{"name":"KIZILYAKA KÖYÜ","zip":"15422"},{"name":"MERKEZ MAH.","zip":"15422"},{"name":"SÖBEN MAH.","zip":"15422"},{"name":"SÜPÜRGELİK MAH.","zip":"15422"}]},{"name":"BUCAK","cityName":null,"quarters":[{"name":"ATİLLA MAH.","zip":"15300"},{"name":"BARBOROS MAH.","zip":"15300"},{"name":"ÇAMLICA MAH.","zip":"15300"},{"name":"ÇAMLICAOSB MAH.","zip":"15300"},{"name":"ÇAVUŞLAR MAH.","zip":"15300"},{"name":"ÇUKUR MAH.","zip":"15300"},{"name":"KARAYVATLAR MAH.","zip":"15300"},{"name":"KONAK MAH.","zip":"15300"},{"name":"MEHMET AKİF MAH.","zip":"15300"},{"name":"MİMAR SİNAN MAH.","zip":"15300"},{"name":"OĞUZHAN MAH.","zip":"15300"},{"name":"ONAÇ MAH.","zip":"15300"},{"name":"SANAYİ MAH.","zip":"15300"},{"name":"YETMİŞ EVLER MAH.","zip":"15300"},{"name":"YÖRÜKLER MAH.","zip":"15300"},{"name":"YUNUS EMRE MAH.","zip":"15300"}]},{"name":"KIZILKAYA","cityName":null,"quarters":[{"name":"YENİ MAH.","zip":"15310"}]},{"name":"KOCAALİLER","cityName":null,"quarters":[{"name":"ESİRLİK MAH.","zip":"15325"},{"name":"KIZILSEKİ KÖYÜ","zip":"15325"},{"name":"SARIOTLU MAH.","zip":"15325"},{"name":"SEKİ AVLIĞI MAH.","zip":"15325"},{"name":"SİNANBABA MAH.","zip":"15325"},{"name":"YONCAAĞAÇ MAH.","zip":"15325"}]},{"name":"MERKEZKÖYLER","cityName":null,"quarters":[{"name":"AKÇAPINAR MAH.","zip":"15302"},{"name":"ALİ HÜSEYİN SARINÇLARI MAH.","zip":"15302"},{"name":"ALKAYA KÖYÜ","zip":"15302"},{"name":"ANBAHAN KÖYÜ","zip":"15302"},{"name":"ANKARA MAH.","zip":"15302"},{"name":"AŞAĞI MAH.","zip":"15302"},{"name":"AVDAN MAH.","zip":"15302"},{"name":"AVDANCIK KÖYÜ","zip":"15302"},{"name":"AYKIRI MAH.","zip":"15302"},{"name":"BELÖREN KÖYÜ","zip":"15302"},{"name":"BEŞKONAK KÖYÜ","zip":"15302"},{"name":"BOĞAZ MAH.","zip":"15302"},{"name":"BOĞAZKÖY KÖYÜ","zip":"15302"},{"name":"BOZYAKA MAH.","zip":"15302"},{"name":"CAMİ MAH.","zip":"15302"},{"name":"CAMİİ MAH.","zip":"15302"},{"name":"CUMHURİYET MAH.","zip":"15302"},{"name":"ÇAMLIK KÖYÜ","zip":"15302"},{"name":"ÇOBANLAR MAH.","zip":"15302"},{"name":"ÇOBANPINARI KÖYÜ","zip":"15302"},{"name":"DAĞARCIK KÖYÜ","zip":"15302"},{"name":"DEĞİRMEN DERESİ MAH.","zip":"15302"},{"name":"DEMİRLİ KÖYÜ","zip":"15302"},{"name":"DEREAĞZI MAH.","zip":"15302"},{"name":"DUTALANI KÖYÜ","zip":"15302"},{"name":"ELMALIBÜK MAH.","zip":"15302"},{"name":"ELSAZI KÖYÜ","zip":"15302"},{"name":"EREKLİ MAH.","zip":"15302"},{"name":"FATİH MAH.","zip":"15302"},{"name":"GÖKALAN MAH.","zip":"15302"},{"name":"GÜLLÜALAN MAH.","zip":"15302"},{"name":"GÜNDOĞDU KÖYÜ","zip":"15302"},{"name":"HACIBAĞ MAH.","zip":"15302"},{"name":"HACIİSMAİLLER MAH.","zip":"15302"},{"name":"HANYIKIĞI MAH.","zip":"15302"},{"name":"HARMANCIK MAH.","zip":"15302"},{"name":"HATİPKÖY MAH.","zip":"15302"},{"name":"İNCİRDERE KÖYÜ","zip":"15302"},{"name":"KARAAĞAÇ MAH.","zip":"15302"},{"name":"KARAALİLER KÖYÜ","zip":"15302"},{"name":"KARACAÖREN KÖYÜ","zip":"15302"},{"name":"KARAOT KÖYÜ","zip":"15302"},{"name":"KARAPINAR KÖYÜ","zip":"15302"},{"name":"KARASEKİ KÖYÜ","zip":"15302"},{"name":"KARGI KÖYÜ","zip":"15302"},{"name":"KARŞIYAKA MAH.","zip":"15302"},{"name":"KAVACIK KÖYÜ","zip":"15302"},{"name":"KAVAK MAH.","zip":"15302"},{"name":"KAVAKLI MAH.","zip":"15302"},{"name":"KEÇİLİ KÖYÜ","zip":"15302"},{"name":"KESTEL KÖYÜ","zip":"15302"},{"name":"KETRİT MAH.","zip":"15302"},{"name":"KIZILCA MAH.","zip":"15302"},{"name":"KIZILCAAĞAÇ KÖYÜ","zip":"15302"},{"name":"KIZILKAYA KÖYÜ","zip":"15302"},{"name":"KIZILLI KÖYÜ","zip":"15302"},{"name":"KOCAALİLER KÖYÜ","zip":"15302"},{"name":"KOCAYER MAH.","zip":"15302"},{"name":"KOZAĞACI MAH.","zip":"15302"},{"name":"KÖLETAŞI MAH.","zip":"15302"},{"name":"KÖYYATAĞI MAH.","zip":"15302"},{"name":"KUŞBABA KÖYÜ","zip":"15302"},{"name":"KUYUBAŞI KÖYÜ","zip":"15302"},{"name":"MERKEZ MAH.","zip":"15302"},{"name":"MERSİNALTI MAH.","zip":"15302"},{"name":"NARAĞACI MAH.","zip":"15302"},{"name":"NARLI MAH.","zip":"15302"},{"name":"ORTA MAH.","zip":"15302"},{"name":"PAZAR MAH.","zip":"15302"},{"name":"PAZARALAN MAH.","zip":"15302"},{"name":"SAHİL MAH.","zip":"15302"},{"name":"SAKA MAH.","zip":"15302"},{"name":"SEYDİKÖY KÖYÜ","zip":"15302"},{"name":"SIĞINDI MAH.","zip":"15302"},{"name":"SİVİŞLER MAH.","zip":"15302"},{"name":"SUSUZ KÖYÜ","zip":"15302"},{"name":"TAŞBAŞI MAH.","zip":"15302"},{"name":"TAŞDİBİ MAH.","zip":"15302"},{"name":"TAŞYAYLA KÖYÜ","zip":"15302"},{"name":"TEPE BOYNU MAH.","zip":"15302"},{"name":"UĞURLU KÖYÜ","zip":"15302"},{"name":"ÜRKÜTLÜ KÖYÜ","zip":"15302"},{"name":"ÜZÜMLÜBEL KÖYÜ","zip":"15302"},{"name":"YENİ MAH.","zip":"15302"},{"name":"YENİCE MAH.","zip":"15302"},{"name":"YUKARI MAH.","zip":"15302"},{"name":"YUVA MAH.","zip":"15302"},{"name":"YÜREĞİL KÖYÜ","zip":"15302"}]},{"name":"ÇAVDIR","cityName":null,"quarters":[{"name":"BAYIR MAH.","zip":"15900"},{"name":"ÇINAR MAH.","zip":"15900"},{"name":"KOCAPINAR MAH.","zip":"15900"},{"name":"MENEVŞELİK MAH.","zip":"15900"}]},{"name":"MERKEZKÖYLER","cityName":null,"quarters":[{"name":"BELEN MAH.","zip":"15902"},{"name":"BÖLMEPINAR KÖYÜ","zip":"15902"},{"name":"BÜYÜKALAN KÖYÜ","zip":"15902"},{"name":"ÇAKIR MAH.","zip":"15902"},{"name":"ÇEŞME MAH.","zip":"15902"},{"name":"DEPO MAH.","zip":"15902"},{"name":"DÜĞER MAH.","zip":"15902"},{"name":"FATİH MAH.","zip":"15902"},{"name":"İSHAKKÖY KÖYÜ","zip":"15902"},{"name":"KARAKÖY KÖYÜ","zip":"15902"},{"name":"KAYACIK KÖYÜ","zip":"15902"},{"name":"KIZILLAR KÖYÜ","zip":"15902"},{"name":"KOZAĞACI KÖYÜ","zip":"15902"},{"name":"KÜÇÜKALAN KÖYÜ","zip":"15902"},{"name":"MERKEZ MAH.","zip":"15902"},{"name":"PAZAR MAH.","zip":"15902"},{"name":"SARAY BURNU MAH.","zip":"15902"},{"name":"SÖĞÜT KÖYÜ","zip":"15902"},{"name":"YAZIR KÖYÜ","zip":"15902"},{"name":"YEŞİL MAH.","zip":"15902"}]},{"name":"ÇELTİKÇİ","cityName":null,"quarters":[{"name":"KONAK MAH.","zip":"15070"}]},{"name":"MERKEZKÖYLER","cityName":null,"quarters":[{"name":"BAĞSARAY KÖYÜ","zip":"15072"},{"name":"BUCAK ÇAY KENARI MAH.","zip":"15072"},{"name":"ÇEBİŞ KÖYÜ","zip":"15072"},{"name":"DEĞİRMENÖNÜ MAH.","zip":"15072"},{"name":"EN İÇİ MAH.","zip":"15072"},{"name":"GÜNEY MAH.","zip":"15072"},{"name":"GÜVENLİ KÖYÜ","zip":"15072"},{"name":"KUZEY MAH.","zip":"15072"},{"name":"KUZKÖY KÖYÜ","zip":"15072"},{"name":"MERKEZ MAH.","zip":"15072"},{"name":"ORTAYOL MAH.","zip":"15072"},{"name":"OVACIK KÖYÜ","zip":"15072"},{"name":"SAROT KAYALI YOLU MAH.","zip":"15072"},{"name":"TEKKEKÖY KÖYÜ","zip":"15072"},{"name":"YAKA MAH.","zip":"15072"},{"name":"YUKARI MAH.","zip":"15072"}]},{"name":"GÖLHİSAR","cityName":null,"quarters":[{"name":"ÇAKMAK MAH.","zip":"15400"},{"name":"ÇEŞME MAH.","zip":"15400"},{"name":"FATİH MAH.","zip":"15400"},{"name":"HORZUM MAH.","zip":"15400"},{"name":"KONAK MAH.","zip":"15400"},{"name":"MERKEZ CAMİİ MAH.","zip":"15400"},{"name":"PAZAR MAH.","zip":"15400"},{"name":"ULUCAMİİ MAH.","zip":"15400"},{"name":"YUSUFÇA MAH.","zip":"15400"}]},{"name":"MERKEZKÖYLER","cityName":null,"quarters":[{"name":"BALCILAR MAH.","zip":"15402"},{"name":"BAŞPINAR MAH.","zip":"15402"},{"name":"BAYRAMLAR MAH.","zip":"15402"},{"name":"ÇAMİÇİ MAH.","zip":"15402"},{"name":"ÇAMKÖY KÖYÜ","zip":"15402"},{"name":"ÇAMLIK MAH.","zip":"15402"},{"name":"ÇAYİÇİ MAH.","zip":"15402"},{"name":"DAMARASI MAH.","zip":"15402"},{"name":"DELİCİN MAH.","zip":"15402"},{"name":"DEPREM EVLERİ MAH.","zip":"15402"},{"name":"DİVRE MAH.","zip":"15402"},{"name":"DOĞANLAR MAH.","zip":"15402"},{"name":"ELMALIYURT KÖYÜ","zip":"15402"},{"name":"EVCİLER KÖYÜ","zip":"15402"},{"name":"GÖÇEKİÇİ MAH.","zip":"15402"},{"name":"GÖKÇE PINAR MAH.","zip":"15402"},{"name":"HANYANI MAH.","zip":"15402"},{"name":"HİSARARDI KÖYÜ","zip":"15402"},{"name":"İBECİK KÖYÜ","zip":"15402"},{"name":"KARAPINAR KÖYÜ","zip":"15402"},{"name":"KARATAŞ MAH.","zip":"15402"},{"name":"KARGALI KÖYÜ","zip":"15402"},{"name":"KELALİLER MAH.","zip":"15402"},{"name":"KOCATARLA MAH.","zip":"15402"},{"name":"KUŞDİLİ MEVKİİ MAH.","zip":"15402"},{"name":"KÜNÜKLÜ MAH.","zip":"15402"},{"name":"KÜRTLÜYAMAÇ MAH.","zip":"15402"},{"name":"MERKEZ MAH.","zip":"15402"},{"name":"ORTA MAH.","zip":"15402"},{"name":"PAZAR YERİ MAH.","zip":"15402"},{"name":"SELMANLAR MAH.","zip":"15402"},{"name":"SORKUN KÖYÜ","zip":"15402"},{"name":"TEKELİLER MAH.","zip":"15402"},{"name":"TURANLAR MAH.","zip":"15402"},{"name":"UYLUPINAR KÖYÜ","zip":"15402"},{"name":"ÜÇOLUK MAH.","zip":"15402"},{"name":"YAĞPINARI MAH.","zip":"15402"},{"name":"YAMADI KÖYÜ","zip":"15402"},{"name":"YAPRAKLI MAH.","zip":"15402"},{"name":"YENİ MAH.","zip":"15402"},{"name":"YEŞİLDERE KÖYÜ","zip":"15402"},{"name":"YILANLI MAH.","zip":"15402"},{"name":"YUKARI MAH.","zip":"15402"}]},{"name":"KARAMANLI","cityName":null,"quarters":[{"name":"CAFER MAH.","zip":"15700"},{"name":"CAMİİ MAH.","zip":"15700"},{"name":"ÇAMLIK MAH.","zip":"15700"},{"name":"EŞELER MAH.","zip":"15700"},{"name":"FATİH MAH.","zip":"15700"},{"name":"HÜRRİYET MAH.","zip":"15700"},{"name":"İSTİKLAL MAH.","zip":"15700"},{"name":"KARAMAN MAH.","zip":"15700"},{"name":"PAZAR MAH.","zip":"15700"},{"name":"YENİ MAH.","zip":"15700"},{"name":"ZAFER MAH.","zip":"15700"}]},{"name":"MERKEZKÖYLER","cityName":null,"quarters":[{"name":"BADEMLİ KÖYÜ","zip":"15702"},{"name":"CAMİ MAH.","zip":"15702"},{"name":"ÇAY MEVKİİ MAH.","zip":"15702"},{"name":"DERE MAH.","zip":"15702"},{"name":"DEREKÖY KÖYÜ","zip":"15702"},{"name":"HANTAŞI MEVKİİ MAH.","zip":"15702"},{"name":"KAĞILCIK KÖYÜ","zip":"15702"},{"name":"KANTAR MAH.","zip":"15702"},{"name":"KAYALI KÖYÜ","zip":"15702"},{"name":"KILAVUZLAR KÖYÜ","zip":"15702"},{"name":"KILÇAN KÖYÜ","zip":"15702"},{"name":"MANCA KÖYÜ","zip":"15702"},{"name":"MÜRSELLER KÖYÜ","zip":"15702"},{"name":"OKUL MAH.","zip":"15702"},{"name":"TAŞOCAĞI MAH.","zip":"15702"},{"name":"TEPE MAH.","zip":"15702"},{"name":"TEPE MEVKİİ MAH.","zip":"15702"},{"name":"YUKARI MAH.","zip":"15702"}]},{"name":"KEMER","cityName":null,"quarters":[{"name":"SARAY MAH.","zip":"15090"},{"name":"YENİ CAMİİ MAH.","zip":"15090"}]},{"name":"MERKEZKÖYLER","cityName":null,"quarters":[{"name":"AKÖREN KÖYÜ","zip":"15092"},{"name":"AŞAĞI MAH.","zip":"15092"},{"name":"BELENLİ KÖYÜ","zip":"15092"},{"name":"ÇAY KENARI MAH.","zip":"15092"},{"name":"ELMACIK KÖYÜ","zip":"15092"},{"name":"KAYI KÖYÜ","zip":"15092"},{"name":"KÖYİÇİ MAH.","zip":"15092"},{"name":"ORTA MAH.","zip":"15092"},{"name":"ORTA TEPE MAH.","zip":"15092"},{"name":"PINARBAŞI KÖYÜ","zip":"15092"},{"name":"YAKALAR KÖYÜ","zip":"15092"},{"name":"YUKARI MAH.","zip":"15092"},{"name":"YUKARI TEPE MAH.","zip":"15092"}]},{"name":"BAHÇELİEVLER","cityName":null,"quarters":[{"name":"ATATÜRK MAH.","zip":"15100"},{"name":"BAĞLAR MAH.","zip":"15100"},{"name":"BAHÇELİEVLER MAH.","zip":"15100"},{"name":"EMEK MAH.","zip":"15100"},{"name":"FEVZİ ÇAKMAK MAH.","zip":"15100"},{"name":"HIZIR İLYAS MAH.","zip":"15100"},{"name":"MENDERES MAH.","zip":"15100"},{"name":"ŞEKER EVLERİ MAH.","zip":"15100"}]},{"name":"ÇEŞMEDAMI","cityName":null,"quarters":[{"name":"ÇEŞMEDAMI MAH.","zip":"15200"},{"name":"DEĞİRMENLER MAH.","zip":"15200"},{"name":"İNÖNÜ MAH.","zip":"15200"},{"name":"KARASENİR MAH.","zip":"15200"},{"name":"KONAK MAH.","zip":"15200"},{"name":"ÖZGÜR MAH.","zip":"15200"},{"name":"PAZAR MAH.","zip":"15200"},{"name":"SAKARYA MAH.","zip":"15200"},{"name":"SİNAN MAH.","zip":"15200"},{"name":"TEPE MAH.","zip":"15200"},{"name":"ÜÇDİBEK MAH.","zip":"15200"},{"name":"ZAFER MAH.","zip":"15200"}]},{"name":"MERKEZKÖYLER","cityName":null,"quarters":[{"name":"AKYAKA KÖYÜ","zip":"15050"},{"name":"AKYAYLA KÖYÜ","zip":"15050"},{"name":"ARMUT MAH.","zip":"15050"},{"name":"ASKERİYE KÖYÜ","zip":"15050"},{"name":"AŞAĞI CİNBİLLİ MAH.","zip":"15050"},{"name":"AŞAĞI MAH.","zip":"15050"},{"name":"AŞAĞI MÜSLÜMLER KÖYÜ","zip":"15050"},{"name":"AŞAĞI TEKKEÖNÜ MAH.","zip":"15050"},{"name":"AZİZİYE KÖYÜ","zip":"15050"},{"name":"BAŞAKEVLER MAH.","zip":"15050"},{"name":"BAŞAKEVLER OSB MAH.","zip":"15050"},{"name":"BAŞMAKÇI KÖYÜ","zip":"15050"},{"name":"BAYINDIR KÖYÜ","zip":"15050"},{"name":"BEREKET KÖYÜ","zip":"15050"},{"name":"BEŞKAVAK KÖYÜ","zip":"15050"},{"name":"BOĞAZİÇİ KÖYÜ","zip":"15050"},{"name":"BOZLAR KÖYÜ","zip":"15050"},{"name":"BÜĞDÜZ KÖYÜ","zip":"15050"},{"name":"CAMİ MAH.","zip":"15050"},{"name":"CİMBİLLİ KÖYÜ","zip":"15050"},{"name":"ÇALLICA KÖYÜ","zip":"15050"},{"name":"ÇATAĞIL KÖYÜ","zip":"15050"},{"name":"ÇAY MAH.","zip":"15050"},{"name":"ÇENDİK KÖYÜ","zip":"15050"},{"name":"ÇEŞMEÖNÜ MAH.","zip":"15050"},{"name":"ÇİNE KÖYÜ","zip":"15050"},{"name":"ÇUKURÇEŞME MAH.","zip":"15050"},{"name":"DEŞTİMANKALE MAH.","zip":"15050"},{"name":"DÜĞER KÖYÜ","zip":"15050"},{"name":"ERİKLİ KÖYÜ","zip":"15050"},{"name":"FATİH MAH.","zip":"15050"},{"name":"GÖKÇEBAĞ KÖYÜ","zip":"15050"},{"name":"GÜNALAN KÖYÜ","zip":"15050"},{"name":"GÜNEYYAYLA KÖYÜ","zip":"15050"},{"name":"HACILAR KÖYÜ","zip":"15050"},{"name":"HAL MAH.","zip":"15050"},{"name":"HALICILAR KÖYÜ","zip":"15050"},{"name":"İĞDEDERESİ MAH.","zip":"15050"},{"name":"İĞDELİ KÖYÜ","zip":"15050"},{"name":"İLYAS KÖYÜ","zip":"15050"},{"name":"İNSUYU MAH.","zip":"15050"},{"name":"İTLER ÇERKİNİ MAH.","zip":"15050"},{"name":"KAPAKLI KÖYÜ","zip":"15050"},{"name":"KAPLANPINARI MAH.","zip":"15050"},{"name":"KARA TAŞ MAH.","zip":"15050"},{"name":"KARACAÖREN KÖYÜ","zip":"15050"},{"name":"KARAÇAL KÖYÜ","zip":"15050"},{"name":"KARADERE MAH.","zip":"15050"},{"name":"KARAKENT KÖYÜ","zip":"15050"},{"name":"KARŞI MAH.","zip":"15050"},{"name":"KARTALPINAR KÖYÜ","zip":"15050"},{"name":"KAVACIK KÖYÜ","zip":"15050"},{"name":"KAVAK ALTI MAH.","zip":"15050"},{"name":"KAYAALTI KÖYÜ","zip":"15050"},{"name":"KAYADİBİ SULUDERE MAH.","zip":"15050"},{"name":"KAYIŞ KÖYÜ","zip":"15050"},{"name":"KERPİÇÇUKURU MAH.","zip":"15050"},{"name":"KOCAPINAR KÖYÜ","zip":"15050"},{"name":"KOZLUCA KÖYÜ","zip":"15050"},{"name":"KÖKEZ KÖYÜ","zip":"15050"},{"name":"KÖYİÇİ MAH.","zip":"15050"},{"name":"KUMLUCA KÖYÜ","zip":"15050"},{"name":"KURNA KÖYÜ","zip":"15050"},{"name":"KURUÇAY KÖYÜ","zip":"15050"},{"name":"MANDIRA MAH.","zip":"15050"},{"name":"MENDERES MAH.","zip":"15050"},{"name":"MEZARLIK MAH.","zip":"15050"},{"name":"MİTHAT PAŞA MAH.","zip":"15050"},{"name":"OĞUZHAN MAH.","zip":"15050"},{"name":"ORTA MAH.","zip":"15050"},{"name":"OVA MAH.","zip":"15050"},{"name":"PARK MAH.","zip":"15050"},{"name":"SARAY MAH.","zip":"15050"},{"name":"SARIOVA KÖYÜ","zip":"15050"},{"name":"SIĞIRBİRİKEN MAH.","zip":"15050"},{"name":"SOĞANLI KÖYÜ","zip":"15050"},{"name":"SULUDERE KÖYÜ","zip":"15050"},{"name":"TAŞKAPI KÖYÜ","zip":"15050"},{"name":"TEPE MAH.","zip":"15050"},{"name":"ULUPINAR KÖYÜ","zip":"15050"},{"name":"Y.KÖKEZ MAH.","zip":"15050"},{"name":"YAKA MAH.","zip":"15050"},{"name":"YARIKÖY KÖYÜ","zip":"15050"},{"name":"YASSIGÜME KÖYÜ","zip":"15050"},{"name":"YAYLABELİ KÖYÜ","zip":"15050"},{"name":"YAZIKÖY KÖYÜ","zip":"15050"},{"name":"YENİ CAMİ MAH.","zip":"15050"},{"name":"YENİ SULUDERE MAH.","zip":"15050"},{"name":"YEŞİLDAĞ KÖYÜ","zip":"15050"},{"name":"YOL ALTI MAH.","zip":"15050"},{"name":"YUKARI CİNBİLLİ MAH.","zip":"15050"},{"name":"YUKARI MAH.","zip":"15050"},{"name":"YUKARI SULUDERE MAH.","zip":"15050"},{"name":"YUKARI TEKKEÖNÜ MAH.","zip":"15050"}]},{"name":"SANAYİ","cityName":null,"quarters":[{"name":"KIŞLA MAH.","zip":"15040"},{"name":"KIŞLAOSB MAH.","zip":"15040"},{"name":"ŞİRİNEVLER MAH.","zip":"15040"}]},{"name":"YENİCE","cityName":null,"quarters":[{"name":"BOZKURT MAH.","zip":"15030"},{"name":"CEMİL MAH.","zip":"15030"},{"name":"DERE MAH.","zip":"15030"},{"name":"KUYU MAH.","zip":"15030"},{"name":"MEHMET AKİF ERSOY MAH.","zip":"15030"},{"name":"NECATİ BEY MAH.","zip":"15030"},{"name":"RECEP MAH.","zip":"15030"},{"name":"YENİ MAH.","zip":"15030"},{"name":"YENİCE MAH.","zip":"15030"}]},{"name":"MERKEZKÖYLER","cityName":null,"quarters":[{"name":"BAŞPINAR KÖYÜ","zip":"15602"},{"name":"BAYRAMLAR KÖYÜ","zip":"15602"},{"name":"BELKAYA KÖYÜ","zip":"15602"},{"name":"BEŞİKTAŞ MAH.","zip":"15602"},{"name":"BEYKÖY KÖYÜ","zip":"15602"},{"name":"CUMHURİYET MAH.","zip":"15602"},{"name":"ÇAYLI KÖYÜ","zip":"15602"},{"name":"ECE KÖYÜ","zip":"15602"},{"name":"GÖKTÜRK MAH.","zip":"15602"},{"name":"HASANPAŞA KÖYÜ","zip":"15602"},{"name":"KAKLIK MAH.","zip":"15602"},{"name":"KARAMUSA KÖYÜ","zip":"15602"},{"name":"SAZAK KÖYÜ","zip":"15602"},{"name":"SEYDİLER KÖYÜ","zip":"15602"},{"name":"YAYLAKÖY KÖYÜ","zip":"15602"},{"name":"YENİ MAH.","zip":"15602"},{"name":"YEŞİLKÖY KÖYÜ","zip":"15602"},{"name":"YUVA KÖYÜ","zip":"15602"},{"name":"YUVALAK KÖYÜ","zip":"15602"},{"name":"ZAFER MAH.","zip":"15602"}]},{"name":"TEFENNİ","cityName":null,"quarters":[{"name":"EŞELER MAH.","zip":"15600"},{"name":"FATİH MAH.","zip":"15600"},{"name":"KIR MAH.","zip":"15600"},{"name":"PAZAR MAH.","zip":"15600"},{"name":"YENİCE MAH.","zip":"15600"},{"name":"YOKUŞ MAH.","zip":"15600"},{"name":"ZAFER MAH.","zip":"15600"}]},{"name":"MERKEZKÖYLER","cityName":null,"quarters":[{"name":"2.KÜME EVLER MAH.","zip":"15502"},{"name":"AKÇAKÖY KÖYÜ","zip":"15502"},{"name":"ALANKÖY KÖYÜ","zip":"15502"},{"name":"ARMUT KÖYÜ","zip":"15502"},{"name":"AŞAĞI CAMİ MAH.","zip":"15502"},{"name":"AŞAĞI KIRLI KÖYÜ","zip":"15502"},{"name":"AŞAĞI MAH.","zip":"15502"},{"name":"ATATÜRK MAH.","zip":"15502"},{"name":"BAHÇELİ EVLER MAH.","zip":"15502"},{"name":"BAŞKUYU KÖYÜ","zip":"15502"},{"name":"BAYINDIR KÖYÜ","zip":"15502"},{"name":"BAYIRBAŞI KÖYÜ","zip":"15502"},{"name":"BEDİRLİ KÖYÜ","zip":"15502"},{"name":"BEYKÖY KÖYÜ","zip":"15502"},{"name":"BÜYÜKYAKA KÖYÜ","zip":"15502"},{"name":"CAMİ MAH.","zip":"15502"},{"name":"ÇALTEPE KÖYÜ","zip":"15502"},{"name":"ÇARDAK KÖYÜ","zip":"15502"},{"name":"ÇELTEK KÖYÜ","zip":"15502"},{"name":"ÇUVALLI KÖYÜ","zip":"15502"},{"name":"DEREKÖY KÖYÜ","zip":"15502"},{"name":"DOĞANBABA KÖYÜ","zip":"15502"},{"name":"DÜDEN KÖYÜ","zip":"15502"},{"name":"ELDEN KÖYÜ","zip":"15502"},{"name":"GENÇALİ KÖYÜ","zip":"15502"},{"name":"GÖKÇEYAKA KÖYÜ","zip":"15502"},{"name":"GÜNEY KÖYÜ","zip":"15502"},{"name":"HARMANLI KÖYÜ","zip":"15502"},{"name":"HOROZKÖY KÖYÜ","zip":"15502"},{"name":"HÜYÜK MAH.","zip":"15502"},{"name":"IŞIKLAR KÖYÜ","zip":"15502"},{"name":"İĞDİR KÖYÜ","zip":"15502"},{"name":"KARAKÖY KÖYÜ","zip":"15502"},{"name":"KARAKÖY MAH.","zip":"15502"},{"name":"KARŞI MAH.","zip":"15502"},{"name":"KAVAK KÖYÜ","zip":"15502"},{"name":"KAYAKÖY MAH.","zip":"15502"},{"name":"KÖYİÇİ MAH.","zip":"15502"},{"name":"KUMLUK MAH.","zip":"15502"},{"name":"MERKEZ MAH.","zip":"15502"},{"name":"NİYAZLAR KÖYÜ","zip":"15502"},{"name":"ONACAK KÖYÜ","zip":"15502"},{"name":"ORHANLI KÖYÜ","zip":"15502"},{"name":"ÖMERLER MAH.","zip":"15502"},{"name":"ÖRENCİK KÖYÜ","zip":"15502"},{"name":"SAĞLIK OCAĞI MAH.","zip":"15502"},{"name":"SALDA KÖYÜ","zip":"15502"},{"name":"SAZAK KÖYÜ","zip":"15502"},{"name":"ŞEHİT İSMAİL ERÇOBAN MAH.","zip":"15502"},{"name":"TAŞPINAR KÖYÜ","zip":"15502"},{"name":"TEKKE MAH.","zip":"15502"},{"name":"YAKA MAH.","zip":"15502"},{"name":"YARIŞLI KÖYÜ","zip":"15502"},{"name":"YENİ BAĞLAR MAH.","zip":"15502"},{"name":"YENİ MAH.","zip":"15502"},{"name":"YUKARI CAMİ MAH.","zip":"15502"},{"name":"YUKARI KIRLI KÖYÜ","zip":"15502"},{"name":"YUKARI MAH.","zip":"15502"},{"name":"YUKARI MÜSLÜMLER MAH.","zip":"15502"}]},{"name":"YEŞİLOVA","cityName":null,"quarters":[{"name":"DEĞİRMEN MAH.","zip":"15500"},{"name":"EMEK MAH.","zip":"15500"},{"name":"KARAATLI MAH.","zip":"15500"},{"name":"KAYADİBİ MAH.","zip":"15500"},{"name":"KOYUNLAR ÇEŞME MAH.","zip":"15500"},{"name":"MERKEZ MAH.","zip":"15500"}]}]}]}