{"id":16,"name":"BURSA","cities":[{"name":"city","districts":[{"name":"BÜYÜKORHAN","cityName":null,"quarters":[{"name":"BADEMLİK MAH.","zip":"16990"},{"name":"BALABAN MAH.","zip":"16990"},{"name":"BAYINDIR MAH.","zip":"16990"},{"name":"BURUNCA MAH.","zip":"16990"},{"name":"CUMHURİYET MAH.","zip":"16990"},{"name":"ÇAKIRYENİCE MAH.","zip":"16990"},{"name":"ÇERİBAŞI MAH.","zip":"16990"},{"name":"DANACILAR MAH.","zip":"16990"},{"name":"DANAÇALI MAH.","zip":"16990"},{"name":"DEMİRLER MAH.","zip":"16990"},{"name":"DERECİK MAH.","zip":"16990"},{"name":"DURHASAN MAH.","zip":"16990"},{"name":"DÜĞÜNCÜLER MAH.","zip":"16990"},{"name":"ELEKÇALI MAH.","zip":"16990"},{"name":"ERİCEK MAH.","zip":"16990"},{"name":"GEDİKLER MAH.","zip":"16990"},{"name":"GEYNİK MAH.","zip":"16990"},{"name":"HACIAHMETLER MAH.","zip":"16990"},{"name":"HACILAR MAH.","zip":"16990"},{"name":"HEMŞERİLER MAH.","zip":"16990"},{"name":"HOCAHASAN MAH.","zip":"16990"},{"name":"İSMETİYE MAH.","zip":"16990"},{"name":"KARAAĞIZ MAH.","zip":"16990"},{"name":"KARAÇUKUR MAH.","zip":"16990"},{"name":"KARALAR MAH.","zip":"16990"},{"name":"KAYAPA MAH.","zip":"16990"},{"name":"KINIK MAH.","zip":"16990"},{"name":"KUŞLAR MAH.","zip":"16990"},{"name":"MAZLUMLAR MAH.","zip":"16990"},{"name":"ORHAN MAH.","zip":"16990"},{"name":"OSMANLAR MAH.","zip":"16990"},{"name":"ÖRENCİK MAH.","zip":"16990"},{"name":"ÖZLÜCE MAH.","zip":"16990"},{"name":"PERÇİN MAH.","zip":"16990"},{"name":"PINARKÖY MAH.","zip":"16990"},{"name":"PİREBEYLER MAH.","zip":"16990"},{"name":"SARNIÇ MAH.","zip":"16990"},{"name":"TEKERLER MAH.","zip":"16990"},{"name":"YENİCE MAH.","zip":"16990"},{"name":"ZAFERİYE MAH.","zip":"16990"}]},{"name":"GEMLİK","cityName":null,"quarters":[{"name":"ATA MAH.","zip":"16600"},{"name":"ATA SB MAH.","zip":"16600"},{"name":"BALIKPAZARI MAH.","zip":"16600"},{"name":"BÜYÜKKUMLA MAH.","zip":"16600"},{"name":"CİHATLI MAH.","zip":"16600"},{"name":"CUMHURİYET MAH.","zip":"16600"},{"name":"DEMİRSUBAŞI MAH.","zip":"16600"},{"name":"DR.ZİYA KAYA MAH.","zip":"16600"},{"name":"ENGÜRÜCÜK MAH.","zip":"16600"},{"name":"EŞREF DİNÇER MAH.","zip":"16600"},{"name":"FEVZİYE MAH.","zip":"16600"},{"name":"FINDICAK MAH.","zip":"16600"},{"name":"GENÇALİ MAH.","zip":"16600"},{"name":"GÜVENLİ MAH.","zip":"16600"},{"name":"HALİTPAŞA MAH.","zip":"16600"},{"name":"HAMİDİYE MAH.","zip":"16600"},{"name":"HAMİDİYEKÖY MAH.","zip":"16600"},{"name":"HAYDARİYE MAH.","zip":"16600"},{"name":"HİSAR MAH.","zip":"16600"},{"name":"KARACAALİ MAH.","zip":"16600"},{"name":"KATIRLI MAH.","zip":"16600"},{"name":"KAYHAN MAH.","zip":"16600"},{"name":"KUMLA MAH.","zip":"16600"},{"name":"KURŞUNLU MAH.","zip":"16600"},{"name":"KURTUL MAH.","zip":"16600"},{"name":"KÜÇÜKKUMLA MAH.","zip":"16600"},{"name":"MURATOBA MAH.","zip":"16600"},{"name":"NARLI MAH.","zip":"16600"},{"name":"ORHANİYE MAH.","zip":"16600"},{"name":"OSMANİYE MAH.","zip":"16600"},{"name":"ŞAHİNYURDU MAH.","zip":"16600"},{"name":"ŞÜKRİYE MAH.","zip":"16600"},{"name":"UMURBEY MAH.","zip":"16600"},{"name":"YENİ MAH.","zip":"16600"},{"name":"YENİKÖY MAH.","zip":"16600"}]},{"name":"GÜRSU","cityName":null,"quarters":[{"name":"AĞAKÖY MAH.","zip":"16580"},{"name":"CANBAZLARKÖYÜ MAH.","zip":"16580"},{"name":"DIŞKAYAKÖYÜ MAH.","zip":"16580"},{"name":"ERİCEKKÖYÜ MAH.","zip":"16580"},{"name":"HASANKÖY MAH.","zip":"16580"},{"name":"İĞDİRKÖYÜ MAH.","zip":"16580"},{"name":"İPEKYOLU MAH.","zip":"16580"},{"name":"İSTİKLAL MAH.","zip":"16580"},{"name":"KARAHIDIRKÖYÜ MAH.","zip":"16580"},{"name":"KAZIKLIKÖYÜ MAH.","zip":"16580"},{"name":"KUMLUKALAN MAH.","zip":"16580"},{"name":"KURTULUŞ MAH.","zip":"16580"},{"name":"KURTULUŞOSB MAH.","zip":"16580"},{"name":"YENİDOĞAN MAH.","zip":"16580"},{"name":"YENİDOĞANOSB MAH.","zip":"16580"},{"name":"ZAFER MAH.","zip":"16580"}]},{"name":"HARMANCIK","cityName":null,"quarters":[{"name":"ALUTCA MAH.","zip":"16770"},{"name":"BALATDANİŞMENT MAH.","zip":"16770"},{"name":"BALLISARAY MAH.","zip":"16770"},{"name":"BEKDEMİRLER MAH.","zip":"16770"},{"name":"ÇAKMAK MAH.","zip":"16770"},{"name":"ÇAMOĞLU MAH.","zip":"16770"},{"name":"ÇATALSÖĞÜT MAH.","zip":"16770"},{"name":"DEDEBALİ MAH.","zip":"16770"},{"name":"DELİCEGÜNEY MAH.","zip":"16770"},{"name":"DUTLUCA MAH.","zip":"16770"},{"name":"ECE MAH.","zip":"16770"},{"name":"GEDİKÖREN MAH.","zip":"16770"},{"name":"GÖKÇELER MAH.","zip":"16770"},{"name":"GÜLÖZÜ MAH.","zip":"16770"},{"name":"HARMANCIK AKALAN MAH.","zip":"16770"},{"name":"HOPANDANİŞMENT MAH.","zip":"16770"},{"name":"ILICAKSU MAH.","zip":"16770"},{"name":"İSHAKLAR MAH.","zip":"16770"},{"name":"KARACA MAH.","zip":"16770"},{"name":"KEPEKDERE MAH.","zip":"16770"},{"name":"KILAVUZLAR MAH.","zip":"16770"},{"name":"KIŞMANLAR MAH.","zip":"16770"},{"name":"KOCAPINAR MAH.","zip":"16770"},{"name":"KOZLUCA MAH.","zip":"16770"},{"name":"MERKEZ MAH.","zip":"16770"},{"name":"NALBANT MAH.","zip":"16770"},{"name":"OKÇULAR MAH.","zip":"16770"},{"name":"SAÇAKLI MAH.","zip":"16770"},{"name":"YAYABAŞI MAH.","zip":"16770"},{"name":"YEŞİLYURT MAH.","zip":"16770"}]},{"name":"İNEGÖL","cityName":null,"quarters":[{"name":"AKHİSAR MAH.","zip":"16400"},{"name":"AKINCILAR MAH.","zip":"16400"},{"name":"ALİBEY MAH.","zip":"16400"},{"name":"AŞAĞIBALLIK MAH.","zip":"16400"},{"name":"BABAOĞLU MAH.","zip":"16400"},{"name":"BAHARİYE MAH.","zip":"16400"},{"name":"BAHÇEKAYA MAH.","zip":"16400"},{"name":"BAYKOCA MAH.","zip":"16400"},{"name":"BAYRAMŞAH MAH.","zip":"16400"},{"name":"BİLALKÖY MAH.","zip":"16400"},{"name":"BOĞAZKÖY MAH.","zip":"16400"},{"name":"BURHANİYE MAH.","zip":"16400"},{"name":"CERRAH MAH.","zip":"16400"},{"name":"CUMA MAH.","zip":"16400"},{"name":"CUMHURİYET MAH.","zip":"16400"},{"name":"ÇAVUŞKÖY MAH.","zip":"16400"},{"name":"ÇAYLICA MAH.","zip":"16400"},{"name":"ÇAYYAKA MAH.","zip":"16400"},{"name":"ÇELTİKÇİ MAH.","zip":"16400"},{"name":"ÇİFTLİKKÖY MAH.","zip":"16400"},{"name":"ÇİTLİ MAH.","zip":"16400"},{"name":"DEYDİNLER MAH.","zip":"16400"},{"name":"DİPSİZGÖL MAH.","zip":"16400"},{"name":"DOĞANYURDU MAH.","zip":"16400"},{"name":"DÖMEZ MAH.","zip":"16400"},{"name":"EDEBEY MAH.","zip":"16400"},{"name":"ELMAÇAYIR MAH.","zip":"16400"},{"name":"ERTUĞRULGAZİ MAH.","zip":"16400"},{"name":"ESENKÖY MAH.","zip":"16400"},{"name":"ESENTEPE MAH.","zip":"16400"},{"name":"ESKİ BAHÇEKAYA MAH.","zip":"16400"},{"name":"ESKİKARACAKAYA MAH.","zip":"16400"},{"name":"ESKİKÖY MAH.","zip":"16400"},{"name":"EYMİR MAH.","zip":"16400"},{"name":"FATİH MAH.","zip":"16400"},{"name":"FEVZİYE MAH.","zip":"16400"},{"name":"FINDIKLI MAH.","zip":"16400"},{"name":"GAZELLİ MAH.","zip":"16400"},{"name":"GEDİKPINAR MAH.","zip":"16400"},{"name":"GÜLBAHÇE MAH.","zip":"16400"},{"name":"GÜNDÜZLÜ MAH.","zip":"16400"},{"name":"GÜNEYKESTANE MAH.","zip":"16400"},{"name":"GÜZELYURT MAH.","zip":"16400"},{"name":"HACIKARA MAH.","zip":"16400"},{"name":"HALHALCA MAH.","zip":"16400"},{"name":"HAMAMLI MAH.","zip":"16400"},{"name":"HAMİDİYE MAH.","zip":"16400"},{"name":"HAMİTABAT MAH.","zip":"16400"},{"name":"HAMZABEY MAH.","zip":"16400"},{"name":"HAMZABEY OSB MAH.","zip":"16400"},{"name":"HASANPAŞA MAH.","zip":"16400"},{"name":"HAYRİYE MAH.","zip":"16400"},{"name":"HİLMİYE MAH.","zip":"16400"},{"name":"HOCAKÖY MAH.","zip":"16400"},{"name":"HUZUR MAH.","zip":"16400"},{"name":"İCLALİYE MAH.","zip":"16400"},{"name":"İHSANİYE MAH.","zip":"16400"},{"name":"İSAÖREN MAH.","zip":"16400"},{"name":"İSKANİYE MAH.","zip":"16400"},{"name":"KARAGÖLET MAH.","zip":"16400"},{"name":"KARAHASANLAR MAH.","zip":"16400"},{"name":"KARAKADI MAH.","zip":"16400"},{"name":"KARALAR MAH.","zip":"16400"},{"name":"KAYAPINAR MAH.","zip":"16400"},{"name":"KEMALPAŞA MAH.","zip":"16400"},{"name":"KESTANEALANI MAH.","zip":"16400"},{"name":"KINIK MAH.","zip":"16400"},{"name":"KIRAN MAH.","zip":"16400"},{"name":"KOCAKONAK MAH.","zip":"16400"},{"name":"KONURLAR MAH.","zip":"16400"},{"name":"KOZLUCA MAH.","zip":"16400"},{"name":"KULACA MAH.","zip":"16400"},{"name":"KURŞUNLU MAH.","zip":"16400"},{"name":"KÜÇÜKYENİCE MAH.","zip":"16400"},{"name":"LÜTFİYE MAH.","zip":"16400"},{"name":"MADENKÖY MAH.","zip":"16400"},{"name":"MAHMUDİYE MAH.","zip":"16400"},{"name":"MESUDİYE MAH.","zip":"16400"},{"name":"MEZİT MAH.","zip":"16400"},{"name":"MURATBEY MAH.","zip":"16400"},{"name":"OLUKMAN MAH.","zip":"16400"},{"name":"ORHANİYE MAH.","zip":"16400"},{"name":"ORTAKÖY MAH.","zip":"16400"},{"name":"OSMANİYE MAH.","zip":"16400"},{"name":"OSMANİYEKÖY MAH.","zip":"16400"},{"name":"ÖZLÜCE MAH.","zip":"16400"},{"name":"PAŞAÖREN MAH.","zip":"16400"},{"name":"RÜŞTİYE MAH.","zip":"16400"},{"name":"SAADET MAH.","zip":"16400"},{"name":"SARIPINAR MAH.","zip":"16400"},{"name":"SİNANBEY MAH.","zip":"16400"},{"name":"SOĞUKDERE MAH.","zip":"16400"},{"name":"SULHİYE MAH.","zip":"16400"},{"name":"SULTANİYE MAH.","zip":"16400"},{"name":"SUNGURPAŞA MAH.","zip":"16400"},{"name":"SÜLE MAH.","zip":"16400"},{"name":"SÜLEYMANİYE MAH.","zip":"16400"},{"name":"SÜLEYMANİYEOSB MAH.","zip":"16400"},{"name":"SÜLÜKLÜGÖL MAH.","zip":"16400"},{"name":"SÜPÜRTÜ MAH.","zip":"16400"},{"name":"ŞEHİTLER MAH.","zip":"16400"},{"name":"ŞİPALİ MAH.","zip":"16400"},{"name":"TAHTAKÖPRÜ MAH.","zip":"16400"},{"name":"TEKKEKÖY MAH.","zip":"16400"},{"name":"TOKUŞ MAH.","zip":"16400"},{"name":"TURGUTALP MAH.","zip":"16400"},{"name":"TURGUTALPKÖY MAH.","zip":"16400"},{"name":"TUZLA MAH.","zip":"16400"},{"name":"TÜFEKÇİKONAK MAH.","zip":"16400"},{"name":"YENİ MAH.","zip":"16400"},{"name":"YENİCE MAH.","zip":"16400"},{"name":"YENİCEKÖY MAH.","zip":"16400"},{"name":"YENİKÖY MAH.","zip":"16400"},{"name":"YENİYÖRÜK MAH.","zip":"16400"},{"name":"YİĞİT MAH.","zip":"16400"},{"name":"YUKARIBALLIK MAH.","zip":"16400"},{"name":"YUNUSEMRE MAH.","zip":"16400"}]},{"name":"İZNİK","cityName":null,"quarters":[{"name":"BAYINDIR MAH.","zip":"16860"},{"name":"BEYLER MAH.","zip":"16860"},{"name":"BOYALICA MAH.","zip":"16860"},{"name":"CANDARLI MAH.","zip":"16860"},{"name":"ÇAKIRCA MAH.","zip":"16860"},{"name":"ÇAMDİBİ MAH.","zip":"16860"},{"name":"ÇAMOLUK MAH.","zip":"16860"},{"name":"ÇAMPINAR MAH.","zip":"16860"},{"name":"ÇİÇEKLİ MAH.","zip":"16860"},{"name":"DERBENT MAH.","zip":"16860"},{"name":"DEREKÖY MAH.","zip":"16860"},{"name":"DIRAZALİ MAH.","zip":"16860"},{"name":"ELBEYLİ MAH.","zip":"16860"},{"name":"ELMALI MAH.","zip":"16860"},{"name":"EŞREFZADE MAH.","zip":"16860"},{"name":"GÖLLÜCE MAH.","zip":"16860"},{"name":"GÜRMÜZLÜ MAH.","zip":"16860"},{"name":"HACIOSMAN MAH.","zip":"16860"},{"name":"HİSARDERE MAH.","zip":"16860"},{"name":"HOCAKÖY MAH.","zip":"16860"},{"name":"İHSANİYE MAH.","zip":"16860"},{"name":"İNİKLİ MAH.","zip":"16860"},{"name":"KARATEKİN MAH.","zip":"16860"},{"name":"KAYNARCA MAH.","zip":"16860"},{"name":"KIRINTI MAH.","zip":"16860"},{"name":"KUTLUCA MAH.","zip":"16860"},{"name":"MAHMUDİYE MAH.","zip":"16860"},{"name":"MAHMUT ÇELEBİ MAH.","zip":"16860"},{"name":"MECİDİYE MAH.","zip":"16860"},{"name":"MUSTAFA KEMAL PAŞA MAH.","zip":"16860"},{"name":"MUSTAFALI MAH.","zip":"16860"},{"name":"MÜŞKÜLE MAH.","zip":"16860"},{"name":"ORHANİYE MAH.","zip":"16860"},{"name":"OSMANİYE MAH.","zip":"16860"},{"name":"ÖMERLİ MAH.","zip":"16860"},{"name":"SANSARAK MAH.","zip":"16860"},{"name":"SARIAĞIL MAH.","zip":"16860"},{"name":"SELÇUK MAH.","zip":"16860"},{"name":"SÜLEYMANİYE MAH.","zip":"16860"},{"name":"ŞEREFİYE MAH.","zip":"16860"},{"name":"TACİR MAH.","zip":"16860"},{"name":"YENİ MAH.","zip":"16860"},{"name":"YENİŞEREFİYE MAH.","zip":"16860"},{"name":"YEŞİL CAMİİ MAH.","zip":"16860"},{"name":"YÜRÜKLER MAH.","zip":"16860"}]},{"name":"KARACABEY","cityName":null,"quarters":[{"name":"AKÇAKOYUN MAH.","zip":"16700"},{"name":"AKÇASUSURLUK MAH.","zip":"16700"},{"name":"AKHİSAR MAH.","zip":"16700"},{"name":"ARIZ MAH.","zip":"16700"},{"name":"BAKIRKÖY MAH.","zip":"16700"},{"name":"BALLIKAYA MAH.","zip":"16700"},{"name":"BAYRAMDERE MAH.","zip":"16700"},{"name":"BEYLİK MAH.","zip":"16700"},{"name":"BOĞAZKÖY MAH.","zip":"16700"},{"name":"CANBALI MAH.","zip":"16700"},{"name":"CANBAZ MAH.","zip":"16700"},{"name":"ÇAMLICA MAH.","zip":"16700"},{"name":"ÇARIKKÖY MAH.","zip":"16700"},{"name":"ÇAVUŞ MAH.","zip":"16700"},{"name":"ÇEŞNİGİR MAH.","zip":"16700"},{"name":"DAĞESEMEN MAH.","zip":"16700"},{"name":"DAĞKADI MAH.","zip":"16700"},{"name":"DANİŞMENT MAH.","zip":"16700"},{"name":"DOĞLA MAH.","zip":"16700"},{"name":"DRAMA MAH.","zip":"16700"},{"name":"EKİNLİ MAH.","zip":"16700"},{"name":"EKMEKÇİ MAH.","zip":"16700"},{"name":"EMİRSULTAN MAH.","zip":"16700"},{"name":"ESENTEPE MAH.","zip":"16700"},{"name":"ESKİKARAAĞAÇ MAH.","zip":"16700"},{"name":"ESKİSARIBEY MAH.","zip":"16700"},{"name":"FEVZİPAŞA MAH.","zip":"16700"},{"name":"GARİPÇE MAH.","zip":"16700"},{"name":"GAZİ MAH.","zip":"16700"},{"name":"GÖLECİK MAH.","zip":"16700"},{"name":"GÖLKIYI MAH.","zip":"16700"},{"name":"GÖNÜ MAH.","zip":"16700"},{"name":"GÜNGÖRMEZ MAH.","zip":"16700"},{"name":"HAMİDİYE MAH.","zip":"16700"},{"name":"HARMANLI MAH.","zip":"16700"},{"name":"HAYIRLAR MAH.","zip":"16700"},{"name":"HOTANLI MAH.","zip":"16700"},{"name":"HÜDAVENDİGAR MAH.","zip":"16700"},{"name":"HÜRRİYET MAH.","zip":"16700"},{"name":"İKİZCE MAH.","zip":"16700"},{"name":"İNKAYA MAH.","zip":"16700"},{"name":"İSMETPAŞA MAH.","zip":"16700"},{"name":"KARACAAHMET MAH.","zip":"16700"},{"name":"KARAKOCA MAH.","zip":"16700"},{"name":"KARASU MAH.","zip":"16700"},{"name":"KEDİKAYA MAH.","zip":"16700"},{"name":"KEŞLİK MAH.","zip":"16700"},{"name":"KIRANLAR MAH.","zip":"16700"},{"name":"KULAKPINAR MAH.","zip":"16700"},{"name":"KURŞUNLU MAH.","zip":"16700"},{"name":"KÜÇÜKKARAAĞAÇ MAH.","zip":"16700"},{"name":"MAMURİYET MAH.","zip":"16700"},{"name":"MECİDİYE MAH.","zip":"16700"},{"name":"MURATLI MAH.","zip":"16700"},{"name":"NASRETTİN MAH.","zip":"16700"},{"name":"OKÇULAR MAH.","zip":"16700"},{"name":"ORHANİYE MAH.","zip":"16700"},{"name":"ORTASARIBEY MAH.","zip":"16700"},{"name":"OVA HAMİDİYE MAH.","zip":"16700"},{"name":"OVAESEMEN MAH.","zip":"16700"},{"name":"ÖRENCİK MAH.","zip":"16700"},{"name":"RUNGUŞPAŞA MAH.","zip":"16700"},{"name":"SAADET MAH.","zip":"16700"},{"name":"SAZLICA MAH.","zip":"16700"},{"name":"SELİMİYE MAH.","zip":"16700"},{"name":"SEYRAN MAH.","zip":"16700"},{"name":"SIRABADEMLER MAH.","zip":"16700"},{"name":"SUBAŞI MAH.","zip":"16700"},{"name":"SULTANİYE MAH.","zip":"16700"},{"name":"ŞAHİNKÖY MAH.","zip":"16700"},{"name":"ŞAHMELEK MAH.","zip":"16700"},{"name":"TABAKLAR MAH.","zip":"16700"},{"name":"TAŞLIK MAH.","zip":"16700"},{"name":"TAŞPINAR MAH.","zip":"16700"},{"name":"TAVŞANLI MAH.","zip":"16700"},{"name":"TOPHİSAR MAH.","zip":"16700"},{"name":"ULUABAT MAH.","zip":"16700"},{"name":"YARIŞ MAH.","zip":"16700"},{"name":"YENİ MAH.","zip":"16700"},{"name":"YENİCE MAH.","zip":"16700"},{"name":"YENİKARAAĞAÇ MAH.","zip":"16700"},{"name":"YENİSARIBEY MAH.","zip":"16700"},{"name":"YEŞİLDERE MAH.","zip":"16700"},{"name":"YOLAĞZI MAH.","zip":"16700"}]},{"name":"KELES","cityName":null,"quarters":[{"name":"ALPAĞUT MAH.","zip":"16740"},{"name":"AVDAN MAH.","zip":"16740"},{"name":"BARAKLI MAH.","zip":"16740"},{"name":"BASAK MAH.","zip":"16740"},{"name":"BELENÖREN MAH.","zip":"16740"},{"name":"BIYIKLIALANI MAH.","zip":"16740"},{"name":"CUMA MAH.","zip":"16740"},{"name":"ÇUKUR MAH.","zip":"16740"},{"name":"DAĞ DEMİRCİLER MAH.","zip":"16740"},{"name":"DAĞDİBİ MAH.","zip":"16740"},{"name":"DAVUTLAR MAH.","zip":"16740"},{"name":"DEDELER MAH.","zip":"16740"},{"name":"DELİCE MAH.","zip":"16740"},{"name":"DENİZLER MAH.","zip":"16740"},{"name":"DURAK MAH.","zip":"16740"},{"name":"DÜVENLİ MAH.","zip":"16740"},{"name":"EPÇELER MAH.","zip":"16740"},{"name":"ERTUĞRULGAZİ MAH.","zip":"16740"},{"name":"GELEMİÇ MAH.","zip":"16740"},{"name":"GÖKÖZ MAH.","zip":"16740"},{"name":"HARMANALANI MAH.","zip":"16740"},{"name":"HARMANCIK DEMİRCİ MAH.","zip":"16740"},{"name":"HAYDAR MAH.","zip":"16740"},{"name":"HEREKE MAH.","zip":"16740"},{"name":"ISSIZÖREN MAH.","zip":"16740"},{"name":"KARAARDIÇ MAH.","zip":"16740"},{"name":"KEMALİYE MAH.","zip":"16740"},{"name":"KIRAN IŞIKLAR MAH.","zip":"16740"},{"name":"KİRAZLI MAH.","zip":"16740"},{"name":"KOCA KOVACIK MAH.","zip":"16740"},{"name":"KOZBUDAKLAR MAH.","zip":"16740"},{"name":"KÜÇÜK KOVACIK MAH.","zip":"16740"},{"name":"MENTEŞE MAH.","zip":"16740"},{"name":"PINARCIK MAH.","zip":"16740"},{"name":"SOFULAR MAH.","zip":"16740"},{"name":"SORGUN MAH.","zip":"16740"},{"name":"UZUNÖZ MAH.","zip":"16740"},{"name":"YAĞCILAR MAH.","zip":"16740"},{"name":"YAZIBAŞI MAH.","zip":"16740"},{"name":"YENİCE MAH.","zip":"16740"},{"name":"YUNUSLAR MAH.","zip":"16740"}]},{"name":"KESTEL","cityName":null,"quarters":[{"name":"AHMET VEFİK PAŞAOSB MAH.","zip":"16450"},{"name":"AHMETVEFİKPAŞA MAH.","zip":"16450"},{"name":"AKSU MAH.","zip":"16450"},{"name":"ALAÇAM MAH.","zip":"16450"},{"name":"BABASULTAN MAH.","zip":"16450"},{"name":"BARAKFAKİH MAH.","zip":"16450"},{"name":"BURHANİYE MAH.","zip":"16450"},{"name":"ÇATALTEPE MAH.","zip":"16450"},{"name":"DEREKIZIK MAH.","zip":"16450"},{"name":"DUDAKLI MAH.","zip":"16450"},{"name":"ERDOĞAN MAH.","zip":"16450"},{"name":"ESENTEPE MAH.","zip":"16450"},{"name":"GÖLBAŞI MAH.","zip":"16450"},{"name":"GÖLCÜK MAH.","zip":"16450"},{"name":"GÖZEDE MAH.","zip":"16450"},{"name":"KALE MAH.","zip":"16450"},{"name":"KAYACIK MAH.","zip":"16450"},{"name":"KAZANCI MAH.","zip":"16450"},{"name":"KOZLUÖREN MAH.","zip":"16450"},{"name":"LÜTFİYE MAH.","zip":"16450"},{"name":"NARLIDERE MAH.","zip":"16450"},{"name":"NÜZHETİYE MAH.","zip":"16450"},{"name":"ORHANİYE MAH.","zip":"16450"},{"name":"OSMANİYE MAH.","zip":"16450"},{"name":"SAİTABAT MAH.","zip":"16450"},{"name":"SAYFİYE MAH.","zip":"16450"},{"name":"SERME MAH.","zip":"16450"},{"name":"SEYMEN MAH.","zip":"16450"},{"name":"SOĞUKSU MAH.","zip":"16450"},{"name":"ŞEVKETİYE MAH.","zip":"16450"},{"name":"TURANKÖY MAH.","zip":"16450"},{"name":"ÜMİTALAN MAH.","zip":"16450"},{"name":"VANİMEHMET MAH.","zip":"16450"},{"name":"YAĞMURLU MAH.","zip":"16450"},{"name":"YENİ MAH.","zip":"16450"},{"name":"YENİOSB MAH.","zip":"16450"}]},{"name":"MUDANYA","cityName":null,"quarters":[{"name":"ALTINTAŞ MAH.","zip":"16940"},{"name":"AYDINPINAR MAH.","zip":"16940"},{"name":"BADEMLİ MAH.","zip":"16940"},{"name":"BALABANCIK MAH.","zip":"16940"},{"name":"ÇAĞRIŞAN MAH.","zip":"16940"},{"name":"ÇAMLIK MAH.","zip":"16940"},{"name":"ÇAYÖNÜ MAH.","zip":"16940"},{"name":"ÇEKRİCE MAH.","zip":"16940"},{"name":"ÇEPNİ MAH.","zip":"16940"},{"name":"ÇINARLI MAH.","zip":"16940"},{"name":"DEDEKÖY MAH.","zip":"16940"},{"name":"DEREKÖY MAH.","zip":"16940"},{"name":"EĞERCE MAH.","zip":"16940"},{"name":"EMİRLERYENİCESİ MAH.","zip":"16940"},{"name":"ESENCE MAH.","zip":"16940"},{"name":"EVCİLER MAH.","zip":"16940"},{"name":"GÖYNÜKLÜ MAH.","zip":"16940"},{"name":"GÜZELYALI BURGAZ MAH.","zip":"16940"},{"name":"GÜZELYALI EĞİTİM MAH.","zip":"16940"},{"name":"GÜZELYALI SİTELER MAH.","zip":"16940"},{"name":"GÜZELYALI YALI MAH.","zip":"16940"},{"name":"HALİTPAŞA MAH.","zip":"16940"},{"name":"HANÇERLİ MAH.","zip":"16940"},{"name":"HASANBEY MAH.","zip":"16940"},{"name":"HASKÖY MAH.","zip":"16940"},{"name":"IŞIKLI MAH.","zip":"16940"},{"name":"İPEKYAYLA MAH.","zip":"16940"},{"name":"KAYMAKOBA MAH.","zip":"16940"},{"name":"KUMYAKA MAH.","zip":"16940"},{"name":"KÜÇÜKYENİCE MAH.","zip":"16940"},{"name":"MESUDİYE MAH.","zip":"16940"},{"name":"MİRZAOBA MAH.","zip":"16940"},{"name":"MÜRSEL MAH.","zip":"16940"},{"name":"MÜTAREKE MAH.","zip":"16940"},{"name":"ORHANİYE MAH.","zip":"16940"},{"name":"ÖMERBEY MAH.","zip":"16940"},{"name":"SÖĞÜTPINAR MAH.","zip":"16940"},{"name":"ŞÜKRÜÇAVUŞ MAH.","zip":"16940"},{"name":"TİRİLYE MAH.","zip":"16940"},{"name":"ÜLKÜ MAH.","zip":"16940"},{"name":"YALIÇİFTLİK MAH.","zip":"16940"},{"name":"YAMAN MAH.","zip":"16940"},{"name":"YAYLACIK MAH.","zip":"16940"},{"name":"YENİ MAH.","zip":"16940"},{"name":"YÖRÜKALİ MAH.","zip":"16940"},{"name":"YÖRÜKYENİCESİ MAH.","zip":"16940"}]},{"name":"MUSTAFAKEMALPAŞA","cityName":null,"quarters":[{"name":"ADALET MAH.","zip":"16500"},{"name":"AĞAÇLI MAH.","zip":"16500"},{"name":"AKARCA MAH.","zip":"16500"},{"name":"AKÇAPINAR MAH.","zip":"16500"},{"name":"ALACAAT MAH.","zip":"16500"},{"name":"ALİSEYDİ MAH.","zip":"16500"},{"name":"ALPAĞUT MAH.","zip":"16500"},{"name":"ARALIK MAH.","zip":"16500"},{"name":"AŞAĞIBALI MAH.","zip":"16500"},{"name":"ATARİYE MAH.","zip":"16500"},{"name":"ATATÜRK MAH.","zip":"16500"},{"name":"AYAZ MAH.","zip":"16500"},{"name":"BAHARİYE MAH.","zip":"16500"},{"name":"BARIŞ MAH.","zip":"16500"},{"name":"BEHRAM MAH.","zip":"16500"},{"name":"BOĞAZ MAH.","zip":"16500"},{"name":"BOSTANDERE MAH.","zip":"16500"},{"name":"BÜK MAH.","zip":"16500"},{"name":"CAMANDAR MAH.","zip":"16500"},{"name":"CUMHURİYET MAH.","zip":"16500"},{"name":"ÇAKALLAR MAH.","zip":"16500"},{"name":"ÇALTILIBÜK MAH.","zip":"16500"},{"name":"ÇAMLICA MAH.","zip":"16500"},{"name":"ÇARDAKBELEN MAH.","zip":"16500"},{"name":"ÇAVUŞ MAH.","zip":"16500"},{"name":"ÇELTİKÇİ MAH.","zip":"16500"},{"name":"ÇIRPAN MAH.","zip":"16500"},{"name":"ÇİVİLİÇAM MAH.","zip":"16500"},{"name":"ÇÖMLEKÇİ MAH.","zip":"16500"},{"name":"ÇÖRDÜK MAH.","zip":"16500"},{"name":"DALLICA MAH.","zip":"16500"},{"name":"DEMİRDERE MAH.","zip":"16500"},{"name":"DEMİRELİ MAH.","zip":"16500"},{"name":"DERE MAH.","zip":"16500"},{"name":"DERECİK MAH.","zip":"16500"},{"name":"DEREKADI MAH.","zip":"16500"},{"name":"DEVECİKONAĞI MAH.","zip":"16500"},{"name":"DOĞANALAN MAH.","zip":"16500"},{"name":"DOĞANCI MAH.","zip":"16500"},{"name":"DORAK MAH.","zip":"16500"},{"name":"DÖLLÜK MAH.","zip":"16500"},{"name":"DURUMTAY MAH.","zip":"16500"},{"name":"ESKİBALÇIK MAH.","zip":"16500"},{"name":"ESKİKIZILELMA MAH.","zip":"16500"},{"name":"FEVZİDEDE MAH.","zip":"16500"},{"name":"FINDICAK MAH.","zip":"16500"},{"name":"GARİPÇETEKKE MAH.","zip":"16500"},{"name":"GÜLLER MAH.","zip":"16500"},{"name":"GÜLLÜCE MAH.","zip":"16500"},{"name":"GÜNDOĞDU MAH.","zip":"16500"},{"name":"GÜVEÇDERE MAH.","zip":"16500"},{"name":"GÜVEM MAH.","zip":"16500"},{"name":"HACIAHMET MAH.","zip":"16500"},{"name":"HACIALİ MAH.","zip":"16500"},{"name":"HAMİDİYE (MERKEZ) MAH.","zip":"16500"},{"name":"HAMİDİYE MAH.","zip":"16500"},{"name":"HAMZABEY MAH.","zip":"16500"},{"name":"HİSARALTI MAH.","zip":"16500"},{"name":"IŞIKLAR MAH.","zip":"16500"},{"name":"İLYASÇILAR MAH.","zip":"16500"},{"name":"İNCEALİPINAR MAH.","zip":"16500"},{"name":"KABULBABA MAH.","zip":"16500"},{"name":"KADİRÇEŞME MAH.","zip":"16500"},{"name":"KAPAKLIOLUK MAH.","zip":"16500"},{"name":"KARACALAR MAH.","zip":"16500"},{"name":"KARAKÖY MAH.","zip":"16500"},{"name":"KARAOĞLAN MAH.","zip":"16500"},{"name":"KARAORMAN MAH.","zip":"16500"},{"name":"KARAPINAR MAH.","zip":"16500"},{"name":"KAYABAŞI MAH.","zip":"16500"},{"name":"KAZANPINAR MAH.","zip":"16500"},{"name":"KELTAŞ MAH.","zip":"16500"},{"name":"KESTELEK MAH.","zip":"16500"},{"name":"KİLLİK MAH.","zip":"16500"},{"name":"KOCAKORU MAH.","zip":"16500"},{"name":"KOSOVA MAH.","zip":"16500"},{"name":"KOŞUBOĞAZI MAH.","zip":"16500"},{"name":"KÖMÜRCÜKADI MAH.","zip":"16500"},{"name":"KÖREKEM MAH.","zip":"16500"},{"name":"KÖSEHOROZ MAH.","zip":"16500"},{"name":"KUMKADI MAH.","zip":"16500"},{"name":"KURŞUNLU MAH.","zip":"16500"},{"name":"LALAŞAHİN MAH.","zip":"16500"},{"name":"LÜTFİYE MAH.","zip":"16500"},{"name":"MELİK MAH.","zip":"16500"},{"name":"MURADİYESARNIÇ MAH.","zip":"16500"},{"name":"OCAKLI MAH.","zip":"16500"},{"name":"ONAÇ MAH.","zip":"16500"},{"name":"ORHANİYE MAH.","zip":"16500"},{"name":"ORMANKADI MAH.","zip":"16500"},{"name":"ORTA MAH.","zip":"16500"},{"name":"OSMANİYE MAH.","zip":"16500"},{"name":"OVAAZATLI MAH.","zip":"16500"},{"name":"ÖMERALTI MAH.","zip":"16500"},{"name":"PAŞALAR MAH.","zip":"16500"},{"name":"SARIMUSTAFALAR MAH.","zip":"16500"},{"name":"SELİMİYE MAH.","zip":"16500"},{"name":"SİNCANSARNIÇ MAH.","zip":"16500"},{"name":"SOĞUCAK MAH.","zip":"16500"},{"name":"SOĞUKPINAR MAH.","zip":"16500"},{"name":"SÖĞÜTALAN MAH.","zip":"16500"},{"name":"SÜNLÜK MAH.","zip":"16500"},{"name":"ŞAPÇI MAH.","zip":"16500"},{"name":"ŞEHRİMAN MAH.","zip":"16500"},{"name":"ŞEREFİYE MAH.","zip":"16500"},{"name":"ŞEVKETİYE MAH.","zip":"16500"},{"name":"ŞEYHMÜFTÜ MAH.","zip":"16500"},{"name":"TAŞKÖPRÜ MAH.","zip":"16500"},{"name":"TAŞPINAR MAH.","zip":"16500"},{"name":"TATKAVAKLI MAH.","zip":"16500"},{"name":"TEPECİK MAH.","zip":"16500"},{"name":"TIRNOVA MAH.","zip":"16500"},{"name":"UĞURLUPINAR MAH.","zip":"16500"},{"name":"ÜÇBEYLİ MAH.","zip":"16500"},{"name":"VIRACA MAH.","zip":"16500"},{"name":"YALINTAŞ MAH.","zip":"16500"},{"name":"YAMANLI MAH.","zip":"16500"},{"name":"YAVELLİ MAH.","zip":"16500"},{"name":"YAYLAÇAYIR MAH.","zip":"16500"},{"name":"YENİBALÇIK MAH.","zip":"16500"},{"name":"YENİCE MAH.","zip":"16500"},{"name":"YENİDERE MAH.","zip":"16500"},{"name":"YENİKIZILELMA MAH.","zip":"16500"},{"name":"YEŞİLOVA MAH.","zip":"16500"},{"name":"YONCAAĞAÇ MAH.","zip":"16500"},{"name":"YUKARIBALI MAH.","zip":"16500"},{"name":"YUMURCAKLI MAH.","zip":"16500"},{"name":"YUNUS EMRE MAH.","zip":"16500"},{"name":"YÜZBAŞI SABRİBEY MAH.","zip":"16500"},{"name":"ZÜFERBEY MAH.","zip":"16500"}]},{"name":"ALAATTİNBEY","cityName":null,"quarters":[{"name":"ÜRÜNLÜ MAH.","zip":"16285"}]},{"name":"ALTINŞEHİR","cityName":null,"quarters":[{"name":"23 NİSAN MAH.","zip":"16230"},{"name":"ALTINŞEHİR MAH.","zip":"16230"}]},{"name":"ATAEVLER","cityName":null,"quarters":[{"name":"BARIŞ MAH.","zip":"16210"},{"name":"CUMHURİYET MAH.","zip":"16210"},{"name":"FETHİYE MAH.","zip":"16210"}]},{"name":"BALAT","cityName":null,"quarters":[{"name":"BALAT MAH.","zip":"16225"},{"name":"BALATOSB MAH.","zip":"16225"}]},{"name":"BEŞEVLER","cityName":null,"quarters":[{"name":"ÇAMLICA MAH.","zip":"16260"},{"name":"GÜMÜŞTEPE MAH.","zip":"16260"}]},{"name":"ÇALI","cityName":null,"quarters":null},{"name":"ERTUĞRUL","cityName":null,"quarters":[{"name":"ERTUĞRUL MAH.","zip":"16235"},{"name":"ÖZLÜCE MAH.","zip":"16235"},{"name":"YÜZÜNCÜYIL MAH.","zip":"16235"}]},{"name":"GÖRÜKLE","cityName":null,"quarters":[{"name":"DUMLUPINAR MAH.","zip":"16240"},{"name":"GÖRÜKLE MAH.","zip":"16240"},{"name":"KURTULUŞ MAH.","zip":"16240"}]},{"name":"HASANAĞA","cityName":null,"quarters":[{"name":"HASANAĞA MAH.","zip":"16280"},{"name":"HASANAĞA OSB MAH.","zip":"16280"},{"name":"KAYAPA MAH.","zip":"16280"},{"name":"KIZILCIKLI MAH.","zip":"16280"},{"name":"TAHTALI MAH.","zip":"16280"},{"name":"YAYLACIK MAH.","zip":"16280"}]},{"name":"İHSANİYE","cityName":null,"quarters":[{"name":"İHSANİYE MAH.","zip":"16200"},{"name":"KARAMAN MAH.","zip":"16200"}]},{"name":"İZMİRYOLBOYU","cityName":null,"quarters":[{"name":"BÜYÜKBALIKLI MAH.","zip":"16250"},{"name":"DOĞANKÖY MAH.","zip":"16250"},{"name":"GÖKÇE MAH.","zip":"16250"},{"name":"GÖLYAZI MAH.","zip":"16250"},{"name":"İRFANİYE MAH.","zip":"16250"},{"name":"KONAKLI MAH.","zip":"16250"},{"name":"YOLÇATI MAH.","zip":"16250"}]},{"name":"KONAK","cityName":null,"quarters":[{"name":"KÜLTÜR MAH.","zip":"16265"},{"name":"ODUNLUK MAH.","zip":"16265"}]},{"name":"NİLÜFERKÖY","cityName":null,"quarters":[{"name":"AYVAKÖY MAH.","zip":"16290"},{"name":"BADIRGA MAH.","zip":"16290"},{"name":"BAŞKÖY MAH.","zip":"16290"},{"name":"ÇATALAĞIL MAH.","zip":"16290"},{"name":"ÇAYLI MAH.","zip":"16290"},{"name":"DAĞYENİCE MAH.","zip":"16290"},{"name":"FADILLI MAH.","zip":"16290"},{"name":"GÜNGÖREN MAH.","zip":"16290"},{"name":"İNEGAZİ MAH.","zip":"16290"},{"name":"KADRİYE MAH.","zip":"16290"},{"name":"KARACAOBA MAH.","zip":"16290"},{"name":"KORUBAŞI MAH.","zip":"16290"},{"name":"KURUÇEŞME MAH.","zip":"16290"},{"name":"MAKŞEMPINARI MAH.","zip":"16290"},{"name":"UNÇUKURU MAH.","zip":"16290"},{"name":"ÜÇPINAR MAH.","zip":"16290"}]},{"name":"NİLÜFERORGANİZESANAYİ","cityName":null,"quarters":[{"name":"MİNARELİÇAVUŞ MAH.","zip":"16220"},{"name":"MİNARELİÇAVUŞOSB MAH.","zip":"16220"}]},{"name":"ORGANİZESANAYİ","cityName":null,"quarters":[{"name":"IŞIKTEPE MAH.","zip":"16215"},{"name":"IŞIKTEPEOSB MAH.","zip":"16215"}]},{"name":"ÜÇEVLER","cityName":null,"quarters":[{"name":"ÜÇEVLER MAH.","zip":"16270"}]},{"name":"ORHANELİ","cityName":null,"quarters":[{"name":"AĞAÇHİSAR MAH.","zip":"16980"},{"name":"AKALAN MAH.","zip":"16980"},{"name":"AKÇABÜK MAH.","zip":"16980"},{"name":"ALTINTAŞ MAH.","zip":"16980"},{"name":"ARGIN MAH.","zip":"16980"},{"name":"BALIOĞLU MAH.","zip":"16980"},{"name":"BAŞKÖY MAH.","zip":"16980"},{"name":"BELENOLUK MAH.","zip":"16980"},{"name":"CELEPLER MAH.","zip":"16980"},{"name":"ÇEKİ MAH.","zip":"16980"},{"name":"ÇINARCIK MAH.","zip":"16980"},{"name":"ÇİVİLİ MAH.","zip":"16980"},{"name":"ÇÖRELER MAH.","zip":"16980"},{"name":"DAĞGÜNEY MAH.","zip":"16980"},{"name":"DELİBALLILAR MAH.","zip":"16980"},{"name":"DEMİRCİ MAH.","zip":"16980"},{"name":"DERE MAH.","zip":"16980"},{"name":"DÜNDAR MAH.","zip":"16980"},{"name":"EMİR MAH.","zip":"16980"},{"name":"ERENLER MAH.","zip":"16980"},{"name":"ESENTEPE MAH.","zip":"16980"},{"name":"ESKİDANİŞMENT MAH.","zip":"16980"},{"name":"FADIL MAH.","zip":"16980"},{"name":"FEVZİPAŞA MAH.","zip":"16980"},{"name":"FİROZ MAH.","zip":"16980"},{"name":"GAZİOLUK MAH.","zip":"16980"},{"name":"GAZİPAŞA MAH.","zip":"16980"},{"name":"GİRENCİK MAH.","zip":"16980"},{"name":"GÖKTEPE MAH.","zip":"16980"},{"name":"GÖYNÜKBELEN MAH.","zip":"16980"},{"name":"GÜMÜŞPINAR MAH.","zip":"16980"},{"name":"İKİZOLUK MAH.","zip":"16980"},{"name":"İSMETPAŞA MAH.","zip":"16980"},{"name":"KABAKLAR MAH.","zip":"16980"},{"name":"KADI MAH.","zip":"16980"},{"name":"KARABEKİRPAŞA MAH.","zip":"16980"},{"name":"KARAOĞLANLAR MAH.","zip":"16980"},{"name":"KARASİ MAH.","zip":"16980"},{"name":"KARINCALI MAH.","zip":"16980"},{"name":"KOÇU MAH.","zip":"16980"},{"name":"KUSUMLAR MAH.","zip":"16980"},{"name":"KÜÇÜKORHAN MAH.","zip":"16980"},{"name":"LETAFET MAH.","zip":"16980"},{"name":"MAHALLER MAH.","zip":"16980"},{"name":"NALINLAR MAH.","zip":"16980"},{"name":"ORTA MAH.","zip":"16980"},{"name":"OSMANİYEÇATAK MAH.","zip":"16980"},{"name":"SADAĞI MAH.","zip":"16980"},{"name":"SEMERCİ MAH.","zip":"16980"},{"name":"SERÇELER MAH.","zip":"16980"},{"name":"SIRIL MAH.","zip":"16980"},{"name":"SÖĞÜT MAH.","zip":"16980"},{"name":"SÜLEYMANBEY MAH.","zip":"16980"},{"name":"ŞÜKRİYE MAH.","zip":"16980"},{"name":"TEPECİK MAH.","zip":"16980"},{"name":"TOPUK MAH.","zip":"16980"},{"name":"YAKUPLAR MAH.","zip":"16980"},{"name":"YENİDANİŞMENT MAH.","zip":"16980"},{"name":"YEŞİLLER MAH.","zip":"16980"},{"name":"YÖRÜCEKLER MAH.","zip":"16980"}]},{"name":"ORHANGAZİ","cityName":null,"quarters":[{"name":"ARAPZADE MAH.","zip":"16800"},{"name":"BAYIRKÖY MAH.","zip":"16800"},{"name":"CAMİİKEBİR MAH.","zip":"16800"},{"name":"CİHANKÖY MAH.","zip":"16800"},{"name":"ÇAKIRLI MAH.","zip":"16800"},{"name":"ÇELTİKÇİ MAH.","zip":"16800"},{"name":"DUTLUCA MAH.","zip":"16800"},{"name":"FATİH MAH.","zip":"16800"},{"name":"FINDIKLI MAH.","zip":"16800"},{"name":"GEDELEK MAH.","zip":"16800"},{"name":"GEMİÇ MAH.","zip":"16800"},{"name":"GÖLYAKA MAH.","zip":"16800"},{"name":"GÜRLE MAH.","zip":"16800"},{"name":"HAMZALI MAH.","zip":"16800"},{"name":"HECELER MAH.","zip":"16800"},{"name":"HÜRRİYET MAH.","zip":"16800"},{"name":"KARSAK MAH.","zip":"16800"},{"name":"KERAMET MAH.","zip":"16800"},{"name":"MAHMUDİYE MAH.","zip":"16800"},{"name":"MURADİYE MAH.","zip":"16800"},{"name":"NARLICA MAH.","zip":"16800"},{"name":"ORTAKÖY MAH.","zip":"16800"},{"name":"ÖRNEKKÖY MAH.","zip":"16800"},{"name":"PAŞAPINAR MAH.","zip":"16800"},{"name":"SÖLÖZ MAH.","zip":"16800"},{"name":"TEKKE MAH.","zip":"16800"},{"name":"ÜREĞİL MAH.","zip":"16800"},{"name":"YENİGÜRLE MAH.","zip":"16800"},{"name":"YENİKÖY MAH.","zip":"16800"},{"name":"YENİSÖLÖZ MAH.","zip":"16800"}]},{"name":"ALEMDAR","cityName":null,"quarters":[{"name":"ARMUTKÖY MAH.","zip":"16150"},{"name":"ÇELTİKKÖY MAH.","zip":"16150"},{"name":"ÇUKURCAKÖY MAH.","zip":"16150"},{"name":"GAZİAKDEMİR MAH.","zip":"16150"},{"name":"MEHMET AKİF MAH.","zip":"16150"},{"name":"SIRAMEŞELER MAH.","zip":"16150"},{"name":"SOĞANLI MAH.","zip":"16150"},{"name":"YENİCEABAT MAH.","zip":"16150"}]},{"name":"ALTIPARMAK","cityName":null,"quarters":[{"name":"AKTARHÜSSAM MAH.","zip":"16050"},{"name":"ALTIPARMAK MAH.","zip":"16050"},{"name":"ÇIRPAN MAH.","zip":"16050"},{"name":"HOCAHASAN MAH.","zip":"16050"},{"name":"İNTİZAM MAH.","zip":"16050"},{"name":"KURUÇEŞME MAH.","zip":"16050"},{"name":"SELİMİYE MAH.","zip":"16050"},{"name":"ŞEHABETTİNPAŞA MAH.","zip":"16050"},{"name":"YAHŞİBEY MAH.","zip":"16050"}]},{"name":"BAĞLARBAŞI","cityName":null,"quarters":null},{"name":"BAHAR","cityName":null,"quarters":[{"name":"BAHAR MAH.","zip":"16080"},{"name":"GÜLBAHÇE MAH.","zip":"16080"},{"name":"KEMERÇEŞME MAH.","zip":"16080"},{"name":"KOĞUKÇINAR MAH.","zip":"16080"},{"name":"NAMIK KEMAL MAH.","zip":"16080"},{"name":"SELAMET MAH.","zip":"16080"},{"name":"ZAFER MAH.","zip":"16080"}]},{"name":"BALIKLI","cityName":null,"quarters":[{"name":"BAŞARAN MAH.","zip":"16090"},{"name":"KÜÇÜKBALIKLI MAH.","zip":"16090"},{"name":"VEYSEL KARANİ MAH.","zip":"16090"},{"name":"YEŞİLOVA MAH.","zip":"16090"}]},{"name":"ÇARŞI","cityName":null,"quarters":[{"name":"EBU İSHAK MAH.","zip":"16030"},{"name":"REYHAN MAH.","zip":"16030"},{"name":"ŞEHREKÜSTÜ MAH.","zip":"16030"},{"name":"TUZPAZARI MAH.","zip":"16030"}]},{"name":"ÇEKİRGE","cityName":null,"quarters":[{"name":"KÜKÜRTLÜ MAH.","zip":"16070"}]},{"name":"DEMİRTAŞ","cityName":null,"quarters":[{"name":"DEMİRTAŞ CUMHURİYET MAH.","zip":"16120"},{"name":"DEMİRTAŞ DUMLUPINAR MAH.","zip":"16120"},{"name":"DEMİRTAŞ SAKARYA MAH.","zip":"16120"}]},{"name":"DOSAB","cityName":null,"quarters":null},{"name":"EMEK","cityName":null,"quarters":[{"name":"EMEK ADNAN MENDERES MAH.","zip":"16180"},{"name":"EMEK FATİH SULTAN MEHMET MAH.","zip":"16180"},{"name":"EMEK ZEKAİ GÜMÜŞDİŞ MAH.","zip":"16180"},{"name":"GEÇİT MAH.","zip":"16180"},{"name":"NİLÜFERKÖY MAH.","zip":"16180"}]},{"name":"HAMİTLER","cityName":null,"quarters":[{"name":"YENİBAĞLAR MAH.","zip":"16175"},{"name":"YENİKENT MAH.","zip":"16175"}]},{"name":"HİSAR","cityName":null,"quarters":[{"name":"ALACAHIRKA MAH.","zip":"16020"},{"name":"ALİPAŞA MAH.","zip":"16020"},{"name":"DEMİRKAPI MAH.","zip":"16020"},{"name":"HAMZABEY MAH.","zip":"16020"},{"name":"İVAZPAŞA MAH.","zip":"16020"},{"name":"KAVAKLI MAH.","zip":"16020"},{"name":"KOCANAİP MAH.","zip":"16020"},{"name":"MOLLAFENARİ MAH.","zip":"16020"},{"name":"MOLLAGÜRANİ MAH.","zip":"16020"},{"name":"MURADİYE MAH.","zip":"16020"},{"name":"OSMANGAZİ MAH.","zip":"16020"},{"name":"PINARBAŞI MAH.","zip":"16020"},{"name":"TAHTAKALE MAH.","zip":"16020"}]},{"name":"HÜDAVENDİGAR","cityName":null,"quarters":[{"name":"DOBURCA MAH.","zip":"16060"},{"name":"HÜDAVENDİGAR MAH.","zip":"16060"}]},{"name":"HÜRRİYET","cityName":null,"quarters":[{"name":"HÜRRİYET MAH.","zip":"16160"},{"name":"İSTİKLAL MAH.","zip":"16160"},{"name":"SOĞUKKUYU MAH.","zip":"16160"},{"name":"YENİKARAMAN MAH.","zip":"16160"}]},{"name":"KÜPLÜPINAR","cityName":null,"quarters":[{"name":"ÇİRİŞHANE MAH.","zip":"16140"},{"name":"FATİH MAH.","zip":"16140"},{"name":"KÜPLÜPINAR MAH.","zip":"16140"},{"name":"SANTRAL GARAJ MAH.","zip":"16140"},{"name":"TUNA MAH.","zip":"16140"}]},{"name":"MAKSEM","cityName":null,"quarters":[{"name":"İBRAHİMPAŞA MAH.","zip":"16010"},{"name":"KAYIHAN MAH.","zip":"16010"},{"name":"MAKSEM MAH.","zip":"16010"},{"name":"NALBANTOĞLU MAH.","zip":"16010"},{"name":"ORHANBEY MAH.","zip":"16010"}]},{"name":"OSMANGAZİKÖY","cityName":null,"quarters":[{"name":"AKSUNGUR MAH.","zip":"16190"},{"name":"AVDANCIK MAH.","zip":"16190"},{"name":"BAĞLI MAH.","zip":"16190"},{"name":"BÜYÜKDELİLLER MAH.","zip":"16190"},{"name":"ÇAĞLAYAN MAH.","zip":"16190"},{"name":"ÇAYBAŞI MAH.","zip":"16190"},{"name":"DAĞAKÇA MAH.","zip":"16190"},{"name":"DOĞANCI MAH.","zip":"16190"},{"name":"DÜRDANE MAH.","zip":"16190"},{"name":"GÖKÇEÖREN MAH.","zip":"16190"},{"name":"GÜNDOĞDU MAH.","zip":"16190"},{"name":"GÜNEYBAYIR MAH.","zip":"16190"},{"name":"GÜNEYBUDAKLAR MAH.","zip":"16190"},{"name":"HÜSEYİNALAN MAH.","zip":"16190"},{"name":"İNKAYA MAH.","zip":"16190"},{"name":"KARABALÇIK MAH.","zip":"16190"},{"name":"KARAİSLAH MAH.","zip":"16190"},{"name":"KİRAZLI MAH.","zip":"16190"},{"name":"KÜÇÜKDELİLLER MAH.","zip":"16190"},{"name":"MÜRSELLER MAH.","zip":"16190"},{"name":"SEÇ MAH.","zip":"16190"},{"name":"SEFERIŞIKLAR MAH.","zip":"16190"},{"name":"SELÇUKGAZİ MAH.","zip":"16190"},{"name":"SOĞUKPINAR MAH.","zip":"16190"},{"name":"SÜLEYMANİYE MAH.","zip":"16190"},{"name":"TUZAKLI MAH.","zip":"16190"},{"name":"ULUÇAM MAH.","zip":"16190"},{"name":"YİĞİTALİ MAH.","zip":"16190"}]},{"name":"OVAAKÇA","cityName":null,"quarters":[{"name":"OVAAKÇA EĞİTİM MAH.","zip":"16130"},{"name":"OVAAKÇA MERKEZ MAH.","zip":"16130"},{"name":"OVAAKÇA SANTRAL MAH.","zip":"16130"}]},{"name":"PANAYIR","cityName":null,"quarters":[{"name":"ALAŞAROSB MAH.","zip":"16100"},{"name":"DOĞANEVLER MAH.","zip":"16100"},{"name":"İSMETİYE MAH.","zip":"16100"},{"name":"PANAYIR MAH.","zip":"16100"}]},{"name":"ULUMAHALLE","cityName":null,"quarters":[{"name":"DOĞANBEY MAH.","zip":"16040"},{"name":"ELMASBAHÇELER MAH.","zip":"16040"},{"name":"HACI İLYAS MAH.","zip":"16040"},{"name":"KIRCAALİ MAH.","zip":"16040"},{"name":"KİREMİTÇİ MAH.","zip":"16040"},{"name":"SAKARYA MAH.","zip":"16040"},{"name":"TAYAKADIN MAH.","zip":"16040"},{"name":"ULU MAH.","zip":"16040"}]},{"name":"YUNUSELİ","cityName":null,"quarters":[{"name":"GÜNEŞTEPE MAH.","zip":"16165"},{"name":"YUNUSELİ MAH.","zip":"16165"}]},{"name":"YENİŞEHİR","cityName":null,"quarters":[{"name":"AKBIYIK MAH.","zip":"16900"},{"name":"AKÇAPINAR MAH.","zip":"16900"},{"name":"AKDERE MAH.","zip":"16900"},{"name":"ALAYLI MAH.","zip":"16900"},{"name":"AYAZ MAH.","zip":"16900"},{"name":"AYDOĞDU MAH.","zip":"16900"},{"name":"BARCIN MAH.","zip":"16900"},{"name":"BEYPINAR MAH.","zip":"16900"},{"name":"BURCUN MAH.","zip":"16900"},{"name":"CİHADİYE MAH.","zip":"16900"},{"name":"ÇAMÖNÜ MAH.","zip":"16900"},{"name":"ÇARDAK MAH.","zip":"16900"},{"name":"ÇAYIR MAH.","zip":"16900"},{"name":"ÇAYIRLI MAH.","zip":"16900"},{"name":"ÇELEBİ MAH.","zip":"16900"},{"name":"ÇELTİKÇİ MAH.","zip":"16900"},{"name":"ÇİÇEKÖZÜ MAH.","zip":"16900"},{"name":"DEMİRBOĞA MAH.","zip":"16900"},{"name":"DEREKÖY MAH.","zip":"16900"},{"name":"EBEKÖY MAH.","zip":"16900"},{"name":"EĞERCE MAH.","zip":"16900"},{"name":"FETHİYE MAH.","zip":"16900"},{"name":"GÖKÇESU MAH.","zip":"16900"},{"name":"GÜNDOĞAN MAH.","zip":"16900"},{"name":"GÜNECE MAH.","zip":"16900"},{"name":"HAYRİYE MAH.","zip":"16900"},{"name":"HIDIRBALİ MAH.","zip":"16900"},{"name":"İNCİRLİ MAH.","zip":"16900"},{"name":"KARAAMCA MAH.","zip":"16900"},{"name":"KARABAHADIR MAH.","zip":"16900"},{"name":"KARACAAHMET MAH.","zip":"16900"},{"name":"KARACAALİ MAH.","zip":"16900"},{"name":"KARAKÖY MAH.","zip":"16900"},{"name":"KARASIL MAH.","zip":"16900"},{"name":"KAVAKLI MAH.","zip":"16900"},{"name":"KIBLEPINAR MAH.","zip":"16900"},{"name":"KIZILHİSAR MAH.","zip":"16900"},{"name":"KIZILKÖY MAH.","zip":"16900"},{"name":"KİRAZLIYAYLA MAH.","zip":"16900"},{"name":"KOYUNHİSAR MAH.","zip":"16900"},{"name":"KOZDERE MAH.","zip":"16900"},{"name":"KÖPRÜHİSAR MAH.","zip":"16900"},{"name":"KURTULUŞ MAH.","zip":"16900"},{"name":"MAHMUDİYE MAH.","zip":"16900"},{"name":"MARMARACIK MAH.","zip":"16900"},{"name":"MECİDİYE MAH.","zip":"16900"},{"name":"MENTEŞE MAH.","zip":"16900"},{"name":"ORHANİYE MAH.","zip":"16900"},{"name":"OSMANİYE MAH.","zip":"16900"},{"name":"PAPATYA MAH.","zip":"16900"},{"name":"PAŞAYAYLA MAH.","zip":"16900"},{"name":"REŞADİYE MAH.","zip":"16900"},{"name":"SELİMİYE MAH.","zip":"16900"},{"name":"SÖYLEMİŞ MAH.","zip":"16900"},{"name":"SUBAŞI MAH.","zip":"16900"},{"name":"SÜLEYMANİYE MAH.","zip":"16900"},{"name":"TABAKHANE MAH.","zip":"16900"},{"name":"TERZİLER MAH.","zip":"16900"},{"name":"TOPRAKDERE MAH.","zip":"16900"},{"name":"TOPRAKOCAK MAH.","zip":"16900"},{"name":"ULUCAMİ MAH.","zip":"16900"},{"name":"YARHİSAR MAH.","zip":"16900"},{"name":"YAZILI MAH.","zip":"16900"},{"name":"YENİ MAH.","zip":"16900"},{"name":"YENİGÜN MAH.","zip":"16900"},{"name":"YENİKÖY MAH.","zip":"16900"},{"name":"YILDIRIM MAH.","zip":"16900"},{"name":"YILMAZ MAH.","zip":"16900"},{"name":"YOLÖREN MAH.","zip":"16900"},{"name":"YÜZÜNCÜYIL MAH.","zip":"16900"}]},{"name":"ARABAYATAĞI","cityName":null,"quarters":[{"name":"ÇINARÖNÜ MAH.","zip":"16330"},{"name":"DEMETEVLER MAH.","zip":"16330"},{"name":"HACİVAT MAH.","zip":"16330"},{"name":"İSABEY MAH.","zip":"16330"},{"name":"MEVLANA MAH.","zip":"16330"},{"name":"ŞİRİNEVLER MAH.","zip":"16330"},{"name":"ULUS MAH.","zip":"16330"},{"name":"VAKIF MAH.","zip":"16330"},{"name":"YAVUZSELIM MAH.","zip":"16330"}]},{"name":"BEYAZIT","cityName":null,"quarters":[{"name":"BARUTHANE MAH.","zip":"16320"},{"name":"BEYAZIT MAH.","zip":"16320"},{"name":"DEĞİRMENLİKIZIK MAH.","zip":"16320"},{"name":"EĞİTİM MAH.","zip":"16320"},{"name":"MEHMETAKİFERSOY MAH.","zip":"16320"},{"name":"ŞÜKRANİYE MAH.","zip":"16320"},{"name":"YEŞİLYAYLA MAH.","zip":"16320"}]},{"name":"DAVUTKADI","cityName":null,"quarters":[{"name":"DAVUTKADI MAH.","zip":"16340"},{"name":"MALTEPE MAH.","zip":"16340"},{"name":"MUSABABA MAH.","zip":"16340"},{"name":"PİREMİR MAH.","zip":"16340"},{"name":"SIRACEVİZLER MAH.","zip":"16340"},{"name":"YEDİSELVİLER MAH.","zip":"16340"},{"name":"ZÜMRÜTEVLER MAH.","zip":"16340"}]},{"name":"DUAÇINAR","cityName":null,"quarters":[{"name":"DUAÇINARI MAH.","zip":"16370"},{"name":"KAZIM KARABEKİR MAH.","zip":"16370"},{"name":"MİLLET MAH.","zip":"16370"},{"name":"SAMANLI MAH.","zip":"16370"},{"name":"VATAN MAH.","zip":"16370"},{"name":"YUNUSEMRE MAH.","zip":"16370"}]},{"name":"ESENEVLER","cityName":null,"quarters":[{"name":"BAĞLARALTI MAH.","zip":"16300"},{"name":"CUMALIKIZIK MAH.","zip":"16300"},{"name":"DEĞİRMENÖNÜ MAH.","zip":"16300"},{"name":"ERİKLİ MAH.","zip":"16300"},{"name":"ESENEVLER MAH.","zip":"16300"},{"name":"FİDYEKIZIK MAH.","zip":"16300"},{"name":"HAMAMLIKIZIK MAH.","zip":"16300"},{"name":"KARAPINAR MAH.","zip":"16300"},{"name":"YİĞİTLER MAH.","zip":"16300"}]},{"name":"ORTABAĞLAR","cityName":null,"quarters":[{"name":"ERTUĞRULGAZİ MAH.","zip":"16310"},{"name":"GÜLLÜK MAH.","zip":"16310"},{"name":"KAPLIKAYA MAH.","zip":"16310"},{"name":"MİMARSİNAN MAH.","zip":"16310"},{"name":"ORTABAĞLAR MAH.","zip":"16310"},{"name":"SELÇUKBEY MAH.","zip":"16310"},{"name":"SİTELER MAH.","zip":"16310"},{"name":"ZEYNİLER MAH.","zip":"16310"}]},{"name":"SETBAŞI","cityName":null,"quarters":[{"name":"HOCATAŞKIN MAH.","zip":"16360"},{"name":"KARAAĞAÇ MAH.","zip":"16360"},{"name":"KARAMAZAK MAH.","zip":"16360"},{"name":"KURTOĞLU MAH.","zip":"16360"},{"name":"MEYDANCIK MAH.","zip":"16360"},{"name":"MOLLAARAP MAH.","zip":"16360"},{"name":"NAMAZGAH MAH.","zip":"16360"},{"name":"TEFERRÜÇ MAH.","zip":"16360"},{"name":"UMURBEY MAH.","zip":"16360"},{"name":"YENIMAHALLE MAH.","zip":"16360"},{"name":"YEŞİL MAH.","zip":"16360"}]},{"name":"YILDIRIM","cityName":null,"quarters":[{"name":"HACISEYFETTİN MAH.","zip":"16350"},{"name":"SELİMZADE MAH.","zip":"16350"},{"name":"SİNANDEDE MAH.","zip":"16350"},{"name":"YILDIRIM MAH.","zip":"16350"}]}]}]}