{"id":17,"name":"ÇANAKKALE","cities":[{"name":"city","districts":[{"name":"AYVACIK","cityName":null,"quarters":null},{"name":"KÜÇÜKKUYU","cityName":null,"quarters":[{"name":"ADATEPEBAŞI ÇAMTEPE MAH.","zip":"17980"},{"name":"ADATEPEBAŞI DEĞİRMENDERE MAH.","zip":"17980"},{"name":"ADATEPEBAŞI MAH.","zip":"17980"},{"name":"ADATEPEBAŞI MEKARCAN MAH.","zip":"17980"},{"name":"ADATEPEBAŞI PALAMUTLUK MAH.","zip":"17980"},{"name":"AGORA MAH.","zip":"17980"},{"name":"ARIKLI KÖYÜ","zip":"17980"},{"name":"BABADERE KÖYÜ","zip":"17980"},{"name":"BAHÇEDERE KÖYÜ","zip":"17980"},{"name":"BAŞDEĞİRMEN ŞELALE MAH.","zip":"17980"},{"name":"BOZTEPE MAH.","zip":"17980"},{"name":"CEVİZLİBURUN MAH.","zip":"17980"},{"name":"ÇETMİBAŞI MAH.","zip":"17980"},{"name":"ÇETMİBAŞI-ÇAMEGREK MAH.","zip":"17980"},{"name":"ÇETMİBAŞI-TELLİGIRAN MAH.","zip":"17980"},{"name":"DEREOBA MAH.","zip":"17980"},{"name":"GÖKÇETEPE MAH.","zip":"17980"},{"name":"HASANOBASI MAH.","zip":"17980"},{"name":"ILICA MAH.","zip":"17980"},{"name":"KARAYOLLARI DİNLENME MAH.","zip":"17980"},{"name":"KIZTAŞI MAH.","zip":"17980"},{"name":"KÜÇÜKÇETMİ KÖYÜ","zip":"17980"},{"name":"KÜÇÜKKUYU KÖYÜ","zip":"17980"},{"name":"KÜPYANI MAH.","zip":"17980"},{"name":"MIHLI MAH.","zip":"17980"},{"name":"NUSRATLI KÖYÜ","zip":"17980"},{"name":"PINARALTI MAH.","zip":"17980"},{"name":"SAHİL MAH.","zip":"17980"},{"name":"SİVRİCE MAH.","zip":"17980"},{"name":"YALI MAH.","zip":"17980"},{"name":"YEŞİLYURT KÖYÜ","zip":"17980"}]},{"name":"MERKEZKÖYLER","cityName":null,"quarters":[{"name":"AHMETÇE KÖYÜ","zip":"17862"},{"name":"AHMETÇE MÜCAVİR MAH.","zip":"17862"},{"name":"AHMETÇE SAHİL YOLU MAH.","zip":"17862"},{"name":"AHMETLER KÖYÜ","zip":"17862"},{"name":"AKÇİN KÖYÜ","zip":"17862"},{"name":"AKDEDE MAH.","zip":"17862"},{"name":"AKLİMAN MAH.","zip":"17862"},{"name":"AŞAĞI OBA MAH.","zip":"17862"},{"name":"AŞAĞI TARTIŞIK MAH.","zip":"17862"},{"name":"ATATÜRK MAH.","zip":"17862"},{"name":"AYVACIK ALANI MAH.","zip":"17862"},{"name":"BABAKALE KÖYÜ","zip":"17862"},{"name":"BADEMLİ KÖYÜ","zip":"17862"},{"name":"BAHARLAR KÖYÜ","zip":"17862"},{"name":"BALABANLI KÖYÜ","zip":"17862"},{"name":"BAŞBAHÇE MAH.","zip":"17862"},{"name":"BEHRAM KÖYÜ","zip":"17862"},{"name":"BEKTAŞ KÖYÜ","zip":"17862"},{"name":"BEYALANI MAH.","zip":"17862"},{"name":"BİLALLER KÖYÜ","zip":"17862"},{"name":"BUDAKLAR KÖYÜ","zip":"17862"},{"name":"BÜNGÜLDEK MAH.","zip":"17862"},{"name":"BÜYÜKHUSUN KÖYÜ","zip":"17862"},{"name":"CEMALLER KÖYÜ","zip":"17862"},{"name":"ÇAKMAK MAH.","zip":"17862"},{"name":"ÇAKMAKLAR KÖYÜ","zip":"17862"},{"name":"ÇALTEPE MAH.","zip":"17862"},{"name":"ÇALTI KÖYÜ","zip":"17862"},{"name":"ÇAMİÇİ MAH.","zip":"17862"},{"name":"ÇAMKALABAK KÖYÜ","zip":"17862"},{"name":"ÇAMKÖY KÖYÜ","zip":"17862"},{"name":"ÇAMLIK MAH.","zip":"17862"},{"name":"ÇAMOBA MAH.","zip":"17862"},{"name":"ÇAMTEPE MAH.","zip":"17862"},{"name":"ÇARDAK BAYIRI MAH.","zip":"17862"},{"name":"ÇARDAKBAYIRI MAH.","zip":"17862"},{"name":"ÇAYİÇİ MAH.","zip":"17862"},{"name":"ÇINARPINAR KÖYÜ","zip":"17862"},{"name":"DEDEKABAÇ MAH.","zip":"17862"},{"name":"DEMİRCİ KÖYÜ","zip":"17862"},{"name":"DEREOBA MAH.","zip":"17862"},{"name":"DİBEKLİ KÖYÜ","zip":"17862"},{"name":"DOĞRUÇARDAK MAH.","zip":"17862"},{"name":"ERECEK KÖYÜ","zip":"17862"},{"name":"GÜLPINAR KÖYÜ","zip":"17862"},{"name":"GÜZELKÖY KÖYÜ","zip":"17862"},{"name":"HARAPİÇİ MAH.","zip":"17862"},{"name":"HÜSEYİNFAKI KÖYÜ","zip":"17862"},{"name":"ILICAK MAH.","zip":"17862"},{"name":"İLYASFAKI KÖYÜ","zip":"17862"},{"name":"İNÖNÜ YAYLASI MAH.","zip":"17862"},{"name":"İSKELE MEVKİİ MAH.","zip":"17862"},{"name":"KADIRGA MEVKİİ MAH.","zip":"17862"},{"name":"KARAAYIT MAH.","zip":"17862"},{"name":"KARABAŞINOBA MAH.","zip":"17862"},{"name":"KARABURUN MAH.","zip":"17862"},{"name":"KARADİKEN MAH.","zip":"17862"},{"name":"KARBASTI MAH.","zip":"17862"},{"name":"KARŞIOBA MAH.","zip":"17862"},{"name":"KAŞKAYA MAH.","zip":"17862"},{"name":"KAYAKÖY KOOPERATİFİ MAH.","zip":"17862"},{"name":"KAYALAR KÖYÜ","zip":"17862"},{"name":"KAYALAR MÜCAVİR MAH.","zip":"17862"},{"name":"KAYALAR SAHİL YOLU MAH.","zip":"17862"},{"name":"KAYANLAR MAH.","zip":"17862"},{"name":"KEÇİKAYA KÖYÜ","zip":"17862"},{"name":"KELEŞİNOBA MAH.","zip":"17862"},{"name":"KESTANELİK KÖYÜ","zip":"17862"},{"name":"KIRAN ÜSTÜ MAH.","zip":"17862"},{"name":"KIRCA KÖYÜ","zip":"17862"},{"name":"KISACIK KÖYÜ","zip":"17862"},{"name":"KIZILKEÇİLİ MAH.","zip":"17862"},{"name":"KOCAKÖY KÖYÜ","zip":"17862"},{"name":"KORUBAŞI KÖYÜ","zip":"17862"},{"name":"KOYUNEVİ KÖYÜ","zip":"17862"},{"name":"KOZLU KÖYÜ","zip":"17862"},{"name":"KÖKYERİ MAH.","zip":"17862"},{"name":"KÖSEDERE KÖYÜ","zip":"17862"},{"name":"KULFAL KÖYÜ","zip":"17862"},{"name":"KURUOBA KÖYÜ","zip":"17862"},{"name":"KUŞKONMAZ MAH.","zip":"17862"},{"name":"KÜÇÜK KESTANELİK MAH.","zip":"17862"},{"name":"KÜÇÜKHUSUN KÖYÜ","zip":"17862"},{"name":"KÜPLÜ YAYLALARI MAH.","zip":"17862"},{"name":"MERKEZ 1 MAH.","zip":"17862"},{"name":"MERKEZ 2 MAH.","zip":"17862"},{"name":"MİSVAK KÖYÜ","zip":"17862"},{"name":"NALDÖKEN KÖYÜ","zip":"17862"},{"name":"NAMAZGAH MAH.","zip":"17862"},{"name":"PAŞAKÖY ALTI MAH.","zip":"17862"},{"name":"PAŞAKÖY KÖYÜ","zip":"17862"},{"name":"PAŞAKÖY MÜCAVİR MAH.","zip":"17862"},{"name":"PINARDERE KÖYÜ","zip":"17862"},{"name":"SAHİL MAH.","zip":"17862"},{"name":"SAPANCA KÖYÜ","zip":"17862"},{"name":"SARNIÇALTI MAH.","zip":"17862"},{"name":"SAZAK MAH.","zip":"17862"},{"name":"SAZLI ALTI MAH.","zip":"17862"},{"name":"SAZLI KÖYÜ","zip":"17862"},{"name":"SOKAKAĞZI MAH.","zip":"17862"},{"name":"SÖĞÜTLÜ KÖYÜ","zip":"17862"},{"name":"SÜLEYMANKÖY KÖYÜ","zip":"17862"},{"name":"ŞAPKÖY KÖYÜ","zip":"17862"},{"name":"TABAKLAR KÖYÜ","zip":"17862"},{"name":"TAMIŞ KÖYÜ","zip":"17862"},{"name":"TARTIŞIK KÖYÜ","zip":"17862"},{"name":"TAŞAĞIL KÖYÜ","zip":"17862"},{"name":"TAŞBOĞAZ KÖYÜ","zip":"17862"},{"name":"TUZLA KÖYÜ","zip":"17862"},{"name":"TUZTAŞI KÖYÜ","zip":"17862"},{"name":"UZUNALAN KÖYÜ","zip":"17862"},{"name":"YALI MAH.","zip":"17862"},{"name":"YALI MEVKİİ MAH.","zip":"17862"},{"name":"YALIPARA MAH.","zip":"17862"},{"name":"YAYLA EVLERİ AKPINAR MEVKİİ MAH.","zip":"17862"},{"name":"YAYLA EVLERİ MAH.","zip":"17862"},{"name":"YENİÇAM KÖYÜ","zip":"17862"},{"name":"YENİOBA MAH.","zip":"17862"},{"name":"YEŞİLLİMAN MAH.","zip":"17862"},{"name":"YÖRÜKLER EVİ MAH.","zip":"17862"},{"name":"YUKARI TARTIŞIK MAH.","zip":"17862"},{"name":"YUKARIKÖY KÖYÜ","zip":"17862"}]},{"name":"BAYRAMİÇ","cityName":null,"quarters":[{"name":"CAMİKEBİR MAH.","zip":"17700"},{"name":"MENDERES MAH.","zip":"17700"},{"name":"TEPECİK MAH.","zip":"17700"}]},{"name":"EVCİLER","cityName":null,"quarters":[{"name":"AYAZMA YOLU ÜZERİ MAH.","zip":"17720"},{"name":"BEŞİK KÖYÜ","zip":"17720"},{"name":"ÇALIOBAAKÇAKIL KÖYÜ","zip":"17720"},{"name":"ÇALTILIK MAH.","zip":"17720"},{"name":"ÇAVUŞLU KÖYÜ","zip":"17720"},{"name":"ÇIRPILAR KÖYÜ","zip":"17720"},{"name":"DAĞOBA KÖYÜ","zip":"17720"},{"name":"EVCİLER KÖYÜ","zip":"17720"},{"name":"GEDİK KÖYÜ","zip":"17720"},{"name":"KARAKÖY KÖYÜ","zip":"17720"},{"name":"KÖSELER KÖYÜ","zip":"17720"},{"name":"KÜLCÜLER KÖYÜ","zip":"17720"},{"name":"MOLLAHASANLAR KÖYÜ","zip":"17720"},{"name":"SARIOT KÖYÜ","zip":"17720"},{"name":"SERHAT KÖYÜ","zip":"17720"},{"name":"TOLUKLAR KÖYÜ","zip":"17720"},{"name":"TONGURLU KÖYÜ","zip":"17720"},{"name":"YEŞİLKÖY KÖYÜ","zip":"17720"},{"name":"YUKARI MAH.","zip":"17720"}]},{"name":"MERKEZKÖYLER","cityName":null,"quarters":[{"name":"AHMETÇELİ KÖYÜ","zip":"17722"},{"name":"AKPINAR KÖYÜ","zip":"17722"},{"name":"ALAKEÇİ KÖYÜ","zip":"17722"},{"name":"ALİKABAKLAR KÖYÜ","zip":"17722"},{"name":"ASMALI MAH.","zip":"17722"},{"name":"BIYIKLI KÖYÜ","zip":"17722"},{"name":"ÇALIDAĞI KÖYÜ","zip":"17722"},{"name":"ÇAVUŞKÖY KÖYÜ","zip":"17722"},{"name":"DAĞAHMETÇE KÖYÜ","zip":"17722"},{"name":"DALOBA KÖYÜ","zip":"17722"},{"name":"DOĞANCI KÖYÜ","zip":"17722"},{"name":"DOMBAYLAR MAH.","zip":"17722"},{"name":"GÜVEMCİK MAH.","zip":"17722"},{"name":"GÜZELTEPE KÖYÜ","zip":"17722"},{"name":"IŞIKLAR MAH.","zip":"17722"},{"name":"KARŞIOBA MAH.","zip":"17722"},{"name":"KAYKILAR KÖYÜ","zip":"17722"},{"name":"KOŞUBURNUTÜRKMENLERİ KÖYÜ","zip":"17722"},{"name":"KÖSELER MAH.","zip":"17722"},{"name":"KURŞUNLU KÖYÜ","zip":"17722"},{"name":"KUTLUOBA KÖYÜ","zip":"17722"},{"name":"MACIR MAH.","zip":"17722"},{"name":"MERKEZ MAH.","zip":"17722"},{"name":"MESCİT MAH.","zip":"17722"},{"name":"NEBİLER KÖYÜ","zip":"17722"},{"name":"NİZAM MAH.","zip":"17722"},{"name":"ÖRENLİ KÖYÜ","zip":"17722"},{"name":"PALAMUTOBA KÖYÜ","zip":"17722"},{"name":"PINARBAŞI KÖYÜ","zip":"17722"},{"name":"PITIRELİ KÖYÜ","zip":"17722"},{"name":"SAÇAKLI KÖYÜ","zip":"17722"},{"name":"SARAYCIK KÖYÜ","zip":"17722"},{"name":"SARIDÜZ KÖYÜ","zip":"17722"},{"name":"TÜLÜLER KÖYÜ","zip":"17722"},{"name":"TÜRKMENLİ KÖYÜ","zip":"17722"},{"name":"TÜTÜLER MAH.","zip":"17722"},{"name":"ÜZÜMLÜ KÖYÜ","zip":"17722"},{"name":"YAHŞİELİ KÖYÜ","zip":"17722"},{"name":"YASSIBAĞ KÖYÜ","zip":"17722"},{"name":"YUKARIPALAMUT MAH.","zip":"17722"},{"name":"ZERDALİLİK KÖYÜ","zip":"17722"},{"name":"ZEYTİNLİ KÖYÜ","zip":"17722"}]},{"name":"YİĞİTLER","cityName":null,"quarters":[{"name":"AŞAĞIŞEVİK KÖYÜ","zip":"17721"},{"name":"BEKİRLER KÖYÜ","zip":"17721"},{"name":"BEZİRGANLAR KÖYÜ","zip":"17721"},{"name":"CAZGİRLER KÖYÜ","zip":"17721"},{"name":"ÇATALÇAM KÖYÜ","zip":"17721"},{"name":"ÇİFTLİK KÖYÜ","zip":"17721"},{"name":"GÖKÇEİÇİ KÖYÜ","zip":"17721"},{"name":"HACIBEKİRLER KÖYÜ","zip":"17721"},{"name":"HACIDERVİŞLER KÖYÜ","zip":"17721"},{"name":"HACIKÖY KÖYÜ","zip":"17721"},{"name":"IŞIKELİ KÖYÜ","zip":"17721"},{"name":"KARAİBRAHİMLER KÖYÜ","zip":"17721"},{"name":"KARINCALIK KÖYÜ","zip":"17721"},{"name":"KORUCAK KÖYÜ","zip":"17721"},{"name":"KÖYLÜ KÖYÜ","zip":"17721"},{"name":"KUŞÇAYIR KÖYÜ","zip":"17721"},{"name":"MURATLAR KÖYÜ","zip":"17721"},{"name":"OSMANİYE KÖYÜ","zip":"17721"},{"name":"SÖĞÜTGEDİĞİ KÖYÜ","zip":"17721"},{"name":"TEPEKÖY MAH.","zip":"17721"},{"name":"ÜÇYOL KÖYÜ","zip":"17721"},{"name":"YANIKLAR KÖYÜ","zip":"17721"},{"name":"YAYLACIK KÖYÜ","zip":"17721"},{"name":"YENİCEKÖY KÖYÜ","zip":"17721"},{"name":"YENİKÖY KÖYÜ","zip":"17721"},{"name":"YENİKÖY MAH.","zip":"17721"},{"name":"YİĞİTALİLER KÖYÜ","zip":"17721"},{"name":"YUKARIŞAPÇI KÖYÜ","zip":"17721"},{"name":"YUKARIŞEVİK KÖYÜ","zip":"17721"}]},{"name":"BİGA","cityName":null,"quarters":[{"name":"GAZİKEMAL MAH.","zip":"17200"},{"name":"HAMDİBEY MAH.","zip":"17200"},{"name":"İSTİKLAL MAH.","zip":"17200"},{"name":"SAKARYA MAH.","zip":"17200"},{"name":"ŞİRİNTEPE MAH.","zip":"17200"},{"name":"TURAN MAH.","zip":"17200"}]},{"name":"GÜMÜŞÇAY","cityName":null,"quarters":[{"name":"AŞAĞIDEMİRCİ KÖYÜ","zip":"17300"},{"name":"CUMHURİYET MAH.","zip":"17300"},{"name":"ÇEŞMEALTI KÖYÜ","zip":"17300"},{"name":"ÇINARKÖPRÜ KÖYÜ","zip":"17300"},{"name":"EĞRİDERE KÖYÜ","zip":"17300"},{"name":"EMİRORMAN KÖYÜ","zip":"17300"},{"name":"GÜMÜŞÇAY KÖYÜ","zip":"17300"},{"name":"HACIKÖY KÖYÜ","zip":"17300"},{"name":"İĞDELİK MAH.","zip":"17300"},{"name":"KANİBEY KÖYÜ","zip":"17300"},{"name":"OSMANİYE KÖYÜ","zip":"17300"},{"name":"ŞİRİNKÖY KÖYÜ","zip":"17300"},{"name":"YUKARIDEMİRCİ KÖYÜ","zip":"17300"}]},{"name":"KARABİGA","cityName":null,"quarters":[{"name":"AKSAZ MAH.","zip":"17950"},{"name":"AKSAZ MÜCAVİR MAH.","zip":"17950"},{"name":"ÇAKIRLI KÖYÜ","zip":"17950"},{"name":"ÇINARLI TARLA MEVKİİ MAH.","zip":"17950"},{"name":"DEĞİRMENCİK KÖYÜ","zip":"17950"},{"name":"DERE MAH.","zip":"17950"},{"name":"HACIHÜSEYİNYAYLASI KÖYÜ","zip":"17950"},{"name":"KARABİGA KÖYÜ","zip":"17950"},{"name":"KARAPÜRÇEK KÖYÜ","zip":"17950"},{"name":"KOCAGÜR KÖYÜ","zip":"17950"},{"name":"ÖRTÜLÜCE KÖYÜ","zip":"17950"},{"name":"ŞAHMELEK MAH.","zip":"17950"},{"name":"TOKATKIRI KÖYÜ","zip":"17950"},{"name":"ULUCAMİİ MAH.","zip":"17950"},{"name":"YALI MAH.","zip":"17950"},{"name":"ZEYTİNLİK MAH.","zip":"17950"}]},{"name":"MERKEZKÖYLER","cityName":null,"quarters":[{"name":"AĞAKÖY (MÜCAVİR) MAH.","zip":"17202"},{"name":"AĞAKÖY KÖYÜ","zip":"17202"},{"name":"AHATOBA MAH.","zip":"17202"},{"name":"AHMETLER KÖYÜ","zip":"17202"},{"name":"AKKAYRAK KÖYÜ","zip":"17202"},{"name":"AKKÖPRÜ KÖYÜ","zip":"17202"},{"name":"AKPINAR KÖYÜ","zip":"17202"},{"name":"AKYAPRAK KÖYÜ","zip":"17202"},{"name":"AMBAROBA KÖYÜ","zip":"17202"},{"name":"ARABAALAN KÖYÜ","zip":"17202"},{"name":"ARABAKONAĞI KÖYÜ","zip":"17202"},{"name":"AŞAĞI MAH.","zip":"17202"},{"name":"AYITDERE KÖYÜ","zip":"17202"},{"name":"AZİZİYE KÖYÜ","zip":"17202"},{"name":"BAHÇELİ KÖYÜ","zip":"17202"},{"name":"BAKACAK KÖYÜ","zip":"17202"},{"name":"BAKACAKLIÇİFTLİĞİ KÖYÜ","zip":"17202"},{"name":"BALIKLIÇEŞME KÖYÜ","zip":"17202"},{"name":"BALIKLIÇEŞME MERKEZ MAH.","zip":"17202"},{"name":"BEKİRLİ KÖYÜ","zip":"17202"},{"name":"BEZİRGANLAR KÖYÜ","zip":"17202"},{"name":"BOZLAR KÖYÜ","zip":"17202"},{"name":"CAMİALAN KÖYÜ","zip":"17202"},{"name":"CİHADİYE KÖYÜ","zip":"17202"},{"name":"ÇAVUŞKÖY MAH.","zip":"17202"},{"name":"ÇELİKGÜRÜ KÖYÜ","zip":"17202"},{"name":"ÇELTİK KÖYÜ","zip":"17202"},{"name":"ÇINARDERE KÖYÜ","zip":"17202"},{"name":"ÇÖMLEKÇİ KÖYÜ","zip":"17202"},{"name":"DANİŞMENT KÖYÜ","zip":"17202"},{"name":"DEREKÖY KÖYÜ","zip":"17202"},{"name":"DİKMEN KÖYÜ","zip":"17202"},{"name":"DOĞANCI KÖYÜ","zip":"17202"},{"name":"ECE MAH.","zip":"17202"},{"name":"ELMALI KÖYÜ","zip":"17202"},{"name":"ESKİBALIKLI KÖYÜ","zip":"17202"},{"name":"EYBEKLİ KÖYÜ","zip":"17202"},{"name":"GEMİCİKIRI KÖYÜ","zip":"17202"},{"name":"GEREDELLİ KÖYÜ","zip":"17202"},{"name":"GERLENGEÇ KÖYÜ","zip":"17202"},{"name":"GEYİKKIRI KÖYÜ","zip":"17202"},{"name":"GÖKÇESU MAH.","zip":"17202"},{"name":"GÖKTEPE KÖYÜ","zip":"17202"},{"name":"GÜLEÇ KÖYÜ","zip":"17202"},{"name":"GÜNDOĞDU KÖYÜ","zip":"17202"},{"name":"GÜRÇEŞME KÖYÜ","zip":"17202"},{"name":"GÜRGENDERE KÖYÜ","zip":"17202"},{"name":"GÜVEM MAH.","zip":"17202"},{"name":"GÜVEMALAN KÖYÜ","zip":"17202"},{"name":"HACIPEHLİVAN KÖYÜ","zip":"17202"},{"name":"HARMANLI KÖYÜ","zip":"17202"},{"name":"HAVDAN KÖYÜ","zip":"17202"},{"name":"HİSARLI KÖYÜ","zip":"17202"},{"name":"HOŞOBA KÖYÜ","zip":"17202"},{"name":"ILICABAŞI KÖYÜ","zip":"17202"},{"name":"IŞIKELİ KÖYÜ","zip":"17202"},{"name":"İDRİSKORU KÖYÜ","zip":"17202"},{"name":"İLYASALAN KÖYÜ","zip":"17202"},{"name":"İSKENDER KÖYÜ","zip":"17202"},{"name":"KAHVETEPE KÖYÜ","zip":"17202"},{"name":"KALAFAT KÖYÜ","zip":"17202"},{"name":"KALDIRIMBAŞI KÖYÜ","zip":"17202"},{"name":"KAPANBELEN KÖYÜ","zip":"17202"},{"name":"KARAAĞAÇ KÖYÜ","zip":"17202"},{"name":"KARACAALİ KÖYÜ","zip":"17202"},{"name":"KARAHAMZALAR KÖYÜ","zip":"17202"},{"name":"KAŞIKÇIOBA KÖYÜ","zip":"17202"},{"name":"KATRANCI KÖYÜ","zip":"17202"},{"name":"KAYAPINAR KÖYÜ","zip":"17202"},{"name":"KAYNARCA KÖYÜ","zip":"17202"},{"name":"KAZIKLI MAH.","zip":"17202"},{"name":"KAZMALI KÖYÜ","zip":"17202"},{"name":"KEMER KÖYÜ","zip":"17202"},{"name":"KEPEKLİ KÖYÜ","zip":"17202"},{"name":"KORUOBA KÖYÜ","zip":"17202"},{"name":"KOZÇEŞME KÖYÜ","zip":"17202"},{"name":"KÖYİÇİ MAH.","zip":"17202"},{"name":"KUMKENT MAH.","zip":"17202"},{"name":"KÜÇÜKKÖY MAH.","zip":"17202"},{"name":"MERKEZ MAH.","zip":"17202"},{"name":"ORGANİZE SANAYİ BÖLGESİ MAH.","zip":"17202"},{"name":"OTLUKDERE KÖYÜ","zip":"17202"},{"name":"OVACIK KÖYÜ","zip":"17202"},{"name":"PAŞAÇAYI KÖYÜ","zip":"17202"},{"name":"PEKMEZLİ KÖYÜ","zip":"17202"},{"name":"RAMAZANLAR KÖYÜ","zip":"17202"},{"name":"SARICA KÖYÜ","zip":"17202"},{"name":"SARIKAYA KÖYÜ","zip":"17202"},{"name":"SARISIVAT KÖYÜ","zip":"17202"},{"name":"SARNIÇ KÖYÜ","zip":"17202"},{"name":"SAVAŞTEPE KÖYÜ","zip":"17202"},{"name":"SAZKENT MAH.","zip":"17202"},{"name":"SAZOBA KÖYÜ","zip":"17202"},{"name":"SELVİ KÖYÜ","zip":"17202"},{"name":"SIĞIRCIK KÖYÜ","zip":"17202"},{"name":"SİNEKÇİ KÖYÜ","zip":"17202"},{"name":"SÜLÜNOBA MAH.","zip":"17202"},{"name":"ŞAKİRBEY KÖYÜ","zip":"17202"},{"name":"TÜRKBAKACAK KÖYÜ","zip":"17202"},{"name":"UZUNDERE MAH.","zip":"17202"},{"name":"YANIÇ KÖYÜ","zip":"17202"},{"name":"YENİ EŞELEK MAH.","zip":"17202"},{"name":"YENİCEKÖY MAH.","zip":"17202"},{"name":"YENİÇİFTLİK KÖYÜ","zip":"17202"},{"name":"YENİMAHALLE KÖYÜ","zip":"17202"},{"name":"YEŞİLKÖY KÖYÜ","zip":"17202"},{"name":"YOLİNDİ KÖYÜ","zip":"17202"}]},{"name":"BOZCAADA","cityName":null,"quarters":[{"name":"CUMHURİYET MAH.","zip":"17680"}]},{"name":"ÇAN","cityName":null,"quarters":[{"name":"CUMHURİYET MAH.","zip":"17400"},{"name":"FATİH MAH.","zip":"17400"},{"name":"İSTİKLAL MAH.","zip":"17400"},{"name":"KARŞIYAKA MAH.","zip":"17400"},{"name":"OSMANEFENDİ MAH.","zip":"17400"},{"name":"SERAMİK MAH.","zip":"17400"}]},{"name":"MERKEZKÖYLER","cityName":null,"quarters":[{"name":"ALİBEYÇİFTLİĞİ KÖYÜ","zip":"17402"},{"name":"ALTIKULAÇ KÖYÜ","zip":"17402"},{"name":"ASMALI KÖYÜ","zip":"17402"},{"name":"BAHADIRLI KÖYÜ","zip":"17402"},{"name":"BARDAKÇILAR KÖYÜ","zip":"17402"},{"name":"BİLALLER KÖYÜ","zip":"17402"},{"name":"BOSTANDERE KÖYÜ","zip":"17402"},{"name":"BOZGUÇ KÖYÜ","zip":"17402"},{"name":"BÜKLER MAH.","zip":"17402"},{"name":"BÜYÜKPAŞA KÖYÜ","zip":"17402"},{"name":"BÜYÜKPAŞA MÜCAVİR MAH.","zip":"17402"},{"name":"BÜYÜKTEPE KÖYÜ","zip":"17402"},{"name":"CİCİKLER KÖYÜ","zip":"17402"},{"name":"ÇAKILKÖY KÖYÜ","zip":"17402"},{"name":"ÇAKMAKÇAYIR MAH.","zip":"17402"},{"name":"ÇALTIKARA KÖYÜ","zip":"17402"},{"name":"ÇAMKÖY KÖYÜ","zip":"17402"},{"name":"ÇEKİÇLER KÖYÜ","zip":"17402"},{"name":"ÇOMAKLI KÖYÜ","zip":"17402"},{"name":"DANAPINAR KÖYÜ","zip":"17402"},{"name":"DERENTİ KÖYÜ","zip":"17402"},{"name":"DEREOBA KÖYÜ","zip":"17402"},{"name":"DOĞACA KÖYÜ","zip":"17402"},{"name":"DOĞANCILAR KÖYÜ","zip":"17402"},{"name":"DONDURMA KÖYÜ","zip":"17402"},{"name":"DUMAN KÖYÜ","zip":"17402"},{"name":"DURALİ KÖYÜ","zip":"17402"},{"name":"DURALİ MÜCAVİR MAH.","zip":"17402"},{"name":"EMEŞE KÖYÜ","zip":"17402"},{"name":"ESKİYAYLA KÖYÜ","zip":"17402"},{"name":"ETİLİ KÖYÜ","zip":"17402"},{"name":"GÖLE KÖYÜ","zip":"17402"},{"name":"HACIKASIM KÖYÜ","zip":"17402"},{"name":"HACILAR KÖYÜ","zip":"17402"},{"name":"HALİLAĞA KÖYÜ","zip":"17402"},{"name":"HELVACI KÖYÜ","zip":"17402"},{"name":"HURMA KÖYÜ","zip":"17402"},{"name":"HURMAKÖY MÜCAVİR MAH.","zip":"17402"},{"name":"İLYASAĞAÇİFTLİĞİ KÖYÜ","zip":"17402"},{"name":"KADILAR KÖYÜ","zip":"17402"},{"name":"KALBURCU KÖYÜ","zip":"17402"},{"name":"KAPLICALAR MAH.","zip":"17402"},{"name":"KARADAĞ KÖYÜ","zip":"17402"},{"name":"KARAKADILAR KÖYÜ","zip":"17402"},{"name":"KARAKOCA KÖYÜ","zip":"17402"},{"name":"KARLI KÖYÜ","zip":"17402"},{"name":"KAZABAT KÖYÜ","zip":"17402"},{"name":"KEÇİAĞILI KÖYÜ","zip":"17402"},{"name":"KIZILELMA KÖYÜ","zip":"17402"},{"name":"KİLİMLİ MAH.","zip":"17402"},{"name":"KOCAYAYLA KÖYÜ","zip":"17402"},{"name":"KOYUNYERİ KÖYÜ","zip":"17402"},{"name":"KULFAL KÖYÜ","zip":"17402"},{"name":"KULFAL MÜCAVİR MAH.","zip":"17402"},{"name":"KUMARLAR KÖYÜ","zip":"17402"},{"name":"KÜÇÜKLÜ KÖYÜ","zip":"17402"},{"name":"KÜÇÜKPAŞA KÖYÜ","zip":"17402"},{"name":"MALLI KÖYÜ","zip":"17402"},{"name":"MALTEPE KÖYÜ","zip":"17402"},{"name":"MANYASOBA MAH.","zip":"17402"},{"name":"OKÇULAR KÖYÜ","zip":"17402"},{"name":"OZANCIK KÖYÜ","zip":"17402"},{"name":"SAMETELİ KÖYÜ","zip":"17402"},{"name":"SÖĞÜTALAN KÖYÜ","zip":"17402"},{"name":"SÜLE MAH.","zip":"17402"},{"name":"ŞERBETLİ KÖYÜ","zip":"17402"},{"name":"TEPEKÖY KÖYÜ","zip":"17402"},{"name":"TERZİALAN KÖYÜ","zip":"17402"},{"name":"UZUNALAN KÖYÜ","zip":"17402"},{"name":"ÜVEZDERE KÖYÜ","zip":"17402"},{"name":"YAYA KÖYÜ","zip":"17402"},{"name":"YAYKIN KÖYÜ","zip":"17402"},{"name":"YENİÇERİ KÖYÜ","zip":"17402"},{"name":"YUKARIKÖY MAH.","zip":"17402"},{"name":"YUVALAR KÖYÜ","zip":"17402"},{"name":"ZEYBEKÇAYIR KÖYÜ","zip":"17402"}]},{"name":"ECEABAT","cityName":null,"quarters":[{"name":"KEMALPAŞA MAH.","zip":"17900"}]},{"name":"MERKEZKÖYLER","cityName":null,"quarters":[{"name":"ALÇITEPE KÖYÜ","zip":"17902"},{"name":"AZMAK MAH.","zip":"17902"},{"name":"BAŞÇEŞME MAH.","zip":"17902"},{"name":"BEHRAMLI KÖYÜ","zip":"17902"},{"name":"BEŞYOL KÖYÜ","zip":"17902"},{"name":"BİGALI KÖYÜ","zip":"17902"},{"name":"BOYACIBURNU YALILAR MAH.","zip":"17902"},{"name":"BÜYÜKANAFARTA KÖYÜ","zip":"17902"},{"name":"GÖZTEPE MAH.","zip":"17902"},{"name":"KİLİDÜLBAHİR KÖYÜ","zip":"17902"},{"name":"KOCADERE KÖYÜ","zip":"17902"},{"name":"KUMKÖY KÖYÜ","zip":"17902"},{"name":"KÜÇÜKANAFARTA KÖYÜ","zip":"17902"},{"name":"MERKEZ MAH.","zip":"17902"},{"name":"MORTO KOYU MAH.","zip":"17902"},{"name":"SEDDÜLBAHİR DUASI MAH.","zip":"17902"},{"name":"SEDDÜLBAHİR KÖYÜ","zip":"17902"},{"name":"TEKKE MAH.","zip":"17902"},{"name":"TOPRAKSIRTI MAH.","zip":"17902"},{"name":"YALOVA KÖYÜ","zip":"17902"},{"name":"YOLAĞZI KÖYÜ","zip":"17902"},{"name":"ZIĞINDERE MAH.","zip":"17902"}]},{"name":"EZİNE","cityName":null,"quarters":[{"name":"CUMHURİYET MAH.","zip":"17600"},{"name":"DANİŞMENT MAH.","zip":"17600"},{"name":"GAZİ MAH.","zip":"17600"},{"name":"SEFERŞAH MAH.","zip":"17600"}]},{"name":"GEYİKLİ","cityName":null,"quarters":[{"name":"BEŞİKE ESEREVLER SİTESİ MAH.","zip":"17610"},{"name":"BOZALAN KÖYÜ","zip":"17610"},{"name":"BOZKÖY MAH.","zip":"17610"},{"name":"CUMHURİYET MAH.","zip":"17610"},{"name":"ÇAMOBA KÖYÜ","zip":"17610"},{"name":"DALYAN KÖYÜ","zip":"17610"},{"name":"GEYİKLİ KÖYÜ","zip":"17610"},{"name":"HÜRRİYET MAH.","zip":"17610"},{"name":"İNLİMANI MAH.","zip":"17610"},{"name":"KÖY İÇİ MAH.","zip":"17610"},{"name":"KUMBURUN KÖYÜ","zip":"17610"},{"name":"MAHMUDİYE KÖYÜ","zip":"17610"},{"name":"MECİDİYE KÖYÜ","zip":"17610"},{"name":"PINARBAŞI KÖYÜ","zip":"17610"},{"name":"TAŞKAPI ÇAMLIK MAH.","zip":"17610"},{"name":"TAŞKAPI DENİZ SİTESİ MAH.","zip":"17610"},{"name":"ÜVECİK KÖYÜ","zip":"17610"},{"name":"YENİKÖY KÖYÜ","zip":"17610"}]},{"name":"MERKEZKÖYLER","cityName":null,"quarters":[{"name":"AKÇAKEÇİLİ KÖYÜ","zip":"17602"},{"name":"AKÇAKEÇİLİ MÜCAVİR MAH.","zip":"17602"},{"name":"AKKÖY KÖYÜ","zip":"17602"},{"name":"ALADAĞ KÖYÜ","zip":"17602"},{"name":"ALEMŞAH KÖYÜ","zip":"17602"},{"name":"ALEMŞAH MÜCAVİR MAH.","zip":"17602"},{"name":"ARAPLAR BOĞAZI MAH.","zip":"17602"},{"name":"ARASANLI KÖYÜ","zip":"17602"},{"name":"BAHÇELİ KÖYÜ","zip":"17602"},{"name":"BALIKLI KÖYÜ","zip":"17602"},{"name":"BALIKLI MÜCAVİR MAH.","zip":"17602"},{"name":"BELEN KÖYÜ","zip":"17602"},{"name":"BOZELİ KÖYÜ","zip":"17602"},{"name":"ÇAMKÖY KÖYÜ","zip":"17602"},{"name":"ÇAMLICA KÖYÜ","zip":"17602"},{"name":"ÇARIKSIZ KÖYÜ","zip":"17602"},{"name":"ÇETMİ KÖYÜ","zip":"17602"},{"name":"ÇINARKÖY KÖYÜ","zip":"17602"},{"name":"DERBENTBAŞI KÖYÜ","zip":"17602"},{"name":"GÖKÇEBAYIR KÖYÜ","zip":"17602"},{"name":"GÜLLÜCE KÖYÜ","zip":"17602"},{"name":"HACI EYÜPLER MAH.","zip":"17602"},{"name":"HACI GARİPLER MAH.","zip":"17602"},{"name":"HACI HÜSEYİNLER MAH.","zip":"17602"},{"name":"HİSARALAN KÖYÜ","zip":"17602"},{"name":"KANARYA SIRTI MAH.","zip":"17602"},{"name":"KARADAĞ KÖYÜ","zip":"17602"},{"name":"KARAGÖMLEK KÖYÜ","zip":"17602"},{"name":"KAYACIK KÖYÜ","zip":"17602"},{"name":"KAYALI MAH.","zip":"17602"},{"name":"KEMALLI KÖYÜ","zip":"17602"},{"name":"KEMALLI MÜCAVİR MAH.","zip":"17602"},{"name":"KESTANBOL KAPLICASI MAH.","zip":"17602"},{"name":"KIZILKÖY KÖYÜ","zip":"17602"},{"name":"KIZILTEPE KÖYÜ","zip":"17602"},{"name":"KİREMİTOBA MAH.","zip":"17602"},{"name":"KOZOVA MAH.","zip":"17602"},{"name":"KÖPRÜBAŞI KÖYÜ","zip":"17602"},{"name":"KÖRÜKTAŞI KÖYÜ","zip":"17602"},{"name":"KÖSELER KÖYÜ","zip":"17602"},{"name":"ORTA MAH.","zip":"17602"},{"name":"PAZARKÖY KÖYÜ","zip":"17602"},{"name":"SARISÖĞÜT KÖYÜ","zip":"17602"},{"name":"SARPDERE KÖYÜ","zip":"17602"},{"name":"ŞAPKÖY KÖYÜ","zip":"17602"},{"name":"TAŞ OBA MAH.","zip":"17602"},{"name":"TAŞTEPE KÖYÜ","zip":"17602"},{"name":"TAVAKLI İSKELESİ MAH.","zip":"17602"},{"name":"TAVAKLI KÖYÜ","zip":"17602"},{"name":"ULUKÖY KÖYÜ","zip":"17602"},{"name":"ULUKÖY MÜCAVİR MAH.","zip":"17602"},{"name":"ÜSKÜFÇÜ KÖYÜ","zip":"17602"},{"name":"YAHYAÇAVUŞ KÖYÜ","zip":"17602"},{"name":"YAVAŞLAR KÖYÜ","zip":"17602"},{"name":"YAYLACIK KÖYÜ","zip":"17602"},{"name":"YENİOBA KÖYÜ","zip":"17602"}]},{"name":"EVREŞE","cityName":null,"quarters":[{"name":"ARMUTDERE MAH.","zip":"17360"},{"name":"ARMUTDERE1 MAH.","zip":"17360"},{"name":"BAĞLARDERE MAH.","zip":"17360"},{"name":"BAYRAMİÇ KÖYÜ","zip":"17360"},{"name":"BOSTANLIK MAH.","zip":"17360"},{"name":"ÇEŞME MAH.","zip":"17360"},{"name":"ÇOKAL KÖYÜ","zip":"17360"},{"name":"EVREŞE KÖYÜ","zip":"17360"},{"name":"HAMAMALTI MAH.","zip":"17360"},{"name":"KALEALTI KÖYÜ","zip":"17360"},{"name":"KEŞANOĞLU MAH.","zip":"17360"},{"name":"KOCAÇEŞME KÖYÜ","zip":"17360"},{"name":"KURTLUKUYU MAH.","zip":"17360"},{"name":"KURTLUKUYU1 MAH.","zip":"17360"},{"name":"KURTLUKUYU2 MAH.","zip":"17360"},{"name":"MÜCAVİR DIŞI MAH.","zip":"17360"},{"name":"SÜLEYMANİYE KÖYÜ","zip":"17360"},{"name":"ŞADILLI KÖYÜ","zip":"17360"},{"name":"YENİ MAH.","zip":"17360"},{"name":"YÜLÜCE KÖYÜ","zip":"17360"}]},{"name":"GELİBOLU","cityName":null,"quarters":[{"name":"CAMİİKEBİR MAH.","zip":"17500"},{"name":"GAZİ SÜLEYMAN PAŞA MAH.","zip":"17500"},{"name":"HOCA HAMZA MAH.","zip":"17500"},{"name":"YAZICIZADE MAH.","zip":"17500"}]},{"name":"MERKEZKÖYLER","cityName":null,"quarters":[{"name":"BAYIRKÖY KÖYÜ","zip":"17502"},{"name":"BOLAYIR KÖYÜ","zip":"17502"},{"name":"BURHANLI KÖYÜ","zip":"17502"},{"name":"BURHANLI MÜCAVİR MAH.","zip":"17502"},{"name":"BÜYÜK MİTHATLAR MAH.","zip":"17502"},{"name":"CAMİİKEBİR MAH.","zip":"17502"},{"name":"CEVİZLİ KÖYÜ","zip":"17502"},{"name":"CEVİZLİ MÜCAVİR MAH.","zip":"17502"},{"name":"CUMALI KÖYÜ","zip":"17502"},{"name":"CUMHURİYET MAH.","zip":"17502"},{"name":"ÇİFTLİKALTI MAH.","zip":"17502"},{"name":"ÇİFTLİKALTI1 MAH.","zip":"17502"},{"name":"DAMLAR MAH.","zip":"17502"},{"name":"DEĞİRMENDÜZÜ KÖYÜ","zip":"17502"},{"name":"DEMİRTEPE KÖYÜ","zip":"17502"},{"name":"DEMİRTEPE MÜCAVİR MAH.","zip":"17502"},{"name":"DOĞA MAH.","zip":"17502"},{"name":"DOĞAN ARSLAN MAH.","zip":"17502"},{"name":"DOĞANARSLAN1 MAH.","zip":"17502"},{"name":"DOĞANARSLAN2 MAH.","zip":"17502"},{"name":"DOĞANARSLAN3 MAH.","zip":"17502"},{"name":"FEVZİÇAKMAK MAH.","zip":"17502"},{"name":"FINDIKLI KÖYÜ","zip":"17502"},{"name":"GAZİSÜLEYMANPAŞA MAH.","zip":"17502"},{"name":"GÜNEYLİ KÖYÜ","zip":"17502"},{"name":"GÜNEYLİ MÜCAVİR MAH.","zip":"17502"},{"name":"HÜRRİYET MAH.","zip":"17502"},{"name":"ILGARDERE KÖYÜ","zip":"17502"},{"name":"ILGARDERE MUCAVİR MAH.","zip":"17502"},{"name":"KARAİNEBEYLİ KÖYÜ","zip":"17502"},{"name":"KAVAKKÖY KÖYÜ","zip":"17502"},{"name":"KAVAKLI KÖYÜ","zip":"17502"},{"name":"KAYRANDERE MAH.","zip":"17502"},{"name":"KAYRANDERE1 MAH.","zip":"17502"},{"name":"KAYRANDERE2 MAH.","zip":"17502"},{"name":"KAYRANDERE3 MAH.","zip":"17502"},{"name":"KORUKÖY KÖYÜ","zip":"17502"},{"name":"KÜÇÜK  MİTHATLAR MAH.","zip":"17502"},{"name":"KÜÇÜK MİTHATLAR1 MAH.","zip":"17502"},{"name":"KÜÇÜK MİTHATLAR2 MAH.","zip":"17502"},{"name":"KÜÇÜK MİTHATLAR3 MAH.","zip":"17502"},{"name":"KÜÇÜK MİTHATLAR4 MAH.","zip":"17502"},{"name":"KÜÇÜK MİTHATLAR5 MAH.","zip":"17502"},{"name":"KÜÇÜK MUTAFLAR MAH.","zip":"17502"},{"name":"KÜÇÜK MUTAFLAR1 MAH.","zip":"17502"},{"name":"KÜÇÜK MUTAFLAR2 MAH.","zip":"17502"},{"name":"KÜÇÜK MUTAFLAR3 MAH.","zip":"17502"},{"name":"MAHMUTPAŞA MÜCAVİR MAH.","zip":"17502"},{"name":"MUTATLAR MAH.","zip":"17502"},{"name":"OCAKLI KÖYÜ","zip":"17502"},{"name":"OCAKLI MÜCAVİR MAH.","zip":"17502"},{"name":"OVA MAH.","zip":"17502"},{"name":"PAZARLI KÖYÜ","zip":"17502"},{"name":"PAZARLI MÜCAVİR MAH.","zip":"17502"},{"name":"SALAVURTEPE MAH.","zip":"17502"},{"name":"SALAVURTEPE1 MAH.","zip":"17502"},{"name":"SÜTLÜCE KÖYÜ","zip":"17502"},{"name":"SÜTLÜCE MÜCAVİR MAH.","zip":"17502"},{"name":"TAYFURKÖY KÖYÜ","zip":"17502"},{"name":"YENİKÖY KÖYÜ","zip":"17502"},{"name":"YENİKÖY MÜCAVİR MAH.","zip":"17502"}]},{"name":"İMROZ","cityName":null,"quarters":[{"name":"ÇINARLI MAH.","zip":"17760"},{"name":"FATİH MAH.","zip":"17760"},{"name":"YENİ MAH.","zip":"17760"}]},{"name":"MERKEZKÖYLER","cityName":null,"quarters":[{"name":"DEREKÖY KÖYÜ","zip":"17762"},{"name":"EŞELEK KÖYÜ","zip":"17762"},{"name":"KALEKÖY KÖYÜ","zip":"17762"},{"name":"KUZULİMANI MAH.","zip":"17762"},{"name":"ŞAHİNKAYA MAH.","zip":"17762"},{"name":"ŞİRİNKÖY KÖYÜ","zip":"17762"},{"name":"TEPEKÖY KÖYÜ","zip":"17762"},{"name":"UĞURLU KÖYÜ","zip":"17762"},{"name":"YENİBADEMLİ KÖYÜ","zip":"17762"},{"name":"ZEYTİNLİKÖY KÖYÜ","zip":"17762"}]},{"name":"LAPSEKİ","cityName":null,"quarters":[{"name":"DALYAN MAH.","zip":"17800"},{"name":"GAZİ SÜLEYMAN PAŞA MAH.","zip":"17800"}]},{"name":"MERKEZKÖYLER","cityName":null,"quarters":[{"name":"ALPAGUT KÖYÜ","zip":"17802"},{"name":"BALCILAR KÖYÜ","zip":"17802"},{"name":"BEYÇAYIRI KÖYÜ","zip":"17802"},{"name":"BEYPINAR KÖYÜ","zip":"17802"},{"name":"BOZKENT MAH.","zip":"17802"},{"name":"ÇAMYURT KÖYÜ","zip":"17802"},{"name":"ÇARDAK KÖYÜ","zip":"17802"},{"name":"ÇATALTEPE KÖYÜ","zip":"17802"},{"name":"ÇAVUŞKÖY KÖYÜ","zip":"17802"},{"name":"DEMİRLİ SAHİL SİTESİ MAH.","zip":"17802"},{"name":"DEREKÖY KÖYÜ","zip":"17802"},{"name":"DİKİLİYAR MAH.","zip":"17802"},{"name":"DİŞBUDAK KÖYÜ","zip":"17802"},{"name":"DOĞANDERE KÖYÜ","zip":"17802"},{"name":"DUMANLI KÖYÜ","zip":"17802"},{"name":"EÇİALAN KÖYÜ","zip":"17802"},{"name":"GAZİYAKUPBEY MAH.","zip":"17802"},{"name":"GÜRECİ KÖYÜ","zip":"17802"},{"name":"GÜRECİALTI MAH.","zip":"17802"},{"name":"HACIÖMERLER KÖYÜ","zip":"17802"},{"name":"HİSARKENT MAH.","zip":"17802"},{"name":"İLYASKÖY KÖYÜ","zip":"17802"},{"name":"KARAMUSALAR KÖYÜ","zip":"17802"},{"name":"KARAÖMERLER KÖYÜ","zip":"17802"},{"name":"KARİYER TATİL SİTESİ MAH.","zip":"17802"},{"name":"KEMİKLİALAN KÖYÜ","zip":"17802"},{"name":"KIRCALAR KÖYÜ","zip":"17802"},{"name":"KIZILDAM KÖYÜ","zip":"17802"},{"name":"KİRAZLIDERE MAH.","zip":"17802"},{"name":"KOCABAŞLAR KÖYÜ","zip":"17802"},{"name":"KOCAVELİ KÖYÜ","zip":"17802"},{"name":"KUNDAKÇILAR MAH.","zip":"17802"},{"name":"MECİDİYE KÖYÜ","zip":"17802"},{"name":"NUSRATİYE KÖYÜ","zip":"17802"},{"name":"SUBAŞI KÖYÜ","zip":"17802"},{"name":"SULUCA KÖYÜ","zip":"17802"},{"name":"SULUCA TATİL SİTESİ MAH.","zip":"17802"},{"name":"ŞAHİNLİ KÖYÜ","zip":"17802"},{"name":"ŞEVKETİYE KÖYÜ","zip":"17802"},{"name":"TAŞTEPE KÖYÜ","zip":"17802"},{"name":"TEKKE MAH.","zip":"17802"},{"name":"YAYLALAR KÖYÜ","zip":"17802"},{"name":"YENİCEKÖY KÖYÜ","zip":"17802"},{"name":"YOL ALTI MEVKİİ MAH.","zip":"17802"},{"name":"YOL ÜSTÜ MAH.","zip":"17802"}]},{"name":"UMURBEY","cityName":null,"quarters":[{"name":"BEYBAŞ KÖYÜ","zip":"17820"},{"name":"BÜBERLER MAH.","zip":"17820"},{"name":"ESKİKIŞLA MAH.","zip":"17820"},{"name":"GÖKKÖY KÖYÜ","zip":"17820"},{"name":"HACIGELEN KÖYÜ","zip":"17820"},{"name":"HACILAR OBASI MAH.","zip":"17820"},{"name":"HARMANCIK KÖYÜ","zip":"17820"},{"name":"KANGIRLI KÖYÜ","zip":"17820"},{"name":"KORU MAH.","zip":"17820"},{"name":"KUNDAKÇILAR MAH.","zip":"17820"},{"name":"KUNDUZ MAH.","zip":"17820"},{"name":"SALTIK MAH.","zip":"17820"},{"name":"SAZAK OBASI MAH.","zip":"17820"},{"name":"SINDAL KÖYÜ","zip":"17820"},{"name":"UMURBEY KÖYÜ","zip":"17820"},{"name":"UMURBEY MERKEZ MAH.","zip":"17820"},{"name":"ÜÇPINAR KÖYÜ","zip":"17820"},{"name":"YÜKSELBOL TATİL EVLERİ MAH.","zip":"17820"}]},{"name":"BARBAROS","cityName":null,"quarters":null},{"name":"CEVATPAŞA","cityName":null,"quarters":[{"name":"ESENLER MAH.","zip":"17010"},{"name":"FEVZİPAŞA MAH.","zip":"17010"},{"name":"İSMETPAŞA MAH.","zip":"17010"},{"name":"KEMALPAŞA MAH.","zip":"17010"},{"name":"NAMIK KEMAL MAH.","zip":"17010"}]},{"name":"KEPEZ","cityName":null,"quarters":[{"name":"CUMHURİYET MAH.","zip":"17110"},{"name":"HAMİDİYE MAH.","zip":"17110"},{"name":"KEPEZ KÖYÜ","zip":"17110"}]},{"name":"MERKEZKÖYLER","cityName":null,"quarters":[{"name":"AKÇAPINAR KÖYÜ","zip":"17100"},{"name":"AKÇEŞME KÖYÜ","zip":"17100"},{"name":"AKKÖY MAH.","zip":"17100"},{"name":"ALANKÖY KÖYÜ","zip":"17100"},{"name":"ALİ KURBANLAR MAH.","zip":"17100"},{"name":"ARMUTALAN MAH.","zip":"17100"},{"name":"ARMUTLU MAH.","zip":"17100"},{"name":"AŞAĞIOKÇULAR KÖYÜ","zip":"17100"},{"name":"ATİKHİSAR MAH.","zip":"17100"},{"name":"BELEN KÖYÜ","zip":"17100"},{"name":"BODURLAR KÖYÜ","zip":"17100"},{"name":"CİVLER KÖYÜ","zip":"17100"},{"name":"ÇAMYAYLA KÖYÜ","zip":"17100"},{"name":"ÇANAKALAN MAH.","zip":"17100"},{"name":"ÇINARLI KÖYÜ","zip":"17100"},{"name":"ÇIPLAK KÖYÜ","zip":"17100"},{"name":"ÇİFTLİK MAH.","zip":"17100"},{"name":"ÇİFTLİKDERE KÖYÜ","zip":"17100"},{"name":"ÇÖMLEKLER MAH.","zip":"17100"},{"name":"DAMYERİ MAH.","zip":"17100"},{"name":"DARDANOS MAH.","zip":"17100"},{"name":"DEDELER KÖYÜ","zip":"17100"},{"name":"DEĞİRMENDERE MAH.","zip":"17100"},{"name":"DENİZGÖRÜNDÜ KÖYÜ","zip":"17100"},{"name":"DÖRTYOL MAH.","zip":"17100"},{"name":"DÜMREK KÖYÜ","zip":"17100"},{"name":"ELMACIK KÖYÜ","zip":"17100"},{"name":"ERENKÖY KÖYÜ","zip":"17100"},{"name":"ERENKÖY MERKEZ MAH.","zip":"17100"},{"name":"ERENKÖY YENİ MAH.","zip":"17100"},{"name":"GÖKÇALI KÖYÜ","zip":"17100"},{"name":"GÜRECİK MAH.","zip":"17100"},{"name":"GÜZELYALI KÖYÜ","zip":"17100"},{"name":"GÜZELYALI MAH.","zip":"17100"},{"name":"HALİLELİ KÖYÜ","zip":"17100"},{"name":"HALİLOĞLU KÖYÜ","zip":"17100"},{"name":"IŞIKLAR KÖYÜ","zip":"17100"},{"name":"İĞDELİK MAH.","zip":"17100"},{"name":"KALABAKLI KÖYÜ","zip":"17100"},{"name":"KALAFAT KÖYÜ","zip":"17100"},{"name":"KARABURUNLAR MAH.","zip":"17100"},{"name":"KARACALAR KÖYÜ","zip":"17100"},{"name":"KARACAÖREN KÖYÜ","zip":"17100"},{"name":"KARACAÖREN MAH.","zip":"17100"},{"name":"KARAPINAR KÖYÜ","zip":"17100"},{"name":"KAYADERE KÖYÜ","zip":"17100"},{"name":"KAYIŞLAR MAH.","zip":"17100"},{"name":"KEMEL KÖYÜ","zip":"17100"},{"name":"KEMERDERE MAH.","zip":"17100"},{"name":"KIZILCAÖREN KÖYÜ","zip":"17100"},{"name":"KIZILKEÇİLİ KÖYÜ","zip":"17100"},{"name":"KİRAZLI ALAN MAH.","zip":"17100"},{"name":"KİRAZLI KÖYÜ","zip":"17100"},{"name":"KOCALAR KÖYÜ","zip":"17100"},{"name":"KOVANDAĞI MAH.","zip":"17100"},{"name":"KUMKALE KÖYÜ","zip":"17100"},{"name":"KURŞUNLU KÖYÜ","zip":"17100"},{"name":"MARAŞALFEVZİÇAKMAK KÖYÜ","zip":"17100"},{"name":"MEHMET ÇAVUŞ MAH.","zip":"17100"},{"name":"MERSİN ÇEŞME MAH.","zip":"17100"},{"name":"MUSAKÖY KÖYÜ","zip":"17100"},{"name":"OBAKÖY MAH.","zip":"17100"},{"name":"ORGANİZE SANAYİ BÖLGESİ MAH.","zip":"17100"},{"name":"ORTACA KÖYÜ","zip":"17100"},{"name":"OSMANLAR MAH.","zip":"17100"},{"name":"OVACIK KÖYÜ","zip":"17100"},{"name":"ÖZBEK KÖYÜ","zip":"17100"},{"name":"SALAVAT MAH.","zip":"17100"},{"name":"SALİHLER KÖYÜ","zip":"17100"},{"name":"SALTIK MAH.","zip":"17100"},{"name":"SARAYCIK KÖYÜ","zip":"17100"},{"name":"SARIBEYLİ KÖYÜ","zip":"17100"},{"name":"SARICAELİ KÖYÜ","zip":"17100"},{"name":"SERÇİLER KÖYÜ","zip":"17100"},{"name":"SIĞIRLI MAH.","zip":"17100"},{"name":"ŞEHİTLER MAH.","zip":"17100"},{"name":"TAŞLITARLA KÖYÜ","zip":"17100"},{"name":"TAVŞANTEPE MAH.","zip":"17100"},{"name":"TERZİLER KÖYÜ","zip":"17100"},{"name":"TESTİCİKIRI MAH.","zip":"17100"},{"name":"TEVFİKİYE KÖYÜ","zip":"17100"},{"name":"TEVFİKİYE MAH.","zip":"17100"},{"name":"ULUPINAR KÖYÜ","zip":"17100"},{"name":"YAĞCILAR KÖYÜ","zip":"17100"},{"name":"YAPILDAK KÖYÜ","zip":"17100"},{"name":"YUKARIOKÇULAR KÖYÜ","zip":"17100"}]},{"name":"KALKIM","cityName":null,"quarters":[{"name":"AKKÖY KÖYÜ","zip":"17560"},{"name":"ARMUTÇUK KÖYÜ","zip":"17560"},{"name":"AŞAĞIÇAVUŞ KÖYÜ","zip":"17560"},{"name":"ATATÜRK MAH.","zip":"17560"},{"name":"BAĞLI KÖYÜ","zip":"17560"},{"name":"CANBAZ KÖYÜ","zip":"17560"},{"name":"CUMHURİYET MAH.","zip":"17560"},{"name":"ÇİFTLİK KÖYÜ","zip":"17560"},{"name":"ÇUKUROBA KÖYÜ","zip":"17560"},{"name":"KALABAKBAŞI KÖYÜ","zip":"17560"},{"name":"KALKIM KÖYÜ","zip":"17560"},{"name":"KARAAYDIN KÖYÜ","zip":"17560"},{"name":"KIRAÇOBA MAH.","zip":"17560"},{"name":"KIRIKLAR KÖYÜ","zip":"17560"},{"name":"OĞLANALANI KÖYÜ","zip":"17560"},{"name":"ÖRENCİK KÖYÜ","zip":"17560"},{"name":"YARIŞ KÖYÜ","zip":"17560"},{"name":"YUKARIÇAVUŞ KÖYÜ","zip":"17560"}]},{"name":"MERKEZKÖYLER","cityName":null,"quarters":[{"name":"AHMETLER MAH.","zip":"17552"},{"name":"ALANCIK KÖYÜ","zip":"17552"},{"name":"ALANOBA MAH.","zip":"17552"},{"name":"ALTIPARMAKLAR MAH.","zip":"17552"},{"name":"ARAOVACIK KÖYÜ","zip":"17552"},{"name":"AŞAĞI MAH.","zip":"17552"},{"name":"AŞAĞIİNOVA KÖYÜ","zip":"17552"},{"name":"AŞAĞIKARAAŞIK KÖYÜ","zip":"17552"},{"name":"BALLIÇAY KÖYÜ","zip":"17552"},{"name":"BAŞKOZ KÖYÜ","zip":"17552"},{"name":"BAYATLAR KÖYÜ","zip":"17552"},{"name":"BEKTEN KÖYÜ","zip":"17552"},{"name":"BOYNANLAR KÖYÜ","zip":"17552"},{"name":"CUMHURİYET MAH.","zip":"17552"},{"name":"ÇAKIR KÖYÜ","zip":"17552"},{"name":"ÇAKIROBA KÖYÜ","zip":"17552"},{"name":"ÇAL KÖYÜ","zip":"17552"},{"name":"ÇALTI MAH.","zip":"17552"},{"name":"ÇAM MAH.","zip":"17552"},{"name":"ÇAMOBA KÖYÜ","zip":"17552"},{"name":"ÇARGAN MAH.","zip":"17552"},{"name":"ÇARGAN OBA MAH.","zip":"17552"},{"name":"ÇINARCIK KÖYÜ","zip":"17552"},{"name":"ÇINARKÖY KÖYÜ","zip":"17552"},{"name":"ÇIRPILAR KÖYÜ","zip":"17552"},{"name":"DARIALAN KÖYÜ","zip":"17552"},{"name":"DAVUTKÖY KÖYÜ","zip":"17552"},{"name":"ENGECİ KÖYÜ","zip":"17552"},{"name":"GEDİKOBA MAH.","zip":"17552"},{"name":"GÜMÜŞLER KÖYÜ","zip":"17552"},{"name":"GÜNDOĞDU KÖYÜ","zip":"17552"},{"name":"GÜVEYLER MAH.","zip":"17552"},{"name":"GÜZELOBA KÖYÜ","zip":"17552"},{"name":"HACILAR KÖYÜ","zip":"17552"},{"name":"HACIYUSUFLAR KÖYÜ","zip":"17552"},{"name":"HAMDİBEY KÖYÜ","zip":"17552"},{"name":"HAMDİBEY MAH.","zip":"17552"},{"name":"HASANLAR MAH.","zip":"17552"},{"name":"HAYDAROBA KÖYÜ","zip":"17552"},{"name":"HIDIRLAR KÖYÜ","zip":"17552"},{"name":"İBRAHİMLER MAH.","zip":"17552"},{"name":"İSTİKLAL MAH.","zip":"17552"},{"name":"KABAAĞAÇ ARASI MAH.","zip":"17552"},{"name":"KABALI KÖYÜ","zip":"17552"},{"name":"KARABEY MAH.","zip":"17552"},{"name":"KARADORU KÖYÜ","zip":"17552"},{"name":"KARAKÖY KÖYÜ","zip":"17552"},{"name":"KARASU KÖYÜ","zip":"17552"},{"name":"KARGACI KÖYÜ","zip":"17552"},{"name":"KIZILDAM KÖYÜ","zip":"17552"},{"name":"KORUKÖY KÖYÜ","zip":"17552"},{"name":"KOVANCI KÖYÜ","zip":"17552"},{"name":"KURTLAR KÖYÜ","zip":"17552"},{"name":"KUZUPINARI KÖYÜ","zip":"17552"},{"name":"NAMAZGAH KÖYÜ","zip":"17552"},{"name":"NEVRUZ KÖYÜ","zip":"17552"},{"name":"ORTA MAH.","zip":"17552"},{"name":"ÖĞMEN KÖYÜ","zip":"17552"},{"name":"PAZARKÖY KÖYÜ","zip":"17552"},{"name":"PINAROBA MAH.","zip":"17552"},{"name":"REŞADİYE KÖYÜ","zip":"17552"},{"name":"SAMETELİ KÖYÜ","zip":"17552"},{"name":"SARIÇAYIR KÖYÜ","zip":"17552"},{"name":"SAZAK KÖYÜ","zip":"17552"},{"name":"SEYVAN KÖYÜ","zip":"17552"},{"name":"SOFULAR KÖYÜ","zip":"17552"},{"name":"SOĞUCAK KÖYÜ","zip":"17552"},{"name":"SUUÇTU KÖYÜ","zip":"17552"},{"name":"TABAN KÖYÜ","zip":"17552"},{"name":"TORHASAN KÖYÜ","zip":"17552"},{"name":"UMURLAR KÖYÜ","zip":"17552"},{"name":"ÜÇKABAAĞAÇ KÖYÜ","zip":"17552"},{"name":"YAĞDIRAN KÖYÜ","zip":"17552"},{"name":"YALIOBA KÖYÜ","zip":"17552"},{"name":"YENİ MAH.","zip":"17552"},{"name":"YENİKÖY KÖYÜ","zip":"17552"},{"name":"YEŞİLKÖY KÖYÜ","zip":"17552"},{"name":"YEŞİLLER MAH.","zip":"17552"},{"name":"YUKARI MAH.","zip":"17552"},{"name":"YUKARIİNOVA KÖYÜ","zip":"17552"},{"name":"YUKARIKARAAŞIK KÖYÜ","zip":"17552"}]},{"name":"YENİCE","cityName":null,"quarters":[{"name":"KIŞLALAR MAH.","zip":"17550"},{"name":"KURTULUŞ MAH.","zip":"17550"},{"name":"YENİ MAH.","zip":"17550"}]}]}]}