{"id":18,"name":"ÇANKIRI","cities":[{"name":"city","districts":[{"name":"ATKARACALAR","cityName":null,"quarters":[{"name":"KIRAN MAH.","zip":"18310"},{"name":"MOLLAOSMAN MAH.","zip":"18310"}]},{"name":"MERKEZKÖYLER","cityName":null,"quarters":[{"name":"BUDAKPINAR KÖYÜ","zip":"18312"},{"name":"CUMHURİYET MAH.","zip":"18312"},{"name":"ÇARDAKLI KÖYÜ","zip":"18312"},{"name":"DEMİRCİLER MAH.","zip":"18312"},{"name":"DEMİRLİ KÖYÜ","zip":"18312"},{"name":"DERE MAH.","zip":"18312"},{"name":"EYÜPÖZÜ KÖYÜ","zip":"18312"},{"name":"HÜRRİYET MAH.","zip":"18312"},{"name":"HÜYÜKKÖY KÖYÜ","zip":"18312"},{"name":"ILIPINAR KÖYÜ","zip":"18312"},{"name":"KADIGİL MAH.","zip":"18312"},{"name":"KIZILİBRİK KÖYÜ","zip":"18312"},{"name":"KOLAVLAĞI MAH.","zip":"18312"},{"name":"KÜKÜRT KÖYÜ","zip":"18312"},{"name":"MUSTAFA KEMAL MAH.","zip":"18312"},{"name":"NEVZAT AYAZ MAH.","zip":"18312"},{"name":"ORTA MAH.","zip":"18312"},{"name":"SUSUZ KÖYÜ","zip":"18312"},{"name":"YAKALI KÖYÜ","zip":"18312"},{"name":"ZEVDEŞ MAH.","zip":"18312"}]},{"name":"BAYRAMÖREN","cityName":null,"quarters":[{"name":"MERKEZ MAH.","zip":"18320"},{"name":"ZÜBEYDE HANIM MAH.","zip":"18320"}]},{"name":"MERKEZKÖYLER","cityName":null,"quarters":[{"name":"AKSEKİ KÖYÜ","zip":"18322"},{"name":"AKSEKİ MAH.","zip":"18322"},{"name":"ALUÇ MAH.","zip":"18322"},{"name":"AŞAĞI MAH.","zip":"18322"},{"name":"BELENLİ KÖYÜ","zip":"18322"},{"name":"BOĞAZKAYA KÖYÜ","zip":"18322"},{"name":"BÜRÜMCEK MAH.","zip":"18322"},{"name":"ÇAKIRBAĞ KÖYÜ","zip":"18322"},{"name":"ÇAMDİBİ MAH.","zip":"18322"},{"name":"ÇAYIRCIK KÖYÜ","zip":"18322"},{"name":"DAHANLAR MAH.","zip":"18322"},{"name":"DALKOZ KÖYÜ","zip":"18322"},{"name":"DERE MAH.","zip":"18322"},{"name":"DEREKÖY KÖYÜ","zip":"18322"},{"name":"DOĞAN MAH.","zip":"18322"},{"name":"DOLAŞLAR KÖYÜ","zip":"18322"},{"name":"ECÜK ÇAYI MAH.","zip":"18322"},{"name":"ECÜK MAH.","zip":"18322"},{"name":"EKİNCİK MAH.","zip":"18322"},{"name":"ERENLER KÖYÜ","zip":"18322"},{"name":"EVKADI MAH.","zip":"18322"},{"name":"FERİZ KÖYÜ","zip":"18322"},{"name":"GÖKÇUKUR MAH.","zip":"18322"},{"name":"GÖYNÜKÖREN KÖYÜ","zip":"18322"},{"name":"GÜLLÜPINAR MAH.","zip":"18322"},{"name":"HACILAR MAH.","zip":"18322"},{"name":"HARMANCIK KÖYÜ","zip":"18322"},{"name":"HASANLAR MAH.","zip":"18322"},{"name":"İMATLAR MAH.","zip":"18322"},{"name":"İNCEKAYA KÖYÜ","zip":"18322"},{"name":"KARABÜK MAH.","zip":"18322"},{"name":"KARAKIŞLA MAH.","zip":"18322"},{"name":"KARAKUZU KÖYÜ","zip":"18322"},{"name":"KARAOLUK MAH.","zip":"18322"},{"name":"KARATAŞ KÖYÜ","zip":"18322"},{"name":"KAVAKDİBİ MAH.","zip":"18322"},{"name":"KAVAKKÖY KÖYÜ","zip":"18322"},{"name":"KIŞLA MAH.","zip":"18322"},{"name":"KIYAN MAH.","zip":"18322"},{"name":"KOÇLU KÖYÜ","zip":"18322"},{"name":"MERKEZ MAH.","zip":"18322"},{"name":"OLUKLU KÖYÜ","zip":"18322"},{"name":"ORTA MAH.","zip":"18322"},{"name":"OVA MAH.","zip":"18322"},{"name":"OYMAAĞAÇ KÖYÜ","zip":"18322"},{"name":"ÖREN MAH.","zip":"18322"},{"name":"ÖTEDAĞ MAH.","zip":"18322"},{"name":"SARIKAYA KÖYÜ","zip":"18322"},{"name":"SAZAK MAH.","zip":"18322"},{"name":"SOĞUKOLUK MAH.","zip":"18322"},{"name":"TOPÇU KÖYÜ","zip":"18322"},{"name":"ÜÇGAZİ KÖYÜ","zip":"18322"},{"name":"YAYLA MAH.","zip":"18322"},{"name":"YAYLATEPESİ KÖYÜ","zip":"18322"},{"name":"YAZIÖREN KÖYÜ","zip":"18322"},{"name":"YUKARI MAH.","zip":"18322"},{"name":"YURTPINAR KÖYÜ","zip":"18322"},{"name":"YUSUFOĞLU KÖYÜ","zip":"18322"}]},{"name":"ÇERKEŞ","cityName":null,"quarters":[{"name":"ÇERKEŞ OSB MAH.","zip":"18600"},{"name":"İDRİS MAH.","zip":"18600"},{"name":"İSTASYON MAH.","zip":"18600"},{"name":"KARALAR MAH.","zip":"18600"},{"name":"KARAMUKLU MAH.","zip":"18600"},{"name":"KURTLAR MAH.","zip":"18600"},{"name":"OKÇULAR MAH.","zip":"18600"},{"name":"ULUSU MAH.","zip":"18600"},{"name":"YENİ KENT MAH.","zip":"18600"},{"name":"YENİ MAH.","zip":"18600"}]},{"name":"MERKEZKÖYLER","cityName":null,"quarters":[{"name":"AFŞAR KÖYÜ","zip":"18602"},{"name":"AĞACA KÖYÜ","zip":"18602"},{"name":"AHALLAR MAH.","zip":"18602"},{"name":"AKBAŞ KÖYÜ","zip":"18602"},{"name":"AKHASAN KÖYÜ","zip":"18602"},{"name":"ALİÖZÜ KÖYÜ","zip":"18602"},{"name":"AVDAN YAYLASI MAH.","zip":"18602"},{"name":"AYDINLAR KÖYÜ","zip":"18602"},{"name":"BAYINDIR KÖYÜ","zip":"18602"},{"name":"BAYINDIR YAYLASI MAH.","zip":"18602"},{"name":"BEDİL KÖYÜ","zip":"18602"},{"name":"BELKAVAK KÖYÜ","zip":"18602"},{"name":"BEY MAH.","zip":"18602"},{"name":"BEYMELİK KÖYÜ","zip":"18602"},{"name":"BOYUNCAK MAH.","zip":"18602"},{"name":"BOZCAARMUT MAH.","zip":"18602"},{"name":"BOZOĞLU KÖYÜ","zip":"18602"},{"name":"BÖLÜKÖREN MAH.","zip":"18602"},{"name":"ÇAKMAK KÖYÜ","zip":"18602"},{"name":"ÇALCIÖREN KÖYÜ","zip":"18602"},{"name":"ÇAYLI KÖYÜ","zip":"18602"},{"name":"ÇETİN MAH.","zip":"18602"},{"name":"ÇOROĞLU MAH.","zip":"18602"},{"name":"ÇÖMLEKÇİ MAH.","zip":"18602"},{"name":"ÇÖRDÜK KÖYÜ","zip":"18602"},{"name":"DAĞÇUKURÖREN KÖYÜ","zip":"18602"},{"name":"DAĞLI MAH.","zip":"18602"},{"name":"DERE YAYLA MAH.","zip":"18602"},{"name":"DİKENLİ KÖYÜ","zip":"18602"},{"name":"DODURGA KÖYÜ","zip":"18602"},{"name":"ELPİREK MAH.","zip":"18602"},{"name":"ERENLER MAH.","zip":"18602"},{"name":"EYMÜR MAH.","zip":"18602"},{"name":"FINDICAK KÖYÜ","zip":"18602"},{"name":"GELİK MAH.","zip":"18602"},{"name":"GELİK OVACIK KÖYÜ","zip":"18602"},{"name":"GÖKÇELER KÖYÜ","zip":"18602"},{"name":"GÖYNÜKÇUKURU KÖYÜ","zip":"18602"},{"name":"GÜVEM MAH.","zip":"18602"},{"name":"GÜZELYURT KÖYÜ","zip":"18602"},{"name":"HACILAR KÖYÜ","zip":"18602"},{"name":"HALKAOĞLU KÖYÜ","zip":"18602"},{"name":"ILICA MAH.","zip":"18602"},{"name":"İNCEGEZ MAH.","zip":"18602"},{"name":"KABAK KÖYÜ","zip":"18602"},{"name":"KADIKÖY KÖYÜ","zip":"18602"},{"name":"KADIÖZÜ KÖYÜ","zip":"18602"},{"name":"KARAAĞAÇ MAH.","zip":"18602"},{"name":"KARACAHÖYÜK KÖYÜ","zip":"18602"},{"name":"KARAKOCA MAH.","zip":"18602"},{"name":"KARAMUSTAFA KÖYÜ","zip":"18602"},{"name":"KARAŞAR KÖYÜ","zip":"18602"},{"name":"KARGA KÖYÜ","zip":"18602"},{"name":"KAYABAŞI MAH.","zip":"18602"},{"name":"KINIK MAH.","zip":"18602"},{"name":"KISAÇ KÖYÜ","zip":"18602"},{"name":"KIŞLA MAH.","zip":"18602"},{"name":"KİREMİTÇİ KÖYÜ","zip":"18602"},{"name":"KİRENÖZÜ MAH.","zip":"18602"},{"name":"KUZDERE KÖYÜ","zip":"18602"},{"name":"KUZÖREN KÖYÜ","zip":"18602"},{"name":"KÜRÜZ MAH.","zip":"18602"},{"name":"MERKEZ MAH.","zip":"18602"},{"name":"MEYDAN KÖYÜ","zip":"18602"},{"name":"NAHALLAR MAH.","zip":"18602"},{"name":"ÖMERLER MAH.","zip":"18602"},{"name":"ÖRENCİK MAH.","zip":"18602"},{"name":"ÖRENKÖY KÖYÜ","zip":"18602"},{"name":"ÖRENLİ KÖYÜ","zip":"18602"},{"name":"SAÇAK KÖYÜ","zip":"18602"},{"name":"SARAYCIK KÖYÜ","zip":"18602"},{"name":"SONGEÇİT MAH.","zip":"18602"},{"name":"ŞEYHDOĞAN KÖYÜ","zip":"18602"},{"name":"TAŞANLAR KÖYÜ","zip":"18602"},{"name":"TOHUMLAR MAH.","zip":"18602"},{"name":"TÜRBAŞI KÖYÜ","zip":"18602"},{"name":"ULUKÖY KÖYÜ","zip":"18602"},{"name":"YAKUPLAR KÖYÜ","zip":"18602"},{"name":"YALIÖZÜ KÖYÜ","zip":"18602"},{"name":"YALNIZCA MAH.","zip":"18602"},{"name":"YAYLA EVLERİ MAH.","zip":"18602"},{"name":"YAYLA MAH.","zip":"18602"},{"name":"YENİ MAH.","zip":"18602"},{"name":"YENİKÖY KÖYÜ","zip":"18602"},{"name":"YEŞİLOVA MAH.","zip":"18602"},{"name":"YEŞİLÖREN MAH.","zip":"18602"},{"name":"YEŞİLÖZ KÖYÜ","zip":"18602"},{"name":"YIPRAK KÖYÜ","zip":"18602"},{"name":"YONCALI KÖYÜ","zip":"18602"},{"name":"YORTAN MAH.","zip":"18602"},{"name":"YORTAN YAYLASI MAH.","zip":"18602"},{"name":"YÖRÜK MAH.","zip":"18602"},{"name":"YUMAKLI KÖYÜ","zip":"18602"},{"name":"YUSUFOĞLU MAH.","zip":"18602"}]},{"name":"ELDİVAN","cityName":null,"quarters":[{"name":"BEYDERE MAH.","zip":"18700"},{"name":"CAMİ MAH.","zip":"18700"},{"name":"ÇAY MAH.","zip":"18700"},{"name":"DERE MAH.","zip":"18700"},{"name":"TOPRAKLIK MAH.","zip":"18700"}]},{"name":"MERKEZKÖYLER","cityName":null,"quarters":[{"name":"AKÇALI KÖYÜ","zip":"18702"},{"name":"ALVA KÖYÜ","zip":"18702"},{"name":"BEŞEVLER MAH.","zip":"18702"},{"name":"BÜYÜKHACIBEY KÖYÜ","zip":"18702"},{"name":"ÇALIDERE-YIĞINDAŞ MAH.","zip":"18702"},{"name":"ÇİFTLİKKÖY KÖYÜ","zip":"18702"},{"name":"ÇUKURÖZ KÖYÜ","zip":"18702"},{"name":"ELMACI KÖYÜ","zip":"18702"},{"name":"GÖLEZ KÖYÜ","zip":"18702"},{"name":"GÖLEZKAYI KÖYÜ","zip":"18702"},{"name":"GÖMENE MAH.","zip":"18702"},{"name":"HİSARCIK KÖYÜ","zip":"18702"},{"name":"HİSARCIKKAYI KÖYÜ","zip":"18702"},{"name":"KÖY İÇİ MAH.","zip":"18702"},{"name":"KÜÇÜKHACIBEY KÖYÜ","zip":"18702"},{"name":"SARAYKÖY KÖYÜ","zip":"18702"},{"name":"SARITARLA KÖYÜ","zip":"18702"},{"name":"SEYDİKÖY KÖYÜ","zip":"18702"},{"name":"YUKARIYANLAR KÖYÜ","zip":"18702"}]},{"name":"ILGAZ","cityName":null,"quarters":[{"name":"GAZİ DEDE MAH.","zip":"18400"},{"name":"KARATAŞ MAH.","zip":"18400"},{"name":"ŞENTEPE MAH.","zip":"18400"},{"name":"ULUPINAR MAH.","zip":"18400"},{"name":"YAVUZ MAH.","zip":"18400"},{"name":"YENİ MAH.","zip":"18400"},{"name":"YUKARI MAH.","zip":"18400"},{"name":"ZİRAAT MAH.","zip":"18400"}]},{"name":"MERKEZKÖYLER","cityName":null,"quarters":[{"name":"AKTAŞ KÖYÜ","zip":"18402"},{"name":"ALIÇ KÖYÜ","zip":"18402"},{"name":"ALİBEY KÖYÜ","zip":"18402"},{"name":"ALPAGUT KÖYÜ","zip":"18402"},{"name":"ARPAYERİ KÖYÜ","zip":"18402"},{"name":"ASAR MAH.","zip":"18402"},{"name":"AŞAĞI MAH.","zip":"18402"},{"name":"AŞAĞIBOZAN KÖYÜ","zip":"18402"},{"name":"AŞAĞIDERE KÖYÜ","zip":"18402"},{"name":"AŞAĞIMEYDAN KÖYÜ","zip":"18402"},{"name":"AŞIKLAR KÖYÜ","zip":"18402"},{"name":"AYAKLI MAH.","zip":"18402"},{"name":"BAĞLAR MÜCAVİR MAH.","zip":"18402"},{"name":"BALCI KÖYÜ","zip":"18402"},{"name":"BALCI MAH.","zip":"18402"},{"name":"BAŞARAZ MAH.","zip":"18402"},{"name":"BAŞDİBEK KÖYÜ","zip":"18402"},{"name":"BELÖREN KÖYÜ","zip":"18402"},{"name":"BELÖREN YENİCE KÖYÜ","zip":"18402"},{"name":"BELSÖĞÜT KÖYÜ","zip":"18402"},{"name":"BEYKÖY KÖYÜ","zip":"18402"},{"name":"BOZATLI KÖYÜ","zip":"18402"},{"name":"BUĞDAYLIK MÜCAVİR MAH.","zip":"18402"},{"name":"BÜKCÜK KÖYÜ","zip":"18402"},{"name":"CANDERE KÖYÜ","zip":"18402"},{"name":"CÖMERT KÖYÜ","zip":"18402"},{"name":"ÇALTIPINAR KÖYÜ","zip":"18402"},{"name":"ÇATAK KÖYÜ","zip":"18402"},{"name":"ÇELTİKBAŞI KÖYÜ","zip":"18402"},{"name":"ÇÖREKÇİLER KÖYÜ","zip":"18402"},{"name":"DANİŞMENT KÖYÜ","zip":"18402"},{"name":"DÖNAŞA MAH.","zip":"18402"},{"name":"DÜZ MAH.","zip":"18402"},{"name":"EKSİK KÖYÜ","zip":"18402"},{"name":"ERİCEK KÖYÜ","zip":"18402"},{"name":"ESKİCE KÖYÜ","zip":"18402"},{"name":"GAZİLER KÖYÜ","zip":"18402"},{"name":"GÖKCEYAZI KÖYÜ","zip":"18402"},{"name":"GÜNEYKÖY KÖYÜ","zip":"18402"},{"name":"HACIHASAN KÖYÜ","zip":"18402"},{"name":"ILISILIK KÖYÜ","zip":"18402"},{"name":"İKİKAVAK KÖYÜ","zip":"18402"},{"name":"İNKÖY KÖYÜ","zip":"18402"},{"name":"KALEKÖY KÖYÜ","zip":"18402"},{"name":"KARATAŞ MAH.","zip":"18402"},{"name":"KAVAKLI KÖYÜ","zip":"18402"},{"name":"KAYI KÖYÜ","zip":"18402"},{"name":"KAZANCI KÖYÜ","zip":"18402"},{"name":"KESEKÖY KÖYÜ","zip":"18402"},{"name":"KIRIŞLAR KÖYÜ","zip":"18402"},{"name":"KISSENİR MAH.","zip":"18402"},{"name":"KIŞLA MAH.","zip":"18402"},{"name":"KIYISIN KÖYÜ","zip":"18402"},{"name":"KIZILIBRIK KÖYÜ","zip":"18402"},{"name":"KÖY MERKEZİ MAH.","zip":"18402"},{"name":"KURMALAR KÖYÜ","zip":"18402"},{"name":"KUŞÇAYIRI KÖYÜ","zip":"18402"},{"name":"KUYUPINAR KÖYÜ","zip":"18402"},{"name":"LÜLLÜK MAH.","zip":"18402"},{"name":"MEMETLER MAH.","zip":"18402"},{"name":"MENŞER MAH.","zip":"18402"},{"name":"MERKEZ MAH.","zip":"18402"},{"name":"MESUTÖREN KÖYÜ","zip":"18402"},{"name":"MURAT HACI MAH.","zip":"18402"},{"name":"MUSAKÖY KÖYÜ","zip":"18402"},{"name":"MÜLAYIM KÖYÜ","zip":"18402"},{"name":"MÜLAYİM MAH.","zip":"18402"},{"name":"MÜLAYİM YENİCE KÖYÜ","zip":"18402"},{"name":"OKCULAR KÖYÜ","zip":"18402"},{"name":"ONAÇ KÖYÜ","zip":"18402"},{"name":"ORTA MAH.","zip":"18402"},{"name":"ÖDEMİŞ KÖYÜ","zip":"18402"},{"name":"ÖMERLİ KÖYÜ","zip":"18402"},{"name":"SAĞIRLAR KÖYÜ","zip":"18402"},{"name":"SARAY MAH.","zip":"18402"},{"name":"SARAYCIK KÖYÜ","zip":"18402"},{"name":"SARMAŞIK KÖYÜ","zip":"18402"},{"name":"SATILAR KÖYÜ","zip":"18402"},{"name":"SAZAK KÖYÜ","zip":"18402"},{"name":"SEKİ KÖYÜ","zip":"18402"},{"name":"SERÇELER KÖYÜ","zip":"18402"},{"name":"SERÇELER YAYLASI MAH.","zip":"18402"},{"name":"SEZGİNLER MAH.","zip":"18402"},{"name":"SÖĞÜTCÜK KÖYÜ","zip":"18402"},{"name":"SÜLEYMANHACILAR KÖYÜ","zip":"18402"},{"name":"ŞEYHYUNUS KÖYÜ","zip":"18402"},{"name":"ŞEYHYUNUS MAH.","zip":"18402"},{"name":"TERZİLER MAH.","zip":"18402"},{"name":"YAKA MAH.","zip":"18402"},{"name":"YALAYCIK KÖYÜ","zip":"18402"},{"name":"YARAĞZI MAH.","zip":"18402"},{"name":"YAYLAÖREN KÖYÜ","zip":"18402"},{"name":"YAZIKÖY KÖYÜ","zip":"18402"},{"name":"YENİDEMİRCİLER KÖYÜ","zip":"18402"},{"name":"YERKUYU KÖYÜ","zip":"18402"},{"name":"YEŞİLDUMLUPINAR KÖYÜ","zip":"18402"},{"name":"YUKARI SARMAŞIK MAH.","zip":"18402"},{"name":"YUKARIBOZAN KÖYÜ","zip":"18402"},{"name":"YUKARIDERE KÖYÜ","zip":"18402"},{"name":"YUKARIMEYDAN KÖYÜ","zip":"18402"},{"name":"YUVADEMİRCİLER KÖYÜ","zip":"18402"},{"name":"YUVASARAY KÖYÜ","zip":"18402"}]},{"name":"KIZILIRMAK","cityName":null,"quarters":[{"name":"OSMANLI MAH.","zip":"18280"},{"name":"YENİ MAH.","zip":"18280"}]},{"name":"MERKEZKÖYLER","cityName":null,"quarters":[{"name":"AŞAĞIOVACIK KÖYÜ","zip":"18282"},{"name":"BAYANPINAR KÖYÜ","zip":"18282"},{"name":"BOSTANLI KÖYÜ","zip":"18282"},{"name":"BOYACIOĞLU KÖYÜ","zip":"18282"},{"name":"BÜYÜKBAHÇELİ KÖYÜ","zip":"18282"},{"name":"CACIKLAR KÖYÜ","zip":"18282"},{"name":"GAZİBEKİR MAH.","zip":"18282"},{"name":"GÜNEYKIŞLA KÖYÜ","zip":"18282"},{"name":"HACILAR KÖYÜ","zip":"18282"},{"name":"HALLAÇLI KÖYÜ","zip":"18282"},{"name":"KAHYALI KÖYÜ","zip":"18282"},{"name":"KAPAKLI KÖYÜ","zip":"18282"},{"name":"KARADİBEK KÖYÜ","zip":"18282"},{"name":"KARALLI KÖYÜ","zip":"18282"},{"name":"KARAMÜRSEL KÖYÜ","zip":"18282"},{"name":"KARAÖMER KÖYÜ","zip":"18282"},{"name":"KAVLAKLI KÖYÜ","zip":"18282"},{"name":"KEMALLI KÖYÜ","zip":"18282"},{"name":"KORÇULLU KÖYÜ","zip":"18282"},{"name":"KUZEYKIŞLA KÖYÜ","zip":"18282"},{"name":"KÜÇÜKBAHÇELİ MAH.","zip":"18282"},{"name":"SAKARCA KÖYÜ","zip":"18282"},{"name":"SARAYCIK KÖYÜ","zip":"18282"},{"name":"SULTANÇİFTLİĞİ MAH.","zip":"18282"},{"name":"TEPEALEGÖZ KÖYÜ","zip":"18282"},{"name":"TIMARLI KÖYÜ","zip":"18282"},{"name":"YENİYAPAN KÖYÜ","zip":"18282"},{"name":"YUKARIALEGÖZ KÖYÜ","zip":"18282"}]},{"name":"KORGUN","cityName":null,"quarters":[{"name":"BÜYÜKOSB MAH.","zip":"18260"},{"name":"DOĞU MAH.","zip":"18260"},{"name":"ULUDAĞ MAH.","zip":"18260"}]},{"name":"MERKEZKÖYLER","cityName":null,"quarters":[{"name":"BATIBELİ MAH.","zip":"18262"},{"name":"BUĞAY KÖYÜ","zip":"18262"},{"name":"ÇUKURÖREN KÖYÜ","zip":"18262"},{"name":"DİKENLİ KÖYÜ","zip":"18262"},{"name":"HICIP KÖYÜ","zip":"18262"},{"name":"IKIN YAYLASI MAH.","zip":"18262"},{"name":"ILDIZIM KÖYÜ","zip":"18262"},{"name":"ILDIZIM YAYLASI MAH.","zip":"18262"},{"name":"İKİÇAM KÖYÜ","zip":"18262"},{"name":"KARATEKİN KÖYÜ","zip":"18262"},{"name":"KAŞ YAYLA MAH.","zip":"18262"},{"name":"KAYIÇİVİ KÖYÜ","zip":"18262"},{"name":"KESECİK KÖYÜ","zip":"18262"},{"name":"MARUF KÖYÜ","zip":"18262"},{"name":"MERKEZ MAH.","zip":"18262"},{"name":"SANI YAYLASI MAH.","zip":"18262"},{"name":"ŞIHLAR KÖYÜ","zip":"18262"},{"name":"YOLKAYA YAYLASI MAH.","zip":"18262"}]},{"name":"KURŞUNLU","cityName":null,"quarters":[{"name":"CÖMERTLER MAH.","zip":"18300"},{"name":"ÇAL MAH.","zip":"18300"},{"name":"ERENLER MAH.","zip":"18300"},{"name":"HACI BEKİR MAH.","zip":"18300"},{"name":"KALE MAH.","zip":"18300"},{"name":"KALEKAPU MAH.","zip":"18300"},{"name":"MÜSLÜM MAH.","zip":"18300"},{"name":"YENİ MAH.","zip":"18300"},{"name":"YEŞİL MAH.","zip":"18300"}]},{"name":"MERKEZKÖYLER","cityName":null,"quarters":[{"name":"BAŞOVACIK KÖYÜ","zip":"18302"},{"name":"BEREKET KÖYÜ","zip":"18302"},{"name":"ÇATKESE KÖYÜ","zip":"18302"},{"name":"ÇAVUNDUR KÖYÜ","zip":"18302"},{"name":"ÇAYLICA KÖYÜ","zip":"18302"},{"name":"ÇIRDAK KÖYÜ","zip":"18302"},{"name":"ÇİYNİ KÖYÜ","zip":"18302"},{"name":"ÇUKURCA KÖYÜ","zip":"18302"},{"name":"DAĞÖREN KÖYÜ","zip":"18302"},{"name":"DEMİRCİÖREN KÖYÜ","zip":"18302"},{"name":"DUMANLI KÖYÜ","zip":"18302"},{"name":"EKİNLİ MAH.","zip":"18302"},{"name":"ESKİAHIR KÖYÜ","zip":"18302"},{"name":"FATİH MAH.","zip":"18302"},{"name":"GÖLLÜCE KÖYÜ","zip":"18302"},{"name":"HACIMUSLU KÖYÜ","zip":"18302"},{"name":"HOCAHASAN KÖYÜ","zip":"18302"},{"name":"HÜRRİYET MAH.","zip":"18302"},{"name":"İĞDİR KÖYÜ","zip":"18302"},{"name":"KAPAKLI KÖYÜ","zip":"18302"},{"name":"KIZILCA KÖYÜ","zip":"18302"},{"name":"KÖPÜRLÜ KÖYÜ","zip":"18302"},{"name":"MADENLİ KÖYÜ","zip":"18302"},{"name":"MERKEZ MAH.","zip":"18302"},{"name":"PINARCIK MAH.","zip":"18302"},{"name":"SARIALAN KÖYÜ","zip":"18302"},{"name":"SİVRİCEK KÖYÜ","zip":"18302"},{"name":"SUMUCAK KÖYÜ","zip":"18302"},{"name":"SÜNÜRLÜ KÖYÜ","zip":"18302"},{"name":"TAŞKARACALAR KÖYÜ","zip":"18302"},{"name":"UZUNOĞLU MAH.","zip":"18302"},{"name":"YENİ MAH.","zip":"18302"},{"name":"YEŞİLÖREN KÖYÜ","zip":"18302"},{"name":"YEŞİLÖZ KÖYÜ","zip":"18302"}]},{"name":"ÇARŞI","cityName":null,"quarters":[{"name":"BUĞDAY PAZARI MAH.","zip":"18100"},{"name":"CUMHURİYET MAH.","zip":"18100"},{"name":"ESENTEPE MAH.","zip":"18100"},{"name":"FATİH MAH.","zip":"18100"},{"name":"İNCİLİ  ÇEŞME MAH.","zip":"18100"},{"name":"KARATAŞ MAH.","zip":"18100"},{"name":"KARATEKİN MAH.","zip":"18100"},{"name":"KIRKEVLER MAH.","zip":"18100"},{"name":"MİMAR SİNAN MAH.","zip":"18100"},{"name":"TABAKHANE MAH.","zip":"18100"}]},{"name":"MERKEZKÖYLER","cityName":null,"quarters":[{"name":"AHLAT KÖYÜ","zip":"18010"},{"name":"AKÇAVAKIF KÖYÜ","zip":"18010"},{"name":"AKÖREN KÖYÜ","zip":"18010"},{"name":"ALAÇAT KÖYÜ","zip":"18010"},{"name":"ALICA KÖYÜ","zip":"18010"},{"name":"ALTINLI KÖYÜ","zip":"18010"},{"name":"ALTINOVA MAH.","zip":"18010"},{"name":"AŞAĞIÇAVUŞ KÖYÜ","zip":"18010"},{"name":"AŞAĞIPELİTÖZÜ KÖYÜ","zip":"18010"},{"name":"AŞAĞIYANLAR KÖYÜ","zip":"18010"},{"name":"AYAN KÖYÜ","zip":"18010"},{"name":"BALIBAĞI KÖYÜ","zip":"18010"},{"name":"BALLICA MAH.","zip":"18010"},{"name":"BAŞEĞMEZ KÖYÜ","zip":"18010"},{"name":"BAYINDIR KÖYÜ","zip":"18010"},{"name":"BEŞTUT KÖYÜ","zip":"18010"},{"name":"BOZKIR KÖYÜ","zip":"18010"},{"name":"BÜYÜKSULU MAH.","zip":"18010"},{"name":"ÇAĞABEY KÖYÜ","zip":"18010"},{"name":"ÇATALELMA KÖYÜ","zip":"18010"},{"name":"ÇAYIRPINAR KÖYÜ","zip":"18010"},{"name":"ÇIRÇIR KÖYÜ","zip":"18010"},{"name":"ÇİFTLİK MAH.","zip":"18010"},{"name":"ÇİVİ KÖYÜ","zip":"18010"},{"name":"DANABAŞ KÖYÜ","zip":"18010"},{"name":"DEDE KÖYÜ","zip":"18010"},{"name":"DEDE MAH.","zip":"18010"},{"name":"DEĞİM KÖYÜ","zip":"18010"},{"name":"DOĞANTEPE KÖYÜ","zip":"18010"},{"name":"DUTAĞAÇ KÖYÜ","zip":"18010"},{"name":"GERMECE KÖYÜ","zip":"18010"},{"name":"GONCAOĞLU MAH.","zip":"18010"},{"name":"GÜLBURUN MAH.","zip":"18010"},{"name":"HACİÖMER MAH.","zip":"18010"},{"name":"HANDIRI KÖYÜ","zip":"18010"},{"name":"HASAKÇA KÖYÜ","zip":"18010"},{"name":"HAYDAM MAH.","zip":"18010"},{"name":"HIDIRLIK KÖYÜ","zip":"18010"},{"name":"İÇYENİCE KÖYÜ","zip":"18010"},{"name":"İNAÇ KÖYÜ","zip":"18010"},{"name":"İNANDIK KÖYÜ","zip":"18010"},{"name":"İNCİK KÖYÜ","zip":"18010"},{"name":"KARA CİCELİ MAH.","zip":"18010"},{"name":"KARADAYI KÖYÜ","zip":"18010"},{"name":"KARAKIŞLA MAH.","zip":"18010"},{"name":"KARAŞEYH KÖYÜ","zip":"18010"},{"name":"KASIMAĞA MAH.","zip":"18010"},{"name":"KILIÇARGI ALTI MAH.","zip":"18010"},{"name":"KÖY İÇİ MAH.","zip":"18010"},{"name":"KÖY MERKEZİ MAH.","zip":"18010"},{"name":"KÖYİÇİ MAH.","zip":"18010"},{"name":"KUZU KÖYÜ","zip":"18010"},{"name":"KÜÇÜKLÜ KÖYÜ","zip":"18010"},{"name":"MERKEZ MAH.","zip":"18010"},{"name":"MERZİ KÖYÜ","zip":"18010"},{"name":"MOLLAMEHMET MAH.","zip":"18010"},{"name":"ORGANİZE SANAYİ BÖLGESİ MAH.","zip":"18010"},{"name":"OVACIK KÖYÜ","zip":"18010"},{"name":"ÖZ MAH.","zip":"18010"},{"name":"PAŞA KÖYÜ","zip":"18010"},{"name":"PEHLİVANLI KÖYÜ","zip":"18010"},{"name":"SATIYÜZÜ KÖYÜ","zip":"18010"},{"name":"SÜLEYMANLI KÖYÜ","zip":"18010"},{"name":"SÜLEYMANLI MAH.","zip":"18010"},{"name":"TAYTAK KÖYÜ","zip":"18010"},{"name":"TEPE MAH.","zip":"18010"},{"name":"TERME MAH.","zip":"18010"},{"name":"TUZLAĞAN MAH.","zip":"18010"},{"name":"TUZLU KÖYÜ","zip":"18010"},{"name":"TÜNEY KÖYÜ","zip":"18010"},{"name":"ÜNÜR KÖYÜ","zip":"18010"},{"name":"YENİDOĞAN MAH.","zip":"18010"},{"name":"YILANLI MAH.","zip":"18010"},{"name":"YUKARIÇAVUŞ KÖYÜ","zip":"18010"},{"name":"YUKARIPELİTÖZÜ KÖYÜ","zip":"18010"},{"name":"ZAFER MAH.","zip":"18010"}]},{"name":"TAŞMESCİT","cityName":null,"quarters":[{"name":"AKSU MAH.","zip":"18200"},{"name":"YENİ MAH.","zip":"18200"}]},{"name":"MERKEZKÖYLER","cityName":null,"quarters":[{"name":"BUĞURÖREN KÖYÜ","zip":"18802"},{"name":"BÜĞDÜZ KÖYÜ","zip":"18802"},{"name":"CUMHURİYET MAH.","zip":"18802"},{"name":"DEREBAYINDIR KÖYÜ","zip":"18802"},{"name":"DODURGA KÖYÜ","zip":"18802"},{"name":"DOĞANLAR KÖYÜ","zip":"18802"},{"name":"ELDEN KÖYÜ","zip":"18802"},{"name":"ELDEN MAH.","zip":"18802"},{"name":"ELMALIK KÖYÜ","zip":"18802"},{"name":"ELVAN MAH.","zip":"18802"},{"name":"FATİH MAH.","zip":"18802"},{"name":"GÖKÇEÖREN KÖYÜ","zip":"18802"},{"name":"GÖKÇEÖREN MAH.","zip":"18802"},{"name":"HACI HASAN MAH.","zip":"18802"},{"name":"HAMAMÖNÜ MAH.","zip":"18802"},{"name":"HASANHACI KÖYÜ","zip":"18802"},{"name":"HASANHACI MAH.","zip":"18802"},{"name":"HATİPLER MAH.","zip":"18802"},{"name":"HÜRRİYET MAH.","zip":"18802"},{"name":"HÜYÜKKÖY KÖYÜ","zip":"18802"},{"name":"İNCECİK KÖYÜ","zip":"18802"},{"name":"İNKİLAP MAH.","zip":"18802"},{"name":"KALFAT KÖYÜ","zip":"18802"},{"name":"KANARYA MAH.","zip":"18802"},{"name":"KARAAĞAÇ KÖYÜ","zip":"18802"},{"name":"KAYILAR MAH.","zip":"18802"},{"name":"KAYIÖREN KÖYÜ","zip":"18802"},{"name":"KIRSAKAL KÖYÜ","zip":"18802"},{"name":"KISAÇ KÖYÜ","zip":"18802"},{"name":"NALTEPE MAH.","zip":"18802"},{"name":"NEVZAT AYAZ MAH.","zip":"18802"},{"name":"ORTABAYINDIR KÖYÜ","zip":"18802"},{"name":"ÖZLÜ KÖYÜ","zip":"18802"},{"name":"SAKAELİ KÖYÜ","zip":"18802"},{"name":"SAKARCAÖREN KÖYÜ","zip":"18802"},{"name":"SALUR KÖYÜ","zip":"18802"},{"name":"SANCAK MAH.","zip":"18802"},{"name":"SANCAR KÖYÜ","zip":"18802"},{"name":"SEYDİ MAH.","zip":"18802"},{"name":"SÜNNETÇİLER MAH.","zip":"18802"},{"name":"TAŞLI TARLA MAH.","zip":"18802"},{"name":"TUTMAÇBAYINDIR KÖYÜ","zip":"18802"},{"name":"YAYLA EVLERİ MAH.","zip":"18802"},{"name":"YAYLAKENT KÖYÜ","zip":"18802"},{"name":"YENİ HARMAN YERİ MAH.","zip":"18802"},{"name":"YENİ ORTABAYINDIR MAH.","zip":"18802"},{"name":"YENİCE KÖYÜ","zip":"18802"},{"name":"YUVA KÖYÜ","zip":"18802"}]},{"name":"ORTA","cityName":null,"quarters":[{"name":"ESKİ YAYLA MAH.","zip":"18800"},{"name":"KANLICA MAH.","zip":"18800"},{"name":"SULTAN BEYAZIT MAH.","zip":"18800"}]},{"name":"MERKEZKÖYLER","cityName":null,"quarters":[{"name":"BULDUK KÖYÜ","zip":"18652"},{"name":"BULGURCU KÖYÜ","zip":"18652"},{"name":"BÜYÜKYAKALI KÖYÜ","zip":"18652"},{"name":"ÇADIR MAH.","zip":"18652"},{"name":"ÇAPAR KÖYÜ","zip":"18652"},{"name":"ÇAPARKAYI KÖYÜ","zip":"18652"},{"name":"ÇERÇİ KÖYÜ","zip":"18652"},{"name":"DEMİRSAHAN MAH.","zip":"18652"},{"name":"DEPREM KONUTLARI MAH.","zip":"18652"},{"name":"GÖLDAĞI KÖYÜ","zip":"18652"},{"name":"GÜNDOĞMUŞ KÖYÜ","zip":"18652"},{"name":"KAMIŞKÖY KÖYÜ","zip":"18652"},{"name":"KARAHACI KÖYÜ","zip":"18652"},{"name":"KARAKOÇAŞ KÖYÜ","zip":"18652"},{"name":"KARAMUSA KÖYÜ","zip":"18652"},{"name":"KAYAPINAR MAH.","zip":"18652"},{"name":"KURTSİVRİSİ MAH.","zip":"18652"},{"name":"KUTLUŞAR KÖYÜ","zip":"18652"},{"name":"KÜÇÜKYAKALI KÖYÜ","zip":"18652"},{"name":"MARTKÖY KÖYÜ","zip":"18652"},{"name":"OLUKLU MAH.","zip":"18652"},{"name":"ÖDEK KÖYÜ","zip":"18652"},{"name":"ÖZBEK KÖYÜ","zip":"18652"},{"name":"SIRIKLI MAH.","zip":"18652"}]},{"name":"ŞABANÖZÜ","cityName":null,"quarters":[{"name":"GÜMERDİĞİN MAH.","zip":"18650"},{"name":"GÜRPINAR MAH.","zip":"18650"},{"name":"KARAÖREN MAH.","zip":"18650"},{"name":"MAHMUDİYE MAH.","zip":"18650"},{"name":"SAĞLIK MAH.","zip":"18650"},{"name":"YENİ MAH.","zip":"18650"},{"name":"YENİOSB MAH.","zip":"18650"}]},{"name":"MERKEZKÖYLER","cityName":null,"quarters":[{"name":"AYSEKİ KÖYÜ","zip":"18902"},{"name":"AYVA KÖYÜ","zip":"18902"},{"name":"BADEMÇAY KÖYÜ","zip":"18902"},{"name":"BALIBIDIK KÖYÜ","zip":"18902"},{"name":"BELİBEDİR KÖYÜ","zip":"18902"},{"name":"BUĞAY KÖYÜ","zip":"18902"},{"name":"BULUCA KÖYÜ","zip":"18902"},{"name":"BÜYÜK CAMİ MAH.","zip":"18902"},{"name":"BÜYÜKAKSEKİ KÖYÜ","zip":"18902"},{"name":"ÇAKIRLAR KÖYÜ","zip":"18902"},{"name":"ÇEVRECİK KÖYÜ","zip":"18902"},{"name":"ÇİÇEK KÖYÜ","zip":"18902"},{"name":"DAVUTLAR KÖYÜ","zip":"18902"},{"name":"DOĞANBEY KÖYÜ","zip":"18902"},{"name":"GÜRMEÇ KÖYÜ","zip":"18902"},{"name":"İKİZÖREN KÖYÜ","zip":"18902"},{"name":"KARACAÖZÜ KÖYÜ","zip":"18902"},{"name":"KAYACIK KÖYÜ","zip":"18902"},{"name":"KAYMAZ KÖYÜ","zip":"18902"},{"name":"KIVCAK KÖYÜ","zip":"18902"},{"name":"KİRLİAKÇA KÖYÜ","zip":"18902"},{"name":"KULLAR KÖYÜ","zip":"18902"},{"name":"MÜSELLİM KÖYÜ","zip":"18902"},{"name":"OVACIK KÖYÜ","zip":"18902"},{"name":"SARIKAYA KÖYÜ","zip":"18902"},{"name":"SAZCAĞIZ KÖYÜ","zip":"18902"},{"name":"SOFUOĞLU KÖYÜ","zip":"18902"},{"name":"SUBAŞI KÖYÜ","zip":"18902"},{"name":"ŞEYH İSMAİL MAH.","zip":"18902"},{"name":"ŞEYH OSMAN KÖYÜ","zip":"18902"},{"name":"TOPUZSARAY KÖYÜ","zip":"18902"},{"name":"YAKA KÖYÜ","zip":"18902"},{"name":"YAKADERE KÖYÜ","zip":"18902"},{"name":"YAMAÇBAŞI KÖYÜ","zip":"18902"},{"name":"YENİ MAH.","zip":"18902"},{"name":"YENİCE KÖYÜ","zip":"18902"},{"name":"YEŞİLYAYLA KÖYÜ","zip":"18902"},{"name":"YUKARIÖZ KÖYÜ","zip":"18902"},{"name":"YÜKLÜ KÖYÜ","zip":"18902"},{"name":"ZEKERİYA KÖYÜ","zip":"18902"}]},{"name":"YAPRAKLI","cityName":null,"quarters":[{"name":"AŞAĞI MAH.","zip":"18900"},{"name":"CAMİKEBİR MAH.","zip":"18900"},{"name":"İĞDİR MAH.","zip":"18900"},{"name":"KAVAK MAH.","zip":"18900"},{"name":"YUKARI MAH.","zip":"18900"}]}]}]}