{"id":19,"name":"ÇORUM","cities":[{"name":"city","districts":[{"name":"ALACA","cityName":null,"quarters":[{"name":"DENİZHAN MAH.","zip":"19600"},{"name":"GÜNHAN MAH.","zip":"19600"},{"name":"ÖZHAN MAH.","zip":"19600"},{"name":"YILDIZHAN MAH.","zip":"19600"}]},{"name":"MERKEZKÖYLER","cityName":null,"quarters":[{"name":"AKÇİÇEK KÖYÜ","zip":"19602"},{"name":"AKÖREN KÖYÜ","zip":"19602"},{"name":"AKPINAR KÖYÜ","zip":"19602"},{"name":"ALACAHÜYÜK KÖYÜ","zip":"19602"},{"name":"ALTINTAŞ KÖYÜ","zip":"19602"},{"name":"BAHÇELİ KÖYÜ","zip":"19602"},{"name":"BALÇIKHİSAR KÖYÜ","zip":"19602"},{"name":"BELPINAR KÖYÜ","zip":"19602"},{"name":"BEŞİKTEPE KÖYÜ","zip":"19602"},{"name":"BOĞAZİÇİ KÖYÜ","zip":"19602"},{"name":"BOLATÇIK KÖYÜ","zip":"19602"},{"name":"BOZDOĞAN KÖYÜ","zip":"19602"},{"name":"BÜYÜKCAMİLİ KÖYÜ","zip":"19602"},{"name":"BÜYÜKDONA KÖYÜ","zip":"19602"},{"name":"BÜYÜKHIRKA KÖYÜ","zip":"19602"},{"name":"BÜYÜKKEŞLİK KÖYÜ","zip":"19602"},{"name":"BÜYÜKSÖĞÜTÖZÜ KÖYÜ","zip":"19602"},{"name":"CUMHURİYET MAH.","zip":"19602"},{"name":"ÇAL KÖYÜ","zip":"19602"},{"name":"ÇATAK KÖYÜ","zip":"19602"},{"name":"ÇATALBAŞ KÖYÜ","zip":"19602"},{"name":"ÇATALKAYA KÖYÜ","zip":"19602"},{"name":"ÇELEBİBAĞ KÖYÜ","zip":"19602"},{"name":"ÇETEDERESİ KÖYÜ","zip":"19602"},{"name":"ÇEVRELİ KÖYÜ","zip":"19602"},{"name":"ÇIRÇIR KÖYÜ","zip":"19602"},{"name":"ÇİKHASAN KÖYÜ","zip":"19602"},{"name":"ÇOPRAŞIK KÖYÜ","zip":"19602"},{"name":"ÇÖPLÜ KÖYÜ","zip":"19602"},{"name":"ÇÖPLÜAVUTMUŞ KÖYÜ","zip":"19602"},{"name":"DEDEPINAR KÖYÜ","zip":"19602"},{"name":"DEĞİRMENDERE KÖYÜ","zip":"19602"},{"name":"DEĞİRMENÖNÜ KÖYÜ","zip":"19602"},{"name":"DEREYAZICI KÖYÜ","zip":"19602"},{"name":"DUTLUCA KÖYÜ","zip":"19602"},{"name":"EREN KÖYÜ","zip":"19602"},{"name":"ESKİYAPAR KÖYÜ","zip":"19602"},{"name":"EVCİ KÖYÜ","zip":"19602"},{"name":"FAKILAR KÖYÜ","zip":"19602"},{"name":"FATİH MAH.","zip":"19602"},{"name":"GAZİPAŞA KÖYÜ","zip":"19602"},{"name":"GERDEKKAYA KÖYÜ","zip":"19602"},{"name":"GEVEN KÖYÜ","zip":"19602"},{"name":"GÖKÖREN KÖYÜ","zip":"19602"},{"name":"GÜLDERESİ KÖYÜ","zip":"19602"},{"name":"GÜLLÜK KÖYÜ","zip":"19602"},{"name":"HARHAR KÖYÜ","zip":"19602"},{"name":"HAYDAR KÖYÜ","zip":"19602"},{"name":"HÖYÜK MAH.","zip":"19602"},{"name":"İBRAHİM KÖYÜ","zip":"19602"},{"name":"İMAT KÖYÜ","zip":"19602"},{"name":"İSAHACI KÖYÜ","zip":"19602"},{"name":"İSMAİLLİ KÖYÜ","zip":"19602"},{"name":"KALECİKKAYA KÖYÜ","zip":"19602"},{"name":"KALINKAYA KÖYÜ","zip":"19602"},{"name":"KAPAKLI KÖYÜ","zip":"19602"},{"name":"KARAÇAL KÖYÜ","zip":"19602"},{"name":"KARAMAHMUT KÖYÜ","zip":"19602"},{"name":"KARATEPE KÖYÜ","zip":"19602"},{"name":"KARGIN KÖYÜ","zip":"19602"},{"name":"KARNIKARA KÖYÜ","zip":"19602"},{"name":"KAYABÜVET KÖYÜ","zip":"19602"},{"name":"KICILI KÖYÜ","zip":"19602"},{"name":"KILAVUZ KÖYÜ","zip":"19602"},{"name":"KIZILLI KÖYÜ","zip":"19602"},{"name":"KIZILYAR KÖYÜ","zip":"19602"},{"name":"KIZKARACA KÖYÜ","zip":"19602"},{"name":"KİLLİK KÖYÜ","zip":"19602"},{"name":"KOÇHİSAR KÖYÜ","zip":"19602"},{"name":"KOYUNOĞLU KÖYÜ","zip":"19602"},{"name":"KÖRPINAR KÖYÜ","zip":"19602"},{"name":"KUYLUŞ KÖYÜ","zip":"19602"},{"name":"KUYUMCUSARAY KÖYÜ","zip":"19602"},{"name":"KUZKIŞLA KÖYÜ","zip":"19602"},{"name":"KÜÇÜKCAMİLİ KÖYÜ","zip":"19602"},{"name":"KÜÇÜKDONA KÖYÜ","zip":"19602"},{"name":"KÜÇÜKHIRKA KÖYÜ","zip":"19602"},{"name":"KÜÇÜKKEŞLİK KÖYÜ","zip":"19602"},{"name":"KÜLAH KÖYÜ","zip":"19602"},{"name":"KÜRE KÖYÜ","zip":"19602"},{"name":"KÜRKÇÜ KÖYÜ","zip":"19602"},{"name":"MAHMUDİYE KÖYÜ","zip":"19602"},{"name":"MAZIBAŞI KÖYÜ","zip":"19602"},{"name":"MİYANESULTAN KÖYÜ","zip":"19602"},{"name":"OĞUZHAN MAH.","zip":"19602"},{"name":"ONBAŞILAR KÖYÜ","zip":"19602"},{"name":"ÖRÜKAYA KÖYÜ","zip":"19602"},{"name":"PERÇEM KÖYÜ","zip":"19602"},{"name":"SANCI KÖYÜ","zip":"19602"},{"name":"SARISÜLEYMAN KÖYÜ","zip":"19602"},{"name":"SEYİTNİZAM KÖYÜ","zip":"19602"},{"name":"SİNCAN KÖYÜ","zip":"19602"},{"name":"SOĞUCAK KÖYÜ","zip":"19602"},{"name":"SULTAN KÖYÜ","zip":"19602"},{"name":"SULUDERE KÖYÜ","zip":"19602"},{"name":"TAHİRABAT KÖYÜ","zip":"19602"},{"name":"TEVFİKİYE KÖYÜ","zip":"19602"},{"name":"TUTAŞ KÖYÜ","zip":"19602"},{"name":"ÜNALAN KÖYÜ","zip":"19602"},{"name":"YATANKAVAK KÖYÜ","zip":"19602"},{"name":"YENİCE KÖYÜ","zip":"19602"},{"name":"YENİKÖY KÖYÜ","zip":"19602"},{"name":"YEŞİLYURT KÖYÜ","zip":"19602"},{"name":"YÜKSEKYAYLA KÖYÜ","zip":"19602"}]},{"name":"BAYAT","cityName":null,"quarters":[{"name":"KAYABAŞI MAH.","zip":"19800"},{"name":"TEPEBAYAT MAH.","zip":"19800"},{"name":"YATUKCU MAH.","zip":"19800"},{"name":"YENİ MAH.","zip":"19800"}]},{"name":"MERKEZKÖYLER","cityName":null,"quarters":[{"name":"AKKAYA MAH.","zip":"19802"},{"name":"AKSEKİ KÖYÜ","zip":"19802"},{"name":"ALİBEY MAH.","zip":"19802"},{"name":"ANKARA YOLU MAH.","zip":"19802"},{"name":"ASMA MAH.","zip":"19802"},{"name":"AŞAĞI EMİRHALİL KÖYÜ","zip":"19802"},{"name":"AŞAĞI MAH.","zip":"19802"},{"name":"AŞAĞI YEŞİLÇAT MAH.","zip":"19802"},{"name":"AYVALICA KÖYÜ","zip":"19802"},{"name":"BAĞ ARKASI MAH.","zip":"19802"},{"name":"BAĞÖZÜ MAH.","zip":"19802"},{"name":"BARAK KÖYÜ","zip":"19802"},{"name":"BAYAN KÖYÜ","zip":"19802"},{"name":"BEYDİLİ KÖYÜ","zip":"19802"},{"name":"BOYALIK MAH.","zip":"19802"},{"name":"BÜYÜK MAH.","zip":"19802"},{"name":"CEVİZLİ KÖYÜ","zip":"19802"},{"name":"ÇAĞIL MAH.","zip":"19802"},{"name":"ÇALI SÖKÜ MAH.","zip":"19802"},{"name":"ÇAMLIGÜNEY KÖYÜ","zip":"19802"},{"name":"ÇAY KAVUŞTU MAH.","zip":"19802"},{"name":"ÇAYKÖY KÖYÜ","zip":"19802"},{"name":"ÇEBİŞ GEDİĞİ MAH.","zip":"19802"},{"name":"ÇERKEŞ KÖYÜ","zip":"19802"},{"name":"ÇUKURÖZ KÖYÜ","zip":"19802"},{"name":"DANGAZLAR MAH.","zip":"19802"},{"name":"DEMİRCİLER KÖYÜ","zip":"19802"},{"name":"DEREKUTUĞUN KÖYÜ","zip":"19802"},{"name":"DORUKSEKİ KÖYÜ","zip":"19802"},{"name":"EMİRHALİL KÖYÜ","zip":"19802"},{"name":"EMİRŞAH KÖYÜ","zip":"19802"},{"name":"ENALTI ÇAYI MAH.","zip":"19802"},{"name":"ESKİALİBEY KÖYÜ","zip":"19802"},{"name":"EVCİ KÖYÜ","zip":"19802"},{"name":"FALI KÖYÜ","zip":"19802"},{"name":"FATİH MAH.","zip":"19802"},{"name":"FINDICAK MAH.","zip":"19802"},{"name":"GAZİ MAH.","zip":"19802"},{"name":"GERİŞ MAH.","zip":"19802"},{"name":"GÖYNÜK HARMAN ALTI MAH.","zip":"19802"},{"name":"GÜLEÇ MAH.","zip":"19802"},{"name":"GÜLLEVÜK MAH.","zip":"19802"},{"name":"GÜZEL BAĞLAR MAH.","zip":"19802"},{"name":"HACIAYVAT MAH.","zip":"19802"},{"name":"HACIBAYRAM KÖYÜ","zip":"19802"},{"name":"HACILAR MAH.","zip":"19802"},{"name":"HAVDAN MAH.","zip":"19802"},{"name":"HAYDAR MAH.","zip":"19802"},{"name":"HOROZLAR MAH.","zip":"19802"},{"name":"İLEĞİ KÖYÜ","zip":"19802"},{"name":"İMAMOĞLU MAH.","zip":"19802"},{"name":"İSHAKLI KÖYÜ","zip":"19802"},{"name":"KALINPELİT KÖYÜ","zip":"19802"},{"name":"KARABALÇIK MAH.","zip":"19802"},{"name":"KARAKAYA KÖYÜ","zip":"19802"},{"name":"KARŞIKÖY MAH.","zip":"19802"},{"name":"KARŞIYAKA MAH.","zip":"19802"},{"name":"KAVAKKIRI MAH.","zip":"19802"},{"name":"KAYABAŞI MAH.","zip":"19802"},{"name":"KAYTAZLAR MAH.","zip":"19802"},{"name":"KESKİNLER MAH.","zip":"19802"},{"name":"KIZILPELİT MAH.","zip":"19802"},{"name":"KİRENLE MAH.","zip":"19802"},{"name":"KOM MAH.","zip":"19802"},{"name":"KOZDERE MAH.","zip":"19802"},{"name":"KÖM MAH.","zip":"19802"},{"name":"KÖMÜR OCAĞI-1 MAH.","zip":"19802"},{"name":"KÖMÜR OCAĞI-2 MAH.","zip":"19802"},{"name":"KÖPÜKLÜ KÖYÜ","zip":"19802"},{"name":"KÖYYERİ MAH.","zip":"19802"},{"name":"KUBBEDİN KÖYÜ","zip":"19802"},{"name":"KUNDUZLU KÖYÜ","zip":"19802"},{"name":"KURUÇAY KÖYÜ","zip":"19802"},{"name":"KURUGÖL MAH.","zip":"19802"},{"name":"KÜRTALİ DAMI MAH.","zip":"19802"},{"name":"MERKEZ MAH.","zip":"19802"},{"name":"MEZARLIK MEVKİ MAH.","zip":"19802"},{"name":"NASIFLAR MAH.","zip":"19802"},{"name":"NAZPINAR MAH.","zip":"19802"},{"name":"OBA MAH.","zip":"19802"},{"name":"ORTA MAH.","zip":"19802"},{"name":"OSMANYERİ MAH.","zip":"19802"},{"name":"PANCARLIK KÖYÜ","zip":"19802"},{"name":"SAĞPAZAR KÖYÜ","zip":"19802"},{"name":"SARAY KÖYÜ","zip":"19802"},{"name":"SATININSAMANLIĞI MAH.","zip":"19802"},{"name":"SEMER DERESİ MAH.","zip":"19802"},{"name":"SOYUK MAH.","zip":"19802"},{"name":"SUNGUR MAH.","zip":"19802"},{"name":"TAŞLIK MAH.","zip":"19802"},{"name":"TAYTAK MAH.","zip":"19802"},{"name":"TEPEKUTUĞUN KÖYÜ","zip":"19802"},{"name":"TEVEKLİ KÖYÜ","zip":"19802"},{"name":"TOYHANE KÖYÜ","zip":"19802"},{"name":"ÜRGÜPLER MAH.","zip":"19802"},{"name":"YAZLIK MAH.","zip":"19802"},{"name":"YENİ MAH.","zip":"19802"},{"name":"YENİCAMİ MAH.","zip":"19802"},{"name":"YENİKÖY KÖYÜ","zip":"19802"},{"name":"YENİŞIHLAR KÖYÜ","zip":"19802"},{"name":"YEŞİLÇAT KÖYÜ","zip":"19802"},{"name":"YEŞİLYURT MAH.","zip":"19802"},{"name":"YONCALI KÖYÜ","zip":"19802"},{"name":"YUKARI MAH.","zip":"19802"},{"name":"YUKARI TAŞLIK MAH.","zip":"19802"},{"name":"YÜCEARDI MAH.","zip":"19802"}]},{"name":"BOĞAZKALE","cityName":null,"quarters":[{"name":"HATTUSAS MAH.","zip":"19310"},{"name":"HİSAR MAH.","zip":"19310"}]},{"name":"MERKEZKÖYLER","cityName":null,"quarters":[{"name":"BAHÇELİEVLER MAH.","zip":"19312"},{"name":"ÇARŞICUMA KÖYÜ","zip":"19312"},{"name":"DEREBAĞLAR MAH.","zip":"19312"},{"name":"EMİRLER KÖYÜ","zip":"19312"},{"name":"EVCİ KÖYÜ","zip":"19312"},{"name":"FATİH MAH.","zip":"19312"},{"name":"GÖLPINARLAR KÖYÜ","zip":"19312"},{"name":"KADILITÜRK KÖYÜ","zip":"19312"},{"name":"KARAKEÇİLİ KÖYÜ","zip":"19312"},{"name":"KAYMAZ KÖYÜ","zip":"19312"},{"name":"ÖRENKAYA KÖYÜ","zip":"19312"},{"name":"SARIÇİÇEK KÖYÜ","zip":"19312"},{"name":"YANICAK KÖYÜ","zip":"19312"},{"name":"YAZIR KÖYÜ","zip":"19312"},{"name":"YEKBAS KÖYÜ","zip":"19312"},{"name":"YENİ MAH.","zip":"19312"},{"name":"YENİKADILI KÖYÜ","zip":"19312"},{"name":"YUKARIFINDIKLI KÖYÜ","zip":"19312"},{"name":"YUNUS EMRE MAH.","zip":"19312"}]},{"name":"DODURGA","cityName":null,"quarters":[{"name":"DOĞU MAH.","zip":"19060"},{"name":"ESENTEPE MAH.","zip":"19060"},{"name":"OKUL MAH.","zip":"19060"},{"name":"ULUCAMİ MAH.","zip":"19060"},{"name":"YENİMAHALLE MAH.","zip":"19060"}]},{"name":"MERKEZKÖYLER","cityName":null,"quarters":[{"name":"ALPAGUT KÖYÜ","zip":"19062"},{"name":"AYVAKÖY KÖYÜ","zip":"19062"},{"name":"BERKKÖY KÖYÜ","zip":"19062"},{"name":"CAMİİ MAH.","zip":"19062"},{"name":"CUMHURİYET MAH.","zip":"19062"},{"name":"ÇİFTLİKKÖY KÖYÜ","zip":"19062"},{"name":"DİKENLİ KÖYÜ","zip":"19062"},{"name":"KABAKDERE MAH.","zip":"19062"},{"name":"KİBİRLER MAH.","zip":"19062"},{"name":"KİRENCİ KÖYÜ","zip":"19062"},{"name":"KİRENPINARI MAH.","zip":"19062"},{"name":"KUYUCAK KÖYÜ","zip":"19062"},{"name":"MEHMETDEDEOBRUĞU KÖYÜ","zip":"19062"},{"name":"MEHMETDEDETEKKESİ KÖYÜ","zip":"19062"},{"name":"MERKEZ MAH.","zip":"19062"},{"name":"SOĞUKEŞME MAH.","zip":"19062"},{"name":"TIRIKLAR MAH.","zip":"19062"},{"name":"TOKUŞ MAH.","zip":"19062"},{"name":"TUTUŞ KÖYÜ","zip":"19062"},{"name":"YAYLA EVLERİ MAH.","zip":"19062"},{"name":"YENİKÖY KÖYÜ","zip":"19062"},{"name":"YENİOKUL MAH.","zip":"19062"},{"name":"YUKARI MAH.","zip":"19062"},{"name":"YUSUFLAR MAH.","zip":"19062"}]},{"name":"İSKİLİP","cityName":null,"quarters":[{"name":"BÜYÜKTAŞ MAH.","zip":"19400"},{"name":"ÇAVUŞ MAH.","zip":"19400"},{"name":"EKİZOĞLU MAH.","zip":"19400"},{"name":"ERENLER MAH.","zip":"19400"},{"name":"HACIPİRİ MAH.","zip":"19400"},{"name":"KALEBOĞAZI MAH.","zip":"19400"},{"name":"MEYDAN MAH.","zip":"19400"},{"name":"MUTAFLAR MAH.","zip":"19400"},{"name":"SAKARYA MAH.","zip":"19400"},{"name":"TABAKHANE MAH.","zip":"19400"},{"name":"ULAŞTEPE MAH.","zip":"19400"},{"name":"ULUDERE MAH.","zip":"19400"},{"name":"YENİCAMİ MAH.","zip":"19400"}]},{"name":"MERKEZKÖYLER","cityName":null,"quarters":[{"name":"AHLAT MAH.","zip":"19402"},{"name":"AHLATCIK KÖYÜ","zip":"19402"},{"name":"AHMETCE KÖYÜ","zip":"19402"},{"name":"AKCASU KÖYÜ","zip":"19402"},{"name":"AKKİL MAH.","zip":"19402"},{"name":"AKPINAR KÖYÜ","zip":"19402"},{"name":"ALİBEYLİ MAH.","zip":"19402"},{"name":"ALUÇ KÖYÜ","zip":"19402"},{"name":"ARAPLAR MAH.","zip":"19402"},{"name":"ASARCIK KÖYÜ","zip":"19402"},{"name":"AŞAGI MAH.","zip":"19402"},{"name":"AŞAĞI EKŞİOĞLU MAH.","zip":"19402"},{"name":"AŞAĞI KARLIK MAH.","zip":"19402"},{"name":"AŞAĞI KIRAN MAH.","zip":"19402"},{"name":"AŞAĞI MAH.","zip":"19402"},{"name":"AŞAĞIÖRENSEKİ KÖYÜ","zip":"19402"},{"name":"AŞAĞISEKİ MAH.","zip":"19402"},{"name":"AŞAĞIŞEYHLER KÖYÜ","zip":"19402"},{"name":"AŞİNA TAVUKÇULUK MAH.","zip":"19402"},{"name":"AVHATYAKA KÖYÜ","zip":"19402"},{"name":"BAHÇELİEVLER MAH.","zip":"19402"},{"name":"BARUTCU ÇİFTLİĞİ MAH.","zip":"19402"},{"name":"BAŞMAKCI KÖYÜ","zip":"19402"},{"name":"BEYOĞLAN KÖYÜ","zip":"19402"},{"name":"BOYRAZLAR MAH.","zip":"19402"},{"name":"BURUNCUK MAH.","zip":"19402"},{"name":"CANSIZLAR MAH.","zip":"19402"},{"name":"CINGILLIOĞLU MAH.","zip":"19402"},{"name":"CUHALAR MAH.","zip":"19402"},{"name":"CURALAR MAH.","zip":"19402"},{"name":"ÇAĞILARDI MAH.","zip":"19402"},{"name":"ÇATKARA KÖYÜ","zip":"19402"},{"name":"ÇAVUŞOĞLU KÖYÜ","zip":"19402"},{"name":"ÇELİKLER ÇİFTLİĞİ MAH.","zip":"19402"},{"name":"ÇETMİ KÖYÜ","zip":"19402"},{"name":"ÇIRAKLAR MAH.","zip":"19402"},{"name":"ÇİMENLER ALİDAYI MAH.","zip":"19402"},{"name":"ÇOMU KÖYÜ","zip":"19402"},{"name":"ÇÖRDÜK MAH.","zip":"19402"},{"name":"ÇUHALAR MAH.","zip":"19402"},{"name":"ÇUKURKÖY KÖYÜ","zip":"19402"},{"name":"DAĞKIYISI KÖYÜ","zip":"19402"},{"name":"DAMRUYURT MAH.","zip":"19402"},{"name":"DELİKKAYA MAH.","zip":"19402"},{"name":"DEMİRCİLER MAH.","zip":"19402"},{"name":"DERE MAH.","zip":"19402"},{"name":"DEREKARGIN KÖYÜ","zip":"19402"},{"name":"DEREKÖY MAH.","zip":"19402"},{"name":"DERELİ MAH.","zip":"19402"},{"name":"DERESEKİ KÖYÜ","zip":"19402"},{"name":"DEVECİ MAH.","zip":"19402"},{"name":"DİKBIYIKLAR MAH.","zip":"19402"},{"name":"DİVANOĞLU MAH.","zip":"19402"},{"name":"DOĞANGİR KÖYÜ","zip":"19402"},{"name":"DORUK HARMAN MAH.","zip":"19402"},{"name":"DÜZBAĞ MAH.","zip":"19402"},{"name":"ELLER SAKLAR MAH.","zip":"19402"},{"name":"ELLEZLER MAH.","zip":"19402"},{"name":"ELMALI KÖYÜ","zip":"19402"},{"name":"ESENTEPE MAH.","zip":"19402"},{"name":"ESKİKÖY KÖYÜ","zip":"19402"},{"name":"EVLİK MAH.","zip":"19402"},{"name":"GICIKLAR MAH.","zip":"19402"},{"name":"GÖL KÖYÜ","zip":"19402"},{"name":"GÖLDAĞI MAH.","zip":"19402"},{"name":"GÜLEKLER MAH.","zip":"19402"},{"name":"GÜNEY MERKEZ MAH.","zip":"19402"},{"name":"GÜNEYALUÇ KÖYÜ","zip":"19402"},{"name":"HACIHALİL KÖYÜ","zip":"19402"},{"name":"HACILAR MAH.","zip":"19402"},{"name":"HALİLPAŞA MAH.","zip":"19402"},{"name":"HALLI KÖYÜ","zip":"19402"},{"name":"HARUN KÖYÜ","zip":"19402"},{"name":"HASANDEĞEN MAH.","zip":"19402"},{"name":"HASANFAKI MAH.","zip":"19402"},{"name":"HİNOLAR MAH.","zip":"19402"},{"name":"HÜSEMOĞLU KÖYÜ MAH.","zip":"19402"},{"name":"İBİK KÖYÜ","zip":"19402"},{"name":"İKİKİSE KÖYÜ","zip":"19402"},{"name":"İKİPINAR KÖYÜ","zip":"19402"},{"name":"İKİPINARKÖYÜ YOLÜZERİ MAH.","zip":"19402"},{"name":"İNNİCE MAH.","zip":"19402"},{"name":"KADİRLİLER MAH.","zip":"19402"},{"name":"KALE MAH.","zip":"19402"},{"name":"KALFA MAH.","zip":"19402"},{"name":"KAMIŞAĞIL MAH.","zip":"19402"},{"name":"KAPI MAH.","zip":"19402"},{"name":"KARAAĞAÇ KÖYÜ","zip":"19402"},{"name":"KARABURUN KÖYÜ","zip":"19402"},{"name":"KARAÇUKUR KÖYÜ","zip":"19402"},{"name":"KARAGÖZ KÖYÜ","zip":"19402"},{"name":"KARAKAYA MAH.","zip":"19402"},{"name":"KARAMUK MAH.","zip":"19402"},{"name":"KARAŞAR MAH.","zip":"19402"},{"name":"KARAYANIK MAH.","zip":"19402"},{"name":"KARKIN MAH.","zip":"19402"},{"name":"KARLIK KÖYÜ","zip":"19402"},{"name":"KARMIŞ KÖYÜ","zip":"19402"},{"name":"KAVACIK MAH.","zip":"19402"},{"name":"KAVAK KÖYÜ","zip":"19402"},{"name":"KAYAAĞZI KÖYÜ","zip":"19402"},{"name":"KAYNARCA MAH.","zip":"19402"},{"name":"KELAĞA MAH.","zip":"19402"},{"name":"KELLELİ MAH.","zip":"19402"},{"name":"KENGER MAH.","zip":"19402"},{"name":"KILIÇDERE KÖYÜ","zip":"19402"},{"name":"KIYI MAH.","zip":"19402"},{"name":"KIZILCABAYIR KÖYÜ","zip":"19402"},{"name":"KIZILİBRİK KÖYÜ MAH.","zip":"19402"},{"name":"KOÇCAĞIZ MAH.","zip":"19402"},{"name":"KOZVEREN MAH.","zip":"19402"},{"name":"KURUSARAY KÖYÜ","zip":"19402"},{"name":"KUŞLAR MAH.","zip":"19402"},{"name":"KUTLUÖZÜ KÖYÜ","zip":"19402"},{"name":"KUZ KÖYÜ","zip":"19402"},{"name":"KUZAHLAT MAH.","zip":"19402"},{"name":"KUZEY MAH.","zip":"19402"},{"name":"KUZÖREN MAH.","zip":"19402"},{"name":"KUZULUK KÖYÜ","zip":"19402"},{"name":"KÜYÜKLER MAH.","zip":"19402"},{"name":"MANASIR MAH.","zip":"19402"},{"name":"MANTARLI MAH.","zip":"19402"},{"name":"MEMİLER MAH.","zip":"19402"},{"name":"MERCİMEKLİK MAH.","zip":"19402"},{"name":"MERKEZ MAH.","zip":"19402"},{"name":"MUSULAR KÖYÜ","zip":"19402"},{"name":"OBRUK MAH.","zip":"19402"},{"name":"OKÇULAR MAH.","zip":"19402"},{"name":"ONAÇ KÖYÜ","zip":"19402"},{"name":"ORTA MAH.","zip":"19402"},{"name":"ÖRÜBAĞ KÖYÜ","zip":"19402"},{"name":"PARPUCU ÇİFTLİĞİ MAH.","zip":"19402"},{"name":"PAŞALI MAH.","zip":"19402"},{"name":"PORSUKLAR MAH.","zip":"19402"},{"name":"SADIKLAR MAH.","zip":"19402"},{"name":"SALDERE MAH.","zip":"19402"},{"name":"SARAYCIK KÖYÜ","zip":"19402"},{"name":"SARIKAVAK KÖYÜ","zip":"19402"},{"name":"SEKİ KÖYÜ","zip":"19402"},{"name":"SEKİZEVLER MAH.","zip":"19402"},{"name":"SEMOĞLU MAH.","zip":"19402"},{"name":"SEMÜŞLER MAH.","zip":"19402"},{"name":"SENNÜÇ MAH.","zip":"19402"},{"name":"SEYİRÇAYI KÖYÜ","zip":"19402"},{"name":"SİPAHİ MAH.","zip":"19402"},{"name":"SOĞUCAK KÖYÜ","zip":"19402"},{"name":"SOPAK MAH.","zip":"19402"},{"name":"SORGUNCUK MAH.","zip":"19402"},{"name":"SORKUN KÖYÜ","zip":"19402"},{"name":"SÖYLEMEZLER MAH.","zip":"19402"},{"name":"SUHİLAN KÖYÜ","zip":"19402"},{"name":"SUSUZDAĞ MAH.","zip":"19402"},{"name":"SÜLELİ MAH.","zip":"19402"},{"name":"ŞADIMAN MAH.","zip":"19402"},{"name":"ŞAHİNLER MAH.","zip":"19402"},{"name":"ŞEHİRKURUÇAY KÖYÜ","zip":"19402"},{"name":"ŞEYH KÖYÜ","zip":"19402"},{"name":"TAŞKESTİK MAH.","zip":"19402"},{"name":"TEBEROĞLU MAH.","zip":"19402"},{"name":"TEPEYAKASI MAH.","zip":"19402"},{"name":"TETİRİ MAH.","zip":"19402"},{"name":"TEVGELER MAH.","zip":"19402"},{"name":"TIRAŞLAR MAH.","zip":"19402"},{"name":"TİLKİLER MAH.","zip":"19402"},{"name":"TOSYA YOLU KORARDI MAH.","zip":"19402"},{"name":"TÜLTEPE MAH.","zip":"19402"},{"name":"ULUGÜRGEN MEVKİİ MAH.","zip":"19402"},{"name":"ÜÇPINAR MAH.","zip":"19402"},{"name":"ÜRKÜLER MAH.","zip":"19402"},{"name":"VELETLER MAH.","zip":"19402"},{"name":"YALAK KÖYÜ","zip":"19402"},{"name":"YALAKÇAY KÖYÜ","zip":"19402"},{"name":"YALINKİSE MAH.","zip":"19402"},{"name":"YAMA MAH.","zip":"19402"},{"name":"YANIKLAR MAH.","zip":"19402"},{"name":"YANOĞLAN KÖYÜ","zip":"19402"},{"name":"YASKAM MAH.","zip":"19402"},{"name":"YAVAŞLAR MAH.","zip":"19402"},{"name":"YAVU KÖYÜ","zip":"19402"},{"name":"YAVULAR MAH.","zip":"19402"},{"name":"YAYLACIKSEKİ KÖYÜ","zip":"19402"},{"name":"YENİCE KÖYÜ","zip":"19402"},{"name":"YENİMAHALLE MAH.","zip":"19402"},{"name":"YENİYOL MAH.","zip":"19402"},{"name":"YERLİ KÖYÜ","zip":"19402"},{"name":"YUKARI EKŞİOĞLU MAH.","zip":"19402"},{"name":"YUKARI KIRAN MAH.","zip":"19402"},{"name":"YUKARIÖRENSEKİ KÖYÜ","zip":"19402"},{"name":"YUNUS PINARI MAH.","zip":"19402"}]},{"name":"KARGI","cityName":null,"quarters":[{"name":"FATİH MAH.","zip":"19900"},{"name":"İMAMBEY MAH.","zip":"19900"},{"name":"MİHRİHATUN MAH.","zip":"19900"},{"name":"ORTA MAH.","zip":"19900"},{"name":"YENİ MAH.","zip":"19900"}]},{"name":"MERKEZKÖYLER","cityName":null,"quarters":[{"name":"ABDULLAH KÖYÜ","zip":"19902"},{"name":"ACEKSE MAH.","zip":"19902"},{"name":"AKÇATAŞ KÖYÜ","zip":"19902"},{"name":"AKÇAYAZI MAH.","zip":"19902"},{"name":"AKKAYA KÖYÜ","zip":"19902"},{"name":"AKKAYA YAYLA MAH.","zip":"19902"},{"name":"AKKAYA YAYLASI MAH.","zip":"19902"},{"name":"AKKİSE KÖYÜ","zip":"19902"},{"name":"AKTAŞ MAH.","zip":"19902"},{"name":"ALACİNEK MAH.","zip":"19902"},{"name":"ALADAĞ MAH.","zip":"19902"},{"name":"ALAYÜREK MAH.","zip":"19902"},{"name":"ALİOĞLU KÖYÜ","zip":"19902"},{"name":"ARIK KÖYÜ","zip":"19902"},{"name":"ARZUMANLAR MAH.","zip":"19902"},{"name":"AŞAĞI KAYADİBİ MAH.","zip":"19902"},{"name":"AŞAĞI MAH.","zip":"19902"},{"name":"AŞAĞI MORA MAH.","zip":"19902"},{"name":"AŞAĞI YAYLA MAH.","zip":"19902"},{"name":"AŞIKLAR MAH.","zip":"19902"},{"name":"AVŞAR KÖYÜ","zip":"19902"},{"name":"BADEMCE KÖYÜ","zip":"19902"},{"name":"BAĞÖZÜ KÖYÜ","zip":"19902"},{"name":"BAHÇELİEVLER MAH.","zip":"19902"},{"name":"BAŞKÖY KÖYÜ","zip":"19902"},{"name":"BAŞPINAR MAH.","zip":"19902"},{"name":"BAYASLI MAH.","zip":"19902"},{"name":"BAYAT KÖYÜ","zip":"19902"},{"name":"BAYAT YAYLASI MAH.","zip":"19902"},{"name":"BEYGİRCİOĞLU KÖYÜ","zip":"19902"},{"name":"BOKLUCA MAH.","zip":"19902"},{"name":"BOSSEKİ MAH.","zip":"19902"},{"name":"BOZARMUT KÖYÜ","zip":"19902"},{"name":"CARTLAKLAR MAH.","zip":"19902"},{"name":"CELLELER MAH.","zip":"19902"},{"name":"CEMBEKLİ MAH.","zip":"19902"},{"name":"CİHADİYE KÖYÜ","zip":"19902"},{"name":"CİNEMİNİN (KUŞBAĞIN) MAH.","zip":"19902"},{"name":"ÇAKIRLAR KÖYÜ","zip":"19902"},{"name":"ÇAL KÖYÜ","zip":"19902"},{"name":"ÇALARASI MAH.","zip":"19902"},{"name":"ÇALIKLAR MAH.","zip":"19902"},{"name":"ÇATAK MAH.","zip":"19902"},{"name":"ÇATAK YAYLASI MAH.","zip":"19902"},{"name":"ÇAY MAH.","zip":"19902"},{"name":"ÇAYKIŞLA MAH.","zip":"19902"},{"name":"ÇELTİKÖZÜ KÖYÜ","zip":"19902"},{"name":"ÇEŞTEPE MAH.","zip":"19902"},{"name":"ÇETMİ KÖYÜ","zip":"19902"},{"name":"ÇİÇEK YAYLASI MAH.","zip":"19902"},{"name":"ÇOBANKAYA KÖYÜ","zip":"19902"},{"name":"ÇOBANLAR KÖYÜ","zip":"19902"},{"name":"ÇORAK MAH.","zip":"19902"},{"name":"ÇÖRÇÖR MAH.","zip":"19902"},{"name":"ÇUKURALUÇ KÖYÜ","zip":"19902"},{"name":"DEĞİRMENDERE MAH.","zip":"19902"},{"name":"DEMİRCİ MAH.","zip":"19902"},{"name":"DEMİRÖREN KÖYÜ","zip":"19902"},{"name":"DERE MAH.","zip":"19902"},{"name":"DEREKÖY KÖYÜ","zip":"19902"},{"name":"DÜZENLİ MAH.","zip":"19902"},{"name":"ELİKOĞLU MAH.","zip":"19902"},{"name":"ERKEŞ MAH.","zip":"19902"},{"name":"ESKİ ARIK MAH.","zip":"19902"},{"name":"ESKİ YERLEŞİM YERİ MAH.","zip":"19902"},{"name":"ESKİKÖY MAH.","zip":"19902"},{"name":"FADILOĞLU MAH.","zip":"19902"},{"name":"FINDICAK MAH.","zip":"19902"},{"name":"GERİÇÇİK MAH.","zip":"19902"},{"name":"GÖCEN MAH.","zip":"19902"},{"name":"GÖCEN YAYLASI MAH.","zip":"19902"},{"name":"GÖKBUDAK KÖYÜ","zip":"19902"},{"name":"GÖKÇEDOĞAN KÖYÜ","zip":"19902"},{"name":"GÖKYER MAH.","zip":"19902"},{"name":"GÖL KÖYÜ","zip":"19902"},{"name":"GÖLCEĞİZ MAH.","zip":"19902"},{"name":"GÖLCEĞİZ YAYLASI MAH.","zip":"19902"},{"name":"GÖLET KÖYÜ","zip":"19902"},{"name":"GÖLETDERE KÖYÜ","zip":"19902"},{"name":"GÜMÜŞOĞLU KÖYÜ","zip":"19902"},{"name":"GÜNEY KÖYÜ","zip":"19902"},{"name":"GÜNEY MAH.","zip":"19902"},{"name":"GÜNYAZI KÖYÜ","zip":"19902"},{"name":"GÜNYAZI YAYLASI MAH.","zip":"19902"},{"name":"HACI AHMET MAH.","zip":"19902"},{"name":"HACI AHMET YAYLASI MAH.","zip":"19902"},{"name":"HACIHAMZA KÖYÜ","zip":"19902"},{"name":"HACILAR MAH.","zip":"19902"},{"name":"HACIVELİ KÖYÜ","zip":"19902"},{"name":"HALILAR KÖYÜ","zip":"19902"},{"name":"HAMZALAR MAH.","zip":"19902"},{"name":"HARMANCI MAH.","zip":"19902"},{"name":"İBİDERESİ YAYLASI MAH.","zip":"19902"},{"name":"İĞDİŞ MAH.","zip":"19902"},{"name":"İĞNEUNU MAH.","zip":"19902"},{"name":"İKİTAŞ MAH.","zip":"19902"},{"name":"İKİZLER MAH.","zip":"19902"},{"name":"İNCEÇAY KÖYÜ","zip":"19902"},{"name":"KABAKCI KÖYÜ","zip":"19902"},{"name":"KABAKÇI YAYLASI MAH.","zip":"19902"},{"name":"KADİMLİ MAH.","zip":"19902"},{"name":"KALE MAH.","zip":"19902"},{"name":"KARAAHMETLER MAH.","zip":"19902"},{"name":"KARAALİOĞLU MAH.","zip":"19902"},{"name":"KARABOYA KÖYÜ","zip":"19902"},{"name":"KARACAOĞLAN KÖYÜ","zip":"19902"},{"name":"KARAGÖL MAH.","zip":"19902"},{"name":"KARAGÖZ GÜNEY MAH.","zip":"19902"},{"name":"KARAKİSE KÖYÜ","zip":"19902"},{"name":"KARAOĞLAN KIZI MAH.","zip":"19902"},{"name":"KARAOLUK MAH.","zip":"19902"},{"name":"KARAOSMANLI KÖYÜ","zip":"19902"},{"name":"KARAPÜRÇEK KÖYÜ","zip":"19902"},{"name":"KARATUZLA YAYLASI MAH.","zip":"19902"},{"name":"KARGI MAH.","zip":"19902"},{"name":"KARSU ALABALIK TESİSLERİ MAH.","zip":"19902"},{"name":"KASIMLAR MAH.","zip":"19902"},{"name":"KAŞ MAH.","zip":"19902"},{"name":"KAVAK MAH.","zip":"19902"},{"name":"KAVAKÇAYI KÖYÜ","zip":"19902"},{"name":"KAVAKDİBİ MAH.","zip":"19902"},{"name":"KELEŞLER MAH.","zip":"19902"},{"name":"KESEK MAH.","zip":"19902"},{"name":"KIRINTI MAH.","zip":"19902"},{"name":"KIRINTI YAYLASI MAH.","zip":"19902"},{"name":"KIRKPÖYRE MAH.","zip":"19902"},{"name":"KIŞLA MAH.","zip":"19902"},{"name":"KIZILTAŞ MAH.","zip":"19902"},{"name":"KIZILTAŞ YAYLASI MAH.","zip":"19902"},{"name":"KIZLAR KIRAĞI MAH.","zip":"19902"},{"name":"KİRAZDİBİ GÜNEY MAH.","zip":"19902"},{"name":"KOCAÖMER(YUVANIN) MAH.","zip":"19902"},{"name":"KORU MAH.","zip":"19902"},{"name":"KOYUNKIRAN KÖYÜ","zip":"19902"},{"name":"KÖPRÜBAŞI KÖYÜ","zip":"19902"},{"name":"KÖPRÜBAŞI MAH.","zip":"19902"},{"name":"KÜYÜKÇÜGİL MAH.","zip":"19902"},{"name":"MAKSUTLU KÖYÜ","zip":"19902"},{"name":"MALKAYASI MAH.","zip":"19902"},{"name":"MANDIRA MAH.","zip":"19902"},{"name":"MEHDİOĞLU MAH.","zip":"19902"},{"name":"MERKEZ MAH.","zip":"19902"},{"name":"MESTANLAR MAH.","zip":"19902"},{"name":"MOLLALAR MAH.","zip":"19902"},{"name":"MORA YAYLASI MAH.","zip":"19902"},{"name":"NASIFLAR MAH.","zip":"19902"},{"name":"OBRUK MAH.","zip":"19902"},{"name":"ONBAŞILAR GÜNEY MAH.","zip":"19902"},{"name":"ORTA MAH.","zip":"19902"},{"name":"OSMANSIRDIĞI MAH.","zip":"19902"},{"name":"ÖKSÜZLER MAH.","zip":"19902"},{"name":"ÖMERKAYA MAH.","zip":"19902"},{"name":"ÖMERLER MAH.","zip":"19902"},{"name":"ÖRENCİK KÖYÜ","zip":"19902"},{"name":"ÖTEKÖY MAH.","zip":"19902"},{"name":"ÖZBAŞI MAH.","zip":"19902"},{"name":"ÖZKÖY MAH.","zip":"19902"},{"name":"PELİTCİK KÖYÜ","zip":"19902"},{"name":"PELİTÖZÜ KÖYÜ","zip":"19902"},{"name":"PINAR MAH.","zip":"19902"},{"name":"PITILAR MAH.","zip":"19902"},{"name":"PİŞBİLİK MAH.","zip":"19902"},{"name":"SAKIZÇAYI MAH.","zip":"19902"},{"name":"SARAÇLAR KÖYÜ","zip":"19902"},{"name":"SARAYCIK KÖYÜ","zip":"19902"},{"name":"SEKİ KÖYÜ","zip":"19902"},{"name":"SEKİ MAH.","zip":"19902"},{"name":"SİNANÖZÜ KÖYÜ","zip":"19902"},{"name":"SOVLA MAH.","zip":"19902"},{"name":"SÖPSEKİ MAH.","zip":"19902"},{"name":"SÜNLÜK KÖYÜ","zip":"19902"},{"name":"SÜNLÜK YAYLASI MAH.","zip":"19902"},{"name":"ŞIHLAR MAH.","zip":"19902"},{"name":"TEKKEŞİN MAH.","zip":"19902"},{"name":"TEPE MAH.","zip":"19902"},{"name":"TEPEARKASI MAH.","zip":"19902"},{"name":"TEPELİCE KÖYÜ","zip":"19902"},{"name":"UĞUZ KÖYÜ","zip":"19902"},{"name":"UZUNTARLA MAH.","zip":"19902"},{"name":"UZUNYURT KÖYÜ","zip":"19902"},{"name":"YAĞCILAR KÖYÜ","zip":"19902"},{"name":"YAYLA MAH.","zip":"19902"},{"name":"YAZIPINAR MAH.","zip":"19902"},{"name":"YEMİŞLİ MAH.","zip":"19902"},{"name":"YENİCE MAH.","zip":"19902"},{"name":"YENİKÖY MAH.","zip":"19902"},{"name":"YEŞİLKÖY KÖYÜ","zip":"19902"},{"name":"YEŞİLKÖY YAYLASI MAH.","zip":"19902"},{"name":"YİĞREN YAYLASI MAH.","zip":"19902"},{"name":"YİRGEN MAH.","zip":"19902"},{"name":"YUKARI DEREKÖY MAH.","zip":"19902"},{"name":"YUKARI KAYADİBİ MAH.","zip":"19902"},{"name":"YUKARI MAH.","zip":"19902"},{"name":"YUKARI YAYLA MAH.","zip":"19902"},{"name":"ZAİMLER MAH.","zip":"19902"},{"name":"ZEYNEL MAH.","zip":"19902"},{"name":"ZEYVE MAH.","zip":"19902"}]},{"name":"LAÇİN","cityName":null,"quarters":[{"name":"FATİH MAH.","zip":"19020"},{"name":"YENİ MAH.","zip":"19020"}]},{"name":"MERKEZKÖYLER","cityName":null,"quarters":[{"name":"BAĞLARBAŞI MAH.","zip":"19022"},{"name":"CAVRAŞLAR MAH.","zip":"19022"},{"name":"ÇAMLICA KÖYÜ","zip":"19022"},{"name":"ÇAMLIPINAR KÖYÜ","zip":"19022"},{"name":"DOĞANLAR KÖYÜ","zip":"19022"},{"name":"DUTLUDERE MAH.","zip":"19022"},{"name":"GÖKÇEKAYA KÖYÜ","zip":"19022"},{"name":"GÖKGÖZLER KÖYÜ","zip":"19022"},{"name":"GÖZÜBÜYÜK KÖYÜ","zip":"19022"},{"name":"GÜNEY MAH.","zip":"19022"},{"name":"İKİZCE KÖYÜ","zip":"19022"},{"name":"KARAKÖY MAH.","zip":"19022"},{"name":"KARAKÜTÜK MAH.","zip":"19022"},{"name":"KARASOKU KÖYÜ","zip":"19022"},{"name":"KAVAKLIÇİFTLİK KÖYÜ","zip":"19022"},{"name":"KUYUMCU KÖYÜ","zip":"19022"},{"name":"KUYUMCU MAH.","zip":"19022"},{"name":"MERKEZ MAH.","zip":"19022"},{"name":"MESCİTLİ KÖYÜ","zip":"19022"},{"name":"NARLI KÖYÜ","zip":"19022"},{"name":"SITMA KÖYÜ","zip":"19022"},{"name":"ŞENYURT MAH.","zip":"19022"},{"name":"YENİ MAH.","zip":"19022"},{"name":"YEŞİLPINAR KÖYÜ","zip":"19022"},{"name":"YEŞİLYURT MAH.","zip":"19022"}]},{"name":"MECİTÖZÜ","cityName":null,"quarters":[{"name":"CAMİKEBİR MAH.","zip":"19700"},{"name":"ÇAMLIK MAH.","zip":"19700"},{"name":"DEDİĞİ MAH.","zip":"19700"},{"name":"DOĞU MAH.","zip":"19700"},{"name":"ELVANÇELEBİ KÖYÜ","zip":"19700"},{"name":"HIDIRLIK MAH.","zip":"19700"},{"name":"MESCİT MAH.","zip":"19700"},{"name":"SARIDEDE MAH.","zip":"19700"},{"name":"ŞEHLER MAH.","zip":"19700"},{"name":"TUTLUK MAH.","zip":"19700"}]},{"name":"MERKEZKÖYLER","cityName":null,"quarters":[{"name":"AKPINAR KÖYÜ","zip":"19702"},{"name":"ALANCIK KÖYÜ","zip":"19702"},{"name":"ALÖREN KÖYÜ","zip":"19702"},{"name":"AŞAĞI MAH.","zip":"19702"},{"name":"AŞAĞIKÖRÜCEK KÖYÜ","zip":"19702"},{"name":"BAYINDIR KÖYÜ","zip":"19702"},{"name":"BEKİŞLER KÖYÜ","zip":"19702"},{"name":"BEYÖZÜ KÖYÜ","zip":"19702"},{"name":"BOĞAZKAYA KÖYÜ","zip":"19702"},{"name":"BOYACI KÖYÜ","zip":"19702"},{"name":"BÜKSE KÖYÜ","zip":"19702"},{"name":"ÇAM BEKİŞ MAH.","zip":"19702"},{"name":"ÇAYKÖY KÖYÜ","zip":"19702"},{"name":"ÇİTLİ KÖYÜ","zip":"19702"},{"name":"DAĞSARAY KÖYÜ","zip":"19702"},{"name":"DEVLETOĞLAN KÖYÜ","zip":"19702"},{"name":"DOĞLA KÖYÜ","zip":"19702"},{"name":"DORUK BEKİŞ MAH.","zip":"19702"},{"name":"ELMAPINAR KÖYÜ","zip":"19702"},{"name":"EMİRBAĞI KÖYÜ","zip":"19702"},{"name":"FAKIAHMET KÖYÜ","zip":"19702"},{"name":"FINDIKLI KÖYÜ","zip":"19702"},{"name":"FİGANİ KÖYÜ","zip":"19702"},{"name":"GEYKOCA KÖYÜ","zip":"19702"},{"name":"GÖKÇEBEL KÖYÜ","zip":"19702"},{"name":"GÜNGÖRMEZ KÖYÜ","zip":"19702"},{"name":"HİSARKAVAK KÖYÜ","zip":"19702"},{"name":"IŞIKLI KÖYÜ","zip":"19702"},{"name":"İBEK KÖYÜ","zip":"19702"},{"name":"KALECİK KÖYÜ","zip":"19702"},{"name":"KARACAÖREN KÖYÜ","zip":"19702"},{"name":"KARACUMA KÖYÜ","zip":"19702"},{"name":"KARGI KÖYÜ","zip":"19702"},{"name":"KAYI KÖYÜ","zip":"19702"},{"name":"KIŞLACIK KÖYÜ","zip":"19702"},{"name":"KOLOĞLU MAH.","zip":"19702"},{"name":"KONAÇ KÖYÜ","zip":"19702"},{"name":"KOYUNAĞILI KÖYÜ","zip":"19702"},{"name":"KOZÖREN KÖYÜ","zip":"19702"},{"name":"KÖPRÜBAŞI KÖYÜ","zip":"19702"},{"name":"KÖRÜCEK KÖYÜ","zip":"19702"},{"name":"KÖSEEYÜP KÖYÜ","zip":"19702"},{"name":"KUYUCAK KÖYÜ","zip":"19702"},{"name":"MOLLACOP MAH.","zip":"19702"},{"name":"PINARBAŞI KÖYÜ","zip":"19702"},{"name":"SARIHASAN KÖYÜ","zip":"19702"},{"name":"SIRÇALI KÖYÜ","zip":"19702"},{"name":"SORKOĞLAN KÖYÜ","zip":"19702"},{"name":"SÖĞÜTÖNÜ KÖYÜ","zip":"19702"},{"name":"SÖĞÜTYOLU KÖYÜ","zip":"19702"},{"name":"SÜLÜKLÜ KÖYÜ","zip":"19702"},{"name":"TANRIVERMİŞ KÖYÜ","zip":"19702"},{"name":"TERKEN KÖYÜ","zip":"19702"},{"name":"TOTALİ KÖYÜ","zip":"19702"},{"name":"VAKIFLAR KÖYÜ","zip":"19702"},{"name":"YEDİGÖZ KÖYÜ","zip":"19702"},{"name":"YEŞİLOVA KÖYÜ","zip":"19702"}]},{"name":"GÜLABİBEY","cityName":null,"quarters":[{"name":"KALE MAH.","zip":"19100"},{"name":"MİMARSİNAN MAH.","zip":"19100"}]},{"name":"KARAKEÇİLİ","cityName":null,"quarters":[{"name":"KARAKEÇİLİ MAH.","zip":"19030"},{"name":"PINARÇAYOSB MAH.","zip":"19030"},{"name":"ÜÇTUTLAR MAH.","zip":"19030"}]},{"name":"MERKEZKÖYLER","cityName":null,"quarters":[{"name":"ACIPINAR KÖYÜ","zip":"19010"},{"name":"AHİİLYAS KÖYÜ","zip":"19010"},{"name":"AHİİLYAS MÜCAVİR MAH.","zip":"19010"},{"name":"AHMEDİYE KÖYÜ","zip":"19010"},{"name":"AHMET ŞAHNA MAH.","zip":"19010"},{"name":"AHMETOĞLAN KÖYÜ","zip":"19010"},{"name":"AKÇAAZ MAH.","zip":"19010"},{"name":"AKÇAKAYA KÖYÜ","zip":"19010"},{"name":"AKDAM MAH.","zip":"19010"},{"name":"AKKOL MAH.","zip":"19010"},{"name":"AKSEKİ MAH.","zip":"19010"},{"name":"AKSUNGUR KÖYÜ","zip":"19010"},{"name":"AKTAŞ MAH.","zip":"19010"},{"name":"AKYAZI KÖYÜ","zip":"19010"},{"name":"ALİKİ MAH.","zip":"19010"},{"name":"ALTINBAŞ KÖYÜ","zip":"19010"},{"name":"ALTINBAŞ MÜCAVİR MAH.","zip":"19010"},{"name":"ARPALIK KÖYÜ","zip":"19010"},{"name":"ARPAÖZ KÖYÜ","zip":"19010"},{"name":"ARSLAN KÖYÜ","zip":"19010"},{"name":"ARZUM PINARI MAH.","zip":"19010"},{"name":"AŞ.SARILIK MAH.","zip":"19010"},{"name":"AŞAĞI MAH.","zip":"19010"},{"name":"AŞAĞI ÜÇDAM MAH.","zip":"19010"},{"name":"AŞAĞISARAYLI KÖYÜ","zip":"19010"},{"name":"ATAKÖY MAH.","zip":"19010"},{"name":"ATCALI MÜCAVİR MAH.","zip":"19010"},{"name":"ATÇALI KÖYÜ","zip":"19010"},{"name":"AYAZ KÖYÜ","zip":"19010"},{"name":"AYVALI KÖYÜ","zip":"19010"},{"name":"BABAOĞLU KÖYÜ","zip":"19010"},{"name":"BABAOĞLU MAH.","zip":"19010"},{"name":"BADEMLİ MAH.","zip":"19010"},{"name":"BAĞLAR MAH.","zip":"19010"},{"name":"BAHÇELİEVLER MAH.","zip":"19010"},{"name":"BALIMSULTAN KÖYÜ","zip":"19010"},{"name":"BALIYAKUP KÖYÜ","zip":"19010"},{"name":"BAYAT KÖYÜ","zip":"19010"},{"name":"BEKAROĞLU MAH.","zip":"19010"},{"name":"BEKTAŞOĞLU KÖYÜ","zip":"19010"},{"name":"BEYDİLİ KÖYÜ","zip":"19010"},{"name":"BOĞABAĞI KÖYÜ","zip":"19010"},{"name":"BOĞACIK KÖYÜ","zip":"19010"},{"name":"BOĞAZÖNÜ KÖYÜ","zip":"19010"},{"name":"BORSUNLU MAH.","zip":"19010"},{"name":"BOYRALI MAH.","zip":"19010"},{"name":"BOZBOĞA KÖYÜ","zip":"19010"},{"name":"BOZBUĞA MÜCAVİR MAH.","zip":"19010"},{"name":"BUDAĞAN MAH.","zip":"19010"},{"name":"BUDAKÖREN KÖYÜ","zip":"19010"},{"name":"BURUN KÖYÜ","zip":"19010"},{"name":"BÜĞDÜZ KÖYÜ","zip":"19010"},{"name":"BÜĞET KÖYÜ","zip":"19010"},{"name":"BÜĞRÜOĞLU KÖYÜ","zip":"19010"},{"name":"BÜKLÜCE MAH.","zip":"19010"},{"name":"BÜYÜKDİVAN KÖYÜ","zip":"19010"},{"name":"BÜYÜKGÜLÜCEK KÖYÜ","zip":"19010"},{"name":"CELİLKIRI KÖYÜ","zip":"19010"},{"name":"CERİT KÖYÜ","zip":"19010"},{"name":"ÇAĞŞAK KÖYÜ","zip":"19010"},{"name":"ÇAKIR KÖYÜ","zip":"19010"},{"name":"ÇALICA KÖYÜ","zip":"19010"},{"name":"ÇALKIŞLA KÖYÜ","zip":"19010"},{"name":"ÇALTICAK KÖYÜ","zip":"19010"},{"name":"ÇALYAYLA KÖYÜ","zip":"19010"},{"name":"ÇANAKÇI KÖYÜ","zip":"19010"},{"name":"ÇATAK KÖYÜ","zip":"19010"},{"name":"ÇAYHATAP KÖYÜ","zip":"19010"},{"name":"ÇAYSEKİ MAH.","zip":"19010"},{"name":"ÇELİKKAYA MAH.","zip":"19010"},{"name":"ÇEŞMEÖREN KÖYÜ","zip":"19010"},{"name":"ÇIKRIK KÖYÜ","zip":"19010"},{"name":"ÇOBANDİVAN KÖYÜ","zip":"19010"},{"name":"ÇOMARBAŞI KÖYÜ","zip":"19010"},{"name":"ÇOMARBAŞI MAH.","zip":"19010"},{"name":"ÇORAK KÖYÜ","zip":"19010"},{"name":"ÇUKURÖREN KÖYÜ","zip":"19010"},{"name":"DAĞBAĞ MAH.","zip":"19010"},{"name":"DAĞKARAPINAR KÖYÜ","zip":"19010"},{"name":"DANADERESİ MAH.","zip":"19010"},{"name":"DEĞİRMENDERE KÖYÜ","zip":"19010"},{"name":"DELİBEKİROĞLU KÖYÜ","zip":"19010"},{"name":"DELİLER KÖYÜ","zip":"19010"},{"name":"DELİLER MÜCAVİR MAH.","zip":"19010"},{"name":"DENİZ KÖYÜ","zip":"19010"},{"name":"DERE KÖYÜ","zip":"19010"},{"name":"DEREBEY MAH.","zip":"19010"},{"name":"DUT KÖYÜ","zip":"19010"},{"name":"DUTÇAKALLI KÖYÜ","zip":"19010"},{"name":"DÜDÜKLÜK KÖYÜ","zip":"19010"},{"name":"DÜVENCİ KÖYÜ","zip":"19010"},{"name":"EĞRİDERE MAH.","zip":"19010"},{"name":"ELİCEK KÖYÜ","zip":"19010"},{"name":"ELKÖY KÖYÜ","zip":"19010"},{"name":"ELMALI KÖYÜ","zip":"19010"},{"name":"ERDEK KÖYÜ","zip":"19010"},{"name":"ERTUĞRUL KÖYÜ","zip":"19010"},{"name":"ESENÇAY KÖYÜ","zip":"19010"},{"name":"ESKİCE KÖYÜ","zip":"19010"},{"name":"ESKİCE MÜCAVİR MAH.","zip":"19010"},{"name":"ESKİEKİN BAĞLARI MAH.","zip":"19010"},{"name":"ESKİEKİN KÖYÜ","zip":"19010"},{"name":"ESKİEKİN MÜCAVİR MAH.","zip":"19010"},{"name":"ESKİKARADONA KÖYÜ","zip":"19010"},{"name":"ESKİKÖY KÖYÜ","zip":"19010"},{"name":"ESKİKÖY MAH.","zip":"19010"},{"name":"ESKİÖREN KÖYÜ","zip":"19010"},{"name":"EVCİKUZKIŞLA KÖYÜ","zip":"19010"},{"name":"EVCİORTAKIŞLA KÖYÜ","zip":"19010"},{"name":"EVCİYENİKIŞLA KÖYÜ","zip":"19010"},{"name":"EYERCİ KÖYÜ","zip":"19010"},{"name":"EYMİR KÖYÜ","zip":"19010"},{"name":"FATİH MAH.","zip":"19010"},{"name":"FATİH SULTAN MEHMET MAH.","zip":"19010"},{"name":"FERHATLI MAH.","zip":"19010"},{"name":"FERUZ KÖYÜ","zip":"19010"},{"name":"GEDİKBEKİR MAH.","zip":"19010"},{"name":"GEMET KÖYÜ","zip":"19010"},{"name":"GÖCENOVACIĞI KÖYÜ","zip":"19010"},{"name":"GÖK MAH.","zip":"19010"},{"name":"GÖKÇEPINAR KÖYÜ","zip":"19010"},{"name":"GÖKDERE KÖYÜ","zip":"19010"},{"name":"GÖKKÖY KÖYÜ","zip":"19010"},{"name":"GÖLYERİ MAH.","zip":"19010"},{"name":"GÖZÜBÜYÜK MAH.","zip":"19010"},{"name":"GÜLVEREN MAH.","zip":"19010"},{"name":"GÜNEY KÖYÜ","zip":"19010"},{"name":"GÜNEY MÜCAVİR MAH.","zip":"19010"},{"name":"GÜVEÇLİ KÖYÜ","zip":"19010"},{"name":"GÜVENLİ KÖYÜ","zip":"19010"},{"name":"GÜZELYAYLA MAH.","zip":"19010"},{"name":"GÜZELYURT KÖYÜ","zip":"19010"},{"name":"HACI MAH.","zip":"19010"},{"name":"HACIAHMETDERESİ KÖYÜ","zip":"19010"},{"name":"HACIBEY KÖYÜ","zip":"19010"},{"name":"HACIMUSA KÖYÜ","zip":"19010"},{"name":"HACIPAŞA KÖYÜ","zip":"19010"},{"name":"HACIPAŞA MÜCAVİR MAH.","zip":"19010"},{"name":"HACİVAT MAH.","zip":"19010"},{"name":"HAMAMLIÇAY KÖYÜ","zip":"19010"},{"name":"HAMDİKÖY KÖYÜ","zip":"19010"},{"name":"HANKOZLUSU KÖYÜ","zip":"19010"},{"name":"HARMANCIK KÖYÜ","zip":"19010"},{"name":"HARMANTARLA MAH.","zip":"19010"},{"name":"HIMIROĞLU KÖYÜ","zip":"19010"},{"name":"HIZIRDEDE KÖYÜ","zip":"19010"},{"name":"HÜSEYİNAĞ MAH.","zip":"19010"},{"name":"İĞDELİ KÖYÜ","zip":"19010"},{"name":"İKİPINAR MAH.","zip":"19010"},{"name":"İMAMLAR MAH.","zip":"19010"},{"name":"İNALÖZÜ KÖYÜ","zip":"19010"},{"name":"İSMAİLKÖY KÖYÜ","zip":"19010"},{"name":"KADIDERESİ KÖYÜ","zip":"19010"},{"name":"KADIKIRI KÖYÜ","zip":"19010"},{"name":"KADIKIRI MÜCAVİR MAH.","zip":"19010"},{"name":"KALEHİSAR KÖYÜ","zip":"19010"},{"name":"KARAAĞAÇ KÖYÜ","zip":"19010"},{"name":"KARAAĞAÇ MÜCAVİR MAH.","zip":"19010"},{"name":"KARABAYIR KÖYÜ","zip":"19010"},{"name":"KARABÜRÇEK KÖYÜ","zip":"19010"},{"name":"KARABÜRÇEK MÜCAVİR MAH.","zip":"19010"},{"name":"KARACA KÖYÜ","zip":"19010"},{"name":"KARACAÖREN KÖYÜ","zip":"19010"},{"name":"KARADONA KÖYÜ","zip":"19010"},{"name":"KARAGÖZ KÖYÜ","zip":"19010"},{"name":"KARAHİSAR KÖYÜ","zip":"19010"},{"name":"KARAKAYA MAH.","zip":"19010"},{"name":"KARAKEÇİLİ KÖYÜ","zip":"19010"},{"name":"KARAPINAR KÖYÜ","zip":"19010"},{"name":"KARAPINAR MÜCAVİR MAH.","zip":"19010"},{"name":"KARŞIYAKA MAH.","zip":"19010"},{"name":"KAŞGAGA MAH.","zip":"19010"},{"name":"KAVACIK KÖYÜ","zip":"19010"},{"name":"KAVAKLI MAH.","zip":"19010"},{"name":"KAYI KÖYÜ","zip":"19010"},{"name":"KAZIKLIKAYA KÖYÜ","zip":"19010"},{"name":"KAZIKLIKAYA MÜCAVİR MAH.","zip":"19010"},{"name":"KENDİSİ MAH.","zip":"19010"},{"name":"KERTME KÖYÜ","zip":"19010"},{"name":"KILIÇÖREN KÖYÜ","zip":"19010"},{"name":"KINIK KÖYÜ","zip":"19010"},{"name":"KINIKDELİLER KÖYÜ","zip":"19010"},{"name":"KIRKDİLİM KÖYÜ","zip":"19010"},{"name":"KIŞLACIK MAH.","zip":"19010"},{"name":"KIŞLADERESİ MAH.","zip":"19010"},{"name":"KIVIRCIK MAH.","zip":"19010"},{"name":"KIZILKIR MAH.","zip":"19010"},{"name":"KIZILPINAR KÖYÜ","zip":"19010"},{"name":"KİRANLIK KÖYÜ","zip":"19010"},{"name":"KİRAZLIPINAR KÖYÜ","zip":"19010"},{"name":"KİREÇOCAĞI KÖYÜ","zip":"19010"},{"name":"KOĞUDURUK MAH.","zip":"19010"},{"name":"KONAKLI KÖYÜ","zip":"19010"},{"name":"KOPARAN KÖYÜ","zip":"19010"},{"name":"KOZANOĞLU MAH.","zip":"19010"},{"name":"KOZLUCA KÖYÜ","zip":"19010"},{"name":"KÖPRÜALAN KÖYÜ","zip":"19010"},{"name":"KÖSRELİK MAH.","zip":"19010"},{"name":"KULTAK MAH.","zip":"19010"},{"name":"KUMÇELTİĞİ KÖYÜ","zip":"19010"},{"name":"KURUÇAY KÖYÜ","zip":"19010"},{"name":"KUŞSARAY KÖYÜ","zip":"19010"},{"name":"KUŞSARAY MÜCAVİR MAH.","zip":"19010"},{"name":"KUŞVEREN MAH.","zip":"19010"},{"name":"KUTLUCA KÖYÜ","zip":"19010"},{"name":"KÜÇÜK EYMİR MAH.","zip":"19010"},{"name":"KÜÇÜKDÜVENCİ KÖYÜ","zip":"19010"},{"name":"KÜÇÜKGÜLÜCEK KÖYÜ","zip":"19010"},{"name":"KÜÇÜKPALABIYIK KÖYÜ","zip":"19010"},{"name":"LALOĞLU KÖYÜ","zip":"19010"},{"name":"MECİDİYEKAVAK KÖYÜ","zip":"19010"},{"name":"MEMİŞLER MAH.","zip":"19010"},{"name":"MERKEZ MAH.","zip":"19010"},{"name":"METİNLER MAH.","zip":"19010"},{"name":"MİMARSİNAN MAH.","zip":"19010"},{"name":"MİSLEROVACIĞI KÖYÜ","zip":"19010"},{"name":"MOLLAHASAN KÖYÜ","zip":"19010"},{"name":"MORSÜMBÜL KÖYÜ","zip":"19010"},{"name":"MUSTAFAÇELEBİ KÖYÜ","zip":"19010"},{"name":"MÜHÜRLER KÖYÜ","zip":"19010"},{"name":"NARLIK KÖYÜ","zip":"19010"},{"name":"OLUKÖZÜ MAH.","zip":"19010"},{"name":"ORTA MAH.","zip":"19010"},{"name":"ORTA-AKÇAAZ MAH.","zip":"19010"},{"name":"OSMANİYE KÖYÜ","zip":"19010"},{"name":"OVASARAY KÖYÜ","zip":"19010"},{"name":"OYMAAĞAÇ KÖYÜ","zip":"19010"},{"name":"ÖKSÜZLER KÖYÜ","zip":"19010"},{"name":"ÖMERBEY KÖYÜ","zip":"19010"},{"name":"ÖRENCİK KAÇAĞI MAH.","zip":"19010"},{"name":"ÖRENCİK KÖYÜ","zip":"19010"},{"name":"ÖRENCİKKAÇAĞI MAH.","zip":"19010"},{"name":"PALABIYIK KÖYÜ","zip":"19010"},{"name":"PANCARLIK KÖYÜ","zip":"19010"},{"name":"PANCARLIK MÜCAVİR MAH.","zip":"19010"},{"name":"PAŞA KÖYÜ","zip":"19010"},{"name":"PAŞA MÜCAVİR MAH.","zip":"19010"},{"name":"PEMBECİK KÖYÜ","zip":"19010"},{"name":"PINARCIK KÖYÜ","zip":"19010"},{"name":"PINARÇAY KÖYÜ","zip":"19010"},{"name":"RIÇVANLAR MAH.","zip":"19010"},{"name":"SALUR KÖYÜ","zip":"19010"},{"name":"SAPA KÖYÜ","zip":"19010"},{"name":"SARAY MAH.","zip":"19010"},{"name":"SARAYLI KÖYÜ","zip":"19010"},{"name":"SARIKAYA KÖYÜ","zip":"19010"},{"name":"SARILIK KÖYÜ","zip":"19010"},{"name":"SARIMBEY KÖYÜ","zip":"19010"},{"name":"SARIMBEY MÜCAVİR MAH.","zip":"19010"},{"name":"SARIŞEYH KÖYÜ","zip":"19010"},{"name":"SARIYAR MAH.","zip":"19010"},{"name":"SARMAŞA KÖYÜ","zip":"19010"},{"name":"SAZAK KÖYÜ","zip":"19010"},{"name":"SAZDEĞİRMENİ KÖYÜ","zip":"19010"},{"name":"SERBAN KÖYÜ","zip":"19010"},{"name":"SERBAN MÜCAVİR MAH.","zip":"19010"},{"name":"SERPİN KÖYÜ","zip":"19010"},{"name":"SEVİNDİKALANI KÖYÜ","zip":"19010"},{"name":"SEYDİM KÖYÜ","zip":"19010"},{"name":"SEYDİMÇAKALLI KÖYÜ","zip":"19010"},{"name":"SEYFE KÖYÜ","zip":"19010"},{"name":"SEYİTMURAT MAH.","zip":"19010"},{"name":"SIRIKLI KÖYÜ","zip":"19010"},{"name":"SOĞUKSU KÖYÜ","zip":"19010"},{"name":"SORSAVUŞ MAH.","zip":"19010"},{"name":"SÖĞÜTSEKİ MAH.","zip":"19010"},{"name":"SÜLÜKLÜ MAH.","zip":"19010"},{"name":"ŞAHİNKAYA KÖYÜ","zip":"19010"},{"name":"ŞANLIOSMAN KÖYÜ","zip":"19010"},{"name":"ŞEHİT BEKİR ÖZAYDIN ALİKİ BAĞLISI MAH.","zip":"19010"},{"name":"ŞEKERBEY KÖYÜ","zip":"19010"},{"name":"ŞENDERE KÖYÜ","zip":"19010"},{"name":"ŞENYURT MAH.","zip":"19010"},{"name":"ŞEYHHAMZA KÖYÜ","zip":"19010"},{"name":"ŞEYHMUSTAFA KÖYÜ","zip":"19010"},{"name":"TARHAN KÖYÜ","zip":"19010"},{"name":"TARHANKOZLUSU KÖYÜ","zip":"19010"},{"name":"TAŞPINAR KÖYÜ","zip":"19010"},{"name":"TATAR KÖYÜ","zip":"19010"},{"name":"TATAR MÜCAVİR MAH.","zip":"19010"},{"name":"TEPE MAH.","zip":"19010"},{"name":"TESLİM KÖYÜ","zip":"19010"},{"name":"TOLAMEHMET KÖYÜ","zip":"19010"},{"name":"TOLAMEHMET MÜCAVİR MAH.","zip":"19010"},{"name":"TOZLUBURUN KÖYÜ","zip":"19010"},{"name":"TURGUT KÖYÜ","zip":"19010"},{"name":"TÜRKAYŞE KÖYÜ","zip":"19010"},{"name":"TÜRKLER KÖYÜ","zip":"19010"},{"name":"UĞRAK KÖYÜ","zip":"19010"},{"name":"ÜÇDAM MAH.","zip":"19010"},{"name":"ÜÇEVLER MAH.","zip":"19010"},{"name":"ÜÇKÖY KÖYÜ","zip":"19010"},{"name":"ÜLKENPINARI KÖYÜ","zip":"19010"},{"name":"ÜYÜK KÖYÜ","zip":"19010"},{"name":"YAKUPARPA KÖYÜ","zip":"19010"},{"name":"YAYDİĞİN KÖYÜ","zip":"19010"},{"name":"YENİ MAH.","zip":"19010"},{"name":"YENİCE KÖYÜ","zip":"19010"},{"name":"YENİCE MÜCAVİR MAH.","zip":"19010"},{"name":"YENİHAYAT KÖYÜ","zip":"19010"},{"name":"YEŞİLDERE KÖYÜ","zip":"19010"},{"name":"YEŞİLYAYLA KÖYÜ","zip":"19010"},{"name":"YEŞİLYURT MAH.","zip":"19010"},{"name":"YOĞUNPELİT KÖYÜ","zip":"19010"},{"name":"YUNUSEMRE MAH.","zip":"19010"}]},{"name":"ULUKAVAK","cityName":null,"quarters":[{"name":"ÇEPNİ MAH.","zip":"19040"},{"name":"ÇÖPLÜ MAH.","zip":"19040"},{"name":"KUNDUZHAN MAH.","zip":"19040"},{"name":"ULUKAVAK MAH.","zip":"19040"}]},{"name":"YENİYOL","cityName":null,"quarters":[{"name":"YAVRUTURNA MAH.","zip":"19200"},{"name":"YENİYOL MAH.","zip":"19200"}]},{"name":"KARAÖREN","cityName":null,"quarters":[{"name":"BİRTATLI MAH.","zip":"19070"},{"name":"ÇARŞI MAH.","zip":"19070"},{"name":"ÇEŞME MAH.","zip":"19070"},{"name":"GÖLBAŞI MAH.","zip":"19070"},{"name":"KARADONLU MAH.","zip":"19070"},{"name":"KIZILCAPELİT MAH.","zip":"19070"}]},{"name":"MERKEZKÖYLER","cityName":null,"quarters":[{"name":"AŞIRLIK MAH.","zip":"19072"},{"name":"CEVİZLİ KÖYÜ","zip":"19072"},{"name":"ÇAPARAHMETLER MAH.","zip":"19072"},{"name":"ÇEMAL MAH.","zip":"19072"},{"name":"ÇİĞDEMLİK MAH.","zip":"19072"},{"name":"DERİNÖZ KÖYÜ","zip":"19072"},{"name":"ERENLER KÖYÜ","zip":"19072"},{"name":"GAFURLAR MAH.","zip":"19072"},{"name":"GÖLEÇÜK MAH.","zip":"19072"},{"name":"KAMBURLAR MAH.","zip":"19072"},{"name":"KARABOYALIK MAH.","zip":"19072"},{"name":"KARAYA MAH.","zip":"19072"},{"name":"KASIMLAR MAH.","zip":"19072"},{"name":"KAVAKDAĞ MAH.","zip":"19072"},{"name":"KAYADİBİ MAH.","zip":"19072"},{"name":"KAYI KÖYÜ","zip":"19072"},{"name":"KELOĞLANLAR MAH.","zip":"19072"},{"name":"KIŞLI İÇİ MEVKİ MAH.","zip":"19072"},{"name":"KIZIKCIKÖY MAH.","zip":"19072"},{"name":"KÖRPAŞALAR MAH.","zip":"19072"},{"name":"KÖSELER MAH.","zip":"19072"},{"name":"KÖTELEKLER MAH.","zip":"19072"},{"name":"MERKEZ MAH.","zip":"19072"},{"name":"MEZARLIK YANI MAH.","zip":"19072"},{"name":"ONBEŞ EVLER MAH.","zip":"19072"},{"name":"ÖMERLER MAH.","zip":"19072"},{"name":"SORDOĞLU MAH.","zip":"19072"},{"name":"ŞAPHANE KÖYÜ","zip":"19072"},{"name":"TEKKEŞİNLER MAH.","zip":"19072"},{"name":"YAMAÇ MAH.","zip":"19072"},{"name":"YOĞUNPELİT MAH.","zip":"19072"},{"name":"AKYAR MAH.","zip":"19952"},{"name":"ASAR KÖYÜ","zip":"19952"},{"name":"AŞTAVUL KÖYÜ","zip":"19952"},{"name":"BAHÇELİEVLER MAH.","zip":"19952"},{"name":"BÜYÜKKIŞLA KÖYÜ","zip":"19952"},{"name":"CEVİZLİ KÖYÜ","zip":"19952"},{"name":"CUMHURİYET MAH.","zip":"19952"},{"name":"ESENTEPE KÖYÜ","zip":"19952"},{"name":"FATİH MAH.","zip":"19952"},{"name":"FINDIKLI KÖYÜ","zip":"19952"},{"name":"İNCESU KÖYÜ","zip":"19952"},{"name":"KARAHACİP KÖYÜ","zip":"19952"},{"name":"KAVAKALAN KÖYÜ","zip":"19952"},{"name":"KIZILHAMZA KÖYÜ","zip":"19952"},{"name":"MERKEZ MAH.","zip":"19952"},{"name":"ORUÇPINAR KÖYÜ","zip":"19952"},{"name":"SALBAŞ KÖYÜ","zip":"19952"},{"name":"SENEMOĞLU KÖYÜ","zip":"19952"},{"name":"SİRKEOĞLU MAH.","zip":"19952"},{"name":"ŞİRİNEVLER MAH.","zip":"19952"},{"name":"YAYLACIK KÖYÜ","zip":"19952"},{"name":"YUKARI KUYUCAK KÖYÜ","zip":"19952"}]},{"name":"ORTAKÖY","cityName":null,"quarters":[{"name":"CUMHURİYET MAH.","zip":"19950"},{"name":"SUYOLU MAH.","zip":"19950"}]},{"name":"MERKEZKÖYLER","cityName":null,"quarters":[{"name":"AĞIZSUYU MAH.","zip":"19502"},{"name":"AHATLI MAH.","zip":"19502"},{"name":"AHIBABA MAH.","zip":"19502"},{"name":"AHIRÇAYI MAH.","zip":"19502"},{"name":"AKÖREN KÖYÜ","zip":"19502"},{"name":"ALACAKIŞLA MAH.","zip":"19502"},{"name":"ALAN MAH.","zip":"19502"},{"name":"ALİBEY KÖYÜ","zip":"19502"},{"name":"ARAPLI MAH.","zip":"19502"},{"name":"ARDIÇ KÖYÜ","zip":"19502"},{"name":"AŞAĞISALTUK MAH.","zip":"19502"},{"name":"AŞAĞIZEYTİN KÖYÜ","zip":"19502"},{"name":"AŞIKBÜKÜ KÖYÜ","zip":"19502"},{"name":"AVLAĞI KÖYÜ","zip":"19502"},{"name":"AYDIN KÖYÜ","zip":"19502"},{"name":"AYVALIK MAH.","zip":"19502"},{"name":"BALDIRAN KÖYÜ","zip":"19502"},{"name":"BALLIPINAR MAH.","zip":"19502"},{"name":"BALTACIMEHMETPAŞA KÖYÜ","zip":"19502"},{"name":"BAŞPINAR KÖYÜ","zip":"19502"},{"name":"BATAK MAH.","zip":"19502"},{"name":"BEKİRÇAVUŞ MAH.","zip":"19502"},{"name":"BELKAVAK KÖYÜ","zip":"19502"},{"name":"ÇALDİBİ MAH.","zip":"19502"},{"name":"ÇAMPINAR KÖYÜ","zip":"19502"},{"name":"ÇATAK KÖYÜ","zip":"19502"},{"name":"ÇAYIR KÖYÜ","zip":"19502"},{"name":"ÇAYLI MAH.","zip":"19502"},{"name":"ÇENELER MAH.","zip":"19502"},{"name":"ÇERÇİLİ MAH.","zip":"19502"},{"name":"DANİŞMENT KÖYÜ","zip":"19502"},{"name":"DELLER KÖYÜ","zip":"19502"},{"name":"DİLİMHİSAR MAH.","zip":"19502"},{"name":"DOĞAN KÖYÜ","zip":"19502"},{"name":"DURUCASU KÖYÜ","zip":"19502"},{"name":"ELMACIK MAH.","zip":"19502"},{"name":"ELMALI MAH.","zip":"19502"},{"name":"ESENLİ MAH.","zip":"19502"},{"name":"ESKİ KÖY MAH.","zip":"19502"},{"name":"ESKİKÖY MAH.","zip":"19502"},{"name":"EVLİK KÖYÜ","zip":"19502"},{"name":"FINDICAK KÖYÜ","zip":"19502"},{"name":"FINDIK KÖYÜ","zip":"19502"},{"name":"FINDIKLI MAH.","zip":"19502"},{"name":"GECEK KÖYÜ","zip":"19502"},{"name":"GERMEÇ MAH.","zip":"19502"},{"name":"GİRİNOĞLAN KÖYÜ","zip":"19502"},{"name":"GÖCÜK YAYLASI MAH.","zip":"19502"},{"name":"GÖCÜKBAŞI MAH.","zip":"19502"},{"name":"GÖKÇELİ MAH.","zip":"19502"},{"name":"GÖKDERE KÖYÜ","zip":"19502"},{"name":"GÖLETCİK YAYLASI MAH.","zip":"19502"},{"name":"GÜNEŞÖREN KÖYÜ","zip":"19502"},{"name":"GÜNEY MAH.","zip":"19502"},{"name":"GÜVERCİNLİK KÖYÜ","zip":"19502"},{"name":"HACI HASAN MAH.","zip":"19502"},{"name":"HALİLLER MAH.","zip":"19502"},{"name":"HAMİTLER MAH.","zip":"19502"},{"name":"HANEFİ KÖYÜ","zip":"19502"},{"name":"HASANÇAVUŞLAR MAH.","zip":"19502"},{"name":"HAVDAN MAH.","zip":"19502"},{"name":"HAYRAT MAH.","zip":"19502"},{"name":"İĞDEYİÇAL MAH.","zip":"19502"},{"name":"İNAL KÖYÜ","zip":"19502"},{"name":"İNCESU KÖYÜ","zip":"19502"},{"name":"İSAKLI MAH.","zip":"19502"},{"name":"KABALA MAH.","zip":"19502"},{"name":"KALİNSE MAH.","zip":"19502"},{"name":"KAMİL KÖYÜ","zip":"19502"},{"name":"KARACAKAYA 1 MAH.","zip":"19502"},{"name":"KARACAKAYA MAH.","zip":"19502"},{"name":"KARAÇAY KÖYÜ","zip":"19502"},{"name":"KARAKÖY KÖYÜ","zip":"19502"},{"name":"KARALARGÜNEY KÖYÜ","zip":"19502"},{"name":"KARAPINAR MAH.","zip":"19502"},{"name":"KARATAŞ MAH.","zip":"19502"},{"name":"KARGI KÖYÜ","zip":"19502"},{"name":"KARŞI MAH.","zip":"19502"},{"name":"KAVACIK MAH.","zip":"19502"},{"name":"KAYALIDERE MAH.","zip":"19502"},{"name":"KEPÇELİ MAH.","zip":"19502"},{"name":"KINALITAŞ MAH.","zip":"19502"},{"name":"KIYIKÖY MAH.","zip":"19502"},{"name":"KIZILKAYA MAH.","zip":"19502"},{"name":"KIZILTEPE KÖYÜ","zip":"19502"},{"name":"KONACA KÖYÜ","zip":"19502"},{"name":"KUMBABA KÖYÜ","zip":"19502"},{"name":"KUMBEL MAH.","zip":"19502"},{"name":"KUZ KÖYÜ","zip":"19502"},{"name":"KUZ MAH.","zip":"19502"},{"name":"KUZHAYAT KÖYÜ","zip":"19502"},{"name":"MERKEZ MAH.","zip":"19502"},{"name":"MEZRA MAH.","zip":"19502"},{"name":"OVACIKSUYU KÖYÜ","zip":"19502"},{"name":"ÖBEKTAŞ KÖYÜ","zip":"19502"},{"name":"PAMUKOĞLU MAH.","zip":"19502"},{"name":"PELİTÇİK KÖYÜ","zip":"19502"},{"name":"PELİTPINARI MAH.","zip":"19502"},{"name":"POYDORLI MAH.","zip":"19502"},{"name":"SALTIK MAH.","zip":"19502"},{"name":"SARALLE MAH.","zip":"19502"},{"name":"SARIALAN KÖYÜ","zip":"19502"},{"name":"SARIYAR MAH.","zip":"19502"},{"name":"SARPUN MAH.","zip":"19502"},{"name":"SARPUNKAVAK KÖYÜ","zip":"19502"},{"name":"SAVAŞTEPE MAH.","zip":"19502"},{"name":"SEKİ KÖYÜ","zip":"19502"},{"name":"SEKİ MAH.","zip":"19502"},{"name":"SEKİBAĞI KÖYÜ","zip":"19502"},{"name":"SEYİTGAZİ MAH.","zip":"19502"},{"name":"SORUK MAH.","zip":"19502"},{"name":"SÖĞÜTLÜ BAHÇE MAH.","zip":"19502"},{"name":"SÜLEYMANDEMİR MAH.","zip":"19502"},{"name":"SÜTLÜCE KÖYÜ","zip":"19502"},{"name":"TEKMEN BAĞLARI MAH.","zip":"19502"},{"name":"TEKMEN KÖYÜ","zip":"19502"},{"name":"TEPEYOLALTI KÖYÜ","zip":"19502"},{"name":"ULUCAMİİ MAH.","zip":"19502"},{"name":"UMAÇ KÖYÜ","zip":"19502"},{"name":"YAĞSİYAN KÖYÜ","zip":"19502"},{"name":"YANALAK MAH.","zip":"19502"},{"name":"YANANKIŞLA MAH.","zip":"19502"},{"name":"YAYLA EVLERİ MAH.","zip":"19502"},{"name":"YAYLA MAH.","zip":"19502"},{"name":"YAYLABAŞI KÖYÜ","zip":"19502"},{"name":"YEDİOLUK MAH.","zip":"19502"},{"name":"YENİ MAH.","zip":"19502"},{"name":"YENİCAMİİ MAH.","zip":"19502"},{"name":"YENİDANİŞMENT KÖYÜ","zip":"19502"},{"name":"YER ALÇAĞI MAH.","zip":"19502"},{"name":"YEŞİLDERE MAH.","zip":"19502"},{"name":"YEŞİLTEPE MAH.","zip":"19502"},{"name":"YILDIZ MAH.","zip":"19502"},{"name":"YOLDERE MAH.","zip":"19502"},{"name":"YUKARIZEYTİN KÖYÜ","zip":"19502"},{"name":"YÜRÜK MAH.","zip":"19502"},{"name":"ZEYNELLER MAH.","zip":"19502"}]},{"name":"OSMANCIK","cityName":null,"quarters":[{"name":"ÇAY MAH.","zip":"19500"},{"name":"ÇİFTLİKLER MAH.","zip":"19500"},{"name":"ESENTEPE MAH.","zip":"19500"},{"name":"EYMİR MAH.","zip":"19500"},{"name":"GEMİCİ MAH.","zip":"19500"},{"name":"GÜNEY MAH.","zip":"19500"},{"name":"GÜRLEYİK MAH.","zip":"19500"},{"name":"HIDIRLIK MAH.","zip":"19500"},{"name":"KARAPINAR MAH.","zip":"19500"},{"name":"KIZILIRMAK MAH.","zip":"19500"},{"name":"KOYUNBABA MAH.","zip":"19500"},{"name":"ŞENYURT MAH.","zip":"19500"},{"name":"TEMENÇE MAH.","zip":"19500"},{"name":"ULUCAMİİ MAH.","zip":"19500"},{"name":"YAZI MAH.","zip":"19500"},{"name":"YENİ MAH.","zip":"19500"},{"name":"YEŞİLÇATMA MAH.","zip":"19500"}]},{"name":"MERKEZKÖYLER","cityName":null,"quarters":[{"name":"AKÇALI KÖYÜ","zip":"19302"},{"name":"AKDERE KÖYÜ","zip":"19302"},{"name":"AKPINAR KÖYÜ","zip":"19302"},{"name":"ALEMBEYLİ KÖYÜ","zip":"19302"},{"name":"ARABAÇAYI KÖYÜ","zip":"19302"},{"name":"ARICI KÖYÜ","zip":"19302"},{"name":"ARİFEGAZİLİ KÖYÜ","zip":"19302"},{"name":"ASAYİŞ KÖYÜ","zip":"19302"},{"name":"AŞAĞI EKMEKÇİ MAH.","zip":"19302"},{"name":"AŞAĞIBALKAYA MAH.","zip":"19302"},{"name":"AŞAĞIBEŞPINAR KÖYÜ","zip":"19302"},{"name":"AŞAĞIFINDIKLI KÖYÜ","zip":"19302"},{"name":"ATA MAH.","zip":"19302"},{"name":"AYAĞIBÜYÜK KÖYÜ","zip":"19302"},{"name":"AYDIN MAH.","zip":"19302"},{"name":"AYDOĞAN KÖYÜ","zip":"19302"},{"name":"BAĞCILI KÖYÜ","zip":"19302"},{"name":"BAĞDATLI KÖYÜ","zip":"19302"},{"name":"BAHÇELİEVLER MAH.","zip":"19302"},{"name":"BAHŞILI KÖYÜ","zip":"19302"},{"name":"BALKAYA KÖYÜ","zip":"19302"},{"name":"BEŞDAM KÖYÜ","zip":"19302"},{"name":"BEŞKIZ KÖYÜ","zip":"19302"},{"name":"BEYLİCE KÖYÜ","zip":"19302"},{"name":"BEYYURDU KÖYÜ","zip":"19302"},{"name":"BOZTEPE KÖYÜ","zip":"19302"},{"name":"BOZYAYLA KÖYÜ","zip":"19302"},{"name":"BUNALAN KÖYÜ","zip":"19302"},{"name":"BÜYÜKİNCESU KÖYÜ","zip":"19302"},{"name":"BÜYÜKPOLATLI KÖYÜ","zip":"19302"},{"name":"CEVHERİ KÖYÜ","zip":"19302"},{"name":"ÇADIRHÜYÜK KÖYÜ","zip":"19302"},{"name":"ÇAMOLUK KÖYÜ","zip":"19302"},{"name":"ÇAVUŞÇU KÖYÜ","zip":"19302"},{"name":"ÇAVUŞKÖY KÖYÜ","zip":"19302"},{"name":"ÇAYAN KÖYÜ","zip":"19302"},{"name":"ÇAYIROVA MAH.","zip":"19302"},{"name":"ÇAYYAKA KÖYÜ","zip":"19302"},{"name":"ÇİÇEKLİ KÖYÜ","zip":"19302"},{"name":"ÇİÇEKLİKELLER KÖYÜ","zip":"19302"},{"name":"ÇİFTLİKKÖY KÖYÜ","zip":"19302"},{"name":"ÇİNGİLLER KÖYÜ","zip":"19302"},{"name":"ÇUKURLU KÖYÜ","zip":"19302"},{"name":"ÇULHALI KÖYÜ","zip":"19302"},{"name":"DAYINCIK KÖYÜ","zip":"19302"},{"name":"DEMİRŞEYH KÖYÜ","zip":"19302"},{"name":"DENİZLİ KÖYÜ","zip":"19302"},{"name":"DEREKIŞLA KÖYÜ","zip":"19302"},{"name":"DERTLİ KÖYÜ","zip":"19302"},{"name":"EKMEKÇİ KÖYÜ","zip":"19302"},{"name":"ERGÜLÜBABA MAH.","zip":"19302"},{"name":"EŞME KÖYÜ","zip":"19302"},{"name":"FATİH MAH.","zip":"19302"},{"name":"GAFURLU KÖYÜ","zip":"19302"},{"name":"GAZİ MAH.","zip":"19302"},{"name":"GÖKÇAM KÖYÜ","zip":"19302"},{"name":"GÖKÇEKÖY KÖYÜ","zip":"19302"},{"name":"GÖLLER KÖYÜ","zip":"19302"},{"name":"GÜLDERESİ KÖYÜ","zip":"19302"},{"name":"GÜLOLUK KÖYÜ","zip":"19302"},{"name":"GÜVENDİK KÖYÜ","zip":"19302"},{"name":"HACIOSMAN KÖYÜ","zip":"19302"},{"name":"HİLALLI KÖYÜ","zip":"19302"},{"name":"İKİZLİ KÖYÜ","zip":"19302"},{"name":"İMİRLİ KÖYÜ","zip":"19302"},{"name":"İNEGAZİLİ KÖYÜ","zip":"19302"},{"name":"KALEDERE KÖYÜ","zip":"19302"},{"name":"KALENDEROĞLU KÖYÜ","zip":"19302"},{"name":"KAMIŞLI KÖYÜ","zip":"19302"},{"name":"KARACABEY KÖYÜ","zip":"19302"},{"name":"KARAÇAY KÖYÜ","zip":"19302"},{"name":"KARAKAYA KÖYÜ","zip":"19302"},{"name":"KARAKOCALI KÖYÜ","zip":"19302"},{"name":"KARAOĞLU KÖYÜ","zip":"19302"},{"name":"KARŞIYAKA MAH.","zip":"19302"},{"name":"KEMALLİ KÖYÜ","zip":"19302"},{"name":"KERTME KÖYÜ","zip":"19302"},{"name":"KIRANKIŞLA KÖYÜ","zip":"19302"},{"name":"KIŞLAKÖY KÖYÜ","zip":"19302"},{"name":"KIZILCAKIŞLA KÖYÜ","zip":"19302"},{"name":"KÖRKÜ KÖYÜ","zip":"19302"},{"name":"KULA KÖYÜ","zip":"19302"},{"name":"KURBAĞLI KÖYÜ","zip":"19302"},{"name":"KUŞÇALI KÖYÜ","zip":"19302"},{"name":"KUZUCAK KÖYÜ","zip":"19302"},{"name":"KÜÇÜKİNCESU KÖYÜ","zip":"19302"},{"name":"KÜÇÜKPOLATLI KÖYÜ","zip":"19302"},{"name":"KÜLTÜR MAH.","zip":"19302"},{"name":"MAHMATLI KÖYÜ","zip":"19302"},{"name":"MEHMETALİÇİFTLİĞİ KÖYÜ","zip":"19302"},{"name":"MEHMETBEYLİ KÖYÜ","zip":"19302"},{"name":"MERKEZ MAH.","zip":"19302"},{"name":"MURATKOLU KÖYÜ","zip":"19302"},{"name":"OĞLAKÖZÜ KÖYÜ","zip":"19302"},{"name":"ORGANİZE SANAYİ BÖLGESİ MAH.","zip":"19302"},{"name":"ORTAKIŞLA KÖYÜ","zip":"19302"},{"name":"ORTAKÖY KÖYÜ","zip":"19302"},{"name":"OYACA KÖYÜ","zip":"19302"},{"name":"PAŞA MAH.","zip":"19302"},{"name":"SALMANKÖY KÖYÜ","zip":"19302"},{"name":"SARAYCIK KÖYÜ","zip":"19302"},{"name":"SARICALAR KÖYÜ","zip":"19302"},{"name":"SARIKAYA KÖYÜ","zip":"19302"},{"name":"ŞAHLI MAH.","zip":"19302"},{"name":"ŞEKERHACILI KÖYÜ","zip":"19302"},{"name":"ŞEN MAH.","zip":"19302"},{"name":"TATLI KÖYÜ","zip":"19302"},{"name":"TERZİLİ KÖYÜ","zip":"19302"},{"name":"TİRKEŞ KÖYÜ","zip":"19302"},{"name":"TOKULLU KÖYÜ","zip":"19302"},{"name":"TOPUZ KÖYÜ","zip":"19302"},{"name":"TUĞCU KÖYÜ","zip":"19302"},{"name":"TUĞLU KÖYÜ","zip":"19302"},{"name":"TURGUTLU KÖYÜ","zip":"19302"},{"name":"TÜRKHACILARHANI KÖYÜ","zip":"19302"},{"name":"ÜÇOLUK KÖYÜ","zip":"19302"},{"name":"YARIMSÖĞÜT KÖYÜ","zip":"19302"},{"name":"YAVUZ SULTAN SELİM MAH.","zip":"19302"},{"name":"YENİ MAH.","zip":"19302"},{"name":"YENİHACILARHANI KÖYÜ","zip":"19302"},{"name":"YEŞİLOVA KÖYÜ","zip":"19302"},{"name":"YEŞİLYURT KÖYÜ","zip":"19302"},{"name":"YİRCE KÖYÜ","zip":"19302"},{"name":"YORGALI KÖYÜ","zip":"19302"},{"name":"YÖRÜKLÜ KÖYÜ","zip":"19302"},{"name":"YUKARI BEŞKIZ MAH.","zip":"19302"},{"name":"YUKARIBEŞPINAR KÖYÜ","zip":"19302"},{"name":"ZAFER MAH.","zip":"19302"}]},{"name":"SUNGURLU","cityName":null,"quarters":[{"name":"AKÇAY MAH.","zip":"19300"},{"name":"BAHÇELİEVLER MAH.","zip":"19300"},{"name":"BAŞPINAR MAH.","zip":"19300"},{"name":"FATİH MAH.","zip":"19300"},{"name":"FEVZİ PAŞA MAH.","zip":"19300"},{"name":"GÜRPINAR MAH.","zip":"19300"},{"name":"HACETTEPE MAH.","zip":"19300"},{"name":"İSMETPAŞA MAH.","zip":"19300"},{"name":"KAVŞUT KÖYÜ","zip":"19300"},{"name":"ÖRNEKEVLER MAH.","zip":"19300"},{"name":"SUNGUROĞLU MAH.","zip":"19300"},{"name":"ŞEKERPINAR MAH.","zip":"19300"},{"name":"TURAN MAH.","zip":"19300"},{"name":"YENİDOĞAN MAH.","zip":"19300"},{"name":"YENİHAYAT MAH.","zip":"19300"}]},{"name":"MERKEZKÖYLER","cityName":null,"quarters":[{"name":"AŞILIARMUT KÖYÜ","zip":"19412"},{"name":"BELKAVAK KÖYÜ","zip":"19412"},{"name":"BOZTEPE KÖYÜ","zip":"19412"},{"name":"BÜYÜKERİKLİ KÖYÜ","zip":"19412"},{"name":"DAĞÖNÜ KÖYÜ","zip":"19412"},{"name":"ESKİÇELTEK KÖYÜ","zip":"19412"},{"name":"GÖKÇEAĞAÇ KÖYÜ","zip":"19412"},{"name":"KARAEVLİYA KÖYÜ","zip":"19412"},{"name":"KARAKISIK KÖYÜ","zip":"19412"},{"name":"KIRKÖY KÖYÜ","zip":"19412"},{"name":"KIZAĞLI KÖYÜ","zip":"19412"},{"name":"KÖPEÇ KÖYÜ","zip":"19412"},{"name":"KÜÇÜKERİKLİ KÖYÜ","zip":"19412"},{"name":"RESULOĞLU KÖYÜ","zip":"19412"},{"name":"SAZKÖY KÖYÜ","zip":"19412"},{"name":"TORUNLAR KÖYÜ","zip":"19412"},{"name":"ÜÇDAM KÖYÜ","zip":"19412"},{"name":"YARIMCA KÖYÜ","zip":"19412"},{"name":"YENİYAPAN KÖYÜ","zip":"19412"}]},{"name":"UĞURLUDAĞ","cityName":null,"quarters":[{"name":"TUTPINAR MAH.","zip":"19410"},{"name":"YENİCAMİİ MAH.","zip":"19410"},{"name":"YEŞİLYURT MAH.","zip":"19410"},{"name":"YÜZGEÇ MAH.","zip":"19410"}]}]}]}