{"id":2,"name":"ADIYAMAN","cities":[{"name":"city","districts":[{"name":"BESNİ","cityName":null,"quarters":[{"name":"DUMLUPINAR MAH.","zip":"02300"},{"name":"ERDEMOĞLU MAH.","zip":"02300"},{"name":"KAYMAKAM HASAN TÜTÜN MAH.","zip":"02300"},{"name":"KORUPINAR MAH.","zip":"02300"},{"name":"OYALI MAH.","zip":"02300"},{"name":"PINARBAŞI MAH.","zip":"02300"},{"name":"PINARBAŞIOSB MAH.","zip":"02300"},{"name":"YENİ BESNİ MAH.","zip":"02300"},{"name":"YUKARI SARHAN MAH.","zip":"02300"}]},{"name":"ÇAKIRHÜYÜK","cityName":null,"quarters":[{"name":"AKDURAK KÖYÜ","zip":"02320"},{"name":"AKKUYU KÖYÜ","zip":"02320"},{"name":"AKTEPE KÖYÜ","zip":"02320"},{"name":"ALIÇLI KÖYÜ","zip":"02320"},{"name":"AŞAĞISÖĞÜTLÜ MAH.","zip":"02320"},{"name":"ATATÜRK MAH.","zip":"02320"},{"name":"BOYBEYPINARI MAH.","zip":"02320"},{"name":"CAMUŞÇU KÖYÜ","zip":"02320"},{"name":"CUMHURİYET MAH.","zip":"02320"},{"name":"ÇAKIRHÜYÜK KÖYÜ","zip":"02320"},{"name":"ÇAKMAK MAH.","zip":"02320"},{"name":"ÇOMAK KÖYÜ","zip":"02320"},{"name":"FATİH MAH.","zip":"02320"},{"name":"GÖNDERME MAH.","zip":"02320"},{"name":"HASANLI KÖYÜ","zip":"02320"},{"name":"HÖYÜK MAH.","zip":"02320"},{"name":"HÜRRİYET MAH.","zip":"02320"},{"name":"İNCE MAH.","zip":"02320"},{"name":"İNÖNÜ MAH.","zip":"02320"},{"name":"İZNİK MAH.","zip":"02320"},{"name":"İZOLLU KÖYÜ","zip":"02320"},{"name":"KARGALI KÖYÜ","zip":"02320"},{"name":"KARNAÇIK MAH.","zip":"02320"},{"name":"KESMETEPE KÖYÜ","zip":"02320"},{"name":"KONUKLU KÖYÜ","zip":"02320"},{"name":"KÖPRÜBAŞI MAH.","zip":"02320"},{"name":"KÖSECELİ KÖYÜ","zip":"02320"},{"name":"KUTLUCA KÖYÜ","zip":"02320"},{"name":"LEVZİN MAH.","zip":"02320"},{"name":"SARIÇİÇEK MAH.","zip":"02320"},{"name":"TETİRLİ MAH.","zip":"02320"},{"name":"TİLEYLİ MAH.","zip":"02320"},{"name":"TURGUT ÖZAL MAH.","zip":"02320"},{"name":"YAZIBEYDİLİ KÖYÜ","zip":"02320"},{"name":"YENİKURUGÖL MAH.","zip":"02320"},{"name":"YEŞİLOVA MAH.","zip":"02320"},{"name":"YOLDÜZÜ KÖYÜ","zip":"02320"},{"name":"YUKARISÖĞÜTLÜ KÖYÜ","zip":"02320"},{"name":"YUSUFA MAH.","zip":"02320"},{"name":"YUSUFAĞA MAH.","zip":"02320"}]},{"name":"MERKEZKÖYLER","cityName":null,"quarters":[{"name":"AKDOĞANLAR MAH.","zip":"02302"},{"name":"AKPINAR KÖYÜ","zip":"02302"},{"name":"AKYAZI KÖYÜ","zip":"02302"},{"name":"AŞAĞIÇÖPLÜ KÖYÜ","zip":"02302"},{"name":"ATATÜRK MAH.","zip":"02302"},{"name":"BAHRİ KÖYÜ","zip":"02302"},{"name":"BAHRİ MAH.","zip":"02302"},{"name":"BALKA MAH.","zip":"02302"},{"name":"BEREKETLİ KÖYÜ","zip":"02302"},{"name":"BERETE KÖYÜ","zip":"02302"},{"name":"BEŞKOZ KÖYÜ","zip":"02302"},{"name":"BEŞYOL KÖYÜ","zip":"02302"},{"name":"BONCUK KÖYÜ","zip":"02302"},{"name":"BURUNÇAYIR KÖYÜ","zip":"02302"},{"name":"CUMHURİYET MAH.","zip":"02302"},{"name":"CUMHURRİYET MAH.","zip":"02302"},{"name":"ÇAMLICA KÖYÜ","zip":"02302"},{"name":"ÇAYKAYA KÖYÜ","zip":"02302"},{"name":"ÇİLBOĞAZ KÖYÜ","zip":"02302"},{"name":"ÇORMAN MAH.","zip":"02302"},{"name":"ÇÖPLÜKIŞLA MAH.","zip":"02302"},{"name":"DELİSEKİ MAH.","zip":"02302"},{"name":"DİKİLİTAŞ KÖYÜ","zip":"02302"},{"name":"DÖRTYOL KÖYÜ","zip":"02302"},{"name":"EĞERLİ KÖYÜ","zip":"02302"},{"name":"FATİH MAH.","zip":"02302"},{"name":"GEÇİTLİ KÖYÜ","zip":"02302"},{"name":"GÜNEYKAŞ KÖYÜ","zip":"02302"},{"name":"HACIHALİL KÖYÜ","zip":"02302"},{"name":"HARMANARDI KÖYÜ","zip":"02302"},{"name":"HÖYÜK MAH.","zip":"02302"},{"name":"İNÖNÜ MAH.","zip":"02302"},{"name":"KARAAĞAÇ MAH.","zip":"02302"},{"name":"KARAGEÇİ MAH.","zip":"02302"},{"name":"KARAGÜVEÇ KÖYÜ","zip":"02302"},{"name":"KEPİRCE MAH.","zip":"02302"},{"name":"KESECİK KÖYÜ","zip":"02302"},{"name":"KIZILHİSAR KÖYÜ","zip":"02302"},{"name":"KIZILİN KÖYÜ","zip":"02302"},{"name":"KIZILKAYA KÖYÜ","zip":"02302"},{"name":"KIZILPINAR KÖYÜ","zip":"02302"},{"name":"KOCAPİRLİ MAH.","zip":"02302"},{"name":"KURUGÖL KÖYÜ","zip":"02302"},{"name":"KUZEVLERİ KÖYÜ","zip":"02302"},{"name":"NOHUDANLI MAH.","zip":"02302"},{"name":"OYRATLI KÖYÜ","zip":"02302"},{"name":"ÖREN KÖYÜ","zip":"02302"},{"name":"SARIKAYA KÖYÜ","zip":"02302"},{"name":"SARIYAPRAK KÖYÜ","zip":"02302"},{"name":"SATILUŞAĞI MAH.","zip":"02302"},{"name":"SAYÖREN KÖYÜ","zip":"02302"},{"name":"SUGÖZÜ KÖYÜ","zip":"02302"},{"name":"SUMAKLI GÜZELEVLER MAH.","zip":"02302"},{"name":"TAŞLIYAZI KÖYÜ","zip":"02302"},{"name":"TOKAR KÖYÜ","zip":"02302"},{"name":"TOKLU KÖYÜ","zip":"02302"},{"name":"TOPKAPI KÖYÜ","zip":"02302"},{"name":"ÜÇGÖZ KÖYÜ","zip":"02302"},{"name":"ÜRECİK MAH.","zip":"02302"},{"name":"YAYIKLI KÖYÜ","zip":"02302"},{"name":"YAZIBADEMCE MAH.","zip":"02302"},{"name":"YAZIKARAKUYU KÖYÜ","zip":"02302"},{"name":"YAZIYURDU MAH.","zip":"02302"},{"name":"YELBASTI KÖYÜ","zip":"02302"},{"name":"YEMLİCE MAH.","zip":"02302"},{"name":"YENİKÖY KÖYÜ","zip":"02302"},{"name":"YEŞİLOVA MAH.","zip":"02302"},{"name":"YUKARI HOZGİŞİ MAH.","zip":"02302"},{"name":"ZORMAĞARA MAH.","zip":"02302"}]},{"name":"SUVARLI","cityName":null,"quarters":[{"name":"BÜYÜKOBA MAH.","zip":"02330"},{"name":"CUMHURİYET MAH.","zip":"02330"},{"name":"ÇAKALLI MAH.","zip":"02330"},{"name":"ÇAYIROBASI MAH.","zip":"02330"},{"name":"ÇORAK KÖYÜ","zip":"02330"},{"name":"HÜRRİYET MAH.","zip":"02330"},{"name":"KARALAR KÖYÜ","zip":"02330"},{"name":"KIRAÇHAYMA MAH.","zip":"02330"},{"name":"KÖRTANLI MAH.","zip":"02330"},{"name":"PINARBAŞI KÖYÜ","zip":"02330"},{"name":"SUVARLI KÖYÜ","zip":"02330"},{"name":"TUTLUPINAR MAH.","zip":"02330"},{"name":"UZUNKUYU KÖYÜ","zip":"02330"}]},{"name":"ŞAMBAYAT","cityName":null,"quarters":[{"name":"AKKUYU MAH.","zip":"02340"},{"name":"ALİŞAR KÖYÜ","zip":"02340"},{"name":"ATMALI KÖYÜ","zip":"02340"},{"name":"BAŞLI KÖYÜ","zip":"02340"},{"name":"BAYAT MAH.","zip":"02340"},{"name":"BEŞİR MAH.","zip":"02340"},{"name":"BOSTANCIK MAH.","zip":"02340"},{"name":"CUMHURİYET MAH.","zip":"02340"},{"name":"DOĞANKAYA KÖYÜ","zip":"02340"},{"name":"FATİH MAH.","zip":"02340"},{"name":"GÜMÜŞLÜ KÖYÜ","zip":"02340"},{"name":"İNÖNÜ MAH.","zip":"02340"},{"name":"KARAHALİL MAH.","zip":"02340"},{"name":"KILIÇLI MAH.","zip":"02340"},{"name":"KIZILCAMUSTAFA MAH.","zip":"02340"},{"name":"MENDERES MAH.","zip":"02340"},{"name":"ÖZBAĞLAR MAH.","zip":"02340"},{"name":"ŞAMBAYAT KÖYÜ","zip":"02340"},{"name":"TEKAĞAÇ KÖYÜ","zip":"02340"},{"name":"YAZIYALANGOZ MAH.","zip":"02340"},{"name":"YENİ MAH.","zip":"02340"}]},{"name":"ÇELİKHAN","cityName":null,"quarters":[{"name":"BAŞPINAR MAH.","zip":"02600"},{"name":"CAMİ MAH.","zip":"02600"},{"name":"CUMHURİYET MAH.","zip":"02600"},{"name":"FATİH MAH.","zip":"02600"},{"name":"MAHMUT NEDİM ÖKMEN MAH.","zip":"02600"},{"name":"MERKEZ MAH.","zip":"02600"},{"name":"YUNUS EMRE MAH.","zip":"02600"},{"name":"ZAFER MAH.","zip":"02600"}]},{"name":"MERKEZKÖYLER","cityName":null,"quarters":[{"name":"AKTAŞ MAH.","zip":"02602"},{"name":"ALİGÜR MAH.","zip":"02602"},{"name":"ALİSAHA KÜMESİ MAH.","zip":"02602"},{"name":"ALTINTAŞ KÖYÜ","zip":"02602"},{"name":"ASKERHAN KÖYÜ","zip":"02602"},{"name":"BAHÇE KÜMESİ MAH.","zip":"02602"},{"name":"BALIKBURUN MAH.","zip":"02602"},{"name":"BOZGEDİK KÖYÜ","zip":"02602"},{"name":"CAMİ MAH.","zip":"02602"},{"name":"CEMOLAR MAH.","zip":"02602"},{"name":"ÇAMLIYAYLA MAH.","zip":"02602"},{"name":"ÇAMPINAR KÖYÜ","zip":"02602"},{"name":"ÇAT MAH.","zip":"02602"},{"name":"DEĞİRMEN BAŞI MAH.","zip":"02602"},{"name":"DERE YAYLASI MAH.","zip":"02602"},{"name":"DEVEBOYNU MAH.","zip":"02602"},{"name":"DÜZAĞAÇ MAH.","zip":"02602"},{"name":"ESENLİ MAH.","zip":"02602"},{"name":"ESKİKÖY MAH.","zip":"02602"},{"name":"FATİH KÖYÜ","zip":"02602"},{"name":"GÖLBAĞI KÖYÜ","zip":"02602"},{"name":"HACILAR MAH.","zip":"02602"},{"name":"HAMİK MAH.","zip":"02602"},{"name":"HARMAN MAH.","zip":"02602"},{"name":"HOVİRGE YAYLASI MAH.","zip":"02602"},{"name":"İNCİRLİ KÖYÜ","zip":"02602"},{"name":"İNÖNÜ MAH.","zip":"02602"},{"name":"KALE MAH.","zip":"02602"},{"name":"KALECİK KÖYÜ","zip":"02602"},{"name":"KARAÇAYIR KÖYÜ","zip":"02602"},{"name":"KARAGÖL KÖYÜ","zip":"02602"},{"name":"KARŞI KÜME EVLERİ MAH.","zip":"02602"},{"name":"KAYA MAH.","zip":"02602"},{"name":"KIŞIKAN YAYLASI MAH.","zip":"02602"},{"name":"KORUCAK KÖYÜ","zip":"02602"},{"name":"KOYUNCULAR MAH.","zip":"02602"},{"name":"KÖSEUŞAĞI KÖYÜ","zip":"02602"},{"name":"KURUDERE MAH.","zip":"02602"},{"name":"MERKEZ KÜMESİ MAH.","zip":"02602"},{"name":"MUTLU KÖYÜ","zip":"02602"},{"name":"PINARBAŞI KÖYÜ","zip":"02602"},{"name":"RECEP KÖYÜ","zip":"02602"},{"name":"SOĞUKPINAR MAH.","zip":"02602"},{"name":"ŞAHVERDİ ESKİKÖY MAH.","zip":"02602"},{"name":"ŞAHVERDİ MAH.","zip":"02602"},{"name":"ŞAHVERDİ YAYLAEVLERİ MAH.","zip":"02602"},{"name":"ŞEREFHAN KÖYÜ","zip":"02602"},{"name":"TOZİK YAYLASI MAH.","zip":"02602"},{"name":"YAĞIZATLI KÖYÜ","zip":"02602"},{"name":"YAĞMURLU MAH.","zip":"02602"},{"name":"YAYLA EVLERİ MAH.","zip":"02602"},{"name":"YAYLAEVLERİ MAH.","zip":"02602"},{"name":"YEŞİLOVA KÖYÜ","zip":"02602"},{"name":"YEŞİLTEPE KÖYÜ","zip":"02602"},{"name":"YEŞİLYAYLA KÖYÜ","zip":"02602"}]},{"name":"GERGER","cityName":null,"quarters":[{"name":"KELEŞAN MAH.","zip":"02700"},{"name":"MERKEZ MAH.","zip":"02700"},{"name":"YENİ MAH.","zip":"02700"}]},{"name":"MERKEZKÖYLER","cityName":null,"quarters":[{"name":"AĞAÇLI KÖYÜ","zip":"02702"},{"name":"AKSAN MAH.","zip":"02702"},{"name":"ALDUŞ MAH.","zip":"02702"},{"name":"ARTİLAN MAH.","zip":"02702"},{"name":"AŞAĞI CİMİK MAH.","zip":"02702"},{"name":"AŞAĞIDAĞLICA KÖYÜ","zip":"02702"},{"name":"AYDINLIK (ZUĞUR) MAH.","zip":"02702"},{"name":"BAĞLAR MAH.","zip":"02702"},{"name":"BAYİK MAH.","zip":"02702"},{"name":"BAZİK MAH.","zip":"02702"},{"name":"BEKİRAN MAH.","zip":"02702"},{"name":"BEMİRGO MAH.","zip":"02702"},{"name":"BEŞGÖZE KÖYÜ","zip":"02702"},{"name":"BEYBOSTAN KÖYÜ","zip":"02702"},{"name":"BİLDEŞ MAH.","zip":"02702"},{"name":"BİRCAN MAH.","zip":"02702"},{"name":"BODİN MAH.","zip":"02702"},{"name":"BUDAKLI KÖYÜ","zip":"02702"},{"name":"BURÇAKLI KÖYÜ","zip":"02702"},{"name":"CEVİZPINAR KÖYÜ","zip":"02702"},{"name":"ÇAMİÇİ KÖYÜ","zip":"02702"},{"name":"ÇAMİK MAH.","zip":"02702"},{"name":"ÇAVGÜR MAH.","zip":"02702"},{"name":"ÇAVUŞ(SİVER) MAH.","zip":"02702"},{"name":"ÇEMAN MAH.","zip":"02702"},{"name":"ÇET MAH.","zip":"02702"},{"name":"ÇETİN MAH.","zip":"02702"},{"name":"ÇINARIK MAH.","zip":"02702"},{"name":"ÇINARLIK MAH.","zip":"02702"},{"name":"ÇİFTHİSAR KÖYÜ","zip":"02702"},{"name":"ÇOBANPINARI KÖYÜ","zip":"02702"},{"name":"ÇUKURCA MAH.","zip":"02702"},{"name":"DAĞDEVİREN KÖYÜ","zip":"02702"},{"name":"DALLARCA KÖYÜ","zip":"02702"},{"name":"DEMİRTAŞ KÖYÜ","zip":"02702"},{"name":"DESPAL MAH.","zip":"02702"},{"name":"DEYRO MAH.","zip":"02702"},{"name":"DOLORİZAN MAH.","zip":"02702"},{"name":"DÖŞNİK MAH.","zip":"02702"},{"name":"ERDOĞMUŞ (BALEYREK) MAH.","zip":"02702"},{"name":"ESKİKENT KÖYÜ","zip":"02702"},{"name":"GEÇİTLİ KÖYÜ","zip":"02702"},{"name":"GELEBAZ MAH.","zip":"02702"},{"name":"GÖLANİ MAH.","zip":"02702"},{"name":"GÖLYURT KÖYÜ","zip":"02702"},{"name":"GÖME-İ MASUR MAH.","zip":"02702"},{"name":"GÖMÜK MAH.","zip":"02702"},{"name":"GÖNAN KÖYÜ","zip":"02702"},{"name":"GÖZPINAR KÖYÜ","zip":"02702"},{"name":"GÜDAYİK MAH.","zip":"02702"},{"name":"GÜMÜŞKAŞIK KÖYÜ","zip":"02702"},{"name":"GÜNDOĞDU KÖYÜ","zip":"02702"},{"name":"GÜNEYPINAR MAH.","zip":"02702"},{"name":"GÜNGÖRMÜŞ KÖYÜ","zip":"02702"},{"name":"GÜRGENLİ KÖYÜ","zip":"02702"},{"name":"GÜZELSU KÖYÜ","zip":"02702"},{"name":"HANBERTİ MAH.","zip":"02702"},{"name":"HARMUZAN MAH.","zip":"02702"},{"name":"HELEZİN MAH.","zip":"02702"},{"name":"HEVENK MAH.","zip":"02702"},{"name":"HIRCIK MAH.","zip":"02702"},{"name":"HİLİM MAH.","zip":"02702"},{"name":"HORSAİK MAH.","zip":"02702"},{"name":"HÜSÜKAN MAH.","zip":"02702"},{"name":"KAF MAH.","zip":"02702"},{"name":"KAĞINDAK MAH.","zip":"02702"},{"name":"KALECİK MAH.","zip":"02702"},{"name":"KARACAVİRAN MAH.","zip":"02702"},{"name":"KARDİGİN MAH.","zip":"02702"},{"name":"KARUK MAH.","zip":"02702"},{"name":"KAŞYAZI KÖYÜ","zip":"02702"},{"name":"KEFERGE MAH.","zip":"02702"},{"name":"KELAZİN MAH.","zip":"02702"},{"name":"KERZEL MAH.","zip":"02702"},{"name":"KESERTAŞ KÖYÜ","zip":"02702"},{"name":"KEVİRSOR MAH.","zip":"02702"},{"name":"KILIÇ KÖYÜ","zip":"02702"},{"name":"KIRINGÖL MAH.","zip":"02702"},{"name":"KIRMIZITARLA MAH.","zip":"02702"},{"name":"KIZZIK MAH.","zip":"02702"},{"name":"KİŞİK MAH.","zip":"02702"},{"name":"KONACIK KÖYÜ","zip":"02702"},{"name":"KORULU KÖYÜ","zip":"02702"},{"name":"KOŞARLAR KÖYÜ","zip":"02702"},{"name":"KOZAĞAÇI MAH.","zip":"02702"},{"name":"KÖKLÜCE KÖYÜ","zip":"02702"},{"name":"KÖRTİGİN MAH.","zip":"02702"},{"name":"KÜTÜKLÜ KÖYÜ","zip":"02702"},{"name":"MARONİ MAH.","zip":"02702"},{"name":"MERKEZ MAH.","zip":"02702"},{"name":"MEZRA MAH.","zip":"02702"},{"name":"MIRZA MAH.","zip":"02702"},{"name":"NAKIŞLI KÖYÜ","zip":"02702"},{"name":"NİNYAT MAH.","zip":"02702"},{"name":"ONEVLER KÖYÜ","zip":"02702"},{"name":"ORTACA KÖYÜ","zip":"02702"},{"name":"OYMAKLI KÖYÜ","zip":"02702"},{"name":"ÖMERAN MAH.","zip":"02702"},{"name":"ÖZKURAN MAH.","zip":"02702"},{"name":"PAMULUK MAH.","zip":"02702"},{"name":"PANKİN MAH.","zip":"02702"},{"name":"PEMİCE MAH.","zip":"02702"},{"name":"PINARBAŞI MAH.","zip":"02702"},{"name":"PİYAMLİ MAH.","zip":"02702"},{"name":"PUPAR MAH.","zip":"02702"},{"name":"SALAVAT MAH.","zip":"02702"},{"name":"SAMAK MAH.","zip":"02702"},{"name":"SANKOSİ MAH.","zip":"02702"},{"name":"SARAYCIK KÖYÜ","zip":"02702"},{"name":"SENGETO MAH.","zip":"02702"},{"name":"SEYİTMAHMUT KÖYÜ","zip":"02702"},{"name":"SOFYAN MAH.","zip":"02702"},{"name":"SORİK MAH.","zip":"02702"},{"name":"SUTEPE KÖYÜ","zip":"02702"},{"name":"ŞAKOL MAH.","zip":"02702"},{"name":"ŞAMANİ MAH.","zip":"02702"},{"name":"ŞAVİ MAH.","zip":"02702"},{"name":"ŞENGÜL MAH.","zip":"02702"},{"name":"TANKÜL MAH.","zip":"02702"},{"name":"TARAKSU MAH.","zip":"02702"},{"name":"TIRKIDİN MAH.","zip":"02702"},{"name":"TIRŞİK MAH.","zip":"02702"},{"name":"TİLLAK MAH.","zip":"02702"},{"name":"ÜÇKAYA KÖYÜ","zip":"02702"},{"name":"VANKÖK MAH.","zip":"02702"},{"name":"YAĞMURLU KÖYÜ","zip":"02702"},{"name":"YAYLADALI KÖYÜ","zip":"02702"},{"name":"YENİBARDAK KÖYÜ","zip":"02702"},{"name":"YEŞİLYURT KÖYÜ","zip":"02702"},{"name":"YUKARIDAĞLICA KÖYÜ","zip":"02702"},{"name":"YUVACIK MAH.","zip":"02702"}]},{"name":"BELÖREN","cityName":null,"quarters":[{"name":"CUMHURİYET MAH.","zip":"02540"},{"name":"MERKEZ MAH.","zip":"02540"}]},{"name":"GÖLBAŞI","cityName":null,"quarters":[{"name":"FATİH MAH.","zip":"02500"},{"name":"HÜRRİYET MAH.","zip":"02500"},{"name":"KURUGEÇİT MAH.","zip":"02500"},{"name":"MİMAR SİNAN MAH.","zip":"02500"},{"name":"YAVUZ SELİM MAH.","zip":"02500"},{"name":"YENİ MAH.","zip":"02500"}]},{"name":"HARMANLI","cityName":null,"quarters":[{"name":"ÇAKMAK MAH.","zip":"02520"},{"name":"HARMANLI KÖYÜ","zip":"02520"},{"name":"KALEMKAS MAH.","zip":"02520"},{"name":"YENİ MAH.","zip":"02520"}]},{"name":"MERKEZKÖYLER","cityName":null,"quarters":[{"name":"AKÇAKAYA KÖYÜ","zip":"02502"},{"name":"AKTOPRAK KÖYÜ","zip":"02502"},{"name":"ALİKAYA MAH.","zip":"02502"},{"name":"ARPATARLASI MAH.","zip":"02502"},{"name":"ASFALT MAH.","zip":"02502"},{"name":"AŞAĞIAZAPLI KÖYÜ","zip":"02502"},{"name":"AŞAĞIKARAKUYU KÖYÜ","zip":"02502"},{"name":"AŞAĞINASIRLI KÖYÜ","zip":"02502"},{"name":"BAĞLARBAŞI KÖYÜ","zip":"02502"},{"name":"BALKAR KÖYÜ","zip":"02502"},{"name":"BALLIK MAH.","zip":"02502"},{"name":"BEŞEVLER MAH.","zip":"02502"},{"name":"CANKARA KÖYÜ","zip":"02502"},{"name":"CERRAHOBASI MAH.","zip":"02502"},{"name":"CİVKUR MAH.","zip":"02502"},{"name":"CUMHURİYET MAH.","zip":"02502"},{"name":"ÇATALAĞAÇ KÖYÜ","zip":"02502"},{"name":"ÇATALTEPE KÖYÜ","zip":"02502"},{"name":"ÇAYIR MAH.","zip":"02502"},{"name":"ÇELİKKÖY KÖYÜ","zip":"02502"},{"name":"ÇELİKKÖYOSB MAH.","zip":"02502"},{"name":"DURAK MAH.","zip":"02502"},{"name":"GEDİKLİ KÖYÜ","zip":"02502"},{"name":"HACILAR KÖYÜ","zip":"02502"},{"name":"HAMZALAR KÖYÜ","zip":"02502"},{"name":"HASANLAR MAH.","zip":"02502"},{"name":"HAYDARLI KÖYÜ","zip":"02502"},{"name":"İSTASYON MAH.","zip":"02502"},{"name":"KANDİL MAH.","zip":"02502"},{"name":"KARABAHŞILI KÖYÜ","zip":"02502"},{"name":"KARABURUN KÖYÜ","zip":"02502"},{"name":"KARAÇUKUR MAH.","zip":"02502"},{"name":"KARAHASAN MAH.","zip":"02502"},{"name":"KEÇİBAŞI MAH.","zip":"02502"},{"name":"KERALMAZ MAH.","zip":"02502"},{"name":"KEZBİ MAH.","zip":"02502"},{"name":"KÖRPINARI MAH.","zip":"02502"},{"name":"KÖSÜKLÜ KÖYÜ","zip":"02502"},{"name":"KÖTEL MAH.","zip":"02502"},{"name":"KUMLU MEZRASI MAH.","zip":"02502"},{"name":"KURUCUOVA MAH.","zip":"02502"},{"name":"KÜÇÜKÖREN KÖYÜ","zip":"02502"},{"name":"MEYDAN KÖYÜ","zip":"02502"},{"name":"MIÇOLAR MAH.","zip":"02502"},{"name":"OZAN KÖYÜ","zip":"02502"},{"name":"ÖRENLİ KÖYÜ","zip":"02502"},{"name":"SAVRAN KÖYÜ","zip":"02502"},{"name":"SERPENOLAR MAH.","zip":"02502"},{"name":"SIRIKLI MAH.","zip":"02502"},{"name":"SORKUN MAH.","zip":"02502"},{"name":"SÖĞÜTLÜ MAH.","zip":"02502"},{"name":"TECİRLİ MAH.","zip":"02502"},{"name":"UÇARLAR MAH.","zip":"02502"},{"name":"YARBAŞI KÖYÜ","zip":"02502"},{"name":"YAYLACIK KÖYÜ","zip":"02502"},{"name":"YENİKENT MAH.","zip":"02502"},{"name":"YENİKÖY KÖYÜ","zip":"02502"},{"name":"YEŞİLOVA KÖYÜ","zip":"02502"},{"name":"YIKICAK MAH.","zip":"02502"},{"name":"YOLBAĞI MAH.","zip":"02502"},{"name":"YUKARIÇÖPLÜ KÖYÜ","zip":"02502"},{"name":"YUKARIKARAKUYU KÖYÜ","zip":"02502"},{"name":"YUKARINASIRLI KÖYÜ","zip":"02502"}]},{"name":"AKINCILAR","cityName":null,"quarters":[{"name":"ADALI KÖYÜ","zip":"02450"},{"name":"AKALIN KÖYÜ","zip":"02450"},{"name":"AKÇAKENT MAH.","zip":"02450"},{"name":"AKÇAVEREN MAH.","zip":"02450"},{"name":"AKINCILAR ATATÜRK MAH.","zip":"02450"},{"name":"AKINCILAR KÖYÜ","zip":"02450"},{"name":"AKTAŞ KÖYÜ","zip":"02450"},{"name":"AKYILDIZ KÖYÜ","zip":"02450"},{"name":"AŞAĞI TUĞLU MAH.","zip":"02450"},{"name":"ATAKÖY MAH.","zip":"02450"},{"name":"BAHÇE MAH.","zip":"02450"},{"name":"BAKACAK MAH.","zip":"02450"},{"name":"BERBANOS MAH.","zip":"02450"},{"name":"BEŞİKLİ KÖYÜ","zip":"02450"},{"name":"BUHARA MAH.","zip":"02450"},{"name":"BÜYÜKGÖL MAH.","zip":"02450"},{"name":"BÜYÜKGÖZ MAH.","zip":"02450"},{"name":"CUMHURİYET KÖYÜ","zip":"02450"},{"name":"ÇAMLICA KÖYÜ","zip":"02450"},{"name":"ÇAMLICA MAH.","zip":"02450"},{"name":"DAMÜSTÜ MAH.","zip":"02450"},{"name":"DARDAĞAN KÖYÜ","zip":"02450"},{"name":"DİKENLİ KÖYÜ","zip":"02450"},{"name":"DOĞANTEPE MAH.","zip":"02450"},{"name":"ELBEYİ KÖYÜ","zip":"02450"},{"name":"ELMALI TUĞLU MAH.","zip":"02450"},{"name":"ESENTEPE MAH.","zip":"02450"},{"name":"ESKİTAŞ KÖYÜ","zip":"02450"},{"name":"GELDİBULDU KÖYÜ","zip":"02450"},{"name":"GEVAZİ MAH.","zip":"02450"},{"name":"GÖÇERİ KÖYÜ","zip":"02450"},{"name":"GÜDÜLGE KÖYÜ","zip":"02450"},{"name":"GÜLAHMET MAH.","zip":"02450"},{"name":"HASKÖY KÖYÜ","zip":"02450"},{"name":"HİNİÇ MAH.","zip":"02450"},{"name":"HÜSEYİNLİ MAH.","zip":"02450"},{"name":"İKİZCE KÖYÜ","zip":"02450"},{"name":"KARAMAĞARA MAH.","zip":"02450"},{"name":"KARATAŞ KÖYÜ","zip":"02450"},{"name":"KARATAŞ MAH.","zip":"02450"},{"name":"KARMİTLİ MAH.","zip":"02450"},{"name":"KILAVUZ MAH.","zip":"02450"},{"name":"KÜÇÜK TOMAK MAH.","zip":"02450"},{"name":"MAHMUDİYE MAH.","zip":"02450"},{"name":"MENZİL KÖYÜ","zip":"02450"},{"name":"MUSTAFAÇAYIR MAH.","zip":"02450"},{"name":"NERGİZTEPE MAH.","zip":"02450"},{"name":"OLUKLU KÖYÜ","zip":"02450"},{"name":"PINARYOLU MAH.","zip":"02450"},{"name":"SIRATUT MAH.","zip":"02450"},{"name":"SOFYA MAH.","zip":"02450"},{"name":"SOĞUKSU MAH.","zip":"02450"},{"name":"SÜSÜK MAH.","zip":"02450"},{"name":"TERİYAN MAH.","zip":"02450"},{"name":"TETA MAH.","zip":"02450"},{"name":"TİLBE MAH.","zip":"02450"},{"name":"TUĞLU KÖYÜ","zip":"02450"},{"name":"TÜREŞİK MAH.","zip":"02450"},{"name":"ULUPINAR KÖYÜ","zip":"02450"},{"name":"YENİKUŞAK KÖYÜ","zip":"02450"},{"name":"YEŞİLKAYA KÖYÜ","zip":"02450"},{"name":"YEŞİLKAYA MAH.","zip":"02450"},{"name":"YEŞİLTEPE MAH.","zip":"02450"},{"name":"YOLÇATI MAH.","zip":"02450"}]},{"name":"KAHTA","cityName":null,"quarters":[{"name":"BAĞLAR MAH.","zip":"02400"},{"name":"BAYRAKTAR MAH.","zip":"02400"},{"name":"CAMİ MAH.","zip":"02400"},{"name":"CUMHURİYET MAH.","zip":"02400"},{"name":"ÇOBANLI MAH.","zip":"02400"},{"name":"FATİH MAH.","zip":"02400"},{"name":"FIRAT MAH.","zip":"02400"},{"name":"GAZİ MAH.","zip":"02400"},{"name":"GİRNE MAH.","zip":"02400"},{"name":"HÜRRİYET MAH.","zip":"02400"},{"name":"KARŞIYAKA MAH.","zip":"02400"},{"name":"MENDERES MAH.","zip":"02400"},{"name":"ŞEYHBABA MAH.","zip":"02400"},{"name":"TURGUT ÖZAL MAH.","zip":"02400"},{"name":"YAVUZ SELİM MAH.","zip":"02400"},{"name":"YENİ MAH.","zip":"02400"}]},{"name":"MERKEZKÖYLER","cityName":null,"quarters":[{"name":"AKÇA MAH.","zip":"02402"},{"name":"AKÇALI MAH.","zip":"02402"},{"name":"AKDAMAR MAH.","zip":"02402"},{"name":"AKDOĞAN KÖYÜ","zip":"02402"},{"name":"AKKAVAK KÖYÜ","zip":"02402"},{"name":"AKKUŞ KÖYÜ","zip":"02402"},{"name":"AKPINAR MAH.","zip":"02402"},{"name":"AKTOPRAK MAH.","zip":"02402"},{"name":"ALİDAM KÖYÜ","zip":"02402"},{"name":"ARILI KÖYÜ","zip":"02402"},{"name":"ASKERAN MAH.","zip":"02402"},{"name":"ATATÜRK MAH.","zip":"02402"},{"name":"ATLI MAH.","zip":"02402"},{"name":"AVNİK MAH.","zip":"02402"},{"name":"AYDINLAR MAH.","zip":"02402"},{"name":"AYDINPINAR KÖYÜ","zip":"02402"},{"name":"BAĞBAŞI KÖYÜ","zip":"02402"},{"name":"BAĞÖZÜ KÖYÜ","zip":"02402"},{"name":"BAHÇE MAH.","zip":"02402"},{"name":"BAHIM MAH.","zip":"02402"},{"name":"BALLI KÖYÜ","zip":"02402"},{"name":"BELENLİ KÖYÜ","zip":"02402"},{"name":"BELÖREN KÖYÜ","zip":"02402"},{"name":"BEŞEVLER MAH.","zip":"02402"},{"name":"BEYPINAR MAH.","zip":"02402"},{"name":"BIRBIR MAH.","zip":"02402"},{"name":"BOĞAZKAYA KÖYÜ","zip":"02402"},{"name":"BOSTANLI KÖYÜ","zip":"02402"},{"name":"BOZPINAR KÖYÜ","zip":"02402"},{"name":"BOZTARLA KÖYÜ","zip":"02402"},{"name":"BÖLÜKYAYLA KÖYÜ","zip":"02402"},{"name":"BURMAPINAR KÖYÜ","zip":"02402"},{"name":"BÜYÜKBAĞ KÖYÜ","zip":"02402"},{"name":"BÜYÜKBEJYAN KÖYÜ","zip":"02402"},{"name":"BÜYÜKBEY KÖYÜ","zip":"02402"},{"name":"BÜYÜTME MAH.","zip":"02402"},{"name":"CUMHURİYET MAH.","zip":"02402"},{"name":"ÇAKIREŞME KÖYÜ","zip":"02402"},{"name":"ÇALTILI KÖYÜ","zip":"02402"},{"name":"ÇARDAK KÖYÜ","zip":"02402"},{"name":"ÇATALTEPE KÖYÜ","zip":"02402"},{"name":"ÇAYBAŞI KÖYÜ","zip":"02402"},{"name":"ÇEM MAH.","zip":"02402"},{"name":"ÇIRALIK KÖYÜ","zip":"02402"},{"name":"ÇİÇEK MAH.","zip":"02402"},{"name":"ÇÖRTENEK MAH.","zip":"02402"},{"name":"ÇUKURTAŞ KÖYÜ","zip":"02402"},{"name":"DALİNCE MAH.","zip":"02402"},{"name":"DAMLACIK KÖYÜ","zip":"02402"},{"name":"DAMLI MAH.","zip":"02402"},{"name":"DARBERİ MAH.","zip":"02402"},{"name":"DEREBAŞI MAH.","zip":"02402"},{"name":"DİKMETAŞ MAH.","zip":"02402"},{"name":"DİVAN MAH.","zip":"02402"},{"name":"DOLUCA KÖYÜ","zip":"02402"},{"name":"DUMANLI MAH.","zip":"02402"},{"name":"DUMLU KÖYÜ","zip":"02402"},{"name":"DUT KÖYÜ","zip":"02402"},{"name":"ECELER KÖYÜ","zip":"02402"},{"name":"EKİNCİ KÖYÜ","zip":"02402"},{"name":"ERİKDERE KÖYÜ","zip":"02402"},{"name":"ERİKLİ KÖYÜ","zip":"02402"},{"name":"ESENDERE KÖYÜ","zip":"02402"},{"name":"ESKİ KAHTA KÖYÜ","zip":"02402"},{"name":"FATİH MAH.","zip":"02402"},{"name":"FISTIKLI KÖYÜ","zip":"02402"},{"name":"GEDİK MAH.","zip":"02402"},{"name":"GÖKÇE KÖYÜ","zip":"02402"},{"name":"GÖLGELİ KÖYÜ","zip":"02402"},{"name":"GÖLLÜK MAH.","zip":"02402"},{"name":"GÖMLEK MAH.","zip":"02402"},{"name":"GÜLVEREN MAH.","zip":"02402"},{"name":"GÜMÜŞKAYA MAH.","zip":"02402"},{"name":"GÜZELÇAY KÖYÜ","zip":"02402"},{"name":"GÜZELKENT MAH.","zip":"02402"},{"name":"HABİPLER KÖYÜ","zip":"02402"},{"name":"HACERİ MAH.","zip":"02402"},{"name":"HACIYUSUF KÖYÜ","zip":"02402"},{"name":"HALİCE MAH.","zip":"02402"},{"name":"HALİFAN MAH.","zip":"02402"},{"name":"HAMZALAR KÖYÜ","zip":"02402"},{"name":"HASANDİĞİN KÖYÜ","zip":"02402"},{"name":"HİSAR MAH.","zip":"02402"},{"name":"IŞIKTEPE KÖYÜ","zip":"02402"},{"name":"İNGİRCE MAH.","zip":"02402"},{"name":"İSLAMKÖY KÖYÜ","zip":"02402"},{"name":"KAHTA OSB MAH.","zip":"02402"},{"name":"KAMIŞLI MAH.","zip":"02402"},{"name":"KANBOĞAZI MAH.","zip":"02402"},{"name":"KANGÜLÜ MAH.","zip":"02402"},{"name":"KARABAĞ MAH.","zip":"02402"},{"name":"KARACAÖREN KÖYÜ","zip":"02402"},{"name":"KARADUT KÖYÜ","zip":"02402"},{"name":"KARAGÜL MAH.","zip":"02402"},{"name":"KARAKUŞ MAH.","zip":"02402"},{"name":"KARAMAN KÖYÜ","zip":"02402"},{"name":"KARANFİL MAH.","zip":"02402"},{"name":"KARAPINAR MAH.","zip":"02402"},{"name":"KARATUT MAH.","zip":"02402"},{"name":"KAVAKLI KÖYÜ","zip":"02402"},{"name":"KAYADİBİ KÖYÜ","zip":"02402"},{"name":"KEKLİK MAH.","zip":"02402"},{"name":"KELPINAR MAH.","zip":"02402"},{"name":"KERKAH MAH.","zip":"02402"},{"name":"KINIK MAH.","zip":"02402"},{"name":"KİLİSİK MAH.","zip":"02402"},{"name":"KOÇTEPE KÖYÜ","zip":"02402"},{"name":"KOSA MAH.","zip":"02402"},{"name":"KOZAĞAÇ KÖYÜ","zip":"02402"},{"name":"KÖPRÜBAŞI MAH.","zip":"02402"},{"name":"KÖRGÜDAN MAH.","zip":"02402"},{"name":"KÖSELER KÖYÜ","zip":"02402"},{"name":"KUBİLAY MAH.","zip":"02402"},{"name":"KÜÇÜK ECELER MAH.","zip":"02402"},{"name":"MENDERES MAH.","zip":"02402"},{"name":"MEZRA MAH.","zip":"02402"},{"name":"MÜLK MAH.","zip":"02402"},{"name":"MÜLKKÖY KÖYÜ","zip":"02402"},{"name":"NARİNCE KÖYÜ","zip":"02402"},{"name":"NARLI MAH.","zip":"02402"},{"name":"NARLIDERE KÖYÜ","zip":"02402"},{"name":"NARSIRTI KÖYÜ","zip":"02402"},{"name":"ONEVLER MAH.","zip":"02402"},{"name":"ORTANCA KÖYÜ","zip":"02402"},{"name":"OSMANPINAR MAH.","zip":"02402"},{"name":"OVACIK KÖYÜ","zip":"02402"},{"name":"ÖZELEVLER MAH.","zip":"02402"},{"name":"SAKO MAH.","zip":"02402"},{"name":"SALİK MAH.","zip":"02402"},{"name":"SALKIMBAĞI KÖYÜ","zip":"02402"},{"name":"SAMANLI MAH.","zip":"02402"},{"name":"SARISU KÖYÜ","zip":"02402"},{"name":"SEKÜK MAH.","zip":"02402"},{"name":"SIRACA KÖYÜ","zip":"02402"},{"name":"SIRAKAYA KÖYÜ","zip":"02402"},{"name":"SİNKE MAH.","zip":"02402"},{"name":"SULTANMAĞARA MAH.","zip":"02402"},{"name":"SUSUZ KÖYÜ","zip":"02402"},{"name":"ŞAHİNTEPE KÖYÜ","zip":"02402"},{"name":"ŞAHİNTEPE MAH.","zip":"02402"},{"name":"ŞENKÖY KÖYÜ","zip":"02402"},{"name":"ŞİRİNEVLER MAH.","zip":"02402"},{"name":"TABAKLI MAH.","zip":"02402"},{"name":"TAŞLICA KÖYÜ","zip":"02402"},{"name":"TAŞLIÇAY KÖYÜ","zip":"02402"},{"name":"TEĞMENLİ KÖYÜ","zip":"02402"},{"name":"TEKNECİK KÖYÜ","zip":"02402"},{"name":"TEPEBAŞI MAH.","zip":"02402"},{"name":"TERZİYAN MAH.","zip":"02402"},{"name":"TİBİL MAH.","zip":"02402"},{"name":"TOPRAK MAH.","zip":"02402"},{"name":"TURANLI KÖYÜ","zip":"02402"},{"name":"TÜTENOCAK KÖYÜ","zip":"02402"},{"name":"ULUBEY MAH.","zip":"02402"},{"name":"YAPRAKLI KÖYÜ","zip":"02402"},{"name":"YASSIKAYA MAH.","zip":"02402"},{"name":"YELKOVAN KÖYÜ","zip":"02402"},{"name":"YENİCE KÖYÜ","zip":"02402"},{"name":"YENİCE MAH.","zip":"02402"},{"name":"YEŞİLTEPE MAH.","zip":"02402"},{"name":"YOLALTI KÖYÜ","zip":"02402"},{"name":"YÜKSEKYAYLA MAH.","zip":"02402"},{"name":"ZEYNAN MAH.","zip":"02402"},{"name":"ZEYTİN KÖYÜ","zip":"02402"},{"name":"ZİYARET KÖYÜ","zip":"02402"}]},{"name":"AKPINAR","cityName":null,"quarters":[{"name":"AKDERE KÖYÜ","zip":"02230"},{"name":"AKINCILAR (ÇERÇİYAN) MAH.","zip":"02230"},{"name":"AKPINAR KÖYÜ","zip":"02230"},{"name":"AKYAZI KÖYÜ","zip":"02230"},{"name":"ALTUN MAH.","zip":"02230"},{"name":"AŞAĞI GÖZE MAH.","zip":"02230"},{"name":"ATAKENT KÖYÜ","zip":"02230"},{"name":"ATATÜRK MAH.","zip":"02230"},{"name":"BALABAN MAH.","zip":"02230"},{"name":"BATTALHÜYÜK KÖYÜ","zip":"02230"},{"name":"BEBEK KÖYÜ","zip":"02230"},{"name":"BURÇ MAH.","zip":"02230"},{"name":"BÜYÜK BOYALI MAH.","zip":"02230"},{"name":"CUMHURİYET MAH.","zip":"02230"},{"name":"ÇAMGAZİ KÖYÜ","zip":"02230"},{"name":"ÇINAR MAH.","zip":"02230"},{"name":"ÇÖMLEKÇİ (BİRGENİ) MAH.","zip":"02230"},{"name":"DALUCA MAH.","zip":"02230"},{"name":"DAMLICA KÖYÜ","zip":"02230"},{"name":"DARBELİK MAH.","zip":"02230"},{"name":"DOYRAN KÖYÜ","zip":"02230"},{"name":"DURAK KÖYÜ","zip":"02230"},{"name":"EKİNCİ KÖYÜ","zip":"02230"},{"name":"ELMACIK KÖYÜ","zip":"02230"},{"name":"GÖKTAŞ (KÖRİSTAN) MAH.","zip":"02230"},{"name":"GÜMÜŞKAYA KÖYÜ","zip":"02230"},{"name":"HARABA MAH.","zip":"02230"},{"name":"ILICAK KÖYÜ","zip":"02230"},{"name":"IŞIKLI KÖYÜ","zip":"02230"},{"name":"KAMIŞLI MAH.","zip":"02230"},{"name":"KARABURÇ MAH.","zip":"02230"},{"name":"KAYALI KÖYÜ","zip":"02230"},{"name":"KILIÇLAR MAH.","zip":"02230"},{"name":"KIZILCAHÖYÜK KÖYÜ","zip":"02230"},{"name":"KUYULU KÖYÜ","zip":"02230"},{"name":"KÜÇÜK BOYALI MAH.","zip":"02230"},{"name":"KÜÇÜK KIRGI MAH.","zip":"02230"},{"name":"KÜLAFHÜYÜK KÖYÜ","zip":"02230"},{"name":"MALOĞLU MAH.","zip":"02230"},{"name":"MALPINARI KÖYÜ","zip":"02230"},{"name":"MAZLIK MAH.","zip":"02230"},{"name":"PAÇIK MAH.","zip":"02230"},{"name":"PINARBAŞI MAH.","zip":"02230"},{"name":"REŞATLI MAH.","zip":"02230"},{"name":"ŞİRAZİ MAH.","zip":"02230"},{"name":"UĞURCA KÖYÜ","zip":"02230"},{"name":"ÜÇDİREK KÖYÜ","zip":"02230"},{"name":"ÜRGÜÇ MAH.","zip":"02230"},{"name":"VALİ HALİL IŞIK MAH.","zip":"02230"},{"name":"YAYLADAMI KÖYÜ","zip":"02230"},{"name":"YENİNACAR MAH.","zip":"02230"},{"name":"YEŞİLOVA KÖYÜ","zip":"02230"},{"name":"YILDIZLI MAH.","zip":"02230"},{"name":"YUVACIK (BELİKAN) MAH.","zip":"02230"}]},{"name":"ESKİSARAY","cityName":null,"quarters":[{"name":"HOCAÖMER MAH.","zip":"02100"},{"name":"KAPCAMİ MAH.","zip":"02100"},{"name":"MUSALLA MAH.","zip":"02100"},{"name":"SIRATUT MAH.","zip":"02100"},{"name":"VARLIK MAH.","zip":"02100"},{"name":"YENİPINAR MAH.","zip":"02100"},{"name":"YUNUS EMRE MAH.","zip":"02100"}]},{"name":"İMAMAĞA","cityName":null,"quarters":[{"name":"FATİH MAH.","zip":"02200"},{"name":"İMAMAĞA MAH.","zip":"02200"},{"name":"KAYALIK MAH.","zip":"02200"},{"name":"MALAZGİRT MAH.","zip":"02200"},{"name":"MEHMET AKİF MAH.","zip":"02200"},{"name":"ÖRENLİ MAH.","zip":"02200"},{"name":"SİTELER MAH.","zip":"02200"},{"name":"TURGUT REİS MAH.","zip":"02200"},{"name":"YEŞİLYURT MAH.","zip":"02200"}]},{"name":"KÖMÜR","cityName":null,"quarters":[{"name":"CUMHURİYET MAH.","zip":"02290"}]},{"name":"KUYUCAK","cityName":null,"quarters":[{"name":"AĞİKAN KÖYÜ","zip":"02240"},{"name":"ARMUTLU (HOZİK) MAH.","zip":"02240"},{"name":"ASMALI MAH.","zip":"02240"},{"name":"BAĞTEPE MAH.","zip":"02240"},{"name":"BAHÇE MAH.","zip":"02240"},{"name":"BAHÇELİEVLER MAH.","zip":"02240"},{"name":"CUMHURİYET MAH.","zip":"02240"},{"name":"ÇAMLICA KÖYÜ","zip":"02240"},{"name":"ÇİTLİCE MAH.","zip":"02240"},{"name":"DERİNSU KÖYÜ","zip":"02240"},{"name":"ESENCE KÖYÜ","zip":"02240"},{"name":"ESENCE MAH.","zip":"02240"},{"name":"GAZİ MAH.","zip":"02240"},{"name":"GEDİK MAH.","zip":"02240"},{"name":"GISRİK MAH.","zip":"02240"},{"name":"GİRİK KÖYÜ","zip":"02240"},{"name":"GÖM MAH.","zip":"02240"},{"name":"HASANKAN MAH.","zip":"02240"},{"name":"HÜRRİYET MAH.","zip":"02240"},{"name":"KALBURCU MAH.","zip":"02240"},{"name":"KANİKÜRK MAH.","zip":"02240"},{"name":"KARAMAN (KOVUK DERESİ) MAH.","zip":"02240"},{"name":"KAŞIKLI MAH.","zip":"02240"},{"name":"KAŞKÖY KÖYÜ","zip":"02240"},{"name":"KAVAK MAH.","zip":"02240"},{"name":"KAYADİBİ KÖYÜ","zip":"02240"},{"name":"KOZAN KÖYÜ","zip":"02240"},{"name":"KÖMÜR KÖYÜ","zip":"02240"},{"name":"KUYUCAK KÖYÜ","zip":"02240"},{"name":"KÜRK MAH.","zip":"02240"},{"name":"MUSTAFA YÜCEL ÖZBİLGİN MAH.","zip":"02240"},{"name":"MUSTAFABEYLİ MAH.","zip":"02240"},{"name":"OLGUNLAR KÖYÜ","zip":"02240"},{"name":"ORMANİÇİ KÖYÜ","zip":"02240"},{"name":"PALANLI KÖYÜ","zip":"02240"},{"name":"PINARYAYLA KÖYÜ","zip":"02240"},{"name":"REZİP KÖYÜ","zip":"02240"},{"name":"SAKALLI MAH.","zip":"02240"},{"name":"SERİNTEPE MAH.","zip":"02240"},{"name":"TAŞGEDİK KÖYÜ","zip":"02240"},{"name":"TAŞOLUK (TETİKAN) MAH.","zip":"02240"},{"name":"VARLIK KÖYÜ","zip":"02240"},{"name":"YAĞLICA MAH.","zip":"02240"},{"name":"YAKACIK MAH.","zip":"02240"},{"name":"YEDİOLUK KÖYÜ","zip":"02240"},{"name":"YEŞİLYURT MAH.","zip":"02240"},{"name":"YOĞURTLU MAH.","zip":"02240"}]},{"name":"MERKEZ KÖYLER","cityName":null,"quarters":[{"name":"100.YIL KÖYÜ","zip":"02010"},{"name":"ACEMPINARI MAH.","zip":"02010"},{"name":"AFETEVLERİ MAH.","zip":"02010"},{"name":"AĞVEREN MAH.","zip":"02010"},{"name":"AHMETHOCA KÖYÜ","zip":"02010"},{"name":"AKÇALI KÖYÜ","zip":"02010"},{"name":"AKÇİK MAH.","zip":"02010"},{"name":"AKHİSAR KÖYÜ","zip":"02010"},{"name":"AKIN MAH.","zip":"02010"},{"name":"AKSU (KIR) MAH.","zip":"02010"},{"name":"AKYURT MAH.","zip":"02010"},{"name":"ALBET KÖYÜ","zip":"02010"},{"name":"ALİBEY KÖYÜ","zip":"02010"},{"name":"ALTINTOP MAH.","zip":"02010"},{"name":"ASLANOĞLU MAH.","zip":"02010"},{"name":"ATAKÖY KÖYÜ","zip":"02010"},{"name":"ATATÜRK MAH.","zip":"02010"},{"name":"AYDINLAR KÖYÜ","zip":"02010"},{"name":"B.AYRANLI MAH.","zip":"02010"},{"name":"BAĞDERE KÖYÜ","zip":"02010"},{"name":"BAĞLICA KÖYÜ","zip":"02010"},{"name":"BAĞPINAR KÖYÜ","zip":"02010"},{"name":"BAĞPINAR KUYUCAK KÖYÜ","zip":"02010"},{"name":"BARDAKÇI MAH.","zip":"02010"},{"name":"BAŞPINAR KÖYÜ","zip":"02010"},{"name":"BENAV (DARICA) MAH.","zip":"02010"},{"name":"BEYLER MAH.","zip":"02010"},{"name":"BOZATLI KÖYÜ","zip":"02010"},{"name":"BOZHÜYÜK KÖYÜ","zip":"02010"},{"name":"BOZTEPE KÖYÜ","zip":"02010"},{"name":"BÖRKENEK KÖYÜ","zip":"02010"},{"name":"BULAM MAH.","zip":"02010"},{"name":"BÜKLÜM KÖYÜ","zip":"02010"},{"name":"BÜYÜKKAVAKLI KÖYÜ","zip":"02010"},{"name":"BÜYÜKKIRIKLI KÖYÜ","zip":"02010"},{"name":"ÇAKMAKLAR KÖYÜ","zip":"02010"},{"name":"ÇAMYURDU KÖYÜ","zip":"02010"},{"name":"ÇATALAĞAÇ KÖYÜ","zip":"02010"},{"name":"ÇATDERESİ MAH.","zip":"02010"},{"name":"ÇAYIRLI KÖYÜ","zip":"02010"},{"name":"ÇAYLI (DÜDERE) MAH.","zip":"02010"},{"name":"ÇAYLI KÖYÜ","zip":"02010"},{"name":"ÇEMBERLİTAŞ KÖYÜ","zip":"02010"},{"name":"ÇINARİK KÖYÜ","zip":"02010"},{"name":"ÇİÇEK-1 MAH.","zip":"02010"},{"name":"ÇİÇEK-2 MAH.","zip":"02010"},{"name":"ÇİMENKE MAH.","zip":"02010"},{"name":"ÇOBANDEDE KÖYÜ","zip":"02010"},{"name":"ÇOKPINAR MAH.","zip":"02010"},{"name":"DAMDIRMAZ KÖYÜ","zip":"02010"},{"name":"DARDAĞAN KÖYÜ","zip":"02010"},{"name":"DAVUTHAN KÖYÜ","zip":"02010"},{"name":"DİŞBUDAK KÖYÜ","zip":"02010"},{"name":"DOĞANLI KÖYÜ","zip":"02010"},{"name":"DURUKAYNAK KÖYÜ","zip":"02010"},{"name":"DÜZAĞAÇ MAH.","zip":"02010"},{"name":"DÜZCE KÖYÜ","zip":"02010"},{"name":"ESKİHÜSNÜMANSUR KÖYÜ","zip":"02010"},{"name":"ESKİVİRAN MAH.","zip":"02010"},{"name":"GAZİHAN MAH.","zip":"02010"},{"name":"GÖKÇAY KÖYÜ","zip":"02010"},{"name":"GÖKTEPE MAH.","zip":"02010"},{"name":"GÖLPINAR KÖYÜ","zip":"02010"},{"name":"GÖMLÜTEPE MAH.","zip":"02010"},{"name":"GÖZEBAŞI KÖYÜ","zip":"02010"},{"name":"GÖZECİK (KÇ. ÇARKEZİ) MAH.","zip":"02010"},{"name":"GÖZTEPE KÖYÜ","zip":"02010"},{"name":"GÜLTEPE MAH.","zip":"02010"},{"name":"GÜNEŞLİ KÖYÜ","zip":"02010"},{"name":"GÜVENLİ MAH.","zip":"02010"},{"name":"GÜZELEVLER MAH.","zip":"02010"},{"name":"GÜZELYURT KÖYÜ","zip":"02010"},{"name":"HACIHALİL KÖYÜ","zip":"02010"},{"name":"HASANCIK KÖYÜ","zip":"02010"},{"name":"HASANKENDİ KÖYÜ","zip":"02010"},{"name":"İKİDAM MAH.","zip":"02010"},{"name":"İNCEBAĞ KÖYÜ","zip":"02010"},{"name":"İNCEKOZ MAH.","zip":"02010"},{"name":"İNCELER KÖYÜ","zip":"02010"},{"name":"İNÖNÜ MAH.","zip":"02010"},{"name":"İPEKLİ KÖYÜ","zip":"02010"},{"name":"KAMIŞLI MAH.","zip":"02010"},{"name":"KARAAĞAÇ KÖYÜ","zip":"02010"},{"name":"KARAÇALI MAH.","zip":"02010"},{"name":"KARAGÖL KÖYÜ","zip":"02010"},{"name":"KARAHÖYÜK KÖYÜ","zip":"02010"},{"name":"KARAKOÇ KÖYÜ","zip":"02010"},{"name":"KARAKÖPRÜ MAH.","zip":"02010"},{"name":"KARRUZ MAH.","zip":"02010"},{"name":"KARTİ MAH.","zip":"02010"},{"name":"KAVAK KÖYÜ","zip":"02010"},{"name":"KAYABAŞI (KAZNİ) MAH.","zip":"02010"},{"name":"KAYACIK KÖYÜ","zip":"02010"},{"name":"KAYAÖNÜ KÖYÜ","zip":"02010"},{"name":"KEMALIK MAH.","zip":"02010"},{"name":"KEMERKAYA KÖYÜ","zip":"02010"},{"name":"KERÖMER MAH.","zip":"02010"},{"name":"KINDIRALİ KÖYÜ","zip":"02010"},{"name":"KIŞLA MAH.","zip":"02010"},{"name":"KIVIRCIK MAH.","zip":"02010"},{"name":"KIZILCAPINAR KÖYÜ","zip":"02010"},{"name":"KİLİSİK MAH.","zip":"02010"},{"name":"KOÇALİ KÖYÜ","zip":"02010"},{"name":"KONAKDERE MAH.","zip":"02010"},{"name":"KORUKÖY KÖYÜ","zip":"02010"},{"name":"KORULU (MERMERE) MAH.","zip":"02010"},{"name":"KOTUR MAH.","zip":"02010"},{"name":"KÖKLÜ MAH.","zip":"02010"},{"name":"KÖKLÜ(MAMEL) MAH.","zip":"02010"},{"name":"KUMUŞDERESİ MAH.","zip":"02010"},{"name":"KUŞAKKAYA KÖYÜ","zip":"02010"},{"name":"KUŞTEPE KÖYÜ","zip":"02010"},{"name":"KÜÇÜK HACIVERT MAH.","zip":"02010"},{"name":"KÜÇÜK KAVAKLI MAH.","zip":"02010"},{"name":"KÜÇÜK KIRIKLI MAH.","zip":"02010"},{"name":"KÜÇÜKHASANCIK KÖYÜ","zip":"02010"},{"name":"KÜÇÜKKIRKLI MAH.","zip":"02010"},{"name":"LOKMAN KÖYÜ","zip":"02010"},{"name":"MADUN MAH.","zip":"02010"},{"name":"MAHMUT EL ENSARİ ZİYARETİ MAH.","zip":"02010"},{"name":"MAHMUTLU MAH.","zip":"02010"},{"name":"MALTEPE MAH.","zip":"02010"},{"name":"MERKEZ MAH.","zip":"02010"},{"name":"MESTAN KÖYÜ","zip":"02010"},{"name":"MİLLİK MAH.","zip":"02010"},{"name":"MİROĞLU MAH.","zip":"02010"},{"name":"MUTLUCA MAH.","zip":"02010"},{"name":"MÜRSEL MAH.","zip":"02010"},{"name":"NARLIK MAH.","zip":"02010"},{"name":"OLUKLU KÖYÜ","zip":"02010"},{"name":"ORDU MAH.","zip":"02010"},{"name":"ÖRÜMCE MAH.","zip":"02010"},{"name":"ÖZELEVLER MAH.","zip":"02010"},{"name":"PAMUKDERESİ MAH.","zip":"02010"},{"name":"PAŞAMEZRASI KÖYÜ","zip":"02010"},{"name":"PAYAMLI KÖYÜ","zip":"02010"},{"name":"SARIHARMAN KÖYÜ","zip":"02010"},{"name":"SARIKAYA KÖYÜ","zip":"02010"},{"name":"SERHATLI KÖYÜ","zip":"02010"},{"name":"SEYİTEVLER MAH.","zip":"02010"},{"name":"SINCIK MAH.","zip":"02010"},{"name":"ŞEMİKAN KÖYÜ","zip":"02010"},{"name":"ŞEREFLİ KÖYÜ","zip":"02010"},{"name":"ŞİFRAK (SERİNCE) MAH.","zip":"02010"},{"name":"TAKLAR MAH.","zip":"02010"},{"name":"TAŞAR MAH.","zip":"02010"},{"name":"TAŞPINAR KÖYÜ","zip":"02010"},{"name":"TECİR MAH.","zip":"02010"},{"name":"TEKPINAR KÖYÜ","zip":"02010"},{"name":"TEPEBAŞI MAH.","zip":"02010"},{"name":"TEPEÖNÜ MAH.","zip":"02010"},{"name":"TERMAN KÖYÜ","zip":"02010"},{"name":"TOPTEPE KÖYÜ","zip":"02010"},{"name":"TUNÇLAR MAH.","zip":"02010"},{"name":"TUTLUCA MAH.","zip":"02010"},{"name":"UĞURLU MAH.","zip":"02010"},{"name":"ULUBEY MAH.","zip":"02010"},{"name":"ULUDAM KÖYÜ","zip":"02010"},{"name":"UZUNKÖY KÖYÜ","zip":"02010"},{"name":"UZUNÖMER MAH.","zip":"02010"},{"name":"UZUNPINAR KÖYÜ","zip":"02010"},{"name":"VARTANA MAH.","zip":"02010"},{"name":"YARMAKAYA KÖYÜ","zip":"02010"},{"name":"YASSIHÖYÜK MAH.","zip":"02010"},{"name":"YAYLACIK MAH.","zip":"02010"},{"name":"YAYLAKONAK KÖYÜ","zip":"02010"},{"name":"YAZIBAŞI KÖYÜ","zip":"02010"},{"name":"YAZICA KÖYÜ","zip":"02010"},{"name":"YAZLIK KÖYÜ","zip":"02010"},{"name":"YENİCE KÖYÜ","zip":"02010"},{"name":"YENİGÜVEN KÖYÜ","zip":"02010"},{"name":"YENİKÖY KÖYÜ","zip":"02010"},{"name":"YENİMAH. MAH.","zip":"02010"},{"name":"YEŞİLKÖY MAH.","zip":"02010"},{"name":"ZEY KÖYÜ","zip":"02010"},{"name":"ZİVAR MAH.","zip":"02010"},{"name":"ZİYARET MAH.","zip":"02010"},{"name":"ZİYARETPAYAMLI KÖYÜ","zip":"02010"},{"name":"ZORKÖY MAH.","zip":"02010"}]},{"name":"SÜMEREVLER","cityName":null,"quarters":[{"name":"MARA MAH.","zip":"02030"},{"name":"SÜMEREVLER MAH.","zip":"02030"},{"name":"ULUCAMİ MAH.","zip":"02030"}]},{"name":"YENİSANAYİ","cityName":null,"quarters":[{"name":"BARBAROS HAYRETTİN MAH.","zip":"02040"},{"name":"ESENTEPE MAH.","zip":"02040"},{"name":"KARAPINAR MAH.","zip":"02040"},{"name":"MİMAR SİNAN MAH.","zip":"02040"},{"name":"PETROLOSB MAH.","zip":"02040"},{"name":"TÜRKİYE PETROLLERİ MAH.","zip":"02040"},{"name":"YAVUZ SELİM MAH.","zip":"02040"},{"name":"YENİ MAH.","zip":"02040"},{"name":"YENİ SANAYİ MAH.","zip":"02040"}]},{"name":"MERKEZKÖYLER","cityName":null,"quarters":[{"name":"AKDAMAR KÖYÜ","zip":"02802"},{"name":"ALTINTEPE MAH.","zip":"02802"},{"name":"BAĞARASI KÖYÜ","zip":"02802"},{"name":"BAKACAK TEPESİ MAH.","zip":"02802"},{"name":"BAŞAKLI MAH.","zip":"02802"},{"name":"BAYIRLI KÖYÜ","zip":"02802"},{"name":"BEKÇİLER MAH.","zip":"02802"},{"name":"BEKİRCİK MAH.","zip":"02802"},{"name":"ÇEŞMEBAŞI MAH.","zip":"02802"},{"name":"ÇİÇEK KÖYÜ","zip":"02802"},{"name":"ÇİLLE MAH.","zip":"02802"},{"name":"DASINCA MAH.","zip":"02802"},{"name":"DOĞANCA KÖYÜ","zip":"02802"},{"name":"DOĞANLAR MAH.","zip":"02802"},{"name":"GÖLPINAR KÖYÜ","zip":"02802"},{"name":"GÖLTARLA KÖYÜ","zip":"02802"},{"name":"GÜMÜŞSUYU MAH.","zip":"02802"},{"name":"İNCEALİ MAH.","zip":"02802"},{"name":"KEÇİÖREN MAH.","zip":"02802"},{"name":"KERGEKUŞU MAH.","zip":"02802"},{"name":"KIRAÇ MAH.","zip":"02802"},{"name":"KIRMACIK KÖYÜ","zip":"02802"},{"name":"KIZILÖZ KÖYÜ","zip":"02802"},{"name":"KOVANOLUK KÖYÜ","zip":"02802"},{"name":"KUŞTEPE KÖYÜ","zip":"02802"},{"name":"OVACIK KÖYÜ","zip":"02802"},{"name":"SARIKÖK MAH.","zip":"02802"},{"name":"SEFVANKÖY MAH.","zip":"02802"},{"name":"TAŞKUYU KÖYÜ","zip":"02802"},{"name":"TEPEÖNÜ KÖYÜ","zip":"02802"},{"name":"TOKAÇLI MAH.","zip":"02802"},{"name":"UYANIK MAH.","zip":"02802"},{"name":"UZUNTEPE KÖYÜ","zip":"02802"},{"name":"YARIMBAĞ KÖYÜ","zip":"02802"},{"name":"YEŞİLBAĞ MAH.","zip":"02802"}]},{"name":"SAMSAT","cityName":null,"quarters":[{"name":"KALE MAH.","zip":"02800"},{"name":"ÖRENTAŞ MAH.","zip":"02800"},{"name":"YAVUZ SELİM MAH.","zip":"02800"}]},{"name":"MERKEZKÖYLER","cityName":null,"quarters":[{"name":"AKDAĞ MAH.","zip":"02902"},{"name":"AKSU KÖYÜ","zip":"02902"},{"name":"ALANCIK KÖYÜ","zip":"02902"},{"name":"ARIKONAK KÖYÜ","zip":"02902"},{"name":"AYDIN MAH.","zip":"02902"},{"name":"BALKAYA KÖYÜ","zip":"02902"},{"name":"BİRİMAN MAH.","zip":"02902"},{"name":"ÇAĞLAYAN MAH.","zip":"02902"},{"name":"ÇALILIK MAH.","zip":"02902"},{"name":"ÇAMDERE KÖYÜ","zip":"02902"},{"name":"ÇARHANEK MAH.","zip":"02902"},{"name":"ÇAT KÖYÜ","zip":"02902"},{"name":"ÇAT MAH.","zip":"02902"},{"name":"ÇATBAHÇE KÖYÜ","zip":"02902"},{"name":"ÇAVÇÜK MAH.","zip":"02902"},{"name":"ÇINAR MAH.","zip":"02902"},{"name":"ÇÜKAN MAH.","zip":"02902"},{"name":"DAMLI MERKEZ MAH.","zip":"02902"},{"name":"DERECİK MEZRASI MAH.","zip":"02902"},{"name":"DERVİŞAN MAH.","zip":"02902"},{"name":"DİLEKTEPE KÖYÜ","zip":"02902"},{"name":"DÜDAN MAH.","zip":"02902"},{"name":"EKİNCİ KUTAN MAH.","zip":"02902"},{"name":"ELMIRTAN MAH.","zip":"02902"},{"name":"ESKİKÖY KÖYÜ","zip":"02902"},{"name":"FIRAT MAH.","zip":"02902"},{"name":"FIRIN MAH.","zip":"02902"},{"name":"GEÇİTLİ KÖYÜ","zip":"02902"},{"name":"GER MAH.","zip":"02902"},{"name":"GEVRİK YAĞMURLU MAH.","zip":"02902"},{"name":"GEVROL MAH.","zip":"02902"},{"name":"GOLLUSOR MAH.","zip":"02902"},{"name":"GÖV MAH.","zip":"02902"},{"name":"GÜMÜKHAN MAH.","zip":"02902"},{"name":"GÜZELSU MAH.","zip":"02902"},{"name":"HASANLI KÖYÜ","zip":"02902"},{"name":"HAYIRLI MAH.","zip":"02902"},{"name":"HAZAZ MAH.","zip":"02902"},{"name":"HESİKAN MAH.","zip":"02902"},{"name":"HİJİK MAH.","zip":"02902"},{"name":"HODRİ MAH.","zip":"02902"},{"name":"HÜRMER MAH.","zip":"02902"},{"name":"HÜSEYİNLİ KÖYÜ","zip":"02902"},{"name":"İNLİCE KÖYÜ","zip":"02902"},{"name":"KARADAĞ MAH.","zip":"02902"},{"name":"KARAKAYA MAH.","zip":"02902"},{"name":"KARAKÖSE KÖYÜ","zip":"02902"},{"name":"KASKANLI MAH.","zip":"02902"},{"name":"KOCAGAZİ MEZRASI MAH.","zip":"02902"},{"name":"KÜÇÜK EVLER MAH.","zip":"02902"},{"name":"KÜÇÜKÇAY MAH.","zip":"02902"},{"name":"KÜPLÜCE MAH.","zip":"02902"},{"name":"KÜRELİFAN MAH.","zip":"02902"},{"name":"KÜSRAN MAH.","zip":"02902"},{"name":"MENGİL MAH.","zip":"02902"},{"name":"NARLI KÖYÜ","zip":"02902"},{"name":"ÖZBİLGİN MAH.","zip":"02902"},{"name":"PINARBAŞI KÖYÜ","zip":"02902"},{"name":"REZAN SAĞLAM MAH.","zip":"02902"},{"name":"SAKIZ KÖYÜ","zip":"02902"},{"name":"SENGER ÇÖMLEK MAH.","zip":"02902"},{"name":"SENGER MAH.","zip":"02902"},{"name":"SERBENT MAH.","zip":"02902"},{"name":"SERİNCE KÖYÜ","zip":"02902"},{"name":"SOĞANLI MAH.","zip":"02902"},{"name":"SORUT MAH.","zip":"02902"},{"name":"SÖĞÜTLÜBAHÇE KÖYÜ","zip":"02902"},{"name":"SUBAŞI KÖYÜ","zip":"02902"},{"name":"ŞAHİNBEYLER KÖYÜ","zip":"02902"},{"name":"ŞAHİNTEPE MAH.","zip":"02902"},{"name":"ŞAHKOLU KÖYÜ","zip":"02902"},{"name":"ŞAMLÜK KALIMLI MAH.","zip":"02902"},{"name":"TAŞKALE KÖYÜ","zip":"02902"},{"name":"TAŞLICA MAH.","zip":"02902"},{"name":"TEPEBAŞI MAH.","zip":"02902"},{"name":"TİŞİK MAH.","zip":"02902"},{"name":"TOKLUCA MAH.","zip":"02902"},{"name":"TUNA MAH.","zip":"02902"},{"name":"TURMUŞAN MAH.","zip":"02902"},{"name":"TUZİK MAH.","zip":"02902"},{"name":"UĞURLU KÖYÜ","zip":"02902"},{"name":"YANIKKAYA MAH.","zip":"02902"},{"name":"YARPUZLU KÖYÜ","zip":"02902"},{"name":"YASSIKAYA MAH.","zip":"02902"},{"name":"YAYLA EVLERİ MAH.","zip":"02902"},{"name":"YAYLABAŞI MAH.","zip":"02902"},{"name":"YÜKSEKOVA MAH.","zip":"02902"},{"name":"ZEVİSİMİLAN MAH.","zip":"02902"}]},{"name":"SİNCİK","cityName":null,"quarters":[{"name":"CUMHURİYET MAH.","zip":"02900"},{"name":"FATİH MAH.","zip":"02900"},{"name":"KARAMAN MAH.","zip":"02900"},{"name":"MAHMUTOĞLU MAH.","zip":"02900"},{"name":"ONUR MAH.","zip":"02900"},{"name":"ZEYNEL ASLAN MAH.","zip":"02900"}]},{"name":"MERKEZKÖYLER","cityName":null,"quarters":[{"name":"AKÇATEPE KÖYÜ","zip":"02352"},{"name":"BOYUNDERE KÖYÜ","zip":"02352"},{"name":"ÇİFTLİK KÖYÜ","zip":"02352"},{"name":"ELÇİLER KÖYÜ","zip":"02352"},{"name":"HAVUTLU KÖYÜ","zip":"02352"},{"name":"KAŞLICA KÖYÜ","zip":"02352"},{"name":"KILLILI MAH.","zip":"02352"},{"name":"KÖSELİ KÖYÜ","zip":"02352"},{"name":"MERYEMUŞAĞI KÖYÜ","zip":"02352"},{"name":"ÖĞÜTLÜ KÖYÜ","zip":"02352"},{"name":"PAMUKLU MAH.","zip":"02352"},{"name":"PINARLI MAH.","zip":"02352"},{"name":"SÜLMEN MAH.","zip":"02352"},{"name":"TEPECİK KÖYÜ","zip":"02352"},{"name":"ÜNLÜCE KÖYÜ","zip":"02352"},{"name":"YALANKOZ KÖYÜ","zip":"02352"},{"name":"YAYLIMLI KÖYÜ","zip":"02352"},{"name":"YEŞİLYAMAÇ MAH.","zip":"02352"},{"name":"YEŞİLYURT KÖYÜ","zip":"02352"}]},{"name":"TUT","cityName":null,"quarters":[{"name":"BULANIK MAH.","zip":"02350"},{"name":"CUMHURİYET MAH.","zip":"02350"},{"name":"ÇAMLICA MAH.","zip":"02350"},{"name":"FETHİYE MAH.","zip":"02350"},{"name":"REŞADİYE MAH.","zip":"02350"},{"name":"SALAH MAH.","zip":"02350"}]}]}]}