{"id":20,"name":"DENİZLİ","cities":[{"name":"city","districts":[{"name":"ACIPAYAM","cityName":null,"quarters":[{"name":"ALCI MAH.","zip":"20800"},{"name":"ALİVEREN MAH.","zip":"20800"},{"name":"APA MAH.","zip":"20800"},{"name":"AŞAĞI MAH.","zip":"20800"},{"name":"BADEMLİ MAH.","zip":"20800"},{"name":"BEDİRBEY MAH.","zip":"20800"},{"name":"BENLİK MAH.","zip":"20800"},{"name":"BOĞAZDERE MAH.","zip":"20800"},{"name":"CORUM MAH.","zip":"20800"},{"name":"ÇAKIR MAH.","zip":"20800"},{"name":"ÇAMLIK MAH.","zip":"20800"},{"name":"ÇİFTLİK MAH.","zip":"20800"},{"name":"ÇUBUKÇULAR MAH.","zip":"20800"},{"name":"DARIVEREN MAH.","zip":"20800"},{"name":"DEDEBAĞI MAH.","zip":"20800"},{"name":"DODURGA MAH.","zip":"20800"},{"name":"ESKİKÖY MAH.","zip":"20800"},{"name":"GEDİKLİ MAH.","zip":"20800"},{"name":"GÖLCÜK MAH.","zip":"20800"},{"name":"GÜMÜŞ MAH.","zip":"20800"},{"name":"GÜNEY MAH.","zip":"20800"},{"name":"HACIKURTLAR MAH.","zip":"20800"},{"name":"HİSAR MAH.","zip":"20800"},{"name":"KARAHÜYÜK MAH.","zip":"20800"},{"name":"KARAHÜYÜKAFŞARI MAH.","zip":"20800"},{"name":"KARAİSMAİLLER MAH.","zip":"20800"},{"name":"KELEKÇİ MAH.","zip":"20800"},{"name":"KIRCA MAH.","zip":"20800"},{"name":"KÖKE MAH.","zip":"20800"},{"name":"KUMAFŞARI MAH.","zip":"20800"},{"name":"KURTLAR MAH.","zip":"20800"},{"name":"KUYUCAK MAH.","zip":"20800"},{"name":"KUZÖREN MAH.","zip":"20800"},{"name":"MEVLÜTLER MAH.","zip":"20800"},{"name":"OĞUZ MAH.","zip":"20800"},{"name":"OLUKBAŞI MAH.","zip":"20800"},{"name":"OVAYURT MAH.","zip":"20800"},{"name":"ÖREN MAH.","zip":"20800"},{"name":"PINARBAŞI MAH.","zip":"20800"},{"name":"PINARYAZI MAH.","zip":"20800"},{"name":"SANDALCIK MAH.","zip":"20800"},{"name":"SIRÇALIK MAH.","zip":"20800"},{"name":"SUÇATI MAH.","zip":"20800"},{"name":"UCARI MAH.","zip":"20800"},{"name":"YASSIHÜYÜK MAH.","zip":"20800"},{"name":"YAZIR MAH.","zip":"20800"},{"name":"YENİ MAH.","zip":"20800"},{"name":"YENİKÖY MAH.","zip":"20800"},{"name":"YEŞİLDERE MAH.","zip":"20800"},{"name":"YEŞİLYUVA MAH.","zip":"20800"},{"name":"YOLÇATI MAH.","zip":"20800"},{"name":"YUKARI MAH.","zip":"20800"},{"name":"YUMRUTAŞ MAH.","zip":"20800"}]},{"name":"BABADAĞ","cityName":null,"quarters":[{"name":"BEKİRLER MAH.","zip":"20480"},{"name":"CUMHURİYET MAH.","zip":"20480"},{"name":"DEMİRLİ MAH.","zip":"20480"},{"name":"GAZİ MAH.","zip":"20480"},{"name":"GÜNDOĞDU MAH.","zip":"20480"},{"name":"İNCİLİPINAR MAH.","zip":"20480"},{"name":"KELLECİ MAH.","zip":"20480"},{"name":"KIRANYER MAH.","zip":"20480"},{"name":"MOLLAAHMET MAH.","zip":"20480"},{"name":"OĞUZLAR MAH.","zip":"20480"},{"name":"YENİKÖY MAH.","zip":"20480"}]},{"name":"BAKLAN","cityName":null,"quarters":[{"name":"BEYELLİ MAH.","zip":"20770"},{"name":"BOĞAZİÇİ MAH.","zip":"20770"},{"name":"ÇATALOBA MAH.","zip":"20770"},{"name":"DAĞAL MAH.","zip":"20770"},{"name":"GÖKPINAR MAH.","zip":"20770"},{"name":"GÜRLÜK MAH.","zip":"20770"},{"name":"HADİM MAH.","zip":"20770"},{"name":"HÜSAMETTİN DEDE MAH.","zip":"20770"},{"name":"İCİKLİ MAH.","zip":"20770"},{"name":"KAVAKLAR MAH.","zip":"20770"},{"name":"KİRAZLI MAH.","zip":"20770"},{"name":"KONAK MAH.","zip":"20770"},{"name":"ŞENYAYLA MAH.","zip":"20770"}]},{"name":"BEKİLLİ","cityName":null,"quarters":[{"name":"BÜKRÜCE MAH.","zip":"20930"},{"name":"ÇAMKÖY MAH.","zip":"20930"},{"name":"ÇOĞAŞLI MAH.","zip":"20930"},{"name":"DEŞDEMİR MAH.","zip":"20930"},{"name":"EKİZBABA MAH.","zip":"20930"},{"name":"GÖMCE MAH.","zip":"20930"},{"name":"KÖSELLİ MAH.","zip":"20930"},{"name":"KUTLUBEY MAH.","zip":"20930"},{"name":"POYRAZLI MAH.","zip":"20930"},{"name":"SIRIKLI MAH.","zip":"20930"},{"name":"ÜÇKUYU MAH.","zip":"20930"},{"name":"YAHYALAR MAH.","zip":"20930"},{"name":"YENİ MAH.","zip":"20930"},{"name":"YEŞİLOBA MAH.","zip":"20930"}]},{"name":"BEYAĞAÇ","cityName":null,"quarters":[{"name":"ÇAMLIK MAH.","zip":"20590"},{"name":"EŞENLER MAH.","zip":"20590"},{"name":"FATİH MAH.","zip":"20590"},{"name":"GERİÇAM MAH.","zip":"20590"},{"name":"HÜRRİYET MAH.","zip":"20590"},{"name":"KAPUZ MAH.","zip":"20590"},{"name":"KIZILCAAĞAÇ MAH.","zip":"20590"},{"name":"PINARÖNÜ MAH.","zip":"20590"},{"name":"SAZAK MAH.","zip":"20590"},{"name":"SUBAŞI MAH.","zip":"20590"},{"name":"UZUNOLUK MAH.","zip":"20590"},{"name":"YENİ MAH.","zip":"20590"},{"name":"YENİÇEŞME MAH.","zip":"20590"},{"name":"ZAFER MAH.","zip":"20590"}]},{"name":"BOZKURT","cityName":null,"quarters":[{"name":"ARMUTALANI MAH.","zip":"20370"},{"name":"AVDAN MAH.","zip":"20370"},{"name":"BAKLANKUYUCAK MAH.","zip":"20370"},{"name":"BARBAROS MAH.","zip":"20370"},{"name":"BAŞÇEŞME MAH.","zip":"20370"},{"name":"CUMALI MAH.","zip":"20370"},{"name":"ÇAMBAŞI MAH.","zip":"20370"},{"name":"FATİH MAH.","zip":"20370"},{"name":"HAMDİYE MAH.","zip":"20370"},{"name":"HAYRETTİNKÖY MAH.","zip":"20370"},{"name":"İNCELER MAH.","zip":"20370"},{"name":"İNCELERTEKKESİ MAH.","zip":"20370"},{"name":"MAHMUDİYE MAH.","zip":"20370"},{"name":"MECİDİYE MAH.","zip":"20370"},{"name":"MEHMETÇİK MAH.","zip":"20370"},{"name":"MİMAR SİNAN MAH.","zip":"20370"},{"name":"SAZKÖY MAH.","zip":"20370"},{"name":"TUTLUCA MAH.","zip":"20370"},{"name":"YENİBAĞLAR MAH.","zip":"20370"}]},{"name":"BULDAN","cityName":null,"quarters":[{"name":"ALACAOĞLU MAH.","zip":"20400"},{"name":"ALANDIZ MAH.","zip":"20400"},{"name":"BEYLER MAH.","zip":"20400"},{"name":"BOĞAZÇİFTLİK MAH.","zip":"20400"},{"name":"BOSTANYERİ MAH.","zip":"20400"},{"name":"BOZALAN MAH.","zip":"20400"},{"name":"BÖLMEKAYA MAH.","zip":"20400"},{"name":"BURSA MAH.","zip":"20400"},{"name":"CUMHURİYET MAH.","zip":"20400"},{"name":"ÇAMKÖY MAH.","zip":"20400"},{"name":"ÇARŞI MAH.","zip":"20400"},{"name":"ÇATAK MAH.","zip":"20400"},{"name":"ÇAYBAŞI MAH.","zip":"20400"},{"name":"DERBENT MAH.","zip":"20400"},{"name":"DIMBAZLAR MAH.","zip":"20400"},{"name":"DOĞAN MAH.","zip":"20400"},{"name":"DÖRT EYLÜL MAH.","zip":"20400"},{"name":"DÜZALAN MAH.","zip":"20400"},{"name":"GİRNE MAH.","zip":"20400"},{"name":"GÖLBAŞI MAH.","zip":"20400"},{"name":"GÜLALAN MAH.","zip":"20400"},{"name":"GÜROLUK MAH.","zip":"20400"},{"name":"HASANBEYLER MAH.","zip":"20400"},{"name":"HELVACILAR MAH.","zip":"20400"},{"name":"KADIKÖY MAH.","zip":"20400"},{"name":"KARAKÖY MAH.","zip":"20400"},{"name":"KARŞIYAKA MAH.","zip":"20400"},{"name":"KAŞIKCI MAH.","zip":"20400"},{"name":"KIRANDAMI MAH.","zip":"20400"},{"name":"KOVANOLUK MAH.","zip":"20400"},{"name":"KURTULUŞ MAH.","zip":"20400"},{"name":"KURUDERE MAH.","zip":"20400"},{"name":"MAHMUTLU MAH.","zip":"20400"},{"name":"OĞUZ MAH.","zip":"20400"},{"name":"SARIMAHMUTLU MAH.","zip":"20400"},{"name":"SÜLEYMANLI MAH.","zip":"20400"},{"name":"TURAN MAH.","zip":"20400"},{"name":"TÜRLÜBEY MAH.","zip":"20400"},{"name":"YALÇINKAYA MAH.","zip":"20400"},{"name":"YAYLA MAH.","zip":"20400"},{"name":"YENİ MAH.","zip":"20400"},{"name":"YENİCEKENT MAH.","zip":"20400"},{"name":"YENİÇAM MAH.","zip":"20400"},{"name":"YEŞİL DERE MAH.","zip":"20400"}]},{"name":"ÇAL","cityName":null,"quarters":[{"name":"ALFAKLAR MAH.","zip":"20700"},{"name":"AŞAĞISEYİT MAH.","zip":"20700"},{"name":"BAHADINLAR MAH.","zip":"20700"},{"name":"BAKLANÇAKIRLAR MAH.","zip":"20700"},{"name":"BAYIRALAN MAH.","zip":"20700"},{"name":"BELEVİ MAH.","zip":"20700"},{"name":"ÇALÇAKIRLAR MAH.","zip":"20700"},{"name":"ÇALKUYUCAK MAH.","zip":"20700"},{"name":"DAĞMARMARA MAH.","zip":"20700"},{"name":"DAYILAR MAH.","zip":"20700"},{"name":"DENİZLER MAH.","zip":"20700"},{"name":"DEVELLER MAH.","zip":"20700"},{"name":"GELİNÖREN MAH.","zip":"20700"},{"name":"HANÇALAR MAH.","zip":"20700"},{"name":"HÜSEYİNLER MAH.","zip":"20700"},{"name":"İSABEY MAH.","zip":"20700"},{"name":"İSMAİLLER MAH.","zip":"20700"},{"name":"KABALAR MAH.","zip":"20700"},{"name":"KAPLANLAR MAH.","zip":"20700"},{"name":"KARAKAYA MAH.","zip":"20700"},{"name":"KARAPINAR MAH.","zip":"20700"},{"name":"KOCAKÖY MAH.","zip":"20700"},{"name":"MAHMUTGAZİ MAH.","zip":"20700"},{"name":"ORTAKÖY MAH.","zip":"20700"},{"name":"PEYNİRCİLER MAH.","zip":"20700"},{"name":"SAKIZCILAR MAH.","zip":"20700"},{"name":"SAZAK MAH.","zip":"20700"},{"name":"SELCEN MAH.","zip":"20700"},{"name":"SÜLLER MAH.","zip":"20700"},{"name":"ŞAPCILAR MAH.","zip":"20700"},{"name":"YAZIR MAH.","zip":"20700"},{"name":"YEŞİLYURT MAH.","zip":"20700"},{"name":"YUKARISEYİT MAH.","zip":"20700"}]},{"name":"ÇAMELİ","cityName":null,"quarters":[{"name":"ARIKAYA MAH.","zip":"20980"},{"name":"AYVACIK MAH.","zip":"20980"},{"name":"BELEVİ MAH.","zip":"20980"},{"name":"BIÇAKÇI MAH.","zip":"20980"},{"name":"CEVİZLİ MAH.","zip":"20980"},{"name":"CUMAALANI MAH.","zip":"20980"},{"name":"ÇAMLIBEL MAH.","zip":"20980"},{"name":"ÇİĞDEMLİ MAH.","zip":"20980"},{"name":"ELMALI MAH.","zip":"20980"},{"name":"EMECİK MAH.","zip":"20980"},{"name":"ERİCEK MAH.","zip":"20980"},{"name":"GÖKÇEYAKA MAH.","zip":"20980"},{"name":"GÜRSU MAH.","zip":"20980"},{"name":"GÜZELYURT MAH.","zip":"20980"},{"name":"İMAMLAR MAH.","zip":"20980"},{"name":"KALINKOZ MAH.","zip":"20980"},{"name":"KARABAYIR MAH.","zip":"20980"},{"name":"KINIKYERİ MAH.","zip":"20980"},{"name":"KIZILYAKA MAH.","zip":"20980"},{"name":"KİRAZLIYAYLA MAH.","zip":"20980"},{"name":"KOCAOVA MAH.","zip":"20980"},{"name":"KOLAK MAH.","zip":"20980"},{"name":"SARIKAVAK MAH.","zip":"20980"},{"name":"SOFULAR MAH.","zip":"20980"},{"name":"TAŞÇILAR MAH.","zip":"20980"},{"name":"YAYLAPINAR MAH.","zip":"20980"},{"name":"YENİ MAH.","zip":"20980"},{"name":"YEŞİLYAYLA MAH.","zip":"20980"},{"name":"YUMRUTAŞ MAH.","zip":"20980"},{"name":"YUNUSPINARI MAH.","zip":"20980"}]},{"name":"ÇARDAK","cityName":null,"quarters":[{"name":"BAHÇELİEVLER MAH.","zip":"20350"},{"name":"BEYLERLİ MAH.","zip":"20350"},{"name":"CUMHURİYET MAH.","zip":"20350"},{"name":"CUMHURİYET SB MAH.","zip":"20350"},{"name":"ÇALTI MAH.","zip":"20350"},{"name":"ÇARDAK ÖZDEMİR SABANCI OSB MAH.","zip":"20350"},{"name":"ÇINAR MAH.","zip":"20350"},{"name":"GEMİŞLİ MAH.","zip":"20350"},{"name":"GEMİŞPINARI MAH.","zip":"20350"},{"name":"GÖLCÜK MAH.","zip":"20350"},{"name":"HAYRİYE MAH.","zip":"20350"},{"name":"HÜRRİYET MAH.","zip":"20350"},{"name":"İSTİKLAL MAH.","zip":"20350"},{"name":"SARAY MAH.","zip":"20350"},{"name":"SÖĞÜTLÜ MAH.","zip":"20350"},{"name":"SÖĞÜTÖZÜ MAH.","zip":"20350"}]},{"name":"ÇİVRİL","cityName":null,"quarters":[{"name":"AKPINAR MAH.","zip":"20600"},{"name":"AKTAŞ MAH.","zip":"20600"},{"name":"AŞAĞI MAH.","zip":"20600"},{"name":"BAYAT MAH.","zip":"20600"},{"name":"BEKİRLİ MAH.","zip":"20600"},{"name":"BELENCE MAH.","zip":"20600"},{"name":"BEYDİLLİ MAH.","zip":"20600"},{"name":"BEYKÖY MAH.","zip":"20600"},{"name":"BOZDAĞ MAH.","zip":"20600"},{"name":"BUCAK MAH.","zip":"20600"},{"name":"BULGURLAR MAH.","zip":"20600"},{"name":"CABAR MAH.","zip":"20600"},{"name":"CUMALAR MAH.","zip":"20600"},{"name":"ÇAĞLAYAN MAH.","zip":"20600"},{"name":"ÇAKALLAR MAH.","zip":"20600"},{"name":"ÇANDIR MAH.","zip":"20600"},{"name":"ÇAPAK MAH.","zip":"20600"},{"name":"ÇARŞI MAH.","zip":"20600"},{"name":"ÇATLAR MAH.","zip":"20600"},{"name":"ÇAYIR MAH.","zip":"20600"},{"name":"ÇETİNLER MAH.","zip":"20600"},{"name":"ÇITAK MAH.","zip":"20600"},{"name":"DÜZBEL MAH.","zip":"20600"},{"name":"EMİRHİSAR MAH.","zip":"20600"},{"name":"GÖKGÖL MAH.","zip":"20600"},{"name":"GÜMÜŞSU MAH.","zip":"20600"},{"name":"GÜRPINAR MAH.","zip":"20600"},{"name":"HAMAM MAH.","zip":"20600"},{"name":"HAYDAN MAH.","zip":"20600"},{"name":"IRGILLI MAH.","zip":"20600"},{"name":"IŞIKLI MAH.","zip":"20600"},{"name":"İĞDİR MAH.","zip":"20600"},{"name":"İMRALLI MAH.","zip":"20600"},{"name":"İNCEKÖY MAH.","zip":"20600"},{"name":"İSHAKLI MAH.","zip":"20600"},{"name":"KARABEDİRLER MAH.","zip":"20600"},{"name":"KARAHACILI MAH.","zip":"20600"},{"name":"KARALAR MAH.","zip":"20600"},{"name":"KARAMANLI MAH.","zip":"20600"},{"name":"KARAYAHŞİLER MAH.","zip":"20600"},{"name":"KAVAKALANI MAH.","zip":"20600"},{"name":"KAVAKKÖY MAH.","zip":"20600"},{"name":"KIRALAN MAH.","zip":"20600"},{"name":"KIZILCASÖĞÜT MAH.","zip":"20600"},{"name":"KIZILCAYER MAH.","zip":"20600"},{"name":"KOCAYAKA MAH.","zip":"20600"},{"name":"KOÇAK MAH.","zip":"20600"},{"name":"MENTEŞ MAH.","zip":"20600"},{"name":"OSMANKÖY MAH.","zip":"20600"},{"name":"ÖMERLİ MAH.","zip":"20600"},{"name":"ÖZDEMİRCİ MAH.","zip":"20600"},{"name":"REŞADİYE MAH.","zip":"20600"},{"name":"SARAY MAH.","zip":"20600"},{"name":"SARIBEYLİ MAH.","zip":"20600"},{"name":"SARILAR MAH.","zip":"20600"},{"name":"SAVRAN MAH.","zip":"20600"},{"name":"SERASERLİ MAH.","zip":"20600"},{"name":"SOMAK MAH.","zip":"20600"},{"name":"SÖKMEN MAH.","zip":"20600"},{"name":"STADYUM MAH.","zip":"20600"},{"name":"SUNDURLU MAH.","zip":"20600"},{"name":"SÜNGÜLLÜ MAH.","zip":"20600"},{"name":"ŞEHİTLER MAH.","zip":"20600"},{"name":"ŞENKÖY MAH.","zip":"20600"},{"name":"TEKKE MAH.","zip":"20600"},{"name":"TOKÇA MAH.","zip":"20600"},{"name":"TUĞLU MAH.","zip":"20600"},{"name":"YAHYALI MAH.","zip":"20600"},{"name":"YAKACIK MAH.","zip":"20600"},{"name":"YALINLI MAH.","zip":"20600"},{"name":"YAMANLAR MAH.","zip":"20600"},{"name":"YASSIHÜYÜK MAH.","zip":"20600"},{"name":"YUKARI ÇAPAK MAH.","zip":"20600"},{"name":"YUKARI MAH.","zip":"20600"},{"name":"YUVAKÖY MAH.","zip":"20600"}]},{"name":"GÜNEY","cityName":null,"quarters":[{"name":"AŞAĞIÇEŞME MAH.","zip":"20460"},{"name":"AYDOĞDU MAH.","zip":"20460"},{"name":"CİNDERE MAH.","zip":"20460"},{"name":"ÇAMRAK MAH.","zip":"20460"},{"name":"ÇORBACILAR MAH.","zip":"20460"},{"name":"DOĞANLI MAH.","zip":"20460"},{"name":"ERTUĞRUL MAH.","zip":"20460"},{"name":"EZİLER MAH.","zip":"20460"},{"name":"FATİH MAH.","zip":"20460"},{"name":"HAMİDİYE MAH.","zip":"20460"},{"name":"HAYLAMAZ MAH.","zip":"20460"},{"name":"KARAAĞAÇLI MAH.","zip":"20460"},{"name":"KARAGÖZLER MAH.","zip":"20460"},{"name":"KERİMLER MAH.","zip":"20460"},{"name":"KOPARAN MAH.","zip":"20460"},{"name":"ORTA MAH.","zip":"20460"},{"name":"ORTAÇEŞME MAH.","zip":"20460"},{"name":"PARMAKSIZLAR MAH.","zip":"20460"},{"name":"TİLKİLİK MAH.","zip":"20460"},{"name":"ÜÇ EYLÜL MAH.","zip":"20460"},{"name":"YAĞCILAR MAH.","zip":"20460"},{"name":"YENİ MAH.","zip":"20460"},{"name":"YENİKONAK MAH.","zip":"20460"}]},{"name":"HONAZ","cityName":null,"quarters":[{"name":"AKBAŞ MAH.","zip":"20330"},{"name":"AŞAĞIDAĞDERE MAH.","zip":"20330"},{"name":"AYDINLAR MAH.","zip":"20330"},{"name":"CUMHURİYET MAH.","zip":"20330"},{"name":"DENİZLİ OSB MAH.","zip":"20330"},{"name":"DEREÇİFTLİK MAH.","zip":"20330"},{"name":"EMİRAZİZLİ MAH.","zip":"20330"},{"name":"GÜRLEYİK MAH.","zip":"20330"},{"name":"HAYDAR MAH.","zip":"20330"},{"name":"HİSAR MAH.","zip":"20330"},{"name":"HÜRRİYET MAH.","zip":"20330"},{"name":"KAKLIK MAH.","zip":"20330"},{"name":"KARAÇAY MAH.","zip":"20330"},{"name":"KARATEKE MAH.","zip":"20330"},{"name":"KIZILYER MAH.","zip":"20330"},{"name":"KOCABAŞ MAH.","zip":"20330"},{"name":"MENTEŞE MAH.","zip":"20330"},{"name":"OVACIK MAH.","zip":"20330"},{"name":"SAPACA MAH.","zip":"20330"},{"name":"YENİ MAH.","zip":"20330"},{"name":"YOKUŞBAŞI MAH.","zip":"20330"},{"name":"YUKARIDAĞDERE MAH.","zip":"20330"}]},{"name":"KALE","cityName":null,"quarters":[{"name":"ALANYURT MAH.","zip":"20570"},{"name":"BELENKÖY MAH.","zip":"20570"},{"name":"CEVHERPAŞA MAH.","zip":"20570"},{"name":"CUMHURİYET MAH.","zip":"20570"},{"name":"ÇAKIRBAĞ MAH.","zip":"20570"},{"name":"ÇAMLARCA MAH.","zip":"20570"},{"name":"DEMİRCİLER MAH.","zip":"20570"},{"name":"DOĞANKÖY MAH.","zip":"20570"},{"name":"ESENKAYA MAH.","zip":"20570"},{"name":"GÖKÇEÖREN MAH.","zip":"20570"},{"name":"GÖLBAŞI MAH.","zip":"20570"},{"name":"GÜLBAĞLIK MAH.","zip":"20570"},{"name":"HABİPLER MAH.","zip":"20570"},{"name":"HÜRRİYET MAH.","zip":"20570"},{"name":"İNCEĞİZ MAH.","zip":"20570"},{"name":"KARAKÖY MAH.","zip":"20570"},{"name":"KARAYAYLA MAH.","zip":"20570"},{"name":"KAYABAŞI MAH.","zip":"20570"},{"name":"KIRKÖY MAH.","zip":"20570"},{"name":"KOÇARBOĞAZI MAH.","zip":"20570"},{"name":"KÖPRÜBAŞI MAH.","zip":"20570"},{"name":"KÜNAR MAH.","zip":"20570"},{"name":"MUSLUGÜME MAH.","zip":"20570"},{"name":"NARLI MAH.","zip":"20570"},{"name":"ORTAKÖY MAH.","zip":"20570"},{"name":"ORTATEPE MAH.","zip":"20570"},{"name":"ÖZLÜCE MAH.","zip":"20570"},{"name":"TOKİ MAH.","zip":"20570"},{"name":"ULUÇAM MAH.","zip":"20570"},{"name":"YENİDERE MAH.","zip":"20570"},{"name":"YENİKÖY MAH.","zip":"20570"}]},{"name":"ADALET","cityName":null,"quarters":[{"name":"BAHÇELİEVLER MAH.","zip":"20040"},{"name":"BARUTÇULAR MAH.","zip":"20040"},{"name":"BEREKETLER MAH.","zip":"20040"},{"name":"GERZELE MAH.","zip":"20040"},{"name":"HİSAR MAH.","zip":"20040"},{"name":"KADILAR MAH.","zip":"20040"},{"name":"SERVERGAZİ MAH.","zip":"20040"},{"name":"ŞİRİNKÖY MAH.","zip":"20040"},{"name":"YENİŞEHİR MAH.","zip":"20040"}]},{"name":"GÜMÜŞLER","cityName":null,"quarters":[{"name":"GÜLTEPE MAH.","zip":"20030"},{"name":"GÜMÜŞÇAY MAH.","zip":"20030"},{"name":"KAYALAR MAH.","zip":"20030"},{"name":"MEHMET AKİF ERSOY MAH.","zip":"20030"},{"name":"SELÇUK BEY MAH.","zip":"20030"},{"name":"ŞEMİKLER MAH.","zip":"20030"},{"name":"YENİ MAH.","zip":"20030"},{"name":"YENİŞAFAK MAH.","zip":"20030"}]},{"name":"SARAYLAR","cityName":null,"quarters":[{"name":"ALTINTOP MAH.","zip":"20010"},{"name":"DEĞİRMENÖNÜ MAH.","zip":"20010"},{"name":"İLBADE MAH.","zip":"20010"},{"name":"KARAMAN MAH.","zip":"20010"},{"name":"MERKEZ EFENDI MAH.","zip":"20010"},{"name":"MURATDEDE MAH.","zip":"20010"},{"name":"SARAYLAR MAH.","zip":"20010"},{"name":"SIRAKAPILAR MAH.","zip":"20010"}]},{"name":"SÜMER","cityName":null,"quarters":[{"name":"BOZBURUN MAH.","zip":"20020"},{"name":"ESKİHİSAR MAH.","zip":"20020"},{"name":"KUMKISIK MAH.","zip":"20020"},{"name":"SEVİNDİK MAH.","zip":"20020"},{"name":"SÜMER MAH.","zip":"20020"},{"name":"ZAFER MAH.","zip":"20020"}]},{"name":"ÜÇLER","cityName":null,"quarters":[{"name":"ALTINDERE MAH.","zip":"20050"},{"name":"BARBAROS MAH.","zip":"20050"},{"name":"BAŞKARCI MAH.","zip":"20050"},{"name":"ÇAKMAK MAH.","zip":"20050"},{"name":"GÖVEÇLİK MAH.","zip":"20050"},{"name":"HACIEYÜPLÜ MAH.","zip":"20050"},{"name":"HALLAÇLAR MAH.","zip":"20050"},{"name":"KARAHASANLI MAH.","zip":"20050"},{"name":"SARUHAN MAH.","zip":"20050"},{"name":"YEŞİLYAYLA MAH.","zip":"20050"}]},{"name":"ÜZERLİK","cityName":null,"quarters":[{"name":"ÇELTİKÇİ MAH.","zip":"20060"},{"name":"SALİHAĞA MAH.","zip":"20060"},{"name":"ÜZERLİK MAH.","zip":"20060"}]},{"name":"AKKÖY","cityName":null,"quarters":[{"name":"AKKÖY MAH.","zip":"20260"},{"name":"ATATÜRK MAH.","zip":"20260"},{"name":"AZİZİYE MAH.","zip":"20260"},{"name":"ÇERKEZ MAH.","zip":"20260"},{"name":"KARAHAYIT MAH.","zip":"20260"},{"name":"MAHMUT SÖNMEZ MAH.","zip":"20260"},{"name":"OĞUZ MAH.","zip":"20260"},{"name":"PAMUKKALE MAH.","zip":"20260"},{"name":"SAMİ TÜREL MAH.","zip":"20260"},{"name":"YENİKÖY MAH.","zip":"20260"}]},{"name":"ÇEŞMEBAŞI","cityName":null,"quarters":[{"name":"AKDERE MAH.","zip":"20190"},{"name":"BELENARDIÇ MAH.","zip":"20190"},{"name":"ÇEŞMEBAŞI MAH.","zip":"20190"},{"name":"DEVELİ MAH.","zip":"20190"},{"name":"ELDENİZLİ MAH.","zip":"20190"},{"name":"EYMİR MAH.","zip":"20190"},{"name":"GONCALI MAH.","zip":"20190"},{"name":"GÖLEMEZLİ MAH.","zip":"20190"},{"name":"GÖZLER MAH.","zip":"20190"},{"name":"GÜZELPINAR MAH.","zip":"20190"},{"name":"HAYTABEY MAH.","zip":"20190"},{"name":"IRLIGANLI MAH.","zip":"20190"},{"name":"KARAKOVA MAH.","zip":"20190"},{"name":"KAVAKBAŞI MAH.","zip":"20190"},{"name":"KOCADERE MAH.","zip":"20190"},{"name":"KURTLUCA MAH.","zip":"20190"},{"name":"KÜÇÜKDERE MAH.","zip":"20190"},{"name":"UZUNPINAR MAH.","zip":"20190"},{"name":"YUKARIŞAMLI MAH.","zip":"20190"}]},{"name":"İSTİKLAL","cityName":null,"quarters":[{"name":"ATALAR MAH.","zip":"20150"},{"name":"FESLEĞEN MAH.","zip":"20150"},{"name":"HACIKAPLANLAR MAH.","zip":"20150"},{"name":"İNCİLİPINAR MAH.","zip":"20150"},{"name":"İSTİKLAL MAH.","zip":"20150"},{"name":"KUŞPINAR MAH.","zip":"20150"},{"name":"MEHMETÇİK MAH.","zip":"20150"},{"name":"PELİTLİBAĞ MAH.","zip":"20150"},{"name":"TOPRAKLIK MAH.","zip":"20150"}]},{"name":"KARŞIYAKA","cityName":null,"quarters":[{"name":"AKTEPE MAH.","zip":"20170"},{"name":"ANAFARTALAR MAH.","zip":"20170"},{"name":"DELİKTAŞ MAH.","zip":"20170"},{"name":"DOKUZKAVAKLAR MAH.","zip":"20170"},{"name":"FATİH MAH.","zip":"20170"},{"name":"GÜZELKÖY MAH.","zip":"20170"},{"name":"KALE MAH.","zip":"20170"},{"name":"KARAKURT MAH.","zip":"20170"},{"name":"KARŞIYAKA MAH.","zip":"20170"},{"name":"KORUCUK MAH.","zip":"20170"},{"name":"PINARKENT MAH.","zip":"20170"}]},{"name":"KINIKLI","cityName":null,"quarters":[{"name":"BAĞBAŞI MAH.","zip":"20160"},{"name":"CANKURTARAN MAH.","zip":"20160"},{"name":"CUMHURİYET MAH.","zip":"20160"},{"name":"GÖKPINAR MAH.","zip":"20160"},{"name":"HÜRRİYET MAH.","zip":"20160"},{"name":"KARATAŞ MAH.","zip":"20160"},{"name":"KAYIHAN MAH.","zip":"20160"},{"name":"KERVANSARAY MAH.","zip":"20160"},{"name":"KINIKLI MAH.","zip":"20160"},{"name":"SİTELER MAH.","zip":"20160"},{"name":"TEKKE MAH.","zip":"20160"},{"name":"YUNUSEMRE MAH.","zip":"20160"},{"name":"ZEYTİNKÖY MAH.","zip":"20160"},{"name":"ZÜMRÜT MAH.","zip":"20160"}]},{"name":"SARAYKÖY","cityName":null,"quarters":[{"name":"ACISU MAH.","zip":"20300"},{"name":"ADA MAH.","zip":"20300"},{"name":"AHMETLİ MAH.","zip":"20300"},{"name":"ALTINTEPE MAH.","zip":"20300"},{"name":"AŞAĞI MAH.","zip":"20300"},{"name":"ATATÜRK MAH.","zip":"20300"},{"name":"BALA MAH.","zip":"20300"},{"name":"BEYLERBEYİ MAH.","zip":"20300"},{"name":"CABER MAH.","zip":"20300"},{"name":"CUMHURİYET MAH.","zip":"20300"},{"name":"DUACILI MAH.","zip":"20300"},{"name":"GERALİ MAH.","zip":"20300"},{"name":"HASKÖY MAH.","zip":"20300"},{"name":"HİSAR MAH.","zip":"20300"},{"name":"KABAAĞAÇ MAH.","zip":"20300"},{"name":"KARAKIRAN MAH.","zip":"20300"},{"name":"KARATAŞ MAH.","zip":"20300"},{"name":"KÖPRÜBAŞI MAH.","zip":"20300"},{"name":"KUMLUCA MAH.","zip":"20300"},{"name":"SAKARYA MAH.","zip":"20300"},{"name":"SARAYKÖY TDİ OSB MAH.","zip":"20300"},{"name":"SAZAK MAH.","zip":"20300"},{"name":"SIĞMA MAH.","zip":"20300"},{"name":"TEKKE MAH.","zip":"20300"},{"name":"TEPEKÖY MAH.","zip":"20300"},{"name":"TIRKAZ MAH.","zip":"20300"},{"name":"TOSUNLAR MAH.","zip":"20300"},{"name":"TRAFO MAH.","zip":"20300"},{"name":"TURAN MAH.","zip":"20300"},{"name":"UYANIK MAH.","zip":"20300"},{"name":"YAKAYURT MAH.","zip":"20300"},{"name":"YEŞİLYURT MAH.","zip":"20300"}]},{"name":"SERİNHİSAR","cityName":null,"quarters":[{"name":"AYAZ MAH.","zip":"20430"},{"name":"CUMHURİYET MAH.","zip":"20430"},{"name":"KAYA MAH.","zip":"20430"},{"name":"KOCAPINAR MAH.","zip":"20430"},{"name":"ORTA MAH.","zip":"20430"},{"name":"PINARCIK MAH.","zip":"20430"},{"name":"ŞAİR EŞREF MAH.","zip":"20430"},{"name":"YATAĞAN MAH.","zip":"20430"},{"name":"YENİCE MAH.","zip":"20430"},{"name":"YÜREĞİL MAH.","zip":"20430"}]},{"name":"TAVAS","cityName":null,"quarters":[{"name":"AKYAR MAH.","zip":"20500"},{"name":"ALPA MAH.","zip":"20500"},{"name":"ALTINOVA MAH.","zip":"20500"},{"name":"AVDAN MAH.","zip":"20500"},{"name":"AYDOĞDU MAH.","zip":"20500"},{"name":"BAHARLAR MAH.","zip":"20500"},{"name":"BAHÇEKÖY MAH.","zip":"20500"},{"name":"BALKICA MAH.","zip":"20500"},{"name":"ÇAĞIRGAN MAH.","zip":"20500"},{"name":"ÇALIKÖY MAH.","zip":"20500"},{"name":"ÇİFTLİKKÖY MAH.","zip":"20500"},{"name":"DAMLACIK MAH.","zip":"20500"},{"name":"DENİZOLUĞU MAH.","zip":"20500"},{"name":"DEREAĞZI MAH.","zip":"20500"},{"name":"DERİNKUYU MAH.","zip":"20500"},{"name":"EBECİK MAH.","zip":"20500"},{"name":"GARİPKÖY MAH.","zip":"20500"},{"name":"GÖKÇELER MAH.","zip":"20500"},{"name":"GÜMÜŞDERE MAH.","zip":"20500"},{"name":"GÜZELKÖY MAH.","zip":"20500"},{"name":"HIRKA MAH.","zip":"20500"},{"name":"HORASANLI MAH.","zip":"20500"},{"name":"KARAHİSAR MAH.","zip":"20500"},{"name":"KAYACA MAH.","zip":"20500"},{"name":"KAYAPINAR MAH.","zip":"20500"},{"name":"KEÇELİLER MAH.","zip":"20500"},{"name":"KIZILCA MAH.","zip":"20500"},{"name":"KIZILCABÖLÜK MAH.","zip":"20500"},{"name":"KOZLAR MAH.","zip":"20500"},{"name":"MEDET MAH.","zip":"20500"},{"name":"NİKFER MAH.","zip":"20500"},{"name":"ORTA MAH.","zip":"20500"},{"name":"OVACIK MAH.","zip":"20500"},{"name":"PINARLAR MAH.","zip":"20500"},{"name":"PINARLIK MAH.","zip":"20500"},{"name":"SAMANLIK MAH.","zip":"20500"},{"name":"SARABAT MAH.","zip":"20500"},{"name":"SEKİ MAH.","zip":"20500"},{"name":"SOFULAR MAH.","zip":"20500"},{"name":"SOLMAZ MAH.","zip":"20500"},{"name":"TEKKEKÖY MAH.","zip":"20500"},{"name":"ULUKENT MAH.","zip":"20500"},{"name":"VAKIF MAH.","zip":"20500"},{"name":"YAHŞİLER MAH.","zip":"20500"},{"name":"YAKA MAH.","zip":"20500"},{"name":"YENİ MAH.","zip":"20500"},{"name":"YEŞİLKÖY MAH.","zip":"20500"},{"name":"YORGA MAH.","zip":"20500"},{"name":"YUKARIBOĞAZ MAH.","zip":"20500"}]}]}]}