{"id":21,"name":"DİYARBAKIR","cities":[{"name":"city","districts":[{"name":"ALİPINAR","cityName":null,"quarters":[{"name":"BATIÇANAKÇI MAH.","zip":"21050"},{"name":"BATIKARAKOÇ MAH.","zip":"21050"},{"name":"BUÇUKTEPE MAH.","zip":"21050"},{"name":"ÇİÇEKLİYURT MAH.","zip":"21050"},{"name":"ÇİFTLİK MAH.","zip":"21050"},{"name":"DEVELİ MAH.","zip":"21050"},{"name":"GÖMMETAŞ MAH.","zip":"21050"},{"name":"KOLLUDERE MAH.","zip":"21050"},{"name":"KÖRTEPE MAH.","zip":"21050"},{"name":"ÖZDEMİR MAH.","zip":"21050"},{"name":"PINAROĞLU MAH.","zip":"21050"},{"name":"SARIDALLI MAH.","zip":"21050"},{"name":"TAVŞANTEPE MAH.","zip":"21050"},{"name":"TELLİKAYA MAH.","zip":"21050"},{"name":"TOKLUCA MAH.","zip":"21050"},{"name":"TOPRAKTAŞ MAH.","zip":"21050"},{"name":"TOPYOLU MAH.","zip":"21050"},{"name":"UZUNBAHÇE MAH.","zip":"21050"},{"name":"YEŞİLDALLI MAH.","zip":"21050"},{"name":"YUKARI MOLLAALİ MAH.","zip":"21050"}]},{"name":"KÖRHAT","cityName":null,"quarters":[{"name":"BUYURANSU MAH.","zip":"21090"},{"name":"EKİNCE MAH.","zip":"21090"},{"name":"FATİH MAH.","zip":"21090"},{"name":"KABAHIDIR MAH.","zip":"21090"},{"name":"KAMIŞPINAR MAH.","zip":"21090"},{"name":"KARACADAĞ MAH.","zip":"21090"},{"name":"KARAHANKÖY MAH.","zip":"21090"},{"name":"KAYNARTEPE MAH.","zip":"21090"},{"name":"KIRKINCIK MAH.","zip":"21090"},{"name":"KIRKKOYUN MAH.","zip":"21090"},{"name":"KÖRHAT MAH.","zip":"21090"},{"name":"MURADİYE MAH.","zip":"21090"},{"name":"OĞLAKLI MAH.","zip":"21090"},{"name":"ÖVÜNDÜLER MAH.","zip":"21090"},{"name":"SAKALLI MAH.","zip":"21090"},{"name":"YALANKOZ MAH.","zip":"21090"},{"name":"YİĞİTYOLU MAH.","zip":"21090"},{"name":"YUKARIAKDİBEK MAH.","zip":"21090"},{"name":"YUNUS EMRE MAH.","zip":"21090"}]},{"name":"SELAHATTİNEYYUBİ","cityName":null,"quarters":[{"name":"ORTAÖREN MAH.","zip":"21080"},{"name":"SELAHATTİN EYYUBİ MAH.","zip":"21080"},{"name":"ŞEYH ŞAMİL MAH.","zip":"21080"},{"name":"YENİKÖY MAH.","zip":"21080"}]},{"name":"BİSMİL","cityName":null,"quarters":[{"name":"AĞILLI MAH.","zip":"21500"},{"name":"AHMETLİ MAH.","zip":"21500"},{"name":"AKBAŞ MAH.","zip":"21500"},{"name":"AKÇAY MAH.","zip":"21500"},{"name":"AKKÖY MAH.","zip":"21500"},{"name":"AKPINAR MAH.","zip":"21500"},{"name":"ALINCAK MAH.","zip":"21500"},{"name":"ALİBEY MAH.","zip":"21500"},{"name":"ALTIOK MAH.","zip":"21500"},{"name":"ALUÇ MAH.","zip":"21500"},{"name":"AMBAR MAH.","zip":"21500"},{"name":"ARALIK MAH.","zip":"21500"},{"name":"ARIKGÖL MAH.","zip":"21500"},{"name":"ASLANOĞLU MAH.","zip":"21500"},{"name":"AŞAĞIDOLAY MAH.","zip":"21500"},{"name":"AŞAĞIOBA MAH.","zip":"21500"},{"name":"ATAKÖY MAH.","zip":"21500"},{"name":"AYGEÇTİ MAH.","zip":"21500"},{"name":"BABAHAKİ MAH.","zip":"21500"},{"name":"BADEMLİ MAH.","zip":"21500"},{"name":"BAHARLI MAH.","zip":"21500"},{"name":"BAHÇE MAH.","zip":"21500"},{"name":"BAKACAK MAH.","zip":"21500"},{"name":"BALCILAR MAH.","zip":"21500"},{"name":"BAŞHAN MAH.","zip":"21500"},{"name":"BAŞKÖY MAH.","zip":"21500"},{"name":"BAŞÖREN MAH.","zip":"21500"},{"name":"BAYINDIR MAH.","zip":"21500"},{"name":"BELLİ MAH.","zip":"21500"},{"name":"BOYACI MAH.","zip":"21500"},{"name":"BOZÇALI MAH.","zip":"21500"},{"name":"BÖLÜMLÜ MAH.","zip":"21500"},{"name":"ÇAKALLI MAH.","zip":"21500"},{"name":"ÇAKILLI MAH.","zip":"21500"},{"name":"ÇATALKÖY MAH.","zip":"21500"},{"name":"ÇAVUŞLU MAH.","zip":"21500"},{"name":"ÇELTİKLİ MAH.","zip":"21500"},{"name":"ÇORAPA MAH.","zip":"21500"},{"name":"ÇÖLAĞAN MAH.","zip":"21500"},{"name":"ÇÖLTEPE MAH.","zip":"21500"},{"name":"DERBENT MAH.","zip":"21500"},{"name":"DİCLE MAH.","zip":"21500"},{"name":"DORUK MAH.","zip":"21500"},{"name":"DUMLUPINAR MAH.","zip":"21500"},{"name":"ELİAÇIK MAH.","zip":"21500"},{"name":"ERLER MAH.","zip":"21500"},{"name":"ESENTEPE MAH.","zip":"21500"},{"name":"FATİH MAH.","zip":"21500"},{"name":"FIRAT MAH.","zip":"21500"},{"name":"GEDİKBAŞI MAH.","zip":"21500"},{"name":"GÖKSU MAH.","zip":"21500"},{"name":"GÜNGEÇTİ MAH.","zip":"21500"},{"name":"GÜROLUK MAH.","zip":"21500"},{"name":"GÜZELKÖY MAH.","zip":"21500"},{"name":"HARMANLI MAH.","zip":"21500"},{"name":"HASANPINAR MAH.","zip":"21500"},{"name":"IŞIKLAR MAH.","zip":"21500"},{"name":"İSALI MAH.","zip":"21500"},{"name":"İSAPINAR MAH.","zip":"21500"},{"name":"KAĞITLI MAH.","zip":"21500"},{"name":"KAMIŞLI MAH.","zip":"21500"},{"name":"KARABÖRK MAH.","zip":"21500"},{"name":"KARACIK MAH.","zip":"21500"},{"name":"KARAÇÖLYA MAH.","zip":"21500"},{"name":"KARAGÖZ MAH.","zip":"21500"},{"name":"KARAPINAR MAH.","zip":"21500"},{"name":"KARATEPE MAH.","zip":"21500"},{"name":"KARAYİĞİT MAH.","zip":"21500"},{"name":"KAVUŞAK MAH.","zip":"21500"},{"name":"KAYIKÖY MAH.","zip":"21500"},{"name":"KAZANCI MAH.","zip":"21500"},{"name":"KEBERLİ MAH.","zip":"21500"},{"name":"KENBERLİ MAH.","zip":"21500"},{"name":"KILAVUZTEPE MAH.","zip":"21500"},{"name":"KOĞUK MAH.","zip":"21500"},{"name":"KOPMAZ MAH.","zip":"21500"},{"name":"KOPUZLU MAH.","zip":"21500"},{"name":"KORUKÇU MAH.","zip":"21500"},{"name":"KOYUNLU MAH.","zip":"21500"},{"name":"KÖPRÜKÖY MAH.","zip":"21500"},{"name":"KÖSELİ MAH.","zip":"21500"},{"name":"KUMRULU MAH.","zip":"21500"},{"name":"KURTULUŞ MAH.","zip":"21500"},{"name":"KURUDEĞİRMEN MAH.","zip":"21500"},{"name":"KURUDERE MAH.","zip":"21500"},{"name":"MERDAN MAH.","zip":"21500"},{"name":"MEYDANLIK MAH.","zip":"21500"},{"name":"MİRZABEY MAH.","zip":"21500"},{"name":"OBALI MAH.","zip":"21500"},{"name":"OFKÖY MAH.","zip":"21500"},{"name":"OĞUZLAR MAH.","zip":"21500"},{"name":"PINARBAŞI MAH.","zip":"21500"},{"name":"SANAYİ MAH.","zip":"21500"},{"name":"SARIKÖY MAH.","zip":"21500"},{"name":"SARITOPRAK MAH.","zip":"21500"},{"name":"SAZLI MAH.","zip":"21500"},{"name":"SEKİ MAH.","zip":"21500"},{"name":"SERÇELER MAH.","zip":"21500"},{"name":"SEYRANTEPE MAH.","zip":"21500"},{"name":"SİNANKÖY MAH.","zip":"21500"},{"name":"ŞAHİNTEPE MAH.","zip":"21500"},{"name":"ŞENTEPE MAH.","zip":"21500"},{"name":"TATLIÇAYIR MAH.","zip":"21500"},{"name":"TEKEL MAH.","zip":"21500"},{"name":"TEPE MAH.","zip":"21500"},{"name":"TEPECİK MAH.","zip":"21500"},{"name":"TİLKİLİK MAH.","zip":"21500"},{"name":"TOPRAKLI MAH.","zip":"21500"},{"name":"TÜRKMENHACI MAH.","zip":"21500"},{"name":"UĞRAK MAH.","zip":"21500"},{"name":"UĞURLU MAH.","zip":"21500"},{"name":"ULUTÜRK MAH.","zip":"21500"},{"name":"UYANIK MAH.","zip":"21500"},{"name":"ÜÇTEPE MAH.","zip":"21500"},{"name":"YAĞMURKÖY MAH.","zip":"21500"},{"name":"YAMAÇKÖY MAH.","zip":"21500"},{"name":"YASİNCE MAH.","zip":"21500"},{"name":"YENİCE MAH.","zip":"21500"},{"name":"YUKARIDOLAY MAH.","zip":"21500"},{"name":"YUKARIHARIM MAH.","zip":"21500"},{"name":"YUKARISALAT MAH.","zip":"21500"}]},{"name":"ÇERMİK","cityName":null,"quarters":[{"name":"AKÇÖRTEN MAH.","zip":"21600"},{"name":"AKKOYUNLU MAH.","zip":"21600"},{"name":"AKPINAR MAH.","zip":"21600"},{"name":"ALABUĞDAY MAH.","zip":"21600"},{"name":"ALAKOÇ MAH.","zip":"21600"},{"name":"ARABÜK MAH.","zip":"21600"},{"name":"ARMAĞANTAŞI MAH.","zip":"21600"},{"name":"ARMUTLU MAH.","zip":"21600"},{"name":"ARTUK MAH.","zip":"21600"},{"name":"ASMALI MAH.","zip":"21600"},{"name":"AŞAĞIŞEYHLER MAH.","zip":"21600"},{"name":"AŞAĞITAŞMALI MAH.","zip":"21600"},{"name":"AYNALI MAH.","zip":"21600"},{"name":"BADEMLİ MAH.","zip":"21600"},{"name":"BAHÇE MAH.","zip":"21600"},{"name":"BALIKSIRTI MAH.","zip":"21600"},{"name":"BAŞARI MAH.","zip":"21600"},{"name":"BAYAT MAH.","zip":"21600"},{"name":"BAYIRBAĞI MAH.","zip":"21600"},{"name":"BAYKAL MAH.","zip":"21600"},{"name":"BAYRAK MAH.","zip":"21600"},{"name":"BİNTAŞ MAH.","zip":"21600"},{"name":"BİRCEMAL MAH.","zip":"21600"},{"name":"BULUNDU MAH.","zip":"21600"},{"name":"CEYLAN MAH.","zip":"21600"},{"name":"ÇALITEPE MAH.","zip":"21600"},{"name":"ÇUKUR MAH.","zip":"21600"},{"name":"ÇUKURELMA MAH.","zip":"21600"},{"name":"DEĞİRMENLİ MAH.","zip":"21600"},{"name":"DİKYOL MAH.","zip":"21600"},{"name":"DİLEKPINAR MAH.","zip":"21600"},{"name":"ELİFUŞAĞI MAH.","zip":"21600"},{"name":"ESKİBAĞ MAH.","zip":"21600"},{"name":"GENCELİ MAH.","zip":"21600"},{"name":"GÖKTEPE MAH.","zip":"21600"},{"name":"GÖZEREK MAH.","zip":"21600"},{"name":"GÜÇLÜTAŞ MAH.","zip":"21600"},{"name":"GÜNAŞAN MAH.","zip":"21600"},{"name":"GÜRÜZ MAH.","zip":"21600"},{"name":"GÜZEL MAH.","zip":"21600"},{"name":"HABURMAN MAH.","zip":"21600"},{"name":"İKİÇELTİK MAH.","zip":"21600"},{"name":"İNCİLİ MAH.","zip":"21600"},{"name":"KALA MAH.","zip":"21600"},{"name":"KALAÇ MAH.","zip":"21600"},{"name":"KALECİK MAH.","zip":"21600"},{"name":"KARACAVİRAN MAH.","zip":"21600"},{"name":"KARAKAYA MAH.","zip":"21600"},{"name":"KARAMUSA MAH.","zip":"21600"},{"name":"KARATAŞ MAH.","zip":"21600"},{"name":"KARTALTAŞI MAH.","zip":"21600"},{"name":"KAYAGEDİĞİ MAH.","zip":"21600"},{"name":"KEKLİK MAH.","zip":"21600"},{"name":"KIRMATEPE MAH.","zip":"21600"},{"name":"KONAKLI MAH.","zip":"21600"},{"name":"KONUKSEVER MAH.","zip":"21600"},{"name":"KORUDAĞ MAH.","zip":"21600"},{"name":"KÖKSAL MAH.","zip":"21600"},{"name":"KÖMÜRCÜLER MAH.","zip":"21600"},{"name":"KUŞLUKÇAYIRI MAH.","zip":"21600"},{"name":"KUYU MAH.","zip":"21600"},{"name":"ÖRENKUYU MAH.","zip":"21600"},{"name":"PAMUKLU MAH.","zip":"21600"},{"name":"PETEKKAYA MAH.","zip":"21600"},{"name":"PINARLI MAH.","zip":"21600"},{"name":"RECEP MAH.","zip":"21600"},{"name":"SALTEPE MAH.","zip":"21600"},{"name":"SARAY MAH.","zip":"21600"},{"name":"SARIBALTA MAH.","zip":"21600"},{"name":"SARICA MAH.","zip":"21600"},{"name":"SİNEK MAH.","zip":"21600"},{"name":"ŞEYHANDEDE MAH.","zip":"21600"},{"name":"TEPE MAH.","zip":"21600"},{"name":"TOPLU MAH.","zip":"21600"},{"name":"YABANARDI MAH.","zip":"21600"},{"name":"YAYIKLI MAH.","zip":"21600"},{"name":"YAYLACIK MAH.","zip":"21600"},{"name":"YEŞİLOVA MAH.","zip":"21600"},{"name":"YİĞİTLER MAH.","zip":"21600"},{"name":"YOĞUN MAH.","zip":"21600"}]},{"name":"ÇINAR","cityName":null,"quarters":[{"name":"AKÇOMAK MAH.","zip":"21750"},{"name":"AKTEPE MAH.","zip":"21750"},{"name":"ALABAŞ MAH.","zip":"21750"},{"name":"ALANCIK MAH.","zip":"21750"},{"name":"ALTINAKAR MAH.","zip":"21750"},{"name":"ARAFAT MAH.","zip":"21750"},{"name":"AŞAĞI MOLLAALİ MAH.","zip":"21750"},{"name":"AŞAĞIKONAK MAH.","zip":"21750"},{"name":"AVDALI MAH.","zip":"21750"},{"name":"AYVERİ MAH.","zip":"21750"},{"name":"BAĞACIK MAH.","zip":"21750"},{"name":"BALLIBABA MAH.","zip":"21750"},{"name":"BAŞAKLI MAH.","zip":"21750"},{"name":"BAŞALAN MAH.","zip":"21750"},{"name":"BAYIRKONAĞI MAH.","zip":"21750"},{"name":"BELENLİ MAH.","zip":"21750"},{"name":"BELLİTAŞ MAH.","zip":"21750"},{"name":"BENEKLİTAŞ MAH.","zip":"21750"},{"name":"BEŞPINAR MAH.","zip":"21750"},{"name":"BİLMECE MAH.","zip":"21750"},{"name":"BİRA MEHMET AĞA MAH.","zip":"21750"},{"name":"BOĞAZÖREN MAH.","zip":"21750"},{"name":"BOZÇALI MAH.","zip":"21750"},{"name":"BULUTÇEKER MAH.","zip":"21750"},{"name":"CUMHURİYET MAH.","zip":"21750"},{"name":"ÇAKIRKAYA MAH.","zip":"21750"},{"name":"ÇAKIRTUTMAZ MAH.","zip":"21750"},{"name":"ÇATALTARLA MAH.","zip":"21750"},{"name":"ÇELTİKALTI MAH.","zip":"21750"},{"name":"ÇINARKÖY MAH.","zip":"21750"},{"name":"ÇÖMÇELİ MAH.","zip":"21750"},{"name":"ÇUKURBAŞI MAH.","zip":"21750"},{"name":"DEMİRÖLÇEK MAH.","zip":"21750"},{"name":"DİKMENCİK MAH.","zip":"21750"},{"name":"DİŞLİBAŞAK MAH.","zip":"21750"},{"name":"DÜZOVA MAH.","zip":"21750"},{"name":"EKİNVEREN MAH.","zip":"21750"},{"name":"ESKİ MAH.","zip":"21750"},{"name":"FATİH MAH.","zip":"21750"},{"name":"FİLİZÖREN MAH.","zip":"21750"},{"name":"GAZİ MAH.","zip":"21750"},{"name":"GÖKTEPE MAH.","zip":"21750"},{"name":"GÖRECE MAH.","zip":"21750"},{"name":"GÜMÜŞTAŞ MAH.","zip":"21750"},{"name":"GÜRSES MAH.","zip":"21750"},{"name":"HALIÖREN MAH.","zip":"21750"},{"name":"HALKAPINAR MAH.","zip":"21750"},{"name":"HARABE MAH.","zip":"21750"},{"name":"HASKÖY MAH.","zip":"21750"},{"name":"HÖYÜKDİBİ MAH.","zip":"21750"},{"name":"İNANÖZ MAH.","zip":"21750"},{"name":"İNCİRTEPE MAH.","zip":"21750"},{"name":"KARABABA MAH.","zip":"21750"},{"name":"KARABUDAK MAH.","zip":"21750"},{"name":"KARAÇEVRE MAH.","zip":"21750"},{"name":"KARALAR MAH.","zip":"21750"},{"name":"KARASUNGUR MAH.","zip":"21750"},{"name":"KAZIKTEPE MAH.","zip":"21750"},{"name":"KILIÇKAYA MAH.","zip":"21750"},{"name":"KIRKAĞAÇ MAH.","zip":"21750"},{"name":"KÖKSALAN MAH.","zip":"21750"},{"name":"KUBACIK MAH.","zip":"21750"},{"name":"KURUYAZI MAH.","zip":"21750"},{"name":"KUTLUK MAH.","zip":"21750"},{"name":"KUYULUHÖYÜK MAH.","zip":"21750"},{"name":"KÜREKLİ MAH.","zip":"21750"},{"name":"LEBLEBİTAŞ MAH.","zip":"21750"},{"name":"MEYDANKÖY MAH.","zip":"21750"},{"name":"MURATCIK MAH.","zip":"21750"},{"name":"ORTAŞAR MAH.","zip":"21750"},{"name":"OVABAĞ MAH.","zip":"21750"},{"name":"ÖNCÜLÜ MAH.","zip":"21750"},{"name":"ÖZGİDER MAH.","zip":"21750"},{"name":"ÖZYAR MAH.","zip":"21750"},{"name":"PEMBEVİRAN MAH.","zip":"21750"},{"name":"SELYAZI MAH.","zip":"21750"},{"name":"SEVİNDİK MAH.","zip":"21750"},{"name":"SIRIMKESER MAH.","zip":"21750"},{"name":"SOĞANSUYU MAH.","zip":"21750"},{"name":"SOLMAZ MAH.","zip":"21750"},{"name":"SÜRENDAL MAH.","zip":"21750"},{"name":"ŞEKERÖREN MAH.","zip":"21750"},{"name":"ŞEYHÇOBAN MAH.","zip":"21750"},{"name":"ŞÜKÜRLÜ MAH.","zip":"21750"},{"name":"TAŞHELVASI MAH.","zip":"21750"},{"name":"TEKKAYNAK MAH.","zip":"21750"},{"name":"TİLVER MAH.","zip":"21750"},{"name":"TORAMAN MAH.","zip":"21750"},{"name":"YAPRAKBAŞI MAH.","zip":"21750"},{"name":"YARIMKAŞ MAH.","zip":"21750"},{"name":"YAZÇİÇEĞİ MAH.","zip":"21750"},{"name":"YENİ MAH.","zip":"21750"},{"name":"YEŞİL MAH.","zip":"21750"},{"name":"YEŞİLBAĞ MAH.","zip":"21750"},{"name":"YEŞİLTAŞ MAH.","zip":"21750"},{"name":"YILLARCA MAH.","zip":"21750"},{"name":"YUKARIORTAÖREN MAH.","zip":"21750"},{"name":"YUVACIK MAH.","zip":"21750"}]},{"name":"ÇÜNGÜŞ","cityName":null,"quarters":[{"name":"AKTAŞ MAH.","zip":"21870"},{"name":"ALBAYRAK MAH.","zip":"21870"},{"name":"ARPADERE MAH.","zip":"21870"},{"name":"ATALAR MAH.","zip":"21870"},{"name":"AVUT MAH.","zip":"21870"},{"name":"AYDINLI MAH.","zip":"21870"},{"name":"BALCILAR MAH.","zip":"21870"},{"name":"CAMİİ KEBİR MAH.","zip":"21870"},{"name":"CAMİİSUK MAH.","zip":"21870"},{"name":"ÇATALDUT MAH.","zip":"21870"},{"name":"ÇAYBAŞI MAH.","zip":"21870"},{"name":"DEĞİRMENSUYU MAH.","zip":"21870"},{"name":"DEVEBOYNU MAH.","zip":"21870"},{"name":"ELMADERE MAH.","zip":"21870"},{"name":"GEÇİTKÖY MAH.","zip":"21870"},{"name":"GÖKÇEPELİT MAH.","zip":"21870"},{"name":"GÜNEYDERE MAH.","zip":"21870"},{"name":"HANDERE MAH.","zip":"21870"},{"name":"HİNDİBABA MAH.","zip":"21870"},{"name":"İBİKKAYA MAH.","zip":"21870"},{"name":"KARAKAYA MAH.","zip":"21870"},{"name":"KARŞIYAKA MAH.","zip":"21870"},{"name":"KAYNAKKÖY MAH.","zip":"21870"},{"name":"KELEŞEVLERİ MAH.","zip":"21870"},{"name":"KOÇÖREN MAH.","zip":"21870"},{"name":"KÜLBASTI MAH.","zip":"21870"},{"name":"MALKAYA MAH.","zip":"21870"},{"name":"ORMANÇAYI MAH.","zip":"21870"},{"name":"OYUKLU MAH.","zip":"21870"},{"name":"POLATUŞAĞI MAH.","zip":"21870"},{"name":"SAĞTEPE MAH.","zip":"21870"},{"name":"SEFERUŞAĞI MAH.","zip":"21870"},{"name":"TÜRKMEN MAH.","zip":"21870"},{"name":"ÜÇPINAR MAH.","zip":"21870"},{"name":"YAYGINKONAK MAH.","zip":"21870"},{"name":"YAZYAĞMURU MAH.","zip":"21870"},{"name":"YENİCE MAH.","zip":"21870"},{"name":"YENİKÖY MAH.","zip":"21870"},{"name":"YUKARIŞEYHLER MAH.","zip":"21870"}]},{"name":"DİCLE","cityName":null,"quarters":[{"name":"ACAR MAH.","zip":"21830"},{"name":"ALTAYKÖY MAH.","zip":"21830"},{"name":"ARIKÖY MAH.","zip":"21830"},{"name":"BADEMLİ MAH.","zip":"21830"},{"name":"BAĞLARBAŞI MAH.","zip":"21830"},{"name":"BAHÇEDERE MAH.","zip":"21830"},{"name":"BAHÇEKÖY MAH.","zip":"21830"},{"name":"BALTACI MAH.","zip":"21830"},{"name":"BAŞKÖY MAH.","zip":"21830"},{"name":"BATURKÖY MAH.","zip":"21830"},{"name":"BİÇER MAH.","zip":"21830"},{"name":"BOĞAZ MAH.","zip":"21830"},{"name":"BOĞAZKÖY MAH.","zip":"21830"},{"name":"BOZOBA MAH.","zip":"21830"},{"name":"ÇAVLI MAH.","zip":"21830"},{"name":"ÇELEBİ MAH.","zip":"21830"},{"name":"DEDEKÖY MAH.","zip":"21830"},{"name":"DEĞİRMENLİ MAH.","zip":"21830"},{"name":"DÖĞER MAH.","zip":"21830"},{"name":"DURABEYLİ MAH.","zip":"21830"},{"name":"GELİNCİK MAH.","zip":"21830"},{"name":"GÖLBAŞI MAH.","zip":"21830"},{"name":"GÜNDOĞDU MAH.","zip":"21830"},{"name":"KAYGISIZ MAH.","zip":"21830"},{"name":"KAYIKÖY MAH.","zip":"21830"},{"name":"KELEKÇİ MAH.","zip":"21830"},{"name":"KIRKPINAR MAH.","zip":"21830"},{"name":"KOCAALAN MAH.","zip":"21830"},{"name":"KORUKÖY MAH.","zip":"21830"},{"name":"KURŞUNLU MAH.","zip":"21830"},{"name":"KURUDERE MAH.","zip":"21830"},{"name":"MEYDAN MAH.","zip":"21830"},{"name":"PEKMEZCİLER MAH.","zip":"21830"},{"name":"PINAR MAH.","zip":"21830"},{"name":"SERGENLİ MAH.","zip":"21830"},{"name":"TAŞAĞIL MAH.","zip":"21830"},{"name":"TEPE MAH.","zip":"21830"},{"name":"TEPEBAŞI MAH.","zip":"21830"},{"name":"UĞRAK MAH.","zip":"21830"},{"name":"ULUBAŞ MAH.","zip":"21830"},{"name":"ULUÇEŞME MAH.","zip":"21830"},{"name":"ÜZÜMLÜ MAH.","zip":"21830"},{"name":"YEŞİLSIRT MAH.","zip":"21830"},{"name":"YEŞİLTEPE MAH.","zip":"21830"},{"name":"YOKUŞLU MAH.","zip":"21830"}]},{"name":"EĞİL","cityName":null,"quarters":[{"name":"BABALAR MAH.","zip":"21470"},{"name":"BAHŞİLAR MAH.","zip":"21470"},{"name":"BALABAN MAH.","zip":"21470"},{"name":"BALIM MAH.","zip":"21470"},{"name":"BAYSU MAH.","zip":"21470"},{"name":"DERE MAH.","zip":"21470"},{"name":"DÖŞEMELER MAH.","zip":"21470"},{"name":"DÜZLÜK MAH.","zip":"21470"},{"name":"GÜNDOĞURAN MAH.","zip":"21470"},{"name":"GÜRÜNLÜ MAH.","zip":"21470"},{"name":"ILGIN MAH.","zip":"21470"},{"name":"KALE MAH.","zip":"21470"},{"name":"KALECİK MAH.","zip":"21470"},{"name":"KALKAN MAH.","zip":"21470"},{"name":"KAYA MAH.","zip":"21470"},{"name":"KAZANLI MAH.","zip":"21470"},{"name":"KIRKKUYU MAH.","zip":"21470"},{"name":"KONAK MAH.","zip":"21470"},{"name":"MEŞELER MAH.","zip":"21470"},{"name":"OYALI MAH.","zip":"21470"},{"name":"OYALI OSB MAH.","zip":"21470"},{"name":"SAĞLAM MAH.","zip":"21470"},{"name":"SARICA MAH.","zip":"21470"},{"name":"SARMAŞIK MAH.","zip":"21470"},{"name":"SELMAN MAH.","zip":"21470"},{"name":"TAŞDAM MAH.","zip":"21470"},{"name":"TEPECİK MAH.","zip":"21470"},{"name":"YATIR MAH.","zip":"21470"},{"name":"YENİŞEHİR MAH.","zip":"21470"},{"name":"YUKARIHAYDAN MAH.","zip":"21470"}]},{"name":"ERGANİ","cityName":null,"quarters":[{"name":"AHMETLİ MAH.","zip":"21950"},{"name":"AKÇAKALE MAH.","zip":"21950"},{"name":"AKÇOBAN MAH.","zip":"21950"},{"name":"ALİTAŞI MAH.","zip":"21950"},{"name":"ARMUTOVA MAH.","zip":"21950"},{"name":"AŞAĞIBİTİKÇİ MAH.","zip":"21950"},{"name":"AŞAĞIKUYULU MAH.","zip":"21950"},{"name":"AZIKLI MAH.","zip":"21950"},{"name":"AZİZİYE MAH.","zip":"21950"},{"name":"BADEMLİ MAH.","zip":"21950"},{"name":"BAGÜR MAH.","zip":"21950"},{"name":"BAHÇEKAŞI MAH.","zip":"21950"},{"name":"BEREKETLİ MAH.","zip":"21950"},{"name":"BOĞAZKÖY MAH.","zip":"21950"},{"name":"BONCUKLU MAH.","zip":"21950"},{"name":"BOZYER MAH.","zip":"21950"},{"name":"CAFERAN MAH.","zip":"21950"},{"name":"CANVEREN MAH.","zip":"21950"},{"name":"COŞKUN MAH.","zip":"21950"},{"name":"CÖMERT MAH.","zip":"21950"},{"name":"ÇAKARTAŞ MAH.","zip":"21950"},{"name":"ÇAKIRFAKIR MAH.","zip":"21950"},{"name":"ÇAYIRDERE MAH.","zip":"21950"},{"name":"ÇAYKÖY MAH.","zip":"21950"},{"name":"ÇİMLİHÖYÜK MAH.","zip":"21950"},{"name":"ÇUKURDERE MAH.","zip":"21950"},{"name":"DAĞARASI MAH.","zip":"21950"},{"name":"DALLIDAĞ MAH.","zip":"21950"},{"name":"DEĞİRMENDERE MAH.","zip":"21950"},{"name":"DEMİRLİ MAH.","zip":"21950"},{"name":"DEREBOYU MAH.","zip":"21950"},{"name":"DERİNGÖZE MAH.","zip":"21950"},{"name":"DEVELİ MAH.","zip":"21950"},{"name":"DEVLETKUŞU MAH.","zip":"21950"},{"name":"DİBEKTAŞ MAH.","zip":"21950"},{"name":"DOĞANKÖY MAH.","zip":"21950"},{"name":"FATİH MAH.","zip":"21950"},{"name":"FEVZİ ÇAKMAK MAH.","zip":"21950"},{"name":"GİRAYLAR MAH.","zip":"21950"},{"name":"GÖKİÇİ MAH.","zip":"21950"},{"name":"GÖZEKAYA MAH.","zip":"21950"},{"name":"GÖZLÜ MAH.","zip":"21950"},{"name":"GÜLERCE MAH.","zip":"21950"},{"name":"GÜNEŞTEPE MAH.","zip":"21950"},{"name":"GÜZELYURT MAH.","zip":"21950"},{"name":"HANÇERLİ MAH.","zip":"21950"},{"name":"HENDEKKÖY MAH.","zip":"21950"},{"name":"İNCEHIDIR MAH.","zip":"21950"},{"name":"İSTASYON MAH.","zip":"21950"},{"name":"KARABURÇAK MAH.","zip":"21950"},{"name":"KARPUZLU MAH.","zip":"21950"},{"name":"KARŞIBAĞLAR MAH.","zip":"21950"},{"name":"KAVAKLI MAH.","zip":"21950"},{"name":"KAVURMAKÜPÜ MAH.","zip":"21950"},{"name":"KAYAN MAH.","zip":"21950"},{"name":"KEMALİYE MAH.","zip":"21950"},{"name":"KEMERTAŞ MAH.","zip":"21950"},{"name":"KESENTAŞ MAH.","zip":"21950"},{"name":"KIRALAN MAH.","zip":"21950"},{"name":"KOCAALİ MAH.","zip":"21950"},{"name":"KORTAŞ MAH.","zip":"21950"},{"name":"KOYUNALAN MAH.","zip":"21950"},{"name":"KÖMÜRTAŞ MAH.","zip":"21950"},{"name":"KUMÇİ MAH.","zip":"21950"},{"name":"MORKOYUN MAH.","zip":"21950"},{"name":"NAMIK KEMAL MAH.","zip":"21950"},{"name":"OLGUN MAH.","zip":"21950"},{"name":"ORTAAĞAÇ MAH.","zip":"21950"},{"name":"ORTAYAZI MAH.","zip":"21950"},{"name":"OTLUCA MAH.","zip":"21950"},{"name":"ÖZBİLEK MAH.","zip":"21950"},{"name":"PINARKAYA MAH.","zip":"21950"},{"name":"SABIRLI MAH.","zip":"21950"},{"name":"SALİHLİ MAH.","zip":"21950"},{"name":"SALLAR MAH.","zip":"21950"},{"name":"SALLICA MAH.","zip":"21950"},{"name":"SANAYİ MAH.","zip":"21950"},{"name":"SARAY MAH.","zip":"21950"},{"name":"SAVAŞ MAH.","zip":"21950"},{"name":"SELMANKÖY MAH.","zip":"21950"},{"name":"SESVERENPINAR MAH.","zip":"21950"},{"name":"SÖKÜNDÜZÜ MAH.","zip":"21950"},{"name":"ŞİRİNEVLER MAH.","zip":"21950"},{"name":"ŞÖLEN MAH.","zip":"21950"},{"name":"TEVEKLİ MAH.","zip":"21950"},{"name":"USLUCA MAH.","zip":"21950"},{"name":"ÜÇKARDEŞ MAH.","zip":"21950"},{"name":"ÜZÜMLÜ MAH.","zip":"21950"},{"name":"YAKACIK MAH.","zip":"21950"},{"name":"YAMAÇLAR MAH.","zip":"21950"},{"name":"YAPRAKLI MAH.","zip":"21950"},{"name":"YAYVANTEPE MAH.","zip":"21950"},{"name":"YENİKÖY MAH.","zip":"21950"},{"name":"YEŞİLKÖY MAH.","zip":"21950"},{"name":"YOLBULAN MAH.","zip":"21950"},{"name":"YOLKÖPRÜ MAH.","zip":"21950"},{"name":"YONCALI MAH.","zip":"21950"},{"name":"YUKARIBİTİKÇİ MAH.","zip":"21950"},{"name":"YUKARIKARPUZLU MAH.","zip":"21950"},{"name":"YUKARIKUYULU MAH.","zip":"21950"},{"name":"ZİYARET MAH.","zip":"21950"}]},{"name":"HANİ","cityName":null,"quarters":[{"name":"AKÇAYURT MAH.","zip":"21800"},{"name":"ANIL MAH.","zip":"21800"},{"name":"BELEN MAH.","zip":"21800"},{"name":"ÇARDAKLI MAH.","zip":"21800"},{"name":"ÇARŞI MAH.","zip":"21800"},{"name":"ÇUKURKÖY MAH.","zip":"21800"},{"name":"DERELİ MAH.","zip":"21800"},{"name":"GÖMEÇ MAH.","zip":"21800"},{"name":"GÜRBÜZ MAH.","zip":"21800"},{"name":"KALABA MAH.","zip":"21800"},{"name":"KALEDİBİ MAH.","zip":"21800"},{"name":"KIRIM MAH.","zip":"21800"},{"name":"KUYULAR MAH.","zip":"21800"},{"name":"MERKEZ MAH.","zip":"21800"},{"name":"OKURKÖY MAH.","zip":"21800"},{"name":"SERENKÖY MAH.","zip":"21800"},{"name":"SERGEN MAH.","zip":"21800"},{"name":"SOYLU MAH.","zip":"21800"},{"name":"SÜSLÜ MAH.","zip":"21800"},{"name":"TOPÇULAR MAH.","zip":"21800"},{"name":"UZUNLAR MAH.","zip":"21800"},{"name":"VEZİRİ MAH.","zip":"21800"},{"name":"YAYVAN MAH.","zip":"21800"},{"name":"YUKARITURALI MAH.","zip":"21800"},{"name":"ZİRVE MAH.","zip":"21800"}]},{"name":"HAZRO","cityName":null,"quarters":[{"name":"BAĞYURDU MAH.","zip":"21560"},{"name":"BAHÇE MAH.","zip":"21560"},{"name":"BAYIRDÜZÜ MAH.","zip":"21560"},{"name":"CAMİ MAH.","zip":"21560"},{"name":"ÇİTLİBAHÇE MAH.","zip":"21560"},{"name":"ÇÖKEKSU MAH.","zip":"21560"},{"name":"DADAŞ MAH.","zip":"21560"},{"name":"ELHUVAN MAH.","zip":"21560"},{"name":"GEDİKALAN MAH.","zip":"21560"},{"name":"GÖZLÜ MAH.","zip":"21560"},{"name":"HÜRRİYET MAH.","zip":"21560"},{"name":"İNCEKAVAK MAH.","zip":"21560"},{"name":"İŞKAR MAH.","zip":"21560"},{"name":"KAVAKLIBOĞAZ MAH.","zip":"21560"},{"name":"KIRKKAŞIK MAH.","zip":"21560"},{"name":"KIRMATAŞ MAH.","zip":"21560"},{"name":"KOÇBABA MAH.","zip":"21560"},{"name":"KULAÇTEPE MAH.","zip":"21560"},{"name":"MEŞEBAĞLARI MAH.","zip":"21560"},{"name":"MUTLUCA MAH.","zip":"21560"},{"name":"ORMANKAYA MAH.","zip":"21560"},{"name":"REŞİK MAH.","zip":"21560"},{"name":"SARIÇANAK MAH.","zip":"21560"},{"name":"SARIERİK MAH.","zip":"21560"},{"name":"TERDÖKEN MAH.","zip":"21560"},{"name":"TOPALAN MAH.","zip":"21560"},{"name":"UZUNARGIT MAH.","zip":"21560"},{"name":"ÜLGEN MAH.","zip":"21560"},{"name":"VARINCA MAH.","zip":"21560"},{"name":"YAZGI MAH.","zip":"21560"}]},{"name":"KAYAPINAR","cityName":null,"quarters":[{"name":"BARIŞ MAH.","zip":"21070"},{"name":"BAYKARA MAH.","zip":"21070"},{"name":"BENEKLİTAŞ MAH.","zip":"21070"},{"name":"CANKATRAN MAH.","zip":"21070"},{"name":"CUMHURİYET MAH.","zip":"21070"},{"name":"CÜCÜK MAH.","zip":"21070"},{"name":"ÇÖLGÜZELİ MAH.","zip":"21070"},{"name":"DİCLEKENT MAH.","zip":"21070"},{"name":"ESENTEPE MAH.","zip":"21070"},{"name":"FIRAT MAH.","zip":"21070"},{"name":"GÖZALAN MAH.","zip":"21070"},{"name":"GÖZEGÖL MAH.","zip":"21070"},{"name":"GÜLEÇOBA MAH.","zip":"21070"},{"name":"HARMANARDI MAH.","zip":"21070"},{"name":"HATİPOĞLU MAH.","zip":"21070"},{"name":"HUZUREVLERİ MAH.","zip":"21070"},{"name":"KALDIRIM MAH.","zip":"21070"},{"name":"KARAYAKUP MAH.","zip":"21070"},{"name":"KEKLİK MAH.","zip":"21070"},{"name":"KIRKPINAR MAH.","zip":"21070"},{"name":"MEDYA MAH.","zip":"21070"},{"name":"MEZOPOTAMYA MAH.","zip":"21070"},{"name":"PETEK MAH.","zip":"21070"},{"name":"PEYAS MAH.","zip":"21070"},{"name":"SAĞKULAK MAH.","zip":"21070"},{"name":"SULTANTEPE MAH.","zip":"21070"},{"name":"TABAN MAH.","zip":"21070"},{"name":"TALAYTEPE MAH.","zip":"21070"},{"name":"TİŞO MAH.","zip":"21070"},{"name":"TOSUNLU MAH.","zip":"21070"},{"name":"UYANDIK MAH.","zip":"21070"},{"name":"YENİÖZERLİ MAH.","zip":"21070"},{"name":"YOLBOYU PİRİNÇLİK MAH.","zip":"21070"}]},{"name":"KOCAKÖY","cityName":null,"quarters":[{"name":"ARKBAŞI MAH.","zip":"21450"},{"name":"BOYUNLU MAH.","zip":"21450"},{"name":"BOZBAĞLAR MAH.","zip":"21450"},{"name":"BOZYER MAH.","zip":"21450"},{"name":"ÇAKMAKLI MAH.","zip":"21450"},{"name":"ÇAYIRLI MAH.","zip":"21450"},{"name":"ÇAYTEPE MAH.","zip":"21450"},{"name":"EYÜPLER MAH.","zip":"21450"},{"name":"GÖKÇEN MAH.","zip":"21450"},{"name":"GÖZEBAŞI MAH.","zip":"21450"},{"name":"GÜNALAN MAH.","zip":"21450"},{"name":"HACI REŞİT MAH.","zip":"21450"},{"name":"KAYA MAH.","zip":"21450"},{"name":"KOKULUPINAR MAH.","zip":"21450"},{"name":"SUÇIKTI MAH.","zip":"21450"},{"name":"ŞAKLAT MAH.","zip":"21450"},{"name":"ŞERİFOĞULLARI MAH.","zip":"21450"},{"name":"ŞEYH ŞERAFETTİN MAH.","zip":"21450"},{"name":"TEPECİK MAH.","zip":"21450"},{"name":"YAZIKÖY MAH.","zip":"21450"},{"name":"YENİŞEHİR MAH.","zip":"21450"}]},{"name":"KULP","cityName":null,"quarters":[{"name":"AĞAÇLI MAH.","zip":"21900"},{"name":"AĞILLI MAH.","zip":"21900"},{"name":"AKBULAK MAH.","zip":"21900"},{"name":"AKÇESİR MAH.","zip":"21900"},{"name":"AKDORUK MAH.","zip":"21900"},{"name":"ALACA MAH.","zip":"21900"},{"name":"ARGÜN MAH.","zip":"21900"},{"name":"AYGÜN MAH.","zip":"21900"},{"name":"AYHAN MAH.","zip":"21900"},{"name":"BAĞCILAR MAH.","zip":"21900"},{"name":"BALOĞLU MAH.","zip":"21900"},{"name":"BARIN MAH.","zip":"21900"},{"name":"BAŞBUĞ MAH.","zip":"21900"},{"name":"BAYIR MAH.","zip":"21900"},{"name":"ÇAĞLAYAN MAH.","zip":"21900"},{"name":"ÇUKURCA MAH.","zip":"21900"},{"name":"DEMİRLİ MAH.","zip":"21900"},{"name":"DOLUN MAH.","zip":"21900"},{"name":"DÜZCE MAH.","zip":"21900"},{"name":"ELMALI MAH.","zip":"21900"},{"name":"GÜLEÇ MAH.","zip":"21900"},{"name":"GÜLLÜK MAH.","zip":"21900"},{"name":"HAMZALI MAH.","zip":"21900"},{"name":"İNKAYA MAH.","zip":"21900"},{"name":"İSLAMKÖY MAH.","zip":"21900"},{"name":"KAMIŞLI MAH.","zip":"21900"},{"name":"KARAAĞAÇ MAH.","zip":"21900"},{"name":"KARABULAK MAH.","zip":"21900"},{"name":"KARAORMAN MAH.","zip":"21900"},{"name":"KARPUZLU MAH.","zip":"21900"},{"name":"KAYACIK MAH.","zip":"21900"},{"name":"KAYAHAN MAH.","zip":"21900"},{"name":"KOÇKAR MAH.","zip":"21900"},{"name":"KONUKLU MAH.","zip":"21900"},{"name":"KURUDERE MAH.","zip":"21900"},{"name":"MERKEZ ESKİ MAH.","zip":"21900"},{"name":"MERKEZ YENİ MAH.","zip":"21900"},{"name":"NARLICA MAH.","zip":"21900"},{"name":"ÖZBEK MAH.","zip":"21900"},{"name":"SALKIMLI MAH.","zip":"21900"},{"name":"SALTUK MAH.","zip":"21900"},{"name":"TAŞKÖPRÜ MAH.","zip":"21900"},{"name":"TEMRAN MAH.","zip":"21900"},{"name":"TEPECİK MAH.","zip":"21900"},{"name":"TURGUT ÖZAL MAH.","zip":"21900"},{"name":"TUZLA MAH.","zip":"21900"},{"name":"UYGUR MAH.","zip":"21900"},{"name":"UZUNOVA MAH.","zip":"21900"},{"name":"ÜÇKUYU MAH.","zip":"21900"},{"name":"ÜNAL MAH.","zip":"21900"},{"name":"YAKIT MAH.","zip":"21900"},{"name":"YAYIK MAH.","zip":"21900"},{"name":"YAYLAK MAH.","zip":"21900"},{"name":"YEŞİLKÖY MAH.","zip":"21900"},{"name":"YUVACIK MAH.","zip":"21900"},{"name":"ZEYREK MAH.","zip":"21900"}]},{"name":"LİCE","cityName":null,"quarters":[{"name":"AKÇABUDAK MAH.","zip":"21700"},{"name":"ARIKLI MAH.","zip":"21700"},{"name":"BAĞLAN MAH.","zip":"21700"},{"name":"BAHARLAR MAH.","zip":"21700"},{"name":"BAYIRLI MAH.","zip":"21700"},{"name":"BİRLİK MAH.","zip":"21700"},{"name":"BUDAK MAH.","zip":"21700"},{"name":"CAMİKEBİR MAH.","zip":"21700"},{"name":"ÇAĞDAŞ MAH.","zip":"21700"},{"name":"ÇARŞI MAH.","zip":"21700"},{"name":"ÇAVUNDUR MAH.","zip":"21700"},{"name":"ÇEPER MAH.","zip":"21700"},{"name":"ÇIRALI MAH.","zip":"21700"},{"name":"DALLICA MAH.","zip":"21700"},{"name":"DAMAR MAH.","zip":"21700"},{"name":"DARALAN MAH.","zip":"21700"},{"name":"DELVAN MAH.","zip":"21700"},{"name":"DERNEK MAH.","zip":"21700"},{"name":"DİBEK MAH.","zip":"21700"},{"name":"DOLUNAY MAH.","zip":"21700"},{"name":"DURU MAH.","zip":"21700"},{"name":"ECEMİŞ MAH.","zip":"21700"},{"name":"ERGİN MAH.","zip":"21700"},{"name":"ESENLER MAH.","zip":"21700"},{"name":"GÖKÇE MAH.","zip":"21700"},{"name":"GÜÇLÜ MAH.","zip":"21700"},{"name":"GÜLDİKEN MAH.","zip":"21700"},{"name":"GÜRBEYLİ MAH.","zip":"21700"},{"name":"HEDİK MAH.","zip":"21700"},{"name":"KABAKAYA MAH.","zip":"21700"},{"name":"KALİ MAH.","zip":"21700"},{"name":"KARAHASAN MAH.","zip":"21700"},{"name":"KELVAN MAH.","zip":"21700"},{"name":"KILIÇLI MAH.","zip":"21700"},{"name":"KIPÇAK MAH.","zip":"21700"},{"name":"KIRALAN MAH.","zip":"21700"},{"name":"KIYI MAH.","zip":"21700"},{"name":"KÖRTÜK MAH.","zip":"21700"},{"name":"KUMLUCA MAH.","zip":"21700"},{"name":"KUTLU MAH.","zip":"21700"},{"name":"MULLA MAH.","zip":"21700"},{"name":"MURADİYE MAH.","zip":"21700"},{"name":"MÜMİNAĞA MAH.","zip":"21700"},{"name":"ORTAÇ MAH.","zip":"21700"},{"name":"OYUKLU MAH.","zip":"21700"},{"name":"ÖRTÜLÜ MAH.","zip":"21700"},{"name":"SAVAT MAH.","zip":"21700"},{"name":"SAYDAMLI MAH.","zip":"21700"},{"name":"SERİN MAH.","zip":"21700"},{"name":"SIĞINAK MAH.","zip":"21700"},{"name":"ŞAAR MAH.","zip":"21700"},{"name":"ŞENLİK MAH.","zip":"21700"},{"name":"TEPE MAH.","zip":"21700"},{"name":"TUZLA MAH.","zip":"21700"},{"name":"TÜRELİ MAH.","zip":"21700"},{"name":"UÇARLI MAH.","zip":"21700"},{"name":"ULUCAK MAH.","zip":"21700"},{"name":"ÜÇDAMLAR MAH.","zip":"21700"},{"name":"YALAZA MAH.","zip":"21700"},{"name":"YALIMLI MAH.","zip":"21700"},{"name":"YAMAÇLI MAH.","zip":"21700"},{"name":"YAPRAK MAH.","zip":"21700"},{"name":"YENİŞEHİR MAH.","zip":"21700"},{"name":"YEŞİLBURÇ MAH.","zip":"21700"},{"name":"YOLÇATI MAH.","zip":"21700"},{"name":"YORULMAZ MAH.","zip":"21700"},{"name":"YÜNLÜCE MAH.","zip":"21700"},{"name":"ZİYARET MAH.","zip":"21700"},{"name":"ZÜMRÜT MAH.","zip":"21700"}]},{"name":"SİLVAN","cityName":null,"quarters":[{"name":"AKÇELTİK MAH.","zip":"21640"},{"name":"AKDERE MAH.","zip":"21640"},{"name":"AKYOL MAH.","zip":"21640"},{"name":"ALİBEY MAH.","zip":"21640"},{"name":"ALTINKUM MAH.","zip":"21640"},{"name":"ARI MAH.","zip":"21640"},{"name":"AŞAĞIKAYA MAH.","zip":"21640"},{"name":"AŞAĞIVEYSİ MAH.","zip":"21640"},{"name":"BABAKAYA MAH.","zip":"21640"},{"name":"BAĞDERE MAH.","zip":"21640"},{"name":"BAĞLAR MAH.","zip":"21640"},{"name":"BAHÇE MAH.","zip":"21640"},{"name":"BAHÇELİEVLER MAH.","zip":"21640"},{"name":"BAŞDEĞİRMEN MAH.","zip":"21640"},{"name":"BAŞIBÜYÜK MAH.","zip":"21640"},{"name":"BAYRAMBAŞI MAH.","zip":"21640"},{"name":"BELLİBAHÇE MAH.","zip":"21640"},{"name":"BEREKETLİ MAH.","zip":"21640"},{"name":"BEYPINAR MAH.","zip":"21640"},{"name":"BOYUNLU MAH.","zip":"21640"},{"name":"CAMİİ MAH.","zip":"21640"},{"name":"ÇAKILTAŞI MAH.","zip":"21640"},{"name":"ÇALDERE MAH.","zip":"21640"},{"name":"ÇARDAK MAH.","zip":"21640"},{"name":"ÇEVRİKSU MAH.","zip":"21640"},{"name":"ÇİFTLİDERE MAH.","zip":"21640"},{"name":"ÇİĞDEMLİ MAH.","zip":"21640"},{"name":"ÇİĞİL MAH.","zip":"21640"},{"name":"ÇOBANTEPE MAH.","zip":"21640"},{"name":"DAĞCILAR MAH.","zip":"21640"},{"name":"DARKÖPRÜ MAH.","zip":"21640"},{"name":"DEMİRKUYU MAH.","zip":"21640"},{"name":"DOLAPLIDERE MAH.","zip":"21640"},{"name":"DOLUÇANAK MAH.","zip":"21640"},{"name":"DURU MAH.","zip":"21640"},{"name":"DÜZALAN MAH.","zip":"21640"},{"name":"ERİKYAZI MAH.","zip":"21640"},{"name":"ESKİKÖY MAH.","zip":"21640"},{"name":"ESKİOCAK MAH.","zip":"21640"},{"name":"EŞME MAH.","zip":"21640"},{"name":"FERİDUN MAH.","zip":"21640"},{"name":"GÖKÇETEVEK MAH.","zip":"21640"},{"name":"GÖRENTEPE MAH.","zip":"21640"},{"name":"GÖRMEZ MAH.","zip":"21640"},{"name":"GÜÇLÜ MAH.","zip":"21640"},{"name":"GÜNDÜZ MAH.","zip":"21640"},{"name":"GÜRPINAR MAH.","zip":"21640"},{"name":"GÜZDERESİ MAH.","zip":"21640"},{"name":"HEYBELİKONUK MAH.","zip":"21640"},{"name":"İNCESU MAH.","zip":"21640"},{"name":"KALE MAH.","zip":"21640"},{"name":"KARACALAR MAH.","zip":"21640"},{"name":"KARAHACI MAH.","zip":"21640"},{"name":"KARAMUS MAH.","zip":"21640"},{"name":"KASIMLI MAH.","zip":"21640"},{"name":"KAYADERE MAH.","zip":"21640"},{"name":"KAZANDAĞI MAH.","zip":"21640"},{"name":"KEKLİKDERE MAH.","zip":"21640"},{"name":"KIRAÇTEPE MAH.","zip":"21640"},{"name":"KIZLAR MAH.","zip":"21640"},{"name":"KONAK MAH.","zip":"21640"},{"name":"KUMGÖLÜ MAH.","zip":"21640"},{"name":"KUMLUK MAH.","zip":"21640"},{"name":"KUTLUALAN MAH.","zip":"21640"},{"name":"MALABADİ MAH.","zip":"21640"},{"name":"MESCİT MAH.","zip":"21640"},{"name":"NOHUTTEPE MAH.","zip":"21640"},{"name":"ONBAŞILAR MAH.","zip":"21640"},{"name":"ORMANDIŞI MAH.","zip":"21640"},{"name":"OTLUK MAH.","zip":"21640"},{"name":"SAĞLIK MAH.","zip":"21640"},{"name":"SARIBUĞDAY MAH.","zip":"21640"},{"name":"SELAHATTİN MAH.","zip":"21640"},{"name":"SULAK MAH.","zip":"21640"},{"name":"SULUBAĞ MAH.","zip":"21640"},{"name":"SUSUZ MAH.","zip":"21640"},{"name":"ŞANLI MAH.","zip":"21640"},{"name":"TAŞPINAR MAH.","zip":"21640"},{"name":"TEKEL MAH.","zip":"21640"},{"name":"TOKLUCA MAH.","zip":"21640"},{"name":"UMUR MAH.","zip":"21640"},{"name":"ÜÇBASAMAK MAH.","zip":"21640"},{"name":"YENİDOĞAN MAH.","zip":"21640"},{"name":"YENİKÖY MAH.","zip":"21640"},{"name":"YENİŞEHİR MAH.","zip":"21640"},{"name":"YEŞERDİ MAH.","zip":"21640"},{"name":"YEŞİLBAHÇE MAH.","zip":"21640"},{"name":"YEŞİLKÖY MAH.","zip":"21640"},{"name":"YOLAÇ MAH.","zip":"21640"},{"name":"YOLARASI MAH.","zip":"21640"},{"name":"YUKARIVEYSİ MAH.","zip":"21640"},{"name":"YUVA MAH.","zip":"21640"},{"name":"YÜKSEK MAH.","zip":"21640"}]},{"name":"BALIKÇILARBAŞI","cityName":null,"quarters":[{"name":"ALABAL MAH.","zip":"21200"},{"name":"ALCIK MAH.","zip":"21200"},{"name":"ALİBARDAK MAH.","zip":"21200"},{"name":"ARPADERESİ MAH.","zip":"21200"},{"name":"BAĞPINAR MAH.","zip":"21200"},{"name":"BAHÇECİK MAH.","zip":"21200"},{"name":"BAROĞLU MAH.","zip":"21200"},{"name":"BEYBULAK MAH.","zip":"21200"},{"name":"BOSTANPINAR MAH.","zip":"21200"},{"name":"BOZDEMİR MAH.","zip":"21200"},{"name":"BÜYÜKAKÖREN MAH.","zip":"21200"},{"name":"BÜYÜKKADI MAH.","zip":"21200"},{"name":"CEMAL YILMAZ MAH.","zip":"21200"},{"name":"CEVAT PAŞA MAH.","zip":"21200"},{"name":"ÇATAKSU MAH.","zip":"21200"},{"name":"ÇELİKLİ MAH.","zip":"21200"},{"name":"ÇUBUKLU MAH.","zip":"21200"},{"name":"DERVİŞHASAN MAH.","zip":"21200"},{"name":"DİCLE MAH.","zip":"21200"},{"name":"DOĞANLI MAH.","zip":"21200"},{"name":"DOĞU ÇANAKÇI MAH.","zip":"21200"},{"name":"DUMRUL MAH.","zip":"21200"},{"name":"ERİMLİ MAH.","zip":"21200"},{"name":"ERYOLU MAH.","zip":"21200"},{"name":"ESENBAĞ MAH.","zip":"21200"},{"name":"FATİHPAŞA MAH.","zip":"21200"},{"name":"FİDANLAR MAH.","zip":"21200"},{"name":"GENCAN MAH.","zip":"21200"},{"name":"GÖLPINAR MAH.","zip":"21200"},{"name":"GÜLTEPE MAH.","zip":"21200"},{"name":"HACIOSMAN MAH.","zip":"21200"},{"name":"HARMANLAR MAH.","zip":"21200"},{"name":"HASIRLI MAH.","zip":"21200"},{"name":"HAVACILAR MAH.","zip":"21200"},{"name":"HIZIR İLYAS MAH.","zip":"21200"},{"name":"KABASAKAL MAH.","zip":"21200"},{"name":"KAPAKLIPINAR MAH.","zip":"21200"},{"name":"KARABAŞ MAH.","zip":"21200"},{"name":"KARACAÖREN MAH.","zip":"21200"},{"name":"KARAÇALI MAH.","zip":"21200"},{"name":"KARAÇİMEN MAH.","zip":"21200"},{"name":"KARDEŞLER MAH.","zip":"21200"},{"name":"KARPUZLU MAH.","zip":"21200"},{"name":"KARPUZTEPE MAH.","zip":"21200"},{"name":"KARTALTEPE MAH.","zip":"21200"},{"name":"KAVAKLIBAĞ MAH.","zip":"21200"},{"name":"KAYAYOLU MAH.","zip":"21200"},{"name":"KENGERLİ MAH.","zip":"21200"},{"name":"KERVANPINAR MAH.","zip":"21200"},{"name":"KIRMASIRT MAH.","zip":"21200"},{"name":"KITILBIL MAH.","zip":"21200"},{"name":"KONACIK MAH.","zip":"21200"},{"name":"KOYUNGÜDEN MAH.","zip":"21200"},{"name":"KOZAN MAH.","zip":"21200"},{"name":"KÖPRÜBAŞI MAH.","zip":"21200"},{"name":"KÖŞK MAH.","zip":"21200"},{"name":"KUMLUÇAT MAH.","zip":"21200"},{"name":"KUMRUCAK MAH.","zip":"21200"},{"name":"KUŞBURNU MAH.","zip":"21200"},{"name":"KUŞLUKBAĞI MAH.","zip":"21200"},{"name":"KÜÇÜKAKÖREN MAH.","zip":"21200"},{"name":"KÜÇÜKKADI MAH.","zip":"21200"},{"name":"MERMER MAH.","zip":"21200"},{"name":"MERMERİ MAH.","zip":"21200"},{"name":"NEFİRTAŞ MAH.","zip":"21200"},{"name":"ÖZEKLİ MAH.","zip":"21200"},{"name":"PINARDÜZÜ MAH.","zip":"21200"},{"name":"SAĞDIÇLI MAH.","zip":"21200"},{"name":"SAPANCA MAH.","zip":"21200"},{"name":"SARIKAMIŞ MAH.","zip":"21200"},{"name":"SARILAR MAH.","zip":"21200"},{"name":"SARIYAZMA MAH.","zip":"21200"},{"name":"SATİ MAH.","zip":"21200"},{"name":"SAVAŞ MAH.","zip":"21200"},{"name":"SAYARLAR MAH.","zip":"21200"},{"name":"SOĞANLI MAH.","zip":"21200"},{"name":"SÜNGÜLER MAH.","zip":"21200"},{"name":"TANOĞLU MAH.","zip":"21200"},{"name":"TEZGEÇER MAH.","zip":"21200"},{"name":"YARIMCA MAH.","zip":"21200"},{"name":"YENİCE MAH.","zip":"21200"},{"name":"YENİDOĞAN MAH.","zip":"21200"},{"name":"YENİEVLER MAH.","zip":"21200"},{"name":"YEŞİLKÖY MAH.","zip":"21200"},{"name":"YEŞİLLİ MAH.","zip":"21200"},{"name":"YEŞİLVADİ MAH.","zip":"21200"},{"name":"YİĞİTÇAVUŞ MAH.","zip":"21200"},{"name":"YUKARIKILIÇTAŞI MAH.","zip":"21200"},{"name":"ZİYARET MAH.","zip":"21200"}]},{"name":"SURİÇİ","cityName":null,"quarters":[{"name":"ALİ PAŞA MAH.","zip":"21300"},{"name":"CAMİ KEBİR MAH.","zip":"21300"},{"name":"CAMİ NEBİ MAH.","zip":"21300"},{"name":"DABANOĞLU MAH.","zip":"21300"},{"name":"İSKENDERPAŞA MAH.","zip":"21300"},{"name":"LALEBEY MAH.","zip":"21300"},{"name":"MELİKAHMET MAH.","zip":"21300"},{"name":"SÜLEYMAN NAZİF MAH.","zip":"21300"},{"name":"ZİYA GÖKALP MAH.","zip":"21300"}]},{"name":"CUMHURİYET","cityName":null,"quarters":[{"name":"CUMHURİYET MAH.","zip":"21120"},{"name":"GÜRDOĞAN MAH.","zip":"21120"}]},{"name":"ŞEHİTLİK","cityName":null,"quarters":[{"name":"BAHÇELİEVLER MAH.","zip":"21010"},{"name":"ÇİMENLER MAH.","zip":"21010"},{"name":"DOKUZÇELTİK MAH.","zip":"21010"},{"name":"DÖKMETAŞ MAH.","zip":"21010"},{"name":"DÖNÜMLÜ MAH.","zip":"21010"},{"name":"ELİDOLU MAH.","zip":"21010"},{"name":"ESER MAH.","zip":"21010"},{"name":"GÜVENDERE MAH.","zip":"21010"},{"name":"GÜVERCİNLİK MAH.","zip":"21010"},{"name":"GÜZELKÖY MAH.","zip":"21010"},{"name":"İLBAŞ MAH.","zip":"21010"},{"name":"KESİKAĞAÇ MAH.","zip":"21010"},{"name":"SANCAR MAH.","zip":"21010"},{"name":"ŞEHİTLİK MAH.","zip":"21010"},{"name":"TANIŞIK MAH.","zip":"21010"},{"name":"ÜÇKUYU MAH.","zip":"21010"},{"name":"YOLALTI MAH.","zip":"21010"},{"name":"YÜKSEK MAH.","zip":"21010"}]},{"name":"YENİŞEHİR","cityName":null,"quarters":[{"name":"ALANGÖR MAH.","zip":"21100"},{"name":"BAŞİL MAH.","zip":"21100"},{"name":"BOZEK MAH.","zip":"21100"},{"name":"ÇAKMAK MAH.","zip":"21100"},{"name":"DİCLE MAH.","zip":"21100"},{"name":"DİKENTEPE MAH.","zip":"21100"},{"name":"EKİNCİLER MAH.","zip":"21100"},{"name":"FABRİKA MAH.","zip":"21100"},{"name":"FERİT KÖŞK MAH.","zip":"21100"},{"name":"GEYİKTEPE MAH.","zip":"21100"},{"name":"HANTEPE MAH.","zip":"21100"},{"name":"KOOPERATİFLER MAH.","zip":"21100"},{"name":"SARIYATAK MAH.","zip":"21100"},{"name":"SEYRANTEPE SANAYİ MAH.","zip":"21100"},{"name":"SİVRİTEPE MAH.","zip":"21100"},{"name":"YAYTAŞ MAH.","zip":"21100"},{"name":"YENİŞEHİR MAH.","zip":"21100"},{"name":"YUKARI NASIRLAR MAH.","zip":"21100"}]}]}]}