{"id":22,"name":"EDİRNE","cities":[{"name":"city","districts":[{"name":"ENEZ","cityName":null,"quarters":null},{"name":"MERKEZKÖYLER","cityName":null,"quarters":[{"name":"BÜYÜKEVREN KÖYÜ","zip":"22750"},{"name":"ÇANDIR KÖYÜ","zip":"22750"},{"name":"ÇAVUŞKÖY KÖYÜ","zip":"22750"},{"name":"ÇERİBAŞI KÖYÜ","zip":"22750"},{"name":"GÜLÇAVUŞ KÖYÜ","zip":"22750"},{"name":"HASKÖY KÖYÜ","zip":"22750"},{"name":"HİSARLI KÖYÜ","zip":"22750"},{"name":"IŞIKLI KÖYÜ","zip":"22750"},{"name":"KARAİNCİRLİ KÖYÜ","zip":"22750"},{"name":"KOCAALİ KÖYÜ","zip":"22750"},{"name":"KÜÇÜKEVREN KÖYÜ","zip":"22750"},{"name":"SULTANİÇE KÖYÜ","zip":"22750"},{"name":"SÜTÇÜLER KÖYÜ","zip":"22750"},{"name":"ŞEHİTLER KÖYÜ","zip":"22750"},{"name":"UMURBEY KÖYÜ","zip":"22750"},{"name":"VAKIF KÖYÜ","zip":"22750"},{"name":"YAZIR KÖYÜ","zip":"22750"},{"name":"YENİCE KÖYÜ","zip":"22750"}]},{"name":"HASKÖY","cityName":null,"quarters":[{"name":"HABİLLER KÖYÜ","zip":"22530"},{"name":"HASKÖY KÖYÜ","zip":"22530"},{"name":"MUSULCA KÖYÜ","zip":"22530"},{"name":"SÖĞÜTLÜDERE KÖYÜ","zip":"22530"}]},{"name":"HAVSA","cityName":null,"quarters":[{"name":"HACIGAZİ MAH.","zip":"22500"},{"name":"HACIİSA MAH.","zip":"22500"},{"name":"HELVACI MAH.","zip":"22500"},{"name":"VAROŞ MAH.","zip":"22500"},{"name":"YENİ MAH.","zip":"22500"}]},{"name":"MERKEZKÖYLER","cityName":null,"quarters":[{"name":"ABALAR MERKEZ MAH.","zip":"22532"},{"name":"ABALAR MÜCAVİR MAH.","zip":"22532"},{"name":"AZATLI KÖYÜ","zip":"22532"},{"name":"BAKIŞLAR KÖYÜ","zip":"22532"},{"name":"BOSTANLI KÖYÜ","zip":"22532"},{"name":"ÇUKURKÖY KÖYÜ","zip":"22532"},{"name":"KABAAĞAÇ KÖYÜ","zip":"22532"},{"name":"KÖSEÖMER KÖYÜ","zip":"22532"},{"name":"KULUBALIK KÖYÜ","zip":"22532"},{"name":"KUZUCU KÖYÜ","zip":"22532"},{"name":"NAİPYUSUF KÖYÜ","zip":"22532"},{"name":"NECATİYE KÖYÜ","zip":"22532"},{"name":"OĞULPAŞA KÖYÜ","zip":"22532"},{"name":"OĞULPAŞA MÜCAVİR MAH.","zip":"22532"},{"name":"OSMANLI KÖYÜ","zip":"22532"},{"name":"REŞADİYE MÜCAVİR MAH.","zip":"22532"},{"name":"ŞERBETTAR KÖYÜ","zip":"22532"},{"name":"TAHAL KÖYÜ","zip":"22532"},{"name":"TAPTIK KÖYÜ","zip":"22532"},{"name":"YOLAGELDİ KÖYÜ","zip":"22532"}]},{"name":"İPSALA","cityName":null,"quarters":[{"name":"BOZKURT MAH.","zip":"22400"},{"name":"KAPUCU MAH.","zip":"22400"},{"name":"KÖPRÜ MAH.","zip":"22400"},{"name":"SARAÇ İLYAS MAH.","zip":"22400"}]},{"name":"MERKEZKÖYLER","cityName":null,"quarters":[{"name":"ALİÇOPEHLİVAN KÖYÜ","zip":"22490"},{"name":"ATATÜRK MAH.","zip":"22490"},{"name":"BALABANCIK KÖYÜ","zip":"22490"},{"name":"CUMHURİYET MAH.","zip":"22490"},{"name":"ESETÇE KÖYÜ","zip":"22490"},{"name":"FEVZİ ÇAKMAK MAH.","zip":"22490"},{"name":"GAZİ MAH.","zip":"22490"},{"name":"GEMİCİ MAH.","zip":"22490"},{"name":"GÜNDOĞAN MAH.","zip":"22490"},{"name":"HACI KÖYÜ","zip":"22490"},{"name":"HAMİDİYE MAH.","zip":"22490"},{"name":"HIDIRKÖY KÖYÜ","zip":"22490"},{"name":"İBRİKTEPE KÖYÜ","zip":"22490"},{"name":"İNÖNÜ MAH.","zip":"22490"},{"name":"KARAAĞAÇ KÖYÜ","zip":"22490"},{"name":"KOCAHIDIR KÖYÜ","zip":"22490"},{"name":"KORUCU KÖYÜ","zip":"22490"},{"name":"KOYUNTEPE KÖYÜ","zip":"22490"},{"name":"KUMDERE KÖYÜ","zip":"22490"},{"name":"KURTULUŞ MAH.","zip":"22490"},{"name":"KÜÇÜKDOĞANCA KÖYÜ","zip":"22490"},{"name":"MENDERES MAH.","zip":"22490"},{"name":"PAŞAKÖY KÖYÜ","zip":"22490"},{"name":"PAZARDERE KÖYÜ","zip":"22490"},{"name":"SARICAALİ KÖYÜ","zip":"22490"},{"name":"SARPDERE KÖYÜ","zip":"22490"},{"name":"SELANİK MAH.","zip":"22490"},{"name":"SULTAN KÖYÜ","zip":"22490"},{"name":"TEVFİKİYE KÖYÜ","zip":"22490"},{"name":"TURPÇULAR KÖYÜ","zip":"22490"},{"name":"YAPILDAK KÖYÜ","zip":"22490"},{"name":"YENİKARPUZLU KÖYÜ","zip":"22490"},{"name":"ZAFERİYE MAH.","zip":"22490"}]},{"name":"KEŞAN","cityName":null,"quarters":[{"name":"BÜYÜK CAMİ MAH.","zip":"22800"},{"name":"CUMHURİYET MAH.","zip":"22800"},{"name":"İSPAT CAMİ MAH.","zip":"22800"},{"name":"İSTASYON MAH.","zip":"22800"},{"name":"MUSTAFA KEMAL PAŞA MAH.","zip":"22800"},{"name":"YENİ MAH.","zip":"22800"},{"name":"YENİMESCİT MAH.","zip":"22800"},{"name":"YUKARI ZAFERİYE MAH.","zip":"22800"}]},{"name":"MECİDİYE","cityName":null,"quarters":[{"name":"ATATÜRK MAH.","zip":"22410"},{"name":"BARAĞI KÖYÜ","zip":"22410"},{"name":"BEYKÖY KÖYÜ","zip":"22410"},{"name":"CUMHURİYET MAH.","zip":"22410"},{"name":"ÇELEBİ KÖYÜ","zip":"22410"},{"name":"ÇELTİK KÖYÜ","zip":"22410"},{"name":"DANİŞMENT KÖYÜ","zip":"22410"},{"name":"DANİŞMENT MAH.","zip":"22410"},{"name":"DİŞBUDAK KÖYÜ","zip":"22410"},{"name":"ERİKLİ KÖYÜ","zip":"22410"},{"name":"ERİKLİ MAH.","zip":"22410"},{"name":"KIZKAPAN KÖYÜ","zip":"22410"},{"name":"KORUKLU KÖYÜ","zip":"22410"},{"name":"MECİDİYE KÖYÜ","zip":"22410"},{"name":"ORHANİYE KÖYÜ","zip":"22410"},{"name":"SULUCA KÖYÜ","zip":"22410"},{"name":"ŞABANMERA KÖYÜ","zip":"22410"},{"name":"YAYLA MAH.","zip":"22410"},{"name":"YAYLAKÖY KÖYÜ","zip":"22410"},{"name":"YEŞİLKÖY KÖYÜ","zip":"22410"}]},{"name":"MERKEZKÖYLER","cityName":null,"quarters":[{"name":"ALTINTAŞ KÖYÜ","zip":"22880"},{"name":"ATATÜRK MAH.","zip":"22880"},{"name":"AYDOĞAN MAH.","zip":"22880"},{"name":"BEĞENDİK KÖYÜ","zip":"22880"},{"name":"BEYKENT MAH.","zip":"22880"},{"name":"BOZTEPE KÖYÜ","zip":"22880"},{"name":"CUMHURİYET MAH.","zip":"22880"},{"name":"ÇOBANÇEŞMESİ KÖYÜ","zip":"22880"},{"name":"GÜNDÜZLER KÖYÜ","zip":"22880"},{"name":"İNÖNÜ MAH.","zip":"22880"},{"name":"İSTİKLAL MAH.","zip":"22880"},{"name":"İZZETİYE MAH.","zip":"22880"},{"name":"KARACAALİ KÖYÜ","zip":"22880"},{"name":"KARAHİSAR KÖYÜ","zip":"22880"},{"name":"KARASATI KÖYÜ","zip":"22880"},{"name":"KEMALPAŞA MAH.","zip":"22880"},{"name":"KILIÇKÖY KÖYÜ","zip":"22880"},{"name":"KOZKÖY KÖYÜ","zip":"22880"},{"name":"KÜÇÜKDOĞANCA KÖYÜ","zip":"22880"},{"name":"LALACIK KÖYÜ","zip":"22880"},{"name":"MALTEPE KÖYÜ","zip":"22880"},{"name":"PAŞAYİĞİT MAH.","zip":"22880"},{"name":"SİĞİLLİ KÖYÜ","zip":"22880"},{"name":"TÜRKMEN KÖYÜ","zip":"22880"},{"name":"YENİ MAH.","zip":"22880"},{"name":"YENİCEÇİFTLİK KÖYÜ","zip":"22880"},{"name":"YENİMUHACİR KÖYÜ","zip":"22880"}]},{"name":"YERLİSU","cityName":null,"quarters":[{"name":"BAHÇEKÖY KÖYÜ","zip":"22272"},{"name":"BÜYÜKDOĞANCA KÖYÜ","zip":"22272"},{"name":"ÇAMLICA KÖYÜ","zip":"22272"},{"name":"FEVZİPAŞA MAH.","zip":"22272"},{"name":"GÖKÇETEPE KÖYÜ","zip":"22272"},{"name":"GÖKÇETEPE MAH.","zip":"22272"},{"name":"KADIKÖY KÖYÜ","zip":"22272"},{"name":"KARLI KÖYÜ","zip":"22272"},{"name":"MAHMUTKÖY KÖYÜ","zip":"22272"},{"name":"MERCAN KÖYÜ","zip":"22272"},{"name":"PIRNAR KÖYÜ","zip":"22272"},{"name":"SAZLIDERE KÖYÜ","zip":"22272"},{"name":"SAZLIDERE MAH.","zip":"22272"},{"name":"SEYDİKÖY KÖYÜ","zip":"22272"},{"name":"ŞÜKRÜKÖY KÖYÜ","zip":"22272"},{"name":"YERLİSU KÖYÜ","zip":"22272"}]},{"name":"LALAPAŞA","cityName":null,"quarters":null},{"name":"MERKEZKÖYLER","cityName":null,"quarters":[{"name":"ÇALLIDERE KÖYÜ","zip":"22970"},{"name":"ÇATMA KÖYÜ","zip":"22970"},{"name":"ÇÖMLEK KÖYÜ","zip":"22970"},{"name":"ÇÖMLEKAKPINAR KÖYÜ","zip":"22970"},{"name":"DEMİRKÖY KÖYÜ","zip":"22970"},{"name":"DOĞANKÖY KÖYÜ","zip":"22970"},{"name":"DOMBAY KÖYÜ","zip":"22970"},{"name":"HACIDANİŞMENT KÖYÜ","zip":"22970"},{"name":"HACILAR KÖYÜ","zip":"22970"},{"name":"HAMZABEYLİ KÖYÜ","zip":"22970"},{"name":"HANLIYENİCE KÖYÜ","zip":"22970"},{"name":"HÜSEYİNPINAR KÖYÜ","zip":"22970"},{"name":"KALKANSÖĞÜT KÖYÜ","zip":"22970"},{"name":"KAVAKLI KÖYÜ","zip":"22970"},{"name":"KÜÇÜNLÜ KÖYÜ","zip":"22970"},{"name":"ORTAKÇI KÖYÜ","zip":"22970"},{"name":"ÖMEROBA KÖYÜ","zip":"22970"},{"name":"SAKSAĞAN KÖYÜ","zip":"22970"},{"name":"SARIDANİŞMENT KÖYÜ","zip":"22970"},{"name":"SİNANKÖY KÖYÜ","zip":"22970"},{"name":"SÜLEYMANDANİŞMENT KÖYÜ","zip":"22970"},{"name":"TAŞLIMÜSELLİM KÖYÜ","zip":"22970"},{"name":"TUĞLALIK KÖYÜ","zip":"22970"},{"name":"UZUNBAYIR KÖYÜ","zip":"22970"},{"name":"VAYSAL KÖYÜ","zip":"22970"},{"name":"YÜNLÜCE KÖYÜ","zip":"22970"}]},{"name":"KÜPLÜ","cityName":null,"quarters":[{"name":"BÜYÜKALTIAĞAÇ KÖYÜ","zip":"22610"},{"name":"GAZİ MAH.","zip":"22610"},{"name":"İZZET PAŞA MAH.","zip":"22610"},{"name":"KÜÇÜKALTIAĞAÇ KÖYÜ","zip":"22610"},{"name":"KÜPLÜ KÖYÜ","zip":"22610"},{"name":"MERKEZ MAH.","zip":"22610"},{"name":"SUBAŞI KÖYÜ","zip":"22610"},{"name":"ŞEHİT MEHMET AYDIN MAH.","zip":"22610"}]},{"name":"MERİÇ","cityName":null,"quarters":[{"name":"K. DOĞANCA MAH.","zip":"22600"}]},{"name":"MERKEZKÖYLER","cityName":null,"quarters":[{"name":"AKINCILAR KÖYÜ","zip":"22680"},{"name":"ALİBEY KÖYÜ","zip":"22680"},{"name":"HASIRCIARNAVUTKÖY KÖYÜ","zip":"22680"},{"name":"KADIDONDURMA KÖYÜ","zip":"22680"},{"name":"KARAHAMZA KÖYÜ","zip":"22680"},{"name":"KARAYUSUFLU KÖYÜ","zip":"22680"},{"name":"KAVAKLI KÖYÜ","zip":"22680"},{"name":"KÜPDERE KÖYÜ","zip":"22680"},{"name":"NASUHBEY KÖYÜ","zip":"22680"},{"name":"OLACAK KÖYÜ","zip":"22680"},{"name":"PAŞAYENİCE KÖYÜ","zip":"22680"},{"name":"RAHMANCA KÖYÜ","zip":"22680"},{"name":"SAATAĞACI KÖYÜ","zip":"22680"},{"name":"SEREM KÖYÜ","zip":"22680"},{"name":"UMURCA KÖYÜ","zip":"22680"},{"name":"YAKUPBEY KÖYÜ","zip":"22680"},{"name":"YENİCEGÖRÜCE KÖYÜ","zip":"22680"}]},{"name":"EDİRNE","cityName":null,"quarters":[{"name":"ABDURRAHMAN MAH.","zip":"22100"},{"name":"BABADEMİRTAŞ MAH.","zip":"22100"},{"name":"BARUTLUK MAH.","zip":"22100"},{"name":"ÇAVUŞBEY MAH.","zip":"22100"},{"name":"DİLAVERBEY MAH.","zip":"22100"},{"name":"FATİH MAH.","zip":"22100"},{"name":"İSTASYON MAH.","zip":"22100"},{"name":"KARAAĞAÇ MAH.","zip":"22100"},{"name":"KOCA SİNAN MAH.","zip":"22100"},{"name":"MEDRESE ALİ BEY MAH.","zip":"22100"},{"name":"MENZİLAHIR MAH.","zip":"22100"},{"name":"MEYDAN MAH.","zip":"22100"},{"name":"MİTHAT PAŞA MAH.","zip":"22100"},{"name":"NİŞANCIPAŞA MAH.","zip":"22100"},{"name":"SABUNİ MAH.","zip":"22100"},{"name":"SARICAPAŞA MAH.","zip":"22100"},{"name":"ŞÜKRÜPAŞA MAH.","zip":"22100"},{"name":"TALATPAŞA MAH.","zip":"22100"},{"name":"UMURBEY MAH.","zip":"22100"},{"name":"YANCIKÇI ŞAHİN MAH.","zip":"22100"},{"name":"YENİİMARET MAH.","zip":"22100"},{"name":"YILDIRIM BEYAZIT MAH.","zip":"22100"},{"name":"YILDIRIM HACI SARRAF MAH.","zip":"22100"}]},{"name":"MERKEZKÖYLER","cityName":null,"quarters":[{"name":"AVARIZ KÖYÜ","zip":"22130"},{"name":"BOSNA KÖYÜ","zip":"22130"},{"name":"BUDAKDOĞANCA KÖYÜ","zip":"22130"},{"name":"BÜYÜKDÖLLÜK KÖYÜ","zip":"22130"},{"name":"BÜYÜKİSMAİLÇE KÖYÜ","zip":"22130"},{"name":"DEĞİRMENYENİ KÖYÜ","zip":"22130"},{"name":"DEMİRHANLI KÖYÜ","zip":"22130"},{"name":"DOYRAN KÖYÜ","zip":"22130"},{"name":"EKMEKÇİ KÖYÜ","zip":"22130"},{"name":"ELÇİLİ KÖYÜ","zip":"22130"},{"name":"ESKİKADIN KÖYÜ","zip":"22130"},{"name":"HACIUMUR KÖYÜ","zip":"22130"},{"name":"HASANAĞA KÖYÜ","zip":"22130"},{"name":"HATİP KÖYÜ","zip":"22130"},{"name":"HIDIRAĞA KÖYÜ","zip":"22130"},{"name":"İSKENDER KÖYÜ","zip":"22130"},{"name":"KARABULUT KÖYÜ","zip":"22130"},{"name":"KARAKASIM KÖYÜ","zip":"22130"},{"name":"KARAYUSUF KÖYÜ","zip":"22130"},{"name":"KAYAPA KÖYÜ","zip":"22130"},{"name":"KEMAL KÖYÜ","zip":"22130"},{"name":"KORUCU KÖYÜ","zip":"22130"},{"name":"KÖŞENÇİFTLİĞİ KÖYÜ","zip":"22130"},{"name":"KÜÇÜKDÖLLÜK KÖYÜ","zip":"22130"},{"name":"MENEKŞESOFULAR KÖYÜ","zip":"22130"},{"name":"MURATÇALI KÖYÜ","zip":"22130"},{"name":"MUSABEYLİ KÖYÜ","zip":"22130"},{"name":"MÜCAVİR DIŞI MAH.","zip":"22130"},{"name":"ORHANİYE KÖYÜ","zip":"22130"},{"name":"SARAYAKPINAR KÖYÜ","zip":"22130"},{"name":"SAZLIDERE KÖYÜ","zip":"22130"},{"name":"SUAKACAĞI KÖYÜ","zip":"22130"},{"name":"TAYAKADIN KÖYÜ","zip":"22130"},{"name":"UZGAÇ KÖYÜ","zip":"22130"},{"name":"ÜYÜKLÜTATAR KÖYÜ","zip":"22130"},{"name":"YENİKADIN KÖYÜ","zip":"22130"},{"name":"YOLÜSTÜ KÖYÜ","zip":"22130"},{"name":"AKARDERE KÖYÜ","zip":"22580"},{"name":"BÜYÜK GERDELLİ KÖYÜ","zip":"22580"},{"name":"DOMURCALI KÖYÜ","zip":"22580"},{"name":"GEÇKİNLİ KÖYÜ","zip":"22580"},{"name":"KERAMETTİN KÖYÜ","zip":"22580"},{"name":"KÜKÜLER KÖYÜ","zip":"22580"},{"name":"SÜLECİK KÖYÜ","zip":"22580"},{"name":"TAŞLISEKBAN KÖYÜ","zip":"22580"},{"name":"TATARLAR KÖYÜ","zip":"22580"},{"name":"YAĞCILI KÖYÜ","zip":"22580"}]},{"name":"SÜLOĞLU","cityName":null,"quarters":[{"name":"MERKEZ MAH.","zip":"22560"},{"name":"ORGANİZE SANAYİ BÖLGESİ MAH.","zip":"22560"},{"name":"ŞAFAK MAH.","zip":"22560"},{"name":"YENİ MAH.","zip":"22560"}]},{"name":"AŞÇIOĞLU","cityName":null,"quarters":[{"name":"ATATÜRK MAH.","zip":"22300"},{"name":"DEMİRTAŞ MAH.","zip":"22300"},{"name":"KAVAK MAH.","zip":"22300"},{"name":"MURADİYE MAH.","zip":"22300"}]},{"name":"ÇÖPKÖY","cityName":null,"quarters":[{"name":"BAYRAMLI KÖYÜ","zip":"22270"},{"name":"BEYKONAK KÖYÜ","zip":"22270"},{"name":"BILDIR KÖYÜ","zip":"22270"},{"name":"DANİŞMENT KÖYÜ","zip":"22270"},{"name":"ELMALI KÖYÜ","zip":"22270"},{"name":"GAZİMEHMET KÖYÜ","zip":"22270"},{"name":"KARABÜRÇEK KÖYÜ","zip":"22270"},{"name":"MUHACIRKADI KÖYÜ","zip":"22270"},{"name":"ÖMERBEY KÖYÜ","zip":"22270"},{"name":"SİPAHİ KÖYÜ","zip":"22270"},{"name":"SULTANŞAH KÖYÜ","zip":"22270"},{"name":"TURNACI KÖYÜ","zip":"22270"},{"name":"YAĞMURCA KÖYÜ","zip":"22270"}]},{"name":"HAMİDİYE","cityName":null,"quarters":[{"name":"ALTINYAZI KÖYÜ","zip":"22402"},{"name":"ATATÜRK MAH.","zip":"22402"},{"name":"BALABAN KÖYÜ","zip":"22402"},{"name":"BALABANKORU KÖYÜ","zip":"22402"},{"name":"ÇAVUŞLU KÖYÜ","zip":"22402"},{"name":"ÇOBANPINAR KÖYÜ","zip":"22402"},{"name":"DEREKÖY KÖYÜ","zip":"22402"},{"name":"FEVZİ ÇAKMAK MAH.","zip":"22402"},{"name":"HAMİDİYE KÖYÜ","zip":"22402"},{"name":"HARMANLI KÖYÜ","zip":"22402"},{"name":"HASANPINAR KÖYÜ","zip":"22402"},{"name":"İNÖNÜ MAH.","zip":"22402"},{"name":"KADIAĞILI KÖYÜ","zip":"22402"},{"name":"KADIKÖY KÖYÜ","zip":"22402"},{"name":"KARAPINAR KÖYÜ","zip":"22402"},{"name":"KAVAKAYAZMA KÖYÜ","zip":"22402"},{"name":"KIRKÖY KÖYÜ","zip":"22402"},{"name":"KURTBEY KÖYÜ","zip":"22402"},{"name":"MAKSUTLU KÖYÜ","zip":"22402"},{"name":"NAMIK KEMAL MAH.","zip":"22402"},{"name":"SÜLEYMANİYE KÖYÜ","zip":"22402"},{"name":"TÜRKOBASI KÖYÜ","zip":"22402"}]},{"name":"KIRCASALİH","cityName":null,"quarters":[{"name":"BALABAN MAH.","zip":"22260"},{"name":"CUMHURİYET MAH.","zip":"22260"},{"name":"İSTİKLAL MAH.","zip":"22260"},{"name":"KIRCASALİH KÖYÜ","zip":"22260"},{"name":"MEŞELİ KÖYÜ","zip":"22260"},{"name":"OKULLAR MAH.","zip":"22260"},{"name":"SAZLIMALKOÇ KÖYÜ","zip":"22260"}]},{"name":"MERKEZKÖYLER","cityName":null,"quarters":[{"name":"ÇALI KÖYÜ","zip":"22360"},{"name":"ÇİFTLİK KÖYÜ","zip":"22360"},{"name":"DEĞİRMENCİ KÖYÜ","zip":"22360"},{"name":"ESKİKÖY KÖYÜ","zip":"22360"},{"name":"GEMİCİ KÖYÜ","zip":"22360"},{"name":"HAMİTLİ KÖYÜ","zip":"22360"},{"name":"KARAYAYLA KÖYÜ","zip":"22360"},{"name":"KAVACIK KÖYÜ","zip":"22360"},{"name":"KIRKKAVAK KÖYÜ","zip":"22360"},{"name":"KİREMİTÇİSALİH KÖYÜ","zip":"22360"},{"name":"KURDU KÖYÜ","zip":"22360"},{"name":"KURTTEPE KÖYÜ","zip":"22360"},{"name":"MALKOÇ KÖYÜ","zip":"22360"},{"name":"SAÇLIMÜSELLİM KÖYÜ","zip":"22360"},{"name":"SALARLI KÖYÜ","zip":"22360"},{"name":"SIĞIRCILI KÖYÜ","zip":"22360"}]},{"name":"UZUNKÖPRÜ","cityName":null,"quarters":[{"name":"CUMHURİYET MAH.","zip":"22200"},{"name":"ÇÖPKÖY MAH.","zip":"22200"},{"name":"HABİB HOCA MAH.","zip":"22200"},{"name":"HALİSE HATUN MAH.","zip":"22200"},{"name":"KÜÇÜK ŞEHSUVARBEY MAH.","zip":"22200"},{"name":"MAREŞAL FEVZİ ÇAKMAK MAH.","zip":"22200"},{"name":"MESCİT MAH.","zip":"22200"},{"name":"MURADİYE CAMİ MAH.","zip":"22200"},{"name":"RIZAEFENDİ MAH.","zip":"22200"},{"name":"YENİKÖY MAH.","zip":"22200"}]}]}]}