{"id":23,"name":"ELAZIĞ","cities":[{"name":"city","districts":[{"name":"AĞIN","cityName":null,"quarters":[{"name":"ŞENPINAR MAH.","zip":"23960"}]},{"name":"MERKEZKÖYLER","cityName":null,"quarters":[{"name":"ALTINAYVA KÖYÜ","zip":"23962"},{"name":"ARMUTLU MAH.","zip":"23962"},{"name":"AŞAĞIYABANLI KÖYÜ","zip":"23962"},{"name":"BADEMLİ KÖYÜ","zip":"23962"},{"name":"BAHADIRLAR KÖYÜ","zip":"23962"},{"name":"BALKAYASI KÖYÜ","zip":"23962"},{"name":"BEYELMASI KÖYÜ","zip":"23962"},{"name":"DEMİRÇARIK KÖYÜ","zip":"23962"},{"name":"DİBEKLİ KÖYÜ","zip":"23962"},{"name":"GÜMÜŞSUYU MAH.","zip":"23962"},{"name":"KAŞPINAR KÖYÜ","zip":"23962"},{"name":"KONAK MAH.","zip":"23962"},{"name":"KURTULUŞ MAH.","zip":"23962"},{"name":"MODANLI KÖYÜ","zip":"23962"},{"name":"ORTAYABANLI MAH.","zip":"23962"},{"name":"ÖĞRENDİK KÖYÜ","zip":"23962"},{"name":"PULKÖY KÖYÜ","zip":"23962"},{"name":"SALKIMLI MAH.","zip":"23962"},{"name":"SAMANÇAY KÖYÜ","zip":"23962"},{"name":"SARAYCIK KÖYÜ","zip":"23962"},{"name":"TARLABAŞI MAH.","zip":"23962"},{"name":"YEDİBAĞ KÖYÜ","zip":"23962"},{"name":"YENİPAYAM KÖYÜ","zip":"23962"}]},{"name":"ALACAKAYA","cityName":null,"quarters":[{"name":"ALTIOLUK MAH.","zip":"23410"},{"name":"GÜLAMAN MAH.","zip":"23410"},{"name":"GÜNDOĞDU MAH.","zip":"23410"},{"name":"MERKEZ MAH.","zip":"23410"},{"name":"SULARBAŞI MAH.","zip":"23410"}]},{"name":"MERKEZKÖYLER","cityName":null,"quarters":[{"name":"BAKLADAMLAR KÖYÜ","zip":"23412"},{"name":"ÇAKMAKKAYA KÖYÜ","zip":"23412"},{"name":"ÇALLICA MAH.","zip":"23412"},{"name":"ÇANAKÇA KÖYÜ","zip":"23412"},{"name":"ÇATAKLI KÖYÜ","zip":"23412"},{"name":"DAVAN MAH.","zip":"23412"},{"name":"DÜZAĞAÇ MAH.","zip":"23412"},{"name":"ESENLİK KÖYÜ","zip":"23412"},{"name":"GÜRÇUBUK KÖYÜ","zip":"23412"},{"name":"HALKALI KÖYÜ","zip":"23412"},{"name":"İNCEBAYIR KÖYÜ","zip":"23412"},{"name":"KAYRANLI KÖYÜ","zip":"23412"},{"name":"OĞUZ MAH.","zip":"23412"},{"name":"YALNIZDAMLAR KÖYÜ","zip":"23412"},{"name":"YILMAZ MAH.","zip":"23412"}]},{"name":"ARICAK","cityName":null,"quarters":[{"name":"HALİL YAVUZ MAH.","zip":"23510"},{"name":"HÜRRİYET MAH.","zip":"23510"},{"name":"MUSTAFA ÇELEBİ MAH.","zip":"23510"},{"name":"SAMAN MAH.","zip":"23510"},{"name":"SERİNEVLER MAH.","zip":"23510"},{"name":"SİMSERKİS MAH.","zip":"23510"},{"name":"VALİ GÖKTAYOĞLU MAH.","zip":"23510"}]},{"name":"MERKEZKÖYLER","cityName":null,"quarters":[{"name":"ALBAYRAK MAH.","zip":"23512"},{"name":"BOĞAZLI MAH.","zip":"23512"},{"name":"BOZÇAVUŞ KÖYÜ","zip":"23512"},{"name":"BÖLÜKBAŞI MAH.","zip":"23512"},{"name":"BÜKARDI KÖYÜ","zip":"23512"},{"name":"CAMİ MAH.","zip":"23512"},{"name":"CUMHURİYET MAH.","zip":"23512"},{"name":"ÇAVUŞDERE KÖYÜ","zip":"23512"},{"name":"ÇAY MAH.","zip":"23512"},{"name":"ÇEVRECİK KÖYÜ","zip":"23512"},{"name":"ERBAĞI KÖYÜ","zip":"23512"},{"name":"ERİMLİ KÖYÜ","zip":"23512"},{"name":"GÖRÜNDÜ KÖYÜ","zip":"23512"},{"name":"GÖZTEPE MAH.","zip":"23512"},{"name":"GÜLEÇ MAH.","zip":"23512"},{"name":"GÜVENEVLER MAH.","zip":"23512"},{"name":"HABERCİ MAH.","zip":"23512"},{"name":"ILICAK MAH.","zip":"23512"},{"name":"KAMBERTEPE KÖYÜ","zip":"23512"},{"name":"KAPLANBAĞ MAH.","zip":"23512"},{"name":"KARAKAŞ KÖYÜ","zip":"23512"},{"name":"KAYAHİSAR KÖYÜ","zip":"23512"},{"name":"KIŞLA MAH.","zip":"23512"},{"name":"KUTLU DÜĞÜN MAH.","zip":"23512"},{"name":"KÜPLÜCE KÖYÜ","zip":"23512"},{"name":"MERKEZ MAH.","zip":"23512"},{"name":"ORMANPINAR KÖYÜ","zip":"23512"},{"name":"PINARBAŞI MAH.","zip":"23512"},{"name":"TİL MAH.","zip":"23512"},{"name":"UZUN SÖĞÜT MAH.","zip":"23512"},{"name":"ÜÇOCAK KÖYÜ","zip":"23512"},{"name":"YAYLABAŞI MAH.","zip":"23512"},{"name":"YOĞUNBİLEK KÖYÜ","zip":"23512"},{"name":"ZEYNET MAH.","zip":"23512"},{"name":"ZİYARET MAH.","zip":"23512"}]},{"name":"BASKİL","cityName":null,"quarters":[{"name":"CUMHURİYET MAH.","zip":"23800"},{"name":"ESKİBASKİL MAH.","zip":"23800"},{"name":"MUSTAFA DEMİREL MAH.","zip":"23800"},{"name":"ODABAŞI MAH.","zip":"23800"},{"name":"ŞEFKAT MAH.","zip":"23800"}]},{"name":"MERKEZKÖYLER","cityName":null,"quarters":[{"name":"AKARSU MAH.","zip":"23802"},{"name":"AKBAYIR MAH.","zip":"23802"},{"name":"AKÇALAR MAH.","zip":"23802"},{"name":"AKDEMİR KÖYÜ","zip":"23802"},{"name":"AKKONAK MAH.","zip":"23802"},{"name":"AKKUŞ MAH.","zip":"23802"},{"name":"AKSAKAL MAH.","zip":"23802"},{"name":"AKTAŞ MAH.","zip":"23802"},{"name":"AKUŞAĞI KÖYÜ","zip":"23802"},{"name":"AKYAZI MAH.","zip":"23802"},{"name":"ALADİKME KÖYÜ","zip":"23802"},{"name":"ALANGÖREN KÖYÜ","zip":"23802"},{"name":"ALİ BAL MAH.","zip":"23802"},{"name":"ALİAĞA MAH.","zip":"23802"},{"name":"ALİBABA MAH.","zip":"23802"},{"name":"ALİHAC MAH.","zip":"23802"},{"name":"ALTINUŞAĞI KÖYÜ","zip":"23802"},{"name":"AMBARLI MAH.","zip":"23802"},{"name":"ASAFLAR MAH.","zip":"23802"},{"name":"AŞAĞI ARDIŞLI MAH.","zip":"23802"},{"name":"AŞAĞI ATLILAR MAH.","zip":"23802"},{"name":"AŞAĞI EŞME MAH.","zip":"23802"},{"name":"AŞAĞI KARDEŞLER MAH.","zip":"23802"},{"name":"AŞAĞIEVLER MAH.","zip":"23802"},{"name":"AŞAĞIGEÇİT MAH.","zip":"23802"},{"name":"AŞAĞIKULUŞAĞI KÖYÜ","zip":"23802"},{"name":"ATAMLAR MAH.","zip":"23802"},{"name":"AYDINLAR MEZRASI MAH.","zip":"23802"},{"name":"AYDOĞAN MAH.","zip":"23802"},{"name":"BAHÇELİ EVLER MAH.","zip":"23802"},{"name":"BALLICA MAH.","zip":"23802"},{"name":"BARIŞ MAH.","zip":"23802"},{"name":"BAŞAĞAÇ MAH.","zip":"23802"},{"name":"BAZNALAR MAH.","zip":"23802"},{"name":"BEJAN MAH.","zip":"23802"},{"name":"BEKCİLİ MAH.","zip":"23802"},{"name":"BEKİRMUSTAFA MAH.","zip":"23802"},{"name":"BELHAN MAH.","zip":"23802"},{"name":"BESİKAN MAH.","zip":"23802"},{"name":"BEŞBÖLÜK KÖYÜ","zip":"23802"},{"name":"BEYAZEVLER MAH.","zip":"23802"},{"name":"BEYLER MAH.","zip":"23802"},{"name":"BİLALUŞAĞI KÖYÜ","zip":"23802"},{"name":"BOLUCUK MAH.","zip":"23802"},{"name":"BOZARMUT MAH.","zip":"23802"},{"name":"BOZOĞLAK KÖYÜ","zip":"23802"},{"name":"BOZOLAR MAH.","zip":"23802"},{"name":"BUDAKLI MAH.","zip":"23802"},{"name":"BÜYÜLER MAH.","zip":"23802"},{"name":"CADDE BOYU MAH.","zip":"23802"},{"name":"CANSIZ KAYIŞ MAH.","zip":"23802"},{"name":"CEBERLER MAH.","zip":"23802"},{"name":"CEBRAİL MAH.","zip":"23802"},{"name":"ÇAĞLAR MAH.","zip":"23802"},{"name":"ÇAKIRLI MAH.","zip":"23802"},{"name":"ÇAMALTI MAH.","zip":"23802"},{"name":"ÇAMLI MAH.","zip":"23802"},{"name":"ÇAPKURLAR MAH.","zip":"23802"},{"name":"ÇAVUŞLU KÖYÜ","zip":"23802"},{"name":"ÇAVUŞLU MAH.","zip":"23802"},{"name":"ÇAYIRAN MAH.","zip":"23802"},{"name":"ÇEVREKÖY MAH.","zip":"23802"},{"name":"ÇİĞDEMLİK KÖYÜ","zip":"23802"},{"name":"ÇİTİLİ MAH.","zip":"23802"},{"name":"ÇOĞANLI MAH.","zip":"23802"},{"name":"ÇOĞRAŞ MAH.","zip":"23802"},{"name":"ÇUBUKLU MAH.","zip":"23802"},{"name":"ÇULHALAR MAH.","zip":"23802"},{"name":"DALLICA MAH.","zip":"23802"},{"name":"DAMLATAŞ MAH.","zip":"23802"},{"name":"DAVUT MAH.","zip":"23802"},{"name":"DAYILAR MAH.","zip":"23802"},{"name":"DELİKTAŞ KÖYÜ","zip":"23802"},{"name":"DEMİRLİBAHÇE KÖYÜ","zip":"23802"},{"name":"DERVİŞLER MAH.","zip":"23802"},{"name":"DEŞT MAH.","zip":"23802"},{"name":"DİĞER KARAKAŞ MAH.","zip":"23802"},{"name":"DİLEK MAH.","zip":"23802"},{"name":"DİYERBEYLER MAH.","zip":"23802"},{"name":"DOĞANCIK KÖYÜ","zip":"23802"},{"name":"DOĞANLAR MAH.","zip":"23802"},{"name":"DOKOŞAĞI MAH.","zip":"23802"},{"name":"DOLMA MAH.","zip":"23802"},{"name":"DORAŞ MAH.","zip":"23802"},{"name":"DÖRTYOL MAH.","zip":"23802"},{"name":"DURSUNLAR MAH.","zip":"23802"},{"name":"DÜĞÜNTEPE KÖYÜ","zip":"23802"},{"name":"DÜŞELİ MAH.","zip":"23802"},{"name":"DÜZ MAH.","zip":"23802"},{"name":"EMİRHAN KÖYÜ","zip":"23802"},{"name":"ERLER MAH.","zip":"23802"},{"name":"ESKİKÖY KÖYÜ","zip":"23802"},{"name":"FADULUŞAĞI MAH.","zip":"23802"},{"name":"FAKİR MAH.","zip":"23802"},{"name":"FIRAT MAH.","zip":"23802"},{"name":"GEDEBÜK MAH.","zip":"23802"},{"name":"GEDEK MAH.","zip":"23802"},{"name":"GEJİKAN MAH.","zip":"23802"},{"name":"GELİ MAH.","zip":"23802"},{"name":"GEMİCİ KÖYÜ","zip":"23802"},{"name":"GÖLELER MAH.","zip":"23802"},{"name":"GÖLLÜCE MAH.","zip":"23802"},{"name":"GÖLUŞAĞI MAH.","zip":"23802"},{"name":"GÜLHAÇ MAH.","zip":"23802"},{"name":"GÜLLÜBAĞ MAH.","zip":"23802"},{"name":"GÜLLÜCE MAH.","zip":"23802"},{"name":"GÜMÜŞÇAY MAH.","zip":"23802"},{"name":"GÜNDÜZ MAH.","zip":"23802"},{"name":"GÜNEŞLİ MAH.","zip":"23802"},{"name":"GÜZELLİ MAH.","zip":"23802"},{"name":"HABİBUŞAĞI KÖYÜ","zip":"23802"},{"name":"HACI HASAN MAH.","zip":"23802"},{"name":"HACI MAH.","zip":"23802"},{"name":"HACI ÖMER MAH.","zip":"23802"},{"name":"HACIHALİLOĞLU MAH.","zip":"23802"},{"name":"HACIHÜSEYİNLER KÖYÜ","zip":"23802"},{"name":"HACIMEHMETLİ KÖYÜ","zip":"23802"},{"name":"HACIMUSTAFA MAH.","zip":"23802"},{"name":"HACIMUSTAFAKÖY KÖYÜ","zip":"23802"},{"name":"HACIUŞAĞI KÖYÜ","zip":"23802"},{"name":"HACIYUSUFLAR MAH.","zip":"23802"},{"name":"HACİ  BEKİR MAH.","zip":"23802"},{"name":"HACİ TEMUR MAH.","zip":"23802"},{"name":"HALİÇLER MAH.","zip":"23802"},{"name":"HALİTOĞLU MAH.","zip":"23802"},{"name":"HARABEKAYIŞ KÖYÜ","zip":"23802"},{"name":"HARDİ MAH.","zip":"23802"},{"name":"HARDİÇAY MAH.","zip":"23802"},{"name":"HARMAN MAH.","zip":"23802"},{"name":"HARMANLI MAH.","zip":"23802"},{"name":"HARMETİK MAH.","zip":"23802"},{"name":"HAYDARKULU MAH.","zip":"23802"},{"name":"HOCALAR MAH.","zip":"23802"},{"name":"HÜYÜKKÖY KÖYÜ","zip":"23802"},{"name":"IŞIKLAR KÖYÜ","zip":"23802"},{"name":"IŞIKLI MAH.","zip":"23802"},{"name":"İÇLİKAVAL KÖYÜ","zip":"23802"},{"name":"İLHANLAR MAH.","zip":"23802"},{"name":"İMİKUŞAĞI KÖYÜ","zip":"23802"},{"name":"İPŞİR MAH.","zip":"23802"},{"name":"İSKENDER MAH.","zip":"23802"},{"name":"KADIKÖY KÖYÜ","zip":"23802"},{"name":"KALE MAH.","zip":"23802"},{"name":"KALECİK MAH.","zip":"23802"},{"name":"KALUŞAĞI MAH.","zip":"23802"},{"name":"KAMİKLİ MAH.","zip":"23802"},{"name":"KANATLI MAH.","zip":"23802"},{"name":"KARAALİ KÖYÜ","zip":"23802"},{"name":"KARACA MAH.","zip":"23802"},{"name":"KARAGEDİK KÖYÜ","zip":"23802"},{"name":"KARAKAŞ KÖYÜ","zip":"23802"},{"name":"KARAKAVAK MAH.","zip":"23802"},{"name":"KARAMEŞE MAH.","zip":"23802"},{"name":"KAROĞLU KÖYÜ","zip":"23802"},{"name":"KARPUZLU MAH.","zip":"23802"},{"name":"KARŞIYAKA MAH.","zip":"23802"},{"name":"KASIMLAR MAH.","zip":"23802"},{"name":"KASUŞAĞI MAH.","zip":"23802"},{"name":"KAYABEYLİ KÖYÜ","zip":"23802"},{"name":"KEÇİK MAH.","zip":"23802"},{"name":"KEÇİLLİ MAH.","zip":"23802"},{"name":"KEM MAH.","zip":"23802"},{"name":"KEMERLİ MAH.","zip":"23802"},{"name":"KILIÇLI MAH.","zip":"23802"},{"name":"KIRAN MAH.","zip":"23802"},{"name":"KIRHASAN MAH.","zip":"23802"},{"name":"KIZILUŞAĞI KÖYÜ","zip":"23802"},{"name":"KIZILYAZI MAH.","zip":"23802"},{"name":"KİZİRUŞAĞI MAH.","zip":"23802"},{"name":"KOÇYOLU KÖYÜ","zip":"23802"},{"name":"KONACIK KÖYÜ","zip":"23802"},{"name":"KONALGA KÖYÜ","zip":"23802"},{"name":"KONUKLU MAH.","zip":"23802"},{"name":"KÖFTELER MAH.","zip":"23802"},{"name":"KÖRBEKİR MAH.","zip":"23802"},{"name":"KÖSEK MAH.","zip":"23802"},{"name":"KÖSEOĞLU MAH.","zip":"23802"},{"name":"KÖZ MAH.","zip":"23802"},{"name":"KUMLU MAH.","zip":"23802"},{"name":"KUMLUTARLA KÖYÜ","zip":"23802"},{"name":"KURAN MAH.","zip":"23802"},{"name":"KURUCU MAH.","zip":"23802"},{"name":"KURUGÜL MAH.","zip":"23802"},{"name":"KUŞSARAYI KÖYÜ","zip":"23802"},{"name":"KUT MAH.","zip":"23802"},{"name":"KUTLUGÜN KÖYÜ","zip":"23802"},{"name":"KUZUCUK MAH.","zip":"23802"},{"name":"KÜLLÜK MAH.","zip":"23802"},{"name":"LAÇULAR MAH.","zip":"23802"},{"name":"MEMİŞLER MAH.","zip":"23802"},{"name":"MERKEZ MAH.","zip":"23802"},{"name":"MEŞEŞABAN MAH.","zip":"23802"},{"name":"MEVAL UŞAĞI MAH.","zip":"23802"},{"name":"MEYDANCIK KÖYÜ","zip":"23802"},{"name":"MIŞMİŞLER MAH.","zip":"23802"},{"name":"MOLLABEKİR MAH.","zip":"23802"},{"name":"MOLLAHASAN MAH.","zip":"23802"},{"name":"MOLLAİSMAİL MAH.","zip":"23802"},{"name":"MUNZUR MAH.","zip":"23802"},{"name":"OCAKLI MAH.","zip":"23802"},{"name":"OKUL VE SAĞLIK OCAĞI MAH.","zip":"23802"},{"name":"OMİK MAH.","zip":"23802"},{"name":"ONBAŞI MAH.","zip":"23802"},{"name":"OVACIK MAH.","zip":"23802"},{"name":"ÖTEŞALUŞAĞI MAH.","zip":"23802"},{"name":"ÖZBAŞI MAH.","zip":"23802"},{"name":"PAŞAKONAĞI KÖYÜ","zip":"23802"},{"name":"PINARLI KÖYÜ","zip":"23802"},{"name":"RESULKAHYA KÖYÜ","zip":"23802"},{"name":"SAĞIRLAR MAH.","zip":"23802"},{"name":"SAKOLAR MAH.","zip":"23802"},{"name":"SAL MAH.","zip":"23802"},{"name":"SAMANLI MAH.","zip":"23802"},{"name":"SAPANLI MAH.","zip":"23802"},{"name":"SARITAŞ KÖYÜ","zip":"23802"},{"name":"SEKMEN MAH.","zip":"23802"},{"name":"SELVİLER MAH.","zip":"23802"},{"name":"SİNAN MAH.","zip":"23802"},{"name":"SİNCAN MAH.","zip":"23802"},{"name":"SOYLU MAH.","zip":"23802"},{"name":"SÖĞÜTDERE KÖYÜ","zip":"23802"},{"name":"SUBAŞI MAH.","zip":"23802"},{"name":"SUBAYLAR MAH.","zip":"23802"},{"name":"SULTANUŞAĞI KÖYÜ","zip":"23802"},{"name":"SUYATAĞI KÖYÜ","zip":"23802"},{"name":"SÜLEYMAN MAH.","zip":"23802"},{"name":"SÜTLÜCE MAH.","zip":"23802"},{"name":"ŞAH MAH.","zip":"23802"},{"name":"ŞAHAPLI KÖYÜ","zip":"23802"},{"name":"ŞAHİNDERE KÖYÜ","zip":"23802"},{"name":"ŞAHİNLER MAH.","zip":"23802"},{"name":"ŞARGE MAH.","zip":"23802"},{"name":"ŞAVAKLI MAH.","zip":"23802"},{"name":"ŞEYH HASAN KÖYÜ","zip":"23802"},{"name":"ŞİMŞEK MAH.","zip":"23802"},{"name":"ŞİTUŞAĞI KÖYÜ","zip":"23802"},{"name":"ŞÜKÜR MAH.","zip":"23802"},{"name":"TABAKLAR MAH.","zip":"23802"},{"name":"TACİKAN MAH.","zip":"23802"},{"name":"TARLACIK MAH.","zip":"23802"},{"name":"TAŞKAPI MAH.","zip":"23802"},{"name":"TAŞLIK MAH.","zip":"23802"},{"name":"TATLIPAYAM KÖYÜ","zip":"23802"},{"name":"TAVŞANUŞAĞI KÖYÜ","zip":"23802"},{"name":"TAVUKLU MAH.","zip":"23802"},{"name":"TEKAĞAÇ MAH.","zip":"23802"},{"name":"TEMURHALİL MAH.","zip":"23802"},{"name":"TEPE ALTI MAH.","zip":"23802"},{"name":"TOPAL MAH.","zip":"23802"},{"name":"TOPALUŞAĞI KÖYÜ","zip":"23802"},{"name":"TOPLUCA MAH.","zip":"23802"},{"name":"TUZLUCA MAH.","zip":"23802"},{"name":"TÜRBE MAH.","zip":"23802"},{"name":"UĞURLU MAH.","zip":"23802"},{"name":"ÜÇBÖLÜK MAH.","zip":"23802"},{"name":"ÜSMIHTAN MAH.","zip":"23802"},{"name":"ÜZÜMLÜ MAH.","zip":"23802"},{"name":"VELİPALAS MAH.","zip":"23802"},{"name":"Y.İ.Ö.B.O. MAH.","zip":"23802"},{"name":"YAĞMURLU MAH.","zip":"23802"},{"name":"YALINDAM KÖYÜ","zip":"23802"},{"name":"YAMAÇLI MAH.","zip":"23802"},{"name":"YANIK BAĞ MAH.","zip":"23802"},{"name":"YAPRAKLI MAH.","zip":"23802"},{"name":"YAŞAR MAH.","zip":"23802"},{"name":"YAYLANLI KÖYÜ","zip":"23802"},{"name":"YAZIEVLERİ MAH.","zip":"23802"},{"name":"YAZIKONAK MAH.","zip":"23802"},{"name":"YENİ MAH.","zip":"23802"},{"name":"YENİOCAK KÖYÜ","zip":"23802"},{"name":"YILDIZLI KÖYÜ","zip":"23802"},{"name":"YIRIKLAR MAH.","zip":"23802"},{"name":"YUKARI ARDIÇLI MAH.","zip":"23802"},{"name":"YUKARI ATLILAR MAH.","zip":"23802"},{"name":"YUKARI ÇİDE MAH.","zip":"23802"},{"name":"YUKARI DELİKTAŞ MAH.","zip":"23802"},{"name":"YUKARI EŞME MAH.","zip":"23802"},{"name":"YUKARI KARDEŞLER MAH.","zip":"23802"},{"name":"YUKARI ZEMZEM MAH.","zip":"23802"},{"name":"YUKARIGEÇİT MAH.","zip":"23802"},{"name":"YUKARIKÖY MAH.","zip":"23802"},{"name":"YUKARIKULUŞAĞI KÖYÜ","zip":"23802"},{"name":"YUSUFLU MAH.","zip":"23802"},{"name":"YUVACIK MAH.","zip":"23802"},{"name":"YUVALAR MAH.","zip":"23802"},{"name":"YÜREKLİ KÖYÜ","zip":"23802"},{"name":"YÜZGEÇLER MAH.","zip":"23802"},{"name":"ZELİHAN MAH.","zip":"23802"},{"name":"ZİYARET MAH.","zip":"23802"}]},{"name":"KARAKOÇAN","cityName":null,"quarters":[{"name":"GÖLPINAR MAH.","zip":"23600"},{"name":"KARŞIYAKA MAH.","zip":"23600"},{"name":"KIRKPINAR MAH.","zip":"23600"},{"name":"KULUBABA MAH.","zip":"23600"},{"name":"TEPE MAH.","zip":"23600"},{"name":"YENİ MAH.","zip":"23600"}]},{"name":"MERKEZKÖYLER","cityName":null,"quarters":[{"name":"AĞAMEZRASI KÖYÜ","zip":"23602"},{"name":"AKARBAŞI KÖYÜ","zip":"23602"},{"name":"AKBULAK KÖYÜ","zip":"23602"},{"name":"AKÇİÇEK KÖYÜ","zip":"23602"},{"name":"AKKUŞ KÖYÜ","zip":"23602"},{"name":"AKPINAR KÖYÜ","zip":"23602"},{"name":"AKYOKUŞ KÖYÜ","zip":"23602"},{"name":"ALABAL KÖYÜ","zip":"23602"},{"name":"ALAYAĞMUR KÖYÜ","zip":"23602"},{"name":"ALİ MEZRASI MAH.","zip":"23602"},{"name":"ALTINOLUK KÖYÜ","zip":"23602"},{"name":"AŞAĞI MAH.","zip":"23602"},{"name":"AŞAĞIOVACIK KÖYÜ","zip":"23602"},{"name":"BAĞLIAĞAÇ KÖYÜ","zip":"23602"},{"name":"BAHÇECİK KÖYÜ","zip":"23602"},{"name":"BALCALI KÖYÜ","zip":"23602"},{"name":"BARDAKLI KÖYÜ","zip":"23602"},{"name":"BAŞYURT KÖYÜ","zip":"23602"},{"name":"BAZLAMA KÖYÜ","zip":"23602"},{"name":"BEYDERE KÖYÜ","zip":"23602"},{"name":"BULGURCUK KÖYÜ","zip":"23602"},{"name":"CABBAR MAH.","zip":"23602"},{"name":"CUMHURİYET KÖYÜ","zip":"23602"},{"name":"ÇALIKAYA KÖYÜ","zip":"23602"},{"name":"ÇAMARDI KÖYÜ","zip":"23602"},{"name":"ÇAN KÖYÜ","zip":"23602"},{"name":"ÇANAKÇI KÖYÜ","zip":"23602"},{"name":"ÇATALYOL KÖYÜ","zip":"23602"},{"name":"ÇAVUŞYOLU KÖYÜ","zip":"23602"},{"name":"ÇAYIRDAM KÖYÜ","zip":"23602"},{"name":"ÇAYIRGÜLÜ KÖYÜ","zip":"23602"},{"name":"ÇAYIRLIK MAH.","zip":"23602"},{"name":"ÇELEBİ KÖYÜ","zip":"23602"},{"name":"ÇİTAK KÖYÜ","zip":"23602"},{"name":"ÇUKURCA MAH.","zip":"23602"},{"name":"DAL MAH.","zip":"23602"},{"name":"DEDE MEZRASI MAH.","zip":"23602"},{"name":"DEĞİRMEN MAH.","zip":"23602"},{"name":"DEĞİRMENDERE MAH.","zip":"23602"},{"name":"DEĞİRMENDÜZÜ MAH.","zip":"23602"},{"name":"DELİTAŞ MAH.","zip":"23602"},{"name":"DEMİRDELEN KÖYÜ","zip":"23602"},{"name":"DEMİRTAŞ KÖYÜ","zip":"23602"},{"name":"DEMİRTEPE KÖYÜ","zip":"23602"},{"name":"DERİNCE MAH.","zip":"23602"},{"name":"DEVECİ KÖYÜ","zip":"23602"},{"name":"DEVECİ YOL ALTI MAH.","zip":"23602"},{"name":"DOĞANÇUKUR MAH.","zip":"23602"},{"name":"DOĞANOĞLU KÖYÜ","zip":"23602"},{"name":"DOKUZ VEREN MAH.","zip":"23602"},{"name":"DUMLUYAZI KÖYÜ","zip":"23602"},{"name":"DURMUŞKÖY KÖYÜ","zip":"23602"},{"name":"DURSUN MAH.","zip":"23602"},{"name":"DÜĞÜNLÜ MAH.","zip":"23602"},{"name":"ELİF MAH.","zip":"23602"},{"name":"GELİNCİK MAH.","zip":"23602"},{"name":"GORDAN MAH.","zip":"23602"},{"name":"GÖLYAYLASI MAH.","zip":"23602"},{"name":"GÖZEREK KÖYÜ","zip":"23602"},{"name":"GÜLHÜSEYİN MAH.","zip":"23602"},{"name":"GÜLLÜCE KÖYÜ","zip":"23602"},{"name":"GÜMÜŞAKAR KÖYÜ","zip":"23602"},{"name":"GÜNDEĞDİ KÖYÜ","zip":"23602"},{"name":"HAMURKESEN KÖYÜ","zip":"23602"},{"name":"HAMZALI KÖYÜ","zip":"23602"},{"name":"İLBEY MAH.","zip":"23602"},{"name":"İNCELER MAH.","zip":"23602"},{"name":"İSABEY KÖYÜ","zip":"23602"},{"name":"KALECİK KÖYÜ","zip":"23602"},{"name":"KALKANKAYA KÖYÜ","zip":"23602"},{"name":"KARABÜK MAH.","zip":"23602"},{"name":"KARAÇAN KÖYÜ","zip":"23602"},{"name":"KARAKOÇAN KÖYÜ","zip":"23602"},{"name":"KARAPINAR KÖYÜ","zip":"23602"},{"name":"KARASAKAL KÖYÜ","zip":"23602"},{"name":"KAVAKDERE KÖYÜ","zip":"23602"},{"name":"KAVALCIK KÖYÜ","zip":"23602"},{"name":"KEKLİKKÖY KÖYÜ","zip":"23602"},{"name":"KENGERLİ MAH.","zip":"23602"},{"name":"KIRGIL KÖYÜ","zip":"23602"},{"name":"KIZILCA KÖYÜ","zip":"23602"},{"name":"KIZILPINAR KÖYÜ","zip":"23602"},{"name":"KOCADAYI KÖYÜ","zip":"23602"},{"name":"KOÇ MAH.","zip":"23602"},{"name":"KOÇAN MAH.","zip":"23602"},{"name":"KOÇYİĞİTLER KÖYÜ","zip":"23602"},{"name":"KORUDİBİ KÖYÜ","zip":"23602"},{"name":"KÖM MAH.","zip":"23602"},{"name":"KÖRYUSUF KÖYÜ","zip":"23602"},{"name":"KUBATLI MAH.","zip":"23602"},{"name":"KUCAK MAH.","zip":"23602"},{"name":"KULUNDERE KÖYÜ","zip":"23602"},{"name":"KURUCA MAH.","zip":"23602"},{"name":"KURUK MAH.","zip":"23602"},{"name":"KUŞBAYIRI KÖYÜ","zip":"23602"},{"name":"KUŞÇU KÖYÜ","zip":"23602"},{"name":"KUŞÇU PALU YOLU MAH.","zip":"23602"},{"name":"KÜMBET KÖYÜ","zip":"23602"},{"name":"MAHMUTLU KÖYÜ","zip":"23602"},{"name":"MAKSUTALİ KÖYÜ","zip":"23602"},{"name":"MEŞELİ MAH.","zip":"23602"},{"name":"MEZRA MAH.","zip":"23602"},{"name":"MİLAHASAN MAH.","zip":"23602"},{"name":"MİRAHMET KÖYÜ","zip":"23602"},{"name":"OKÇULAR KÖYÜ","zip":"23602"},{"name":"ORMANCIK KÖYÜ","zip":"23602"},{"name":"ORTA MAH.","zip":"23602"},{"name":"ÖZLÜCE KÖYÜ","zip":"23602"},{"name":"PAMUKLU KÖYÜ","zip":"23602"},{"name":"PAŞAYAYLASI KÖYÜ","zip":"23602"},{"name":"PEMBELİK MAH.","zip":"23602"},{"name":"PİLAVTEPE KÖYÜ","zip":"23602"},{"name":"POLAN MAH.","zip":"23602"},{"name":"SAĞIN KÖYÜ","zip":"23602"},{"name":"SAĞUCAK KÖYÜ","zip":"23602"},{"name":"SARI CEVİZ MAH.","zip":"23602"},{"name":"SARIBAŞAK KÖYÜ","zip":"23602"},{"name":"SARICAN KÖYÜ","zip":"23602"},{"name":"SARİHAN KÖYÜ","zip":"23602"},{"name":"SÖĞÜTLÜ MAH.","zip":"23602"},{"name":"SUBAŞI MAH.","zip":"23602"},{"name":"SÜLEYMAN ÇİFTLİĞİ MAH.","zip":"23602"},{"name":"ŞAHHÜSEYİN MAH.","zip":"23602"},{"name":"ŞEMAN MAH.","zip":"23602"},{"name":"TATLICA MAH.","zip":"23602"},{"name":"TEKARDIÇ KÖYÜ","zip":"23602"},{"name":"TEPEBAŞI MAH.","zip":"23602"},{"name":"TURAN MAH.","zip":"23602"},{"name":"UYSAL MAH.","zip":"23602"},{"name":"ÜÇBUDAK KÖYÜ","zip":"23602"},{"name":"ÜRÜNLÜ MAH.","zip":"23602"},{"name":"YALINTAŞ KÖYÜ","zip":"23602"},{"name":"YAMAC YOLU MAH.","zip":"23602"},{"name":"YEMİŞLİK MAH.","zip":"23602"},{"name":"YENİCE KÖYÜ","zip":"23602"},{"name":"YENİKAYA KÖYÜ","zip":"23602"},{"name":"YENİKÖY KÖYÜ","zip":"23602"},{"name":"YEŞİLBELEN KÖYÜ","zip":"23602"},{"name":"YOĞUNAĞAÇ KÖYÜ","zip":"23602"},{"name":"YOLCATI MAH.","zip":"23602"},{"name":"YONCALI MAH.","zip":"23602"},{"name":"YUKARIOVACIK KÖYÜ","zip":"23602"},{"name":"YÜCEKONAK KÖYÜ","zip":"23602"},{"name":"YÜZEV KÖYÜ","zip":"23602"},{"name":"ZİLGÖLÜ MAH.","zip":"23602"}]},{"name":"KEBAN","cityName":null,"quarters":[{"name":"DEĞİRMENBAŞI MAH.","zip":"23700"},{"name":"FIRAT MAH.","zip":"23700"},{"name":"KALLAR MAH.","zip":"23700"}]},{"name":"MERKEZKÖYLER","cityName":null,"quarters":[{"name":"AKÇATEPE KÖYÜ","zip":"23702"},{"name":"AKGÖMLEK KÖYÜ","zip":"23702"},{"name":"ALİKAN MEZRASI MAH.","zip":"23702"},{"name":"ALTINKÜREK KÖYÜ","zip":"23702"},{"name":"ALTIYAKA KÖYÜ","zip":"23702"},{"name":"ARKULU MAH.","zip":"23702"},{"name":"ASLANKAŞI KÖYÜ","zip":"23702"},{"name":"AŞAĞI DEMİRLİ MAH.","zip":"23702"},{"name":"AŞAĞI MAH.","zip":"23702"},{"name":"AŞAĞIÇAKMAK KÖYÜ","zip":"23702"},{"name":"AŞÖRGEN MAH.","zip":"23702"},{"name":"BADEMLİ KÖYÜ","zip":"23702"},{"name":"BAHÇELİ KÖYÜ","zip":"23702"},{"name":"BAYINDIR KÖYÜ","zip":"23702"},{"name":"BEYDEĞİRMENİ KÖYÜ","zip":"23702"},{"name":"BÖLÜKÇALI KÖYÜ","zip":"23702"},{"name":"BÜKLÜMLÜ KÖYÜ","zip":"23702"},{"name":"CABBAR MAH.","zip":"23702"},{"name":"CİBAN MEZRASI MAH.","zip":"23702"},{"name":"ÇAKMAKLI MAH.","zip":"23702"},{"name":"ÇALIK ÇAYI MAH.","zip":"23702"},{"name":"ÇALIK KÖYÜ","zip":"23702"},{"name":"ÇAY MEZRASI MAH.","zip":"23702"},{"name":"ÇEVREKAYA KÖYÜ","zip":"23702"},{"name":"DEDE MAH.","zip":"23702"},{"name":"DEĞİRMEN MEVKİİ MAH.","zip":"23702"},{"name":"DENİZLİ KÖYÜ","zip":"23702"},{"name":"DERİNCE MEZRASI MAH.","zip":"23702"},{"name":"DOĞAN MAH.","zip":"23702"},{"name":"DURSUNLU MAH.","zip":"23702"},{"name":"DURSUNLU MEZRASI MAH.","zip":"23702"},{"name":"DÜRÜMLÜ KÖYÜ","zip":"23702"},{"name":"EMRE MAH.","zip":"23702"},{"name":"GÖKBELEN KÖYÜ","zip":"23702"},{"name":"GÖLDERE KÖYÜ","zip":"23702"},{"name":"GÜNEYTEPE KÖYÜ","zip":"23702"},{"name":"HAMURLU MEZRASI MAH.","zip":"23702"},{"name":"İBOLAR MAH.","zip":"23702"},{"name":"KARABEY MEZRASI MAH.","zip":"23702"},{"name":"KARAÇOR MEZRASI MAH.","zip":"23702"},{"name":"KARAHÜSEYİN MEZRASI MAH.","zip":"23702"},{"name":"KARŞI MAH.","zip":"23702"},{"name":"KARŞI MEVKİİ MAH.","zip":"23702"},{"name":"KARŞIYAKA MAH.","zip":"23702"},{"name":"KIRKLAR MEZRASI MAH.","zip":"23702"},{"name":"KOÇEMİN MAH.","zip":"23702"},{"name":"KONAK MEZRASI MAH.","zip":"23702"},{"name":"KOPUZLU KÖYÜ","zip":"23702"},{"name":"KOYUNUŞAĞI KÖYÜ","zip":"23702"},{"name":"KURŞUNKAYA KÖYÜ","zip":"23702"},{"name":"KUŞÇU KÖYÜ","zip":"23702"},{"name":"MANDERE MEZRASI MAH.","zip":"23702"},{"name":"MELİLAN MAH.","zip":"23702"},{"name":"MERKEZ MAH.","zip":"23702"},{"name":"NİMRİ KÖYÜ","zip":"23702"},{"name":"ORTA MEVKİİ MAH.","zip":"23702"},{"name":"ORTA MEZRA MAH.","zip":"23702"},{"name":"ÖRENYAKA KÖYÜ","zip":"23702"},{"name":"PINARLAR MAH.","zip":"23702"},{"name":"SAĞDIÇLAR KÖYÜ","zip":"23702"},{"name":"SİNO MEZRASI MAH.","zip":"23702"},{"name":"SOĞANLI MAH.","zip":"23702"},{"name":"SOĞUK SU MEZRASI MAH.","zip":"23702"},{"name":"SÜLEYMANLI MAH.","zip":"23702"},{"name":"ŞAHVERDİYEN MAH.","zip":"23702"},{"name":"ŞÜŞAN MAH.","zip":"23702"},{"name":"TAKTAH MEZRASI MAH.","zip":"23702"},{"name":"TAŞKESEN KÖYÜ","zip":"23702"},{"name":"TAŞKONAK MEZRASI MAH.","zip":"23702"},{"name":"TOPKIRAN KÖYÜ","zip":"23702"},{"name":"ULUPINAR KÖYÜ","zip":"23702"},{"name":"ÜÇPINAR KÖYÜ","zip":"23702"},{"name":"YAHYALI MEZRASI MAH.","zip":"23702"},{"name":"YUKARI DEMİRLİ MAH.","zip":"23702"},{"name":"YUKARI KUŞÇU MAH.","zip":"23702"},{"name":"YUKARI MAH.","zip":"23702"},{"name":"YUKARI MEVKİİ MAH.","zip":"23702"}]},{"name":"KOVANCILAR","cityName":null,"quarters":[{"name":"BAHÇELİEVLER MAH.","zip":"23850"},{"name":"ÇARŞI BAŞI MAH.","zip":"23850"},{"name":"ÇAY BAŞI MAH.","zip":"23850"},{"name":"FATİH MAH.","zip":"23850"},{"name":"GÜLTEPE MAH.","zip":"23850"},{"name":"HEYBET MAH.","zip":"23850"},{"name":"İSMET PAŞA MAH.","zip":"23850"},{"name":"TOKİ MAH.","zip":"23850"},{"name":"TUNA MAH.","zip":"23850"},{"name":"YENİ MAH.","zip":"23850"}]},{"name":"MERKEZKÖYLER","cityName":null,"quarters":[{"name":"AKMEZRA KÖYÜ","zip":"23852"},{"name":"AKPINAR MAH.","zip":"23852"},{"name":"ALTINKUM MAH.","zip":"23852"},{"name":"AŞAĞI KAZANLAR MAH.","zip":"23852"},{"name":"AŞAĞI MEZRA MAH.","zip":"23852"},{"name":"AŞAĞIDEMİRCİ KÖYÜ","zip":"23852"},{"name":"AŞAĞIKANATLI KÖYÜ","zip":"23852"},{"name":"AŞAĞIKÖSE KÖYÜ","zip":"23852"},{"name":"AŞAĞIMİRAHMET KÖYÜ","zip":"23852"},{"name":"AVLAĞI KÖYÜ","zip":"23852"},{"name":"AYYILDIZ MAH.","zip":"23852"},{"name":"BAĞGÜLÜ KÖYÜ","zip":"23852"},{"name":"BAHÇELİEVLER MAH.","zip":"23852"},{"name":"BAŞAKLI MAH.","zip":"23852"},{"name":"BAYRAMYAZI KÖYÜ","zip":"23852"},{"name":"BEROÇ MAH.","zip":"23852"},{"name":"BEŞARET MAH.","zip":"23852"},{"name":"BEŞPINAR KÖYÜ","zip":"23852"},{"name":"BEYAZ PINAR MAH.","zip":"23852"},{"name":"BİLALKÖY KÖYÜ","zip":"23852"},{"name":"BÜLBÜL MAH.","zip":"23852"},{"name":"CUMHURİYET MAH.","zip":"23852"},{"name":"ÇAKIRKAŞ KÖYÜ","zip":"23852"},{"name":"ÇARŞI MAH.","zip":"23852"},{"name":"ÇATAKBAŞI KÖYÜ","zip":"23852"},{"name":"ÇAYBAĞI KÖYÜ","zip":"23852"},{"name":"ÇELEBİ KÖYÜ","zip":"23852"},{"name":"ÇİFTLİK KÖYÜ","zip":"23852"},{"name":"DEĞİRMENTAŞI KÖYÜ","zip":"23852"},{"name":"DEMİRBAŞ MAH.","zip":"23852"},{"name":"DEMİRCİ KÖYÜ","zip":"23852"},{"name":"DÖRTYOL MAH.","zip":"23852"},{"name":"DURMUŞLAR KÖYÜ","zip":"23852"},{"name":"EKİNBAĞI KÖYÜ","zip":"23852"},{"name":"EKİNÖZÜ KÖYÜ","zip":"23852"},{"name":"EMİRHAN MAH.","zip":"23852"},{"name":"ESEN TEPE MAH.","zip":"23852"},{"name":"ESENKAVAK MAH.","zip":"23852"},{"name":"ESENTEPE MAH.","zip":"23852"},{"name":"FATİH MAH.","zip":"23852"},{"name":"GEDİKYURT KÖYÜ","zip":"23852"},{"name":"GİYİMLİ MAH.","zip":"23852"},{"name":"GÖÇMEZLER KÖYÜ","zip":"23852"},{"name":"GÖKÇEDAL KÖYÜ","zip":"23852"},{"name":"GÖLBAŞI MAH.","zip":"23852"},{"name":"GÖZECİK KÖYÜ","zip":"23852"},{"name":"GÜLÇATI KÖYÜ","zip":"23852"},{"name":"GÜLER MAH.","zip":"23852"},{"name":"GÜNCEREN MAH.","zip":"23852"},{"name":"GÜNEŞLİ MAH.","zip":"23852"},{"name":"HACI YUSUF MAH.","zip":"23852"},{"name":"HACIMEKKE KÖYÜ","zip":"23852"},{"name":"HACISAM KÖYÜ","zip":"23852"},{"name":"HOŞMAT MAH.","zip":"23852"},{"name":"İĞDELİ KÖYÜ","zip":"23852"},{"name":"İNCEDAL MAH.","zip":"23852"},{"name":"İSAAĞAMEZRASI KÖYÜ","zip":"23852"},{"name":"KACAR KÖYÜ","zip":"23852"},{"name":"KAMIŞLI MAH.","zip":"23852"},{"name":"KAPIAÇMAZ KÖYÜ","zip":"23852"},{"name":"KARABÖRK KÖYÜ","zip":"23852"},{"name":"KARAMAN KÖYÜ","zip":"23852"},{"name":"KARASUNGUR KÖYÜ","zip":"23852"},{"name":"KARINCAKÖY KÖYÜ","zip":"23852"},{"name":"KAVAKKÖY KÖYÜ","zip":"23852"},{"name":"KAYALIK KÖYÜ","zip":"23852"},{"name":"KEMAŞLI MAH.","zip":"23852"},{"name":"KİREÇALAN MAH.","zip":"23852"},{"name":"KOLLUCA KÖYÜ","zip":"23852"},{"name":"KONAKLI MAH.","zip":"23852"},{"name":"KOPUZLAR MAH.","zip":"23852"},{"name":"KÖPRÜDERE KÖYÜ","zip":"23852"},{"name":"KUŞAĞACI KÖYÜ","zip":"23852"},{"name":"KUŞAKLI MAH.","zip":"23852"},{"name":"KUŞÇU KÖYÜ","zip":"23852"},{"name":"LEVENT MAH.","zip":"23852"},{"name":"MEZRA MEZRASI MAH.","zip":"23852"},{"name":"MİRMEHMET MAH.","zip":"23852"},{"name":"MURATBAĞI KÖYÜ","zip":"23852"},{"name":"MUSTAFAKÖY KÖYÜ","zip":"23852"},{"name":"MUTLUCAN MAH.","zip":"23852"},{"name":"NİŞANKAYA KÖYÜ","zip":"23852"},{"name":"OKÇULAR KÖYÜ","zip":"23852"},{"name":"OSMANAĞA KÖYÜ","zip":"23852"},{"name":"PAYAMLI KÖYÜ","zip":"23852"},{"name":"PİYAZGÜL MAH.","zip":"23852"},{"name":"SALKIMLI KÖYÜ","zip":"23852"},{"name":"SARAYBAHÇE KÖYÜ","zip":"23852"},{"name":"SARI ÇOBAN MAH.","zip":"23852"},{"name":"SARIBUĞDAY KÖYÜ","zip":"23852"},{"name":"SELİM MAH.","zip":"23852"},{"name":"SEYRANTEPE MAH.","zip":"23852"},{"name":"SOĞANLI KÖYÜ","zip":"23852"},{"name":"SOĞUKPINAR KÖYÜ","zip":"23852"},{"name":"SORUKOM MAH.","zip":"23852"},{"name":"SULTANBAĞ MAH.","zip":"23852"},{"name":"SÜREKLİ KÖYÜ","zip":"23852"},{"name":"SÜTPINAR MAH.","zip":"23852"},{"name":"ŞEKERCİ KÖYÜ","zip":"23852"},{"name":"ŞENOVA KÖYÜ","zip":"23852"},{"name":"TABANÖZÜ KÖYÜ","zip":"23852"},{"name":"TAŞÇANAK KÖYÜ","zip":"23852"},{"name":"TAŞÖREN KÖYÜ","zip":"23852"},{"name":"TATAR KÖYÜ","zip":"23852"},{"name":"TEPEBAĞ KÖYÜ","zip":"23852"},{"name":"TOPAĞAÇ KÖYÜ","zip":"23852"},{"name":"TOPAĞAÇ MAH.","zip":"23852"},{"name":"TOPRAKLI MAH.","zip":"23852"},{"name":"TULUK MAH.","zip":"23852"},{"name":"UYANDIK KÖYÜ","zip":"23852"},{"name":"UYANDIK MAH.","zip":"23852"},{"name":"UZUNOVA KÖYÜ","zip":"23852"},{"name":"VALİ FAHRİBEY KÖYÜ","zip":"23852"},{"name":"YAMAÇOVA MAH.","zip":"23852"},{"name":"YANIKARA MAH.","zip":"23852"},{"name":"YANLIZÇAM MAH.","zip":"23852"},{"name":"YARIMCA KÖYÜ","zip":"23852"},{"name":"YAZIBAŞI KÖYÜ","zip":"23852"},{"name":"YENİDAM KÖYÜ","zip":"23852"},{"name":"YENİKAYA MAH.","zip":"23852"},{"name":"YENİKÖY KÖYÜ","zip":"23852"},{"name":"YEŞİLDERE KÖYÜ","zip":"23852"},{"name":"YEŞİLKÖY KÖYÜ","zip":"23852"},{"name":"YIDIBEK MAH.","zip":"23852"},{"name":"YILBAŞI KÖYÜ","zip":"23852"},{"name":"YOL BÜKÜ MAH.","zip":"23852"},{"name":"YONCALIBAYIR KÖYÜ","zip":"23852"},{"name":"YUKARI KÖSE MAH.","zip":"23852"},{"name":"YUKARIDEMİRLİ KÖYÜ","zip":"23852"},{"name":"YUKARIKANATLI KÖYÜ","zip":"23852"},{"name":"YUKARIKAZANLAR KÖYÜ","zip":"23852"},{"name":"YUKARIMİRAHMET KÖYÜ","zip":"23852"},{"name":"YÜNLÜCE MAH.","zip":"23852"}]},{"name":"MADEN","cityName":null,"quarters":[{"name":"CAMİİ KEBİR MAH.","zip":"23400"}]},{"name":"MERKEZKÖYLER","cityName":null,"quarters":[{"name":"AĞADİBEK KÖYÜ","zip":"23402"},{"name":"AKBOĞA KÖYÜ","zip":"23402"},{"name":"AKBURÇ MAH.","zip":"23402"},{"name":"ALTINTARLA KÖYÜ","zip":"23402"},{"name":"ARSLANTAŞI KÖYÜ","zip":"23402"},{"name":"AŞAĞI KARATOP MAH.","zip":"23402"},{"name":"AŞAĞI MEYDANCIK MAH.","zip":"23402"},{"name":"BAĞARASI MAH.","zip":"23402"},{"name":"BAHÇE MAH.","zip":"23402"},{"name":"BAHÇEDERE KÖYÜ","zip":"23402"},{"name":"BAKAÇAK MAH.","zip":"23402"},{"name":"BEZİKAN MAH.","zip":"23402"},{"name":"BÜK MAH.","zip":"23402"},{"name":"CAMİİ MAH.","zip":"23402"},{"name":"CUMHURİYETÇİ KÖYÜ","zip":"23402"},{"name":"ÇAKIROĞLU KÖYÜ","zip":"23402"},{"name":"ÇALKAYA KÖYÜ","zip":"23402"},{"name":"ÇAY MAH.","zip":"23402"},{"name":"ÇAYIRKÖM MAH.","zip":"23402"},{"name":"ÇAYIRKÖY KÖYÜ","zip":"23402"},{"name":"ÇINARÇIK MAH.","zip":"23402"},{"name":"ÇİTLİKÖY KÖYÜ","zip":"23402"},{"name":"ÇÖREKLİ MAH.","zip":"23402"},{"name":"DAĞ MAH.","zip":"23402"},{"name":"DEMOKAN MAH.","zip":"23402"},{"name":"DERE MAH.","zip":"23402"},{"name":"DİLEKKAYA MAH.","zip":"23402"},{"name":"DURMUŞTEPE KÖYÜ","zip":"23402"},{"name":"DUTPINAR KÖYÜ","zip":"23402"},{"name":"EĞERLİ MAH.","zip":"23402"},{"name":"EĞRİKAVAK KÖYÜ","zip":"23402"},{"name":"GEZİN KÖYÜ","zip":"23402"},{"name":"GÖL ÖNÜ MAH.","zip":"23402"},{"name":"GÜNBAĞI MAH.","zip":"23402"},{"name":"GÜVENDİK MAH.","zip":"23402"},{"name":"GÜZELBAĞ MAH.","zip":"23402"},{"name":"GÜZELEVLER MAH.","zip":"23402"},{"name":"HANEVLERİ KÖYÜ","zip":"23402"},{"name":"HARABA MAH.","zip":"23402"},{"name":"HARABE MAH.","zip":"23402"},{"name":"HATUNKÖY KÖYÜ","zip":"23402"},{"name":"HOPANLAR MAH.","zip":"23402"},{"name":"IŞIKTEPE KÖYÜ","zip":"23402"},{"name":"İSTASYON MAH.","zip":"23402"},{"name":"KARABIYIK MAH.","zip":"23402"},{"name":"KARAGÜLLE MAH.","zip":"23402"},{"name":"KARATAŞ MAH.","zip":"23402"},{"name":"KARATOP KÖYÜ","zip":"23402"},{"name":"KARTALDERE KÖYÜ","zip":"23402"},{"name":"KAŞLICA KÖYÜ","zip":"23402"},{"name":"KAVAK GAZİ ERCAN MAH.","zip":"23402"},{"name":"KAVAK KARA ALİ MAH.","zip":"23402"},{"name":"KAVAK KÖYÜ","zip":"23402"},{"name":"KAVAK KÜÇÜK BİLAL MAH.","zip":"23402"},{"name":"KAYALAR KÖYÜ","zip":"23402"},{"name":"KISABEKİR MAH.","zip":"23402"},{"name":"KIZILTEPE KÖYÜ","zip":"23402"},{"name":"KİRAZLI MAH.","zip":"23402"},{"name":"KOÇKONAĞI KÖYÜ","zip":"23402"},{"name":"KÖY SOKAĞI MAH.","zip":"23402"},{"name":"KUMYAZI KÖYÜ","zip":"23402"},{"name":"KUTUŞAĞI MAH.","zip":"23402"},{"name":"KÜÇÜKKÖMLER MAH.","zip":"23402"},{"name":"KÜÇÜKOVA KÖYÜ","zip":"23402"},{"name":"MASTEK MAH.","zip":"23402"},{"name":"MERKEZ MAH.","zip":"23402"},{"name":"MEŞEDİBİ MAH.","zip":"23402"},{"name":"MOLLALAR MAH.","zip":"23402"},{"name":"NALDÖKEN KÖYÜ","zip":"23402"},{"name":"NÜZUL MAH.","zip":"23402"},{"name":"OSMAN ÇAYIR MAH.","zip":"23402"},{"name":"ÖRTÜLÜ KÖYÜ","zip":"23402"},{"name":"ÖZAY MAH.","zip":"23402"},{"name":"ÖZYURT MAH.","zip":"23402"},{"name":"PLAJKÖY KÖYÜ","zip":"23402"},{"name":"POLATKÖY KÖYÜ","zip":"23402"},{"name":"SAĞRILI KÖYÜ","zip":"23402"},{"name":"SAMANLI MAH.","zip":"23402"},{"name":"SARIKAVAK MAH.","zip":"23402"},{"name":"SARIYER MAH.","zip":"23402"},{"name":"SETERLİ MAH.","zip":"23402"},{"name":"SEYHAN MAH.","zip":"23402"},{"name":"SİNAN MAH.","zip":"23402"},{"name":"ŞAMAN MAH.","zip":"23402"},{"name":"ŞEHBAYRAM MAH.","zip":"23402"},{"name":"ŞEHOĞLU MAH.","zip":"23402"},{"name":"TECER MAH.","zip":"23402"},{"name":"TEKEVLER KÖYÜ","zip":"23402"},{"name":"TELLİKAYA MAH.","zip":"23402"},{"name":"TELLOLAR MAH.","zip":"23402"},{"name":"TEPE MAH.","zip":"23402"},{"name":"TEPECİK KÖYÜ","zip":"23402"},{"name":"TER YAYLASI MAH.","zip":"23402"},{"name":"TOKMAK MAH.","zip":"23402"},{"name":"TOPALUŞAĞI KÖYÜ","zip":"23402"},{"name":"TUT MAH.","zip":"23402"},{"name":"TUZLUCA MAH.","zip":"23402"},{"name":"YALINCA MAH.","zip":"23402"},{"name":"YENİ MAH.","zip":"23402"},{"name":"YENİBAHÇE KÖYÜ","zip":"23402"},{"name":"YEŞİLOVA KÖYÜ","zip":"23402"},{"name":"YILDIZHAN KÖYÜ","zip":"23402"},{"name":"YONCALI MAH.","zip":"23402"},{"name":"YONCAPINAR KÖYÜ","zip":"23402"},{"name":"YÖRECİK MAH.","zip":"23402"},{"name":"YUKARI KONAKLAR MAH.","zip":"23402"},{"name":"YUKARI MEYDANCIK MAH.","zip":"23402"},{"name":"YURTBAŞI MAH.","zip":"23402"},{"name":"ZAHURAN MAH.","zip":"23402"},{"name":"ZİBE MAH.","zip":"23402"},{"name":"ZİYARET EVLERİ MAH.","zip":"23402"},{"name":"ZUĞUR EVLERİ MAH.","zip":"23402"}]},{"name":"ABDULLAHPAŞA","cityName":null,"quarters":[{"name":"CUMHURİYET MAH.","zip":"23270"},{"name":"HİLALKENT MAH.","zip":"23270"}]},{"name":"AKSARAY","cityName":null,"quarters":[{"name":"ALA YAPRAK MAH.","zip":"23050"},{"name":"ÇAYDAÇIRA MAH.","zip":"23050"},{"name":"GÖLLÜ BAĞ MAH.","zip":"23050"},{"name":"GÜMÜŞ KAVAK MAH.","zip":"23050"},{"name":"HAYVAN ÜRÜNLERİ OSB MAH.","zip":"23050"},{"name":"KIZILAY MAH.","zip":"23050"},{"name":"SUGÖZÜ MAH.","zip":"23050"},{"name":"YILDIZ BAĞLARI MAH.","zip":"23050"}]},{"name":"DOĞUKENT","cityName":null,"quarters":null},{"name":"HANKENDİ","cityName":null,"quarters":[{"name":"AKÇAKALE KÖYÜ","zip":"23150"},{"name":"AKÇAKALE MAH.","zip":"23150"},{"name":"ALİ ÇAVUŞ MAH.","zip":"23150"},{"name":"AYDINLAR MAH.","zip":"23150"},{"name":"AYRANLI MAH.","zip":"23150"},{"name":"BAHÇELİEVLER MAH.","zip":"23150"},{"name":"BAKİDERE MAH.","zip":"23150"},{"name":"BÖLÜKLÜ KÖYÜ","zip":"23150"},{"name":"BÖLÜKLÜ MAH.","zip":"23150"},{"name":"BULUTLU KÖYÜ","zip":"23150"},{"name":"BULUTLU MAH.","zip":"23150"},{"name":"CAMİ MAH.","zip":"23150"},{"name":"CANSIZLAR MAH.","zip":"23150"},{"name":"CUMHURİYET MAH.","zip":"23150"},{"name":"ÇALICA KÖYÜ","zip":"23150"},{"name":"ÇALICA MAH.","zip":"23150"},{"name":"ÇAVUŞ MAH.","zip":"23150"},{"name":"ÇAYIRLAR MAH.","zip":"23150"},{"name":"ÇOLAKLAR MAH.","zip":"23150"},{"name":"DANALI MAH.","zip":"23150"},{"name":"DİKİLİ MAH.","zip":"23150"},{"name":"DİLEK MAH.","zip":"23150"},{"name":"DOLOCA MAH.","zip":"23150"},{"name":"DURUPINAR KÖYÜ","zip":"23150"},{"name":"DURUPINAR MAH.","zip":"23150"},{"name":"EMİRUŞAĞI MAH.","zip":"23150"},{"name":"GÖKÇE KÖYÜ","zip":"23150"},{"name":"GÖKÇE MAH.","zip":"23150"},{"name":"GÖLKÖY KÖYÜ","zip":"23150"},{"name":"GÖLKÖY MAH.","zip":"23150"},{"name":"GÖZPINAR KÖYÜ","zip":"23150"},{"name":"GÖZPINAR MAH.","zip":"23150"},{"name":"GÜLEÇ MAH.","zip":"23150"},{"name":"GÜLMAHMUT MAH.","zip":"23150"},{"name":"GÜLPINAR KÖYÜ","zip":"23150"},{"name":"GÜNAÇTI KÖYÜ","zip":"23150"},{"name":"GÜNAÇTI MAH.","zip":"23150"},{"name":"GÜNBAĞI KÖYÜ","zip":"23150"},{"name":"GÜNBAĞI MAH.","zip":"23150"},{"name":"HACI ALİ MAH.","zip":"23150"},{"name":"HACI EFENDİ MAH.","zip":"23150"},{"name":"HALİLAĞA MAH.","zip":"23150"},{"name":"HANKENDİ KÖYÜ","zip":"23150"},{"name":"HARABA CAMİ MAH.","zip":"23150"},{"name":"HARİKALAN MAH.","zip":"23150"},{"name":"IŞIKYOLU KÖYÜ","zip":"23150"},{"name":"IŞIKYOLU MAH.","zip":"23150"},{"name":"İLYAS MAH.","zip":"23150"},{"name":"KARAALİ KÖYÜ","zip":"23150"},{"name":"KARAALİ MAH.","zip":"23150"},{"name":"KELMAHMUT KÖYÜ","zip":"23150"},{"name":"KILUŞAĞI MAH.","zip":"23150"},{"name":"KOÇHARMANI KÖYÜ","zip":"23150"},{"name":"KOÇHARMANI MAH.","zip":"23150"},{"name":"KONACIK MAH.","zip":"23150"},{"name":"KOPARUŞAĞI KÖYÜ","zip":"23150"},{"name":"KOPARUŞAĞI MAH.","zip":"23150"},{"name":"KÜLLÜK KÖYÜ","zip":"23150"},{"name":"KÜLLÜK MAH.","zip":"23150"},{"name":"KÜTUŞAĞI MAH.","zip":"23150"},{"name":"MAHMUTLU MAH.","zip":"23150"},{"name":"MEDUŞAĞI MAH.","zip":"23150"},{"name":"OĞULCUK MAH.","zip":"23150"},{"name":"OLUKLU MAH.","zip":"23150"},{"name":"ORTAÇALI KÖYÜ","zip":"23150"},{"name":"ORTAÇALI MAH.","zip":"23150"},{"name":"ÖKSÜZUŞAĞI KÖYÜ","zip":"23150"},{"name":"ÖZGÜRLER MAH.","zip":"23150"},{"name":"RESUL KERİM MAH.","zip":"23150"},{"name":"SAKABAŞI KÖYÜ","zip":"23150"},{"name":"SAKABAŞI MAH.","zip":"23150"},{"name":"SANCAKLI KÖYÜ","zip":"23150"},{"name":"SANCAKLI MAH.","zip":"23150"},{"name":"SARIGÜL KÖYÜ","zip":"23150"},{"name":"SARIGÜL MAH.","zip":"23150"},{"name":"SARILI KÖYÜ","zip":"23150"},{"name":"SARILI MAH.","zip":"23150"},{"name":"SARITOSUN MAH.","zip":"23150"},{"name":"SARIYUMAK MAH.","zip":"23150"},{"name":"SAVUŞAĞI MAH.","zip":"23150"},{"name":"SİNAN MAH.","zip":"23150"},{"name":"SİNANKÖY KÖYÜ","zip":"23150"},{"name":"SÜTLÜCE KÖYÜ","zip":"23150"},{"name":"SÜTLÜCE MAH.","zip":"23150"},{"name":"ŞABANLI KÖYÜ","zip":"23150"},{"name":"ŞABANLI MAH.","zip":"23150"},{"name":"ŞAHAPLI KÖYÜ","zip":"23150"},{"name":"ŞAHAPLI MAH.","zip":"23150"},{"name":"ŞEHİT SAFFET AKBAŞ MAH.","zip":"23150"},{"name":"ŞİĞOLAR MAH.","zip":"23150"},{"name":"TEMÜRKÖY KÖYÜ","zip":"23150"},{"name":"TEMÜRKÖY MAH.","zip":"23150"},{"name":"YAĞIZLAR MAH.","zip":"23150"},{"name":"YALINDAMLAR KÖYÜ","zip":"23150"},{"name":"YALINDAMLAR MAH.","zip":"23150"},{"name":"YAZIPINARI KÖYÜ","zip":"23150"},{"name":"YAZIPINARI MAH.","zip":"23150"},{"name":"YEDİEVLER MAH.","zip":"23150"},{"name":"YENİKONAK KÖYÜ","zip":"23150"},{"name":"YENİKONAK MAH.","zip":"23150"},{"name":"YENİKONUTLAR MAH.","zip":"23150"},{"name":"YENİMAH MAH.","zip":"23150"},{"name":"YEŞİLKENT MAH.","zip":"23150"},{"name":"YILDIZ MAH.","zip":"23150"},{"name":"YOLÇATI KÖYÜ","zip":"23150"},{"name":"YOLÇATI MAH.","zip":"23150"},{"name":"ZEYNİKLER MAH.","zip":"23150"}]},{"name":"HARPUT","cityName":null,"quarters":[{"name":"AYDINCIK KÖYÜ","zip":"23370"},{"name":"AYDINCIK MAH.","zip":"23370"},{"name":"BEŞOLUK KÖYÜ","zip":"23370"},{"name":"BEŞOLUK MAH.","zip":"23370"},{"name":"BEYDALI KÖYÜ","zip":"23370"},{"name":"BEYDALI MAH.","zip":"23370"},{"name":"BEYDOĞMUŞ KÖYÜ","zip":"23370"},{"name":"BEYDOĞMUŞ MAH.","zip":"23370"},{"name":"BÜK MAH.","zip":"23370"},{"name":"ÇAKIL MAH.","zip":"23370"},{"name":"ÇAKMAKÖZÜ MAH.","zip":"23370"},{"name":"ÇATALHARMAN KÖYÜ","zip":"23370"},{"name":"ÇATALHARMAN MAH.","zip":"23370"},{"name":"ÇIRÇIR MAH.","zip":"23370"},{"name":"ÇOLAKLI MAH.","zip":"23370"},{"name":"ÇÖMLEK MAH.","zip":"23370"},{"name":"DÜZLER-GÜLMEZ MAH.","zip":"23370"},{"name":"EBİL MAH.","zip":"23370"},{"name":"EKİNLİ MAH.","zip":"23370"},{"name":"ERBİLDİ KÖYÜ","zip":"23370"},{"name":"ERBİLDİ MAH.","zip":"23370"},{"name":"GÜMÜŞBAĞLAR KÖYÜ","zip":"23370"},{"name":"GÜMÜŞBAĞLAR MAH.","zip":"23370"},{"name":"GÜNEYÇAYIRI KÖYÜ","zip":"23370"},{"name":"GÜNEYÇAYIRI MAH.","zip":"23370"},{"name":"HACIHASAN MAH.","zip":"23370"},{"name":"HAN MAH.","zip":"23370"},{"name":"HIDOLAR MAH.","zip":"23370"},{"name":"KABAKÇILAR MAH.","zip":"23370"},{"name":"KAPLIKAYA KÖYÜ","zip":"23370"},{"name":"KAPLIKAYA MAH.","zip":"23370"},{"name":"KARATAŞ KÖYÜ","zip":"23370"},{"name":"KARATAŞ MAH.","zip":"23370"},{"name":"KOPAROĞLU MAH.","zip":"23370"},{"name":"KÖLEMEHMET MAH.","zip":"23370"},{"name":"KÖRPE KÖYÜ","zip":"23370"},{"name":"KÖRPE MAH.","zip":"23370"},{"name":"KURTDERE KÖYÜ","zip":"23370"},{"name":"KURTOĞLU MAH.","zip":"23370"},{"name":"KÜMEEVLER MAH.","zip":"23370"},{"name":"MEŞELİ KÖYÜ","zip":"23370"},{"name":"MEŞELİ MAH.","zip":"23370"},{"name":"OBUZ KÖYÜ","zip":"23370"},{"name":"OBUZ MAH.","zip":"23370"},{"name":"OYMAAĞAÇ KÖYÜ","zip":"23370"},{"name":"OYMAAĞAÇ MAH.","zip":"23370"},{"name":"PİNOĞLU MAH.","zip":"23370"},{"name":"SALKAYA KÖYÜ","zip":"23370"},{"name":"SALKAYA MAH.","zip":"23370"},{"name":"SARIBÜK KÖYÜ","zip":"23370"},{"name":"SARIBÜK MAH.","zip":"23370"},{"name":"SEKİ MAH.","zip":"23370"},{"name":"SERİNCE KÖYÜ","zip":"23370"},{"name":"SERİNCE MAH.","zip":"23370"},{"name":"TANRIVERMİŞ MAH.","zip":"23370"},{"name":"TORAMAN MAH.","zip":"23370"},{"name":"YILANGEÇİREN MAH.","zip":"23370"}]},{"name":"İZZETPAŞA","cityName":null,"quarters":[{"name":"FEVZİ ÇAKMAK MAH.","zip":"23200"},{"name":"İCADİYE MAH.","zip":"23200"},{"name":"İZZET PAŞA MAH.","zip":"23200"},{"name":"RIZAİYE MAH.","zip":"23200"},{"name":"SAFRAN MAH.","zip":"23200"},{"name":"ÜNİVERSİTE MAH.","zip":"23200"},{"name":"YENİ MAH.","zip":"23200"}]},{"name":"MERKEZKÖYLER","cityName":null,"quarters":[{"name":"ACIPAYAM MAH.","zip":"23350"},{"name":"AKÇAKİRAZ KÖYÜ","zip":"23350"},{"name":"AKMEZRA SAHİL ÖNÜ MAH.","zip":"23350"},{"name":"ALACA KÖYÜ","zip":"23350"},{"name":"ALACA(MERKEZ) MAH.","zip":"23350"},{"name":"ALATARLA KÖYÜ","zip":"23350"},{"name":"ALATARLA MAH.","zip":"23350"},{"name":"ALLAHUEKBER MAH.","zip":"23350"},{"name":"ALPAGUT(MERKEZ) MAH.","zip":"23350"},{"name":"ALPAĞUT KÖYÜ","zip":"23350"},{"name":"ALTINKUŞAK KÖYÜ","zip":"23350"},{"name":"ALTINKUŞAK MAH.","zip":"23350"},{"name":"ARINDIK KÖYÜ","zip":"23350"},{"name":"ARINDIK(MERKEZ) MAH.","zip":"23350"},{"name":"ASAGIIÇME MAH.","zip":"23350"},{"name":"AŞAĞI BEYLERUŞAĞI MAH.","zip":"23350"},{"name":"AŞAĞIBAĞ MAH.","zip":"23350"},{"name":"AŞAĞIDEMİRTAŞ KÖYÜ","zip":"23350"},{"name":"AŞAĞIDEMİRTAŞ MAH.","zip":"23350"},{"name":"AVCILI KÖYÜ","zip":"23350"},{"name":"AVCILI(MERKEZ) MAH.","zip":"23350"},{"name":"AYDINLAR KÖYÜ","zip":"23350"},{"name":"AYDINLAR MAH.","zip":"23350"},{"name":"AZOZGEN MAH.","zip":"23350"},{"name":"BADEMPINARI KÖYÜ","zip":"23350"},{"name":"BADEMPINARI MAH.","zip":"23350"},{"name":"BAĞDERE KÖYÜ","zip":"23350"},{"name":"BAĞDERE MAH.","zip":"23350"},{"name":"BAĞLAR MAH.","zip":"23350"},{"name":"BAĞLARCA KÖYÜ","zip":"23350"},{"name":"BAĞLARCA MAH.","zip":"23350"},{"name":"BALIBEY KÖYÜ","zip":"23350"},{"name":"BALIBEY MAH.","zip":"23350"},{"name":"BALLICA KÖYÜ","zip":"23350"},{"name":"BALLICA MAH.","zip":"23350"},{"name":"BALPINAR KÖYÜ","zip":"23350"},{"name":"BALPINARI(MERKEZ) MAH.","zip":"23350"},{"name":"BEKTAŞ MAH.","zip":"23350"},{"name":"BEŞEVLER MAH.","zip":"23350"},{"name":"BEŞİK(MERKEZ) MAH.","zip":"23350"},{"name":"BEŞİKKÖY KÖYÜ","zip":"23350"},{"name":"BÜK MAH.","zip":"23350"},{"name":"CEVİZLİK MAH.","zip":"23350"},{"name":"CİPKÖY KÖYÜ","zip":"23350"},{"name":"CİPKÖY(MERKEZ) MAH.","zip":"23350"},{"name":"CUMHURİYET MAH.","zip":"23350"},{"name":"ÇELLİK MAH.","zip":"23350"},{"name":"ÇIRAK MAH.","zip":"23350"},{"name":"ÇİÇEK MAH.","zip":"23350"},{"name":"ÇÖTELİ KÖYÜ","zip":"23350"},{"name":"ÇÖTELİ(MERKEZ) MAH.","zip":"23350"},{"name":"DALLICA KÖYÜ","zip":"23350"},{"name":"DALLICA MAH.","zip":"23350"},{"name":"DAMBÜYÜK KÖYÜ","zip":"23350"},{"name":"DAMBÜYÜK MAH.","zip":"23350"},{"name":"DEDEPINARI KÖYÜ","zip":"23350"},{"name":"DEDEPINARI MAH.","zip":"23350"},{"name":"DEĞİRMENDERE MAH.","zip":"23350"},{"name":"DEĞİRMENÖNÜ KÖYÜ","zip":"23350"},{"name":"DEĞİRMENÖNÜ MAH.","zip":"23350"},{"name":"ESENKENT KÖYÜ","zip":"23350"},{"name":"ESENKENT MAH.","zip":"23350"},{"name":"FATİH MAH.","zip":"23350"},{"name":"FATMALI KÖYÜ","zip":"23350"},{"name":"FATMALI MAH.","zip":"23350"},{"name":"GADIDERESİ MAH.","zip":"23350"},{"name":"GEDENEK MAH.","zip":"23350"},{"name":"GEDİKYOLU KÖYÜ","zip":"23350"},{"name":"GEDİKYOLU MAH.","zip":"23350"},{"name":"GÖZEBAŞI KÖYÜ","zip":"23350"},{"name":"GÖZEBAŞI MAH.","zip":"23350"},{"name":"GÜLPINAR MAH.","zip":"23350"},{"name":"GÜNEŞLİ MAH.","zip":"23350"},{"name":"GÜRDAL MAH.","zip":"23350"},{"name":"GÜZELYALI KÖYÜ","zip":"23350"},{"name":"GÜZELYALI MAH.","zip":"23350"},{"name":"HACI MAH.","zip":"23350"},{"name":"HACIOSMAN MAH.","zip":"23350"},{"name":"HACIÖMER MAH.","zip":"23350"},{"name":"HAL KÖYÜ","zip":"23350"},{"name":"HAL MAH.","zip":"23350"},{"name":"HALİL AĞA MAH.","zip":"23350"},{"name":"HARMANTEPE KÖYÜ","zip":"23350"},{"name":"HARMANTEPE(MERKEZ) MAH.","zip":"23350"},{"name":"HAZAR GÖLÜ MAH.","zip":"23350"},{"name":"HIDIRBABA KÖYÜ","zip":"23350"},{"name":"HIDIRBABA(MERKEZ) MAH.","zip":"23350"},{"name":"HIDIROĞLU MAH.","zip":"23350"},{"name":"HOŞKÖY KÖYÜ","zip":"23350"},{"name":"HOŞKÖY MAH.","zip":"23350"},{"name":"HÜRRİYET MAH.","zip":"23350"},{"name":"İÇME KÖYÜ","zip":"23350"},{"name":"İSTASİYON MAH.","zip":"23350"},{"name":"KALKANTEPE KÖYÜ","zip":"23350"},{"name":"KALKANTEPE(MERKEZ) MAH.","zip":"23350"},{"name":"KARAÇAVUŞ KÖYÜ","zip":"23350"},{"name":"KARAÇAVUŞ(MERKEZ) MAH.","zip":"23350"},{"name":"KARAGÖL MAH.","zip":"23350"},{"name":"KARAMAN MAH.","zip":"23350"},{"name":"KARASU MAH.","zip":"23350"},{"name":"KARPINAR MAH.","zip":"23350"},{"name":"KAŞIKÇILAR MAH.","zip":"23350"},{"name":"KAVAKPINAR KÖYÜ","zip":"23350"},{"name":"KAVAKPINAR(MERKEZ) MAH.","zip":"23350"},{"name":"KAVAKTEPE KÖYÜ","zip":"23350"},{"name":"KAVAKTEPE MAH.","zip":"23350"},{"name":"KAYALAR MAH.","zip":"23350"},{"name":"KENGERLİ MAH.","zip":"23350"},{"name":"KEPEKTAŞ KÖYÜ","zip":"23350"},{"name":"KEPEKTAŞ(MERKEZ) MAH.","zip":"23350"},{"name":"KESİKKÖPRÜ MAH.","zip":"23350"},{"name":"KIRAÇ MAH.","zip":"23350"},{"name":"KIRAÇKÖY KÖYÜ","zip":"23350"},{"name":"KİREÇLİ MAH.","zip":"23350"},{"name":"KOÇABAĞI MAH.","zip":"23350"},{"name":"KOÇKALE KÖYÜ","zip":"23350"},{"name":"KOÇKALE MAH.","zip":"23350"},{"name":"KOM MAH.","zip":"23350"},{"name":"KONAK MAH.","zip":"23350"},{"name":"KONAKALMAZ KÖYÜ","zip":"23350"},{"name":"KONAKALMAZ MAH.","zip":"23350"},{"name":"KORUCU KÖYÜ","zip":"23350"},{"name":"KORUCU MAH.","zip":"23350"},{"name":"KORUK MAH.","zip":"23350"},{"name":"KORUKÖY KÖYÜ","zip":"23350"},{"name":"KORULAR MAH.","zip":"23350"},{"name":"KOZLUK KÖYÜ","zip":"23350"},{"name":"KOZLUK(MERKEZ) MAH.","zip":"23350"},{"name":"KUMLA KÖYÜ","zip":"23350"},{"name":"KUMLA MAH.","zip":"23350"},{"name":"KUMLUKBAĞLARI MAH.","zip":"23350"},{"name":"KURUÇAY MAH.","zip":"23350"},{"name":"KUŞHANE KÖYÜ","zip":"23350"},{"name":"KUŞHANE MAH.","zip":"23350"},{"name":"KUYULU KÖYÜ","zip":"23350"},{"name":"KUYULU MAH.","zip":"23350"},{"name":"KÜLTÜR MAH.","zip":"23350"},{"name":"MAĞARA MAH.","zip":"23350"},{"name":"MANSURŞAĞI MAH.","zip":"23350"},{"name":"MASTAR MAH.","zip":"23350"},{"name":"MERKEZ MAH.","zip":"23350"},{"name":"MERYEM MAH.","zip":"23350"},{"name":"MUNZUROĞLU MAH.","zip":"23350"},{"name":"MURATCIK KÖYÜ","zip":"23350"},{"name":"MUZUROĞLU MAH.","zip":"23350"},{"name":"NURALI KÖYÜ","zip":"23350"},{"name":"NURALI MAH.","zip":"23350"},{"name":"ORG. EŞREF BİTLİS MAH.","zip":"23350"},{"name":"ORTAHAN MAH.","zip":"23350"},{"name":"ÖMERAĞA MAH.","zip":"23350"},{"name":"ÖREHAN MAH.","zip":"23350"},{"name":"ÖRENÇAY KÖYÜ","zip":"23350"},{"name":"ÖRENÇAY MAH.","zip":"23350"},{"name":"ÖZTÜRK MAH.","zip":"23350"},{"name":"PAŞALAR MAH.","zip":"23350"},{"name":"PELTEKÖY KÖYÜ","zip":"23350"},{"name":"PELTEKÖY(MERKEZ) MAH.","zip":"23350"},{"name":"PİRİNÇCİ MAH.","zip":"23350"},{"name":"PİRİNÇÇİ KÖYÜ","zip":"23350"},{"name":"POYRAZ KÖYÜ","zip":"23350"},{"name":"PÜRÜNTÜZ MAH.","zip":"23350"},{"name":"SANAYİ MAH.","zip":"23350"},{"name":"SANAYİOSB MAH.","zip":"23350"},{"name":"SARIÇUBUK KÖYÜ","zip":"23350"},{"name":"SARIÇUBUK MAH.","zip":"23350"},{"name":"SARIKAMIŞ KÖYÜ","zip":"23350"},{"name":"SARIKAMIŞ MAH.","zip":"23350"},{"name":"SARIYAKUP KÖYÜ","zip":"23350"},{"name":"SARIYAKUP MAH.","zip":"23350"},{"name":"SEDEFTEPE KÖYÜ","zip":"23350"},{"name":"SEDEFTEPE MAH.","zip":"23350"},{"name":"SİPAHİ MAH.","zip":"23350"},{"name":"SOLHUNPINAR MAH.","zip":"23350"},{"name":"SÜNKÖY KÖYÜ","zip":"23350"},{"name":"SÜNKÖY(MERKEZ) MAH.","zip":"23350"},{"name":"ŞAHİNKAYA KÖYÜ","zip":"23350"},{"name":"ŞAHİNKAYA MAH.","zip":"23350"},{"name":"ŞEHSUVAR KÖYÜ","zip":"23350"},{"name":"ŞEHSUVAR MAH.","zip":"23350"},{"name":"ŞEMSİVEREN MAH.","zip":"23350"},{"name":"ŞEYHHACI KÖYÜ","zip":"23350"},{"name":"ŞIKAN MAH.","zip":"23350"},{"name":"ŞOŞ MAH.","zip":"23350"},{"name":"TADIM KÖYÜ","zip":"23350"},{"name":"TADIM MAH.","zip":"23350"},{"name":"TAPANLI MAH.","zip":"23350"},{"name":"TEPEKÖY KÖYÜ","zip":"23350"},{"name":"TEPEKÖY MAH.","zip":"23350"},{"name":"TOHUMLU KÖYÜ","zip":"23350"},{"name":"TOHUMLU MAH.","zip":"23350"},{"name":"UZUNTARLA KÖYÜ","zip":"23350"},{"name":"UZUNTARLA(MERKEZ) MAH.","zip":"23350"},{"name":"ÜÇAĞAÇ KÖYÜ","zip":"23350"},{"name":"ÜÇAĞAÇ(MERKEZ) MAH.","zip":"23350"},{"name":"ÜÇTEPE MAH.","zip":"23350"},{"name":"ÜRÜNVEREN KÖYÜ","zip":"23350"},{"name":"ÜRÜNVEREN MAH.","zip":"23350"},{"name":"VARTİNİK MAH.","zip":"23350"},{"name":"VENK MAH.","zip":"23350"},{"name":"VERAN MAH.","zip":"23350"},{"name":"Y.İÇME MAH.","zip":"23350"},{"name":"YADİGAR MAH.","zip":"23350"},{"name":"YALNIZ KÖYÜ","zip":"23350"},{"name":"YALNIZ MAH.","zip":"23350"},{"name":"YAZIKONAK KÖYÜ","zip":"23350"},{"name":"YEDİGÖZE KÖYÜ","zip":"23350"},{"name":"YEDİGÖZE MAH.","zip":"23350"},{"name":"YEMİŞLİK KÖYÜ","zip":"23350"},{"name":"YEMİŞLİK MAH.","zip":"23350"},{"name":"YENİ BAĞLAR MAH.","zip":"23350"},{"name":"YENİ MAH.","zip":"23350"},{"name":"YENİCE MAH.","zip":"23350"},{"name":"YENİKÖY MAH.","zip":"23350"},{"name":"YEŞİLKUŞAK MAH.","zip":"23350"},{"name":"YEŞİLYURT MAH.","zip":"23350"},{"name":"YOLÜSTÜ KÖYÜ","zip":"23350"},{"name":"YOLÜSTÜ MAH.","zip":"23350"},{"name":"YUKARI BEYLERUŞAĞI MAH.","zip":"23350"},{"name":"YUKARIBAĞ MAH.","zip":"23350"},{"name":"YUKARIÇAKMAK KÖYÜ","zip":"23350"},{"name":"YUKARIÇAKMAK(MERKEZ) MAH.","zip":"23350"},{"name":"YUKARIDEMİRTAŞ KÖYÜ","zip":"23350"},{"name":"YUKARIDEMİRTAŞ MAH.","zip":"23350"},{"name":"YURTBAŞI KÖYÜ","zip":"23350"},{"name":"YUSUF MAH.","zip":"23350"},{"name":"YÜZBAŞI MAH.","zip":"23350"},{"name":"ZAFER MAH.","zip":"23350"}]},{"name":"MOLLAKENDİ","cityName":null,"quarters":[{"name":"ALİKAYA MAH.","zip":"23250"},{"name":"BAHÇEKAPI KÖYÜ","zip":"23250"},{"name":"BAHÇEKAPI MAH.","zip":"23250"},{"name":"CEVİZDERE KÖYÜ","zip":"23250"},{"name":"CEVİZDERE MAH.","zip":"23250"},{"name":"ÇAĞLAR KÖYÜ","zip":"23250"},{"name":"ÇAĞLAR MAH.","zip":"23250"},{"name":"DEREBOĞAZI KÖYÜ","zip":"23250"},{"name":"DEREBOĞAZI(MERKEZ) MAH.","zip":"23250"},{"name":"DOĞANKUŞ KÖYÜ","zip":"23250"},{"name":"DOĞANKUŞ(MERKEZ) MAH.","zip":"23250"},{"name":"ELMAPINARI KÖYÜ","zip":"23250"},{"name":"ELMAPINARI(MERKEZ) MAH.","zip":"23250"},{"name":"EYÜP BAĞLARI MAH.","zip":"23250"},{"name":"GÖLARDI KÖYÜ","zip":"23250"},{"name":"GÖLARDI(MERKEZ) MAH.","zip":"23250"},{"name":"GÖLARDISİTESİ-1 MAH.","zip":"23250"},{"name":"GÖLARDISİTESİ-2 MAH.","zip":"23250"},{"name":"GÖLKENARI MAH.","zip":"23250"},{"name":"GÜNTAŞI MAH.","zip":"23250"},{"name":"HACIALİ MAH.","zip":"23250"},{"name":"İKİTEPE KÖYÜ","zip":"23250"},{"name":"İKİTEPE(MERKEZ) MAH.","zip":"23250"},{"name":"KARASAZ KÖYÜ","zip":"23250"},{"name":"KARASAZ(MERKEZ) MAH.","zip":"23250"},{"name":"KARŞIBAĞ MAH.","zip":"23250"},{"name":"KUŞCU MAH.","zip":"23250"},{"name":"MOLLAKENDİ KÖYÜ","zip":"23250"},{"name":"MOLLAKENDİ MAH.","zip":"23250"},{"name":"SARICAN MAH.","zip":"23250"},{"name":"SERİNGÖLSİTESİ MAH.","zip":"23250"},{"name":"SEVSAK MAH.","zip":"23250"},{"name":"SOĞUKPINAR MAH.","zip":"23250"},{"name":"SULAF MAH.","zip":"23250"},{"name":"TEPEBAŞISİTESİ MAH.","zip":"23250"},{"name":"YENİKAPI KÖYÜ","zip":"23250"},{"name":"YENİKAPI(MERKEZ) MAH.","zip":"23250"},{"name":"YÜNLÜCE KÖYÜ","zip":"23250"},{"name":"YÜNLÜCE(MERKEZ) MAH.","zip":"23250"}]},{"name":"MUSTAFAPAŞA","cityName":null,"quarters":[{"name":"HARPUT MAH.","zip":"23300"},{"name":"KARŞIYAKA MAH.","zip":"23300"},{"name":"KIRKLAR MAH.","zip":"23300"},{"name":"MUSTAFA PAŞA MAH.","zip":"23300"},{"name":"SALI BABA MAH.","zip":"23300"},{"name":"SANAYİ MAH.","zip":"23300"},{"name":"ULU KENT MAH.","zip":"23300"}]},{"name":"NAİLBEY","cityName":null,"quarters":[{"name":"ÇARŞI MAH.","zip":"23100"},{"name":"KÜLTÜR MAH.","zip":"23100"},{"name":"NAİL BEY MAH.","zip":"23100"},{"name":"RÜSTEM PAŞA MAH.","zip":"23100"},{"name":"SARAYATİK MAH.","zip":"23100"}]},{"name":"SÜRSÜRÜ","cityName":null,"quarters":[{"name":"HİCRET MAH.","zip":"23040"},{"name":"OLGUNLAR MAH.","zip":"23040"},{"name":"SÜRSÜRÜ MAH.","zip":"23040"}]},{"name":"BEYHANI","cityName":null,"quarters":[{"name":"GİRNE MAH.","zip":"23530"},{"name":"GÜNEY MAH.","zip":"23530"},{"name":"İSTASYON MAH.","zip":"23530"},{"name":"KARŞIYAKA MAH.","zip":"23530"}]},{"name":"MERKEZKÖYLER","cityName":null,"quarters":[{"name":"AKDEMİR MAH.","zip":"23502"},{"name":"AKSARAY MAH.","zip":"23502"},{"name":"AKYÜREK KÖYÜ","zip":"23502"},{"name":"ALTINÖLÇEK KÖYÜ","zip":"23502"},{"name":"ANDILAR KÖYÜ","zip":"23502"},{"name":"ARINDIK KÖYÜ","zip":"23502"},{"name":"ATİK KÖYÜ","zip":"23502"},{"name":"BAHÇELİEVLER MAH.","zip":"23502"},{"name":"BALKAYA MAH.","zip":"23502"},{"name":"BALTAŞI KÖYÜ","zip":"23502"},{"name":"BEYDOĞAN KÖYÜ","zip":"23502"},{"name":"BİRCAN MAH.","zip":"23502"},{"name":"BOZÇANAK KÖYÜ","zip":"23502"},{"name":"BÖLÜKELMA KÖYÜ","zip":"23502"},{"name":"BURGUDERE KÖYÜ","zip":"23502"},{"name":"BÜK MEZRASI MAH.","zip":"23502"},{"name":"BÜYÜKÇALTI KÖYÜ","zip":"23502"},{"name":"ÇAYBAŞI MAH.","zip":"23502"},{"name":"DAMLAPINAR KÖYÜ","zip":"23502"},{"name":"DOL KÜÇÜK MEZRASI MAH.","zip":"23502"},{"name":"DUTAĞACI MAH.","zip":"23502"},{"name":"EŞMEKAYA MAH.","zip":"23502"},{"name":"GEMTEPE KÖYÜ","zip":"23502"},{"name":"GÖKDERE KÖYÜ","zip":"23502"},{"name":"GÖMELAN MAH.","zip":"23502"},{"name":"GÜLLÜCE KÖYÜ","zip":"23502"},{"name":"GÜMEÇBAĞLAR KÖYÜ","zip":"23502"},{"name":"GÜMÜŞKAYNAK KÖYÜ","zip":"23502"},{"name":"GÜMÜŞLÜ MAH.","zip":"23502"},{"name":"HAMA MAH.","zip":"23502"},{"name":"HAMZABEY MAH.","zip":"23502"},{"name":"HANÖNÜ MAH.","zip":"23502"},{"name":"HASBEY KÖYÜ","zip":"23502"},{"name":"HÜSSAM MAH.","zip":"23502"},{"name":"İNCESU MAH.","zip":"23502"},{"name":"KARACABAĞ KÖYÜ","zip":"23502"},{"name":"KARASALKIM KÖYÜ","zip":"23502"},{"name":"KARATAŞ KÖYÜ","zip":"23502"},{"name":"KASIL KÖYÜ","zip":"23502"},{"name":"KAYAÖNÜ KÖYÜ","zip":"23502"},{"name":"KEKLİKDERE KÖYÜ","zip":"23502"},{"name":"KESEKÖPRÜ MAH.","zip":"23502"},{"name":"KIRKBULAK KÖYÜ","zip":"23502"},{"name":"KÖKLÜCE KÖYÜ","zip":"23502"},{"name":"KÖROĞLU MAH.","zip":"23502"},{"name":"KÜÇÜKÇALTI KÖYÜ","zip":"23502"},{"name":"MAÇO MAH.","zip":"23502"},{"name":"ÖRENCİK KÖYÜ","zip":"23502"},{"name":"ÖRGÜLÜ KÖYÜ","zip":"23502"},{"name":"PAYAMLI MAH.","zip":"23502"},{"name":"PINARBAŞI MAH.","zip":"23502"},{"name":"SEYDİLİ KÖYÜ","zip":"23502"},{"name":"SİVRİKAYA MAH.","zip":"23502"},{"name":"ŞEYHPİRAN MAH.","zip":"23502"},{"name":"TARHANA KÖYÜ","zip":"23502"},{"name":"TAŞTEK MAH.","zip":"23502"},{"name":"UMURCA MAH.","zip":"23502"},{"name":"UMUTKAYA KÖYÜ","zip":"23502"},{"name":"ÜÇDEĞİRMENLER KÖYÜ","zip":"23502"},{"name":"ÜNVEREN MAH.","zip":"23502"},{"name":"YARIMTEPE KÖYÜ","zip":"23502"},{"name":"YAYLACIK MAH.","zip":"23502"},{"name":"YAZMACIK MAH.","zip":"23502"},{"name":"YEŞİLBAYIR KÖYÜ","zip":"23502"}]},{"name":"PALU","cityName":null,"quarters":[{"name":"CUMHURİYET MAH.","zip":"23500"},{"name":"ÇARŞI MAH.","zip":"23500"},{"name":"ESENTEPE MAH.","zip":"23500"},{"name":"KALEKENT MAH.","zip":"23500"},{"name":"KARŞIBAHÇELER MAH.","zip":"23500"},{"name":"KÜLTÜR MAH.","zip":"23500"},{"name":"NUMUNE MAH.","zip":"23500"},{"name":"YENİMAHALLE MAH.","zip":"23500"},{"name":"YUKARI PALU MAH.","zip":"23500"}]},{"name":"MERKEZKÖYLER","cityName":null,"quarters":[{"name":"AKBUĞDAY KÖYÜ","zip":"23902"},{"name":"AKSEKİ KÖYÜ","zip":"23902"},{"name":"ALAATTİNKÖY KÖYÜ","zip":"23902"},{"name":"ALINCIK KÖYÜ","zip":"23902"},{"name":"ALİ TOPAL MAH.","zip":"23902"},{"name":"ASAF MAH.","zip":"23902"},{"name":"AŞAĞI ÇOLİTIR MAH.","zip":"23902"},{"name":"AŞAĞI MAH.","zip":"23902"},{"name":"AŞAĞIÇANAKÇI KÖYÜ","zip":"23902"},{"name":"ATAYURDU MAH.","zip":"23902"},{"name":"AYLIK MAH.","zip":"23902"},{"name":"BADEM AĞACI MAH.","zip":"23902"},{"name":"BAŞKAYNAK KÖYÜ","zip":"23902"},{"name":"BEKÇİTEPE KÖYÜ","zip":"23902"},{"name":"BEKERME MAH.","zip":"23902"},{"name":"BEKİRAĞA MAH.","zip":"23902"},{"name":"BEKİRGÖLÜ MAH.","zip":"23902"},{"name":"BOĞAZ MAH.","zip":"23902"},{"name":"CAMİ MAH.","zip":"23902"},{"name":"CANBEK MAH.","zip":"23902"},{"name":"CANDI MAH.","zip":"23902"},{"name":"CANUŞAĞI KÖYÜ","zip":"23902"},{"name":"CELLATLAR MAH.","zip":"23902"},{"name":"ÇAMURLUK MAH.","zip":"23902"},{"name":"ÇATAKKAYA KÖYÜ","zip":"23902"},{"name":"ÇELEMLİK MAH.","zip":"23902"},{"name":"ÇEVRİMTAŞ KÖYÜ","zip":"23902"},{"name":"ÇORTUNLU KÖYÜ","zip":"23902"},{"name":"ÇÖL DERE MAH.","zip":"23902"},{"name":"DEDEYOLU KÖYÜ","zip":"23902"},{"name":"DEĞİRMEN ÖNÜ MAH.","zip":"23902"},{"name":"DELOLAR MAH.","zip":"23902"},{"name":"DEMUŞAĞI MAH.","zip":"23902"},{"name":"DEREBEY MAH.","zip":"23902"},{"name":"DEREBOYNU KÖYÜ","zip":"23902"},{"name":"DİKMEN KÖYÜ","zip":"23902"},{"name":"DOĞANBAĞI KÖYÜ","zip":"23902"},{"name":"DOĞANLAR MAH.","zip":"23902"},{"name":"DÖRTBÖLÜK KÖYÜ","zip":"23902"},{"name":"DURAK MAH.","zip":"23902"},{"name":"DUYGULU KÖYÜ","zip":"23902"},{"name":"DÜZTAŞ MAH.","zip":"23902"},{"name":"ELBİSTAN MAH.","zip":"23902"},{"name":"ELMALIDERE MAH.","zip":"23902"},{"name":"ELMASUYU KÖYÜ","zip":"23902"},{"name":"ESAFLAR MAH.","zip":"23902"},{"name":"ESKİ BAĞLAR MAH.","zip":"23902"},{"name":"ESKİKÖY MAH.","zip":"23902"},{"name":"EYLOLAR MAH.","zip":"23902"},{"name":"FENK MAH.","zip":"23902"},{"name":"GAZAZİ MAH.","zip":"23902"},{"name":"GELİNDERE KÖYÜ","zip":"23902"},{"name":"GÖL MEZRASI MAH.","zip":"23902"},{"name":"GÖL ÖNÜ MAH.","zip":"23902"},{"name":"GÖLCÜK MAH.","zip":"23902"},{"name":"GÖRGÜLÜ KÖYÜ","zip":"23902"},{"name":"GÖZELİ KÖYÜ","zip":"23902"},{"name":"GÜNAY KÖYÜ","zip":"23902"},{"name":"GÜNBALI KÖYÜ","zip":"23902"},{"name":"HACILAR KÖYÜ","zip":"23902"},{"name":"HACILAR MAH.","zip":"23902"},{"name":"HAFTASAR KÖYÜ","zip":"23902"},{"name":"HARABA MAH.","zip":"23902"},{"name":"HAYAT MAH.","zip":"23902"},{"name":"HİNDOGİLLER MAH.","zip":"23902"},{"name":"HUĞ ÜZÜ MAH.","zip":"23902"},{"name":"ILINCAK KÖYÜ","zip":"23902"},{"name":"İBOKAÇLAR MAH.","zip":"23902"},{"name":"İBOLAR MAH.","zip":"23902"},{"name":"İMRAN GÖZE MAH.","zip":"23902"},{"name":"KALABA KÖYÜ","zip":"23902"},{"name":"KALDIRIM MAH.","zip":"23902"},{"name":"KAMIŞLIK KÖYÜ","zip":"23902"},{"name":"KARLIK MAH.","zip":"23902"},{"name":"KARŞILAN MAH.","zip":"23902"},{"name":"KASAPLAR MAH.","zip":"23902"},{"name":"KASIMUŞAĞI MAH.","zip":"23902"},{"name":"KAVAK MAH.","zip":"23902"},{"name":"KAVAK ÜSTÜ MAH.","zip":"23902"},{"name":"KAVAKKÖY KÖYÜ","zip":"23902"},{"name":"KAVALLI KÖYÜ","zip":"23902"},{"name":"KAYABAĞLARI KÖYÜ","zip":"23902"},{"name":"KAYAPINAR KÖYÜ","zip":"23902"},{"name":"KEÇİLER MAH.","zip":"23902"},{"name":"KEKEÇ MAH.","zip":"23902"},{"name":"KEL HÜSEYİN MAH.","zip":"23902"},{"name":"KESRİK MAH.","zip":"23902"},{"name":"KIDİŞ MAH.","zip":"23902"},{"name":"KILIÇKAYA KÖYÜ","zip":"23902"},{"name":"KONAK MAH.","zip":"23902"},{"name":"KÖSEBAYIR KÖYÜ","zip":"23902"},{"name":"KÖY KARŞISI MAH.","zip":"23902"},{"name":"KÜRKKÖY KÖYÜ","zip":"23902"},{"name":"MERKEZ MAH.","zip":"23902"},{"name":"MOĞAL MAH.","zip":"23902"},{"name":"MOLLA HÜSEYİN MAH.","zip":"23902"},{"name":"MULLAALİ KÖYÜ","zip":"23902"},{"name":"NAHAL MAH.","zip":"23902"},{"name":"NENE GÖLÜ MAH.","zip":"23902"},{"name":"NERGİZE KÖYÜ","zip":"23902"},{"name":"OMOLAR MAH.","zip":"23902"},{"name":"PAHA MAH.","zip":"23902"},{"name":"PALANDÖKEN MAH.","zip":"23902"},{"name":"SAKIZ AĞACI MAH.","zip":"23902"},{"name":"SEKİLER MAH.","zip":"23902"},{"name":"SİMOTLAR MAH.","zip":"23902"},{"name":"SİNCAN MAH.","zip":"23902"},{"name":"SOĞUKPINAR KÖYÜ","zip":"23902"},{"name":"SÖĞÜTLER MAH.","zip":"23902"},{"name":"SULUDERE MAH.","zip":"23902"},{"name":"SÜREK KÖYÜ","zip":"23902"},{"name":"ŞİRİN MAH.","zip":"23902"},{"name":"TAHTİKLER MAH.","zip":"23902"},{"name":"TARLATEPE KÖYÜ","zip":"23902"},{"name":"TAŞLIYAYLA KÖYÜ","zip":"23902"},{"name":"TEK PINAR MAH.","zip":"23902"},{"name":"TEYARA MAH.","zip":"23902"},{"name":"TİLKİDERE MAH.","zip":"23902"},{"name":"TOPALUŞAĞI KÖYÜ","zip":"23902"},{"name":"TUZTAŞI\/DEĞİRMEN MAH.","zip":"23902"},{"name":"URLİK MAH.","zip":"23902"},{"name":"USLU KÖYÜ","zip":"23902"},{"name":"UZUN ÇİMEN MAH.","zip":"23902"},{"name":"ÜÇLERCE KÖYÜ","zip":"23902"},{"name":"ÜĞRÜK KÖYÜ","zip":"23902"},{"name":"ÜRÜDÜLER MAH.","zip":"23902"},{"name":"YARUŞAĞI KÖYÜ","zip":"23902"},{"name":"YAYLA EVLERİ MAH.","zip":"23902"},{"name":"YAYLAEVLERİ MAH.","zip":"23902"},{"name":"YAZEVLERİ MAH.","zip":"23902"},{"name":"YAZI MAH.","zip":"23902"},{"name":"YAZLIKEVLER MAH.","zip":"23902"},{"name":"YEDİKARDEŞ KÖYÜ","zip":"23902"},{"name":"YEDİPINAR KÖYÜ","zip":"23902"},{"name":"YENİCE MAH.","zip":"23902"},{"name":"YENİKÖY MAH.","zip":"23902"},{"name":"YUKARI TEŞTEK MAH.","zip":"23902"},{"name":"YUKARIÇANAKÇI KÖYÜ","zip":"23902"},{"name":"YÜREKKAYA KÖYÜ","zip":"23902"},{"name":"ZİYALAR MAH.","zip":"23902"}]},{"name":"SİVRİCE","cityName":null,"quarters":[{"name":"GÖLBAŞI MAH.","zip":"23900"},{"name":"HAZAR MAH.","zip":"23900"},{"name":"KARAÇALI MAH.","zip":"23900"},{"name":"KÜLTÜR MAH.","zip":"23900"},{"name":"OLGUNLAR MAH.","zip":"23900"},{"name":"SANAYİ MAH.","zip":"23900"}]}]}]}