{"id":24,"name":"ERZİNCAN","cities":[{"name":"city","districts":[{"name":"ÇAYIRLI","cityName":null,"quarters":null},{"name":"MERKEZKÖYLER","cityName":null,"quarters":[{"name":"AKDAŞ MAH.","zip":"24503"},{"name":"AKDOĞAN MAH.","zip":"24503"},{"name":"ARITAŞ MAH.","zip":"24503"},{"name":"AŞAĞI KOM MAH.","zip":"24503"},{"name":"AŞAĞIÇAMURDERE KÖYÜ","zip":"24503"},{"name":"AŞAĞIKARTALLI KÖYÜ","zip":"24503"},{"name":"BALIKLI KÖYÜ","zip":"24503"},{"name":"BAŞKÖY KÖYÜ","zip":"24503"},{"name":"BEYİN KOMU MAH.","zip":"24503"},{"name":"BOTAŞ MAH.","zip":"24503"},{"name":"BOYBEYİ KÖYÜ","zip":"24503"},{"name":"BOZAĞA KÖYÜ","zip":"24503"},{"name":"BÖLÜKOVA KÖYÜ","zip":"24503"},{"name":"BÜYÜKGELENGEÇ KÖYÜ","zip":"24503"},{"name":"BÜYÜKYAYLAKÖY KÖYÜ","zip":"24503"},{"name":"CENNETPINAR KÖYÜ","zip":"24503"},{"name":"COŞAN KÖYÜ","zip":"24503"},{"name":"ÇATAKSU KÖYÜ","zip":"24503"},{"name":"ÇAYKENT KÖYÜ","zip":"24503"},{"name":"ÇAYÖNÜ KÖYÜ","zip":"24503"},{"name":"ÇİLHOROZ KÖYÜ","zip":"24503"},{"name":"ÇİLLİGÖL KÖYÜ","zip":"24503"},{"name":"DELİKTAŞ MAH.","zip":"24503"},{"name":"DOĞANYUVA KÖYÜ","zip":"24503"},{"name":"DOLUCA KÖYÜ","zip":"24503"},{"name":"ERBAŞ İSTASYONU MAH.","zip":"24503"},{"name":"ESENDORUK KÖYÜ","zip":"24503"},{"name":"EŞMEPINAR KÖYÜ","zip":"24503"},{"name":"GELİNPINAR KÖYÜ","zip":"24503"},{"name":"GÖLLER KÖYÜ","zip":"24503"},{"name":"HARMANTEPE KÖYÜ","zip":"24503"},{"name":"HASTARLA KÖYÜ","zip":"24503"},{"name":"HENEGE MAH.","zip":"24503"},{"name":"KAHNUT MAH.","zip":"24503"},{"name":"KARAMELİK MAH.","zip":"24503"},{"name":"KARATAŞ KÖYÜ","zip":"24503"},{"name":"KAVAKLI MAH.","zip":"24503"},{"name":"KOSPULO KOMU MAH.","zip":"24503"},{"name":"KÜÇÜKGELENGEÇ KÖYÜ","zip":"24503"},{"name":"KÜMBELLER MAH.","zip":"24503"},{"name":"MAZLUMAĞA KÖYÜ","zip":"24503"},{"name":"MEZRA MAH.","zip":"24503"},{"name":"MİRZAOĞLU KÖYÜ","zip":"24503"},{"name":"OĞULTAŞI KÖYÜ","zip":"24503"},{"name":"ORTAÇAT KÖYÜ","zip":"24503"},{"name":"OZANLI KÖYÜ","zip":"24503"},{"name":"PAŞAYURDU KÖYÜ","zip":"24503"},{"name":"PINARLI KÖYÜ","zip":"24503"},{"name":"SARAYCIK KÖYÜ","zip":"24503"},{"name":"SARIGÜNEY KÖYÜ","zip":"24503"},{"name":"SAYGILI KÖYÜ","zip":"24503"},{"name":"SIRATAŞ KÖYÜ","zip":"24503"},{"name":"ŞENLİK BABA MAH.","zip":"24503"},{"name":"TOPRAKKALE KÖYÜ","zip":"24503"},{"name":"TOSUNLAR KÖYÜ","zip":"24503"},{"name":"TURNAÇAYIRI KÖYÜ","zip":"24503"},{"name":"VERİMLİ KÖYÜ","zip":"24503"},{"name":"YAPRAKLI MAH.","zip":"24503"},{"name":"YAYLAKENT KÖYÜ","zip":"24503"},{"name":"YAYLALAR KÖYÜ","zip":"24503"},{"name":"YAZIKAYA KÖYÜ","zip":"24503"},{"name":"YEŞİLYAKA KÖYÜ","zip":"24503"},{"name":"YUKARIÇAMURDERE KÖYÜ","zip":"24503"},{"name":"YUKARIKARTALLI KÖYÜ","zip":"24503"},{"name":"YÜREKLİ KÖYÜ","zip":"24503"}]},{"name":"İLİÇ","cityName":null,"quarters":[{"name":"FATİH MAH.","zip":"24700"},{"name":"İBRAHİM ÇEÇEN MAH.","zip":"24700"},{"name":"KAZIM KARABEKİR MAH.","zip":"24700"}]},{"name":"MERKEZKÖYLER","cityName":null,"quarters":[{"name":"AKÇAYAZI KÖYÜ","zip":"24710"},{"name":"AKDOĞU KÖYÜ","zip":"24710"},{"name":"ALTINTAŞ KÖYÜ","zip":"24710"},{"name":"APUŞTA MAH.","zip":"24710"},{"name":"ATMA KÖYÜ","zip":"24710"},{"name":"BAĞCUĞAZ KÖYÜ","zip":"24710"},{"name":"BAĞDERESİ MAH.","zip":"24710"},{"name":"BAĞIŞTAŞ KÖYÜ","zip":"24710"},{"name":"BAĞLICA KÖYÜ","zip":"24710"},{"name":"BAHÇECİK MAH.","zip":"24710"},{"name":"BALKAYA KÖYÜ","zip":"24710"},{"name":"BOYALIK KÖYÜ","zip":"24710"},{"name":"BOZÇALI KÖYÜ","zip":"24710"},{"name":"BOZYAYLA KÖYÜ","zip":"24710"},{"name":"BÜRÜNCEK KÖYÜ","zip":"24710"},{"name":"BÜYÜKARMUTLU KÖYÜ","zip":"24710"},{"name":"BÜYÜKGÜMÜŞLÜ KÖYÜ","zip":"24710"},{"name":"BÜYÜKKÖY KÖYÜ","zip":"24710"},{"name":"ÇALTI KÖYÜ","zip":"24710"},{"name":"ÇAYLI KÖYÜ","zip":"24710"},{"name":"ÇAYYAKA KÖYÜ","zip":"24710"},{"name":"ÇİFTLİK KÖYÜ","zip":"24710"},{"name":"ÇİLESİZ KÖYÜ","zip":"24710"},{"name":"ÇOBANLI KÖYÜ","zip":"24710"},{"name":"ÇÖPLER KÖYÜ","zip":"24710"},{"name":"ÇÖREKLİ KÖYÜ","zip":"24710"},{"name":"DİKMEN KÖYÜ","zip":"24710"},{"name":"DOĞAN KÖYÜ","zip":"24710"},{"name":"DOLUGÜN KÖYÜ","zip":"24710"},{"name":"DORUKSARAY KÖYÜ","zip":"24710"},{"name":"DOSTAL KÖYÜ","zip":"24710"},{"name":"ELMACIK MAH.","zip":"24710"},{"name":"GARİPÇAY MAH.","zip":"24710"},{"name":"GÜNGÖREN KÖYÜ","zip":"24710"},{"name":"HASANOVA MAH.","zip":"24710"},{"name":"İSLAMKÖY KÖYÜ","zip":"24710"},{"name":"KAPIKAYA KÖYÜ","zip":"24710"},{"name":"KARAKAYA KÖYÜ","zip":"24710"},{"name":"KAYACIK KÖYÜ","zip":"24710"},{"name":"KAYMAKLI KÖYÜ","zip":"24710"},{"name":"KONUKÇU KÖYÜ","zip":"24710"},{"name":"KOZLUCA KÖYÜ","zip":"24710"},{"name":"KURAN KÖYÜ","zip":"24710"},{"name":"KURUÇAY KÖYÜ","zip":"24710"},{"name":"KUZKIŞLA KÖYÜ","zip":"24710"},{"name":"KÜÇÜKARMUTLU KÖYÜ","zip":"24710"},{"name":"KÜÇÜKGÜMÜŞLÜ KÖYÜ","zip":"24710"},{"name":"KÜPLÜCE MAH.","zip":"24710"},{"name":"LEVENTPINAR KÖYÜ","zip":"24710"},{"name":"MERKEZ MAH.","zip":"24710"},{"name":"ORTA AĞILDERE MAH.","zip":"24710"},{"name":"ORTATEPE KÖYÜ","zip":"24710"},{"name":"ÖZLÜ KÖYÜ","zip":"24710"},{"name":"SABIRLI KÖYÜ","zip":"24710"},{"name":"SAĞ MAH.","zip":"24710"},{"name":"SARIKONAK KÖYÜ","zip":"24710"},{"name":"SARIPINAR KÖYÜ","zip":"24710"},{"name":"SULARBAŞI KÖYÜ","zip":"24710"},{"name":"SÜTLÜCE KÖYÜ","zip":"24710"},{"name":"TABANLI KÖYÜ","zip":"24710"},{"name":"TARDERE MAH.","zip":"24710"},{"name":"TAŞKONAK MAH.","zip":"24710"},{"name":"TURGUTLU KÖYÜ","zip":"24710"},{"name":"UĞUR KÖYÜ","zip":"24710"},{"name":"ULUYAMAÇ KÖYÜ","zip":"24710"},{"name":"YAKUPLU KÖYÜ","zip":"24710"},{"name":"YALINGÖZE KÖYÜ","zip":"24710"},{"name":"YAYLAPINAR KÖYÜ","zip":"24710"},{"name":"YEŞİLYURT MAH.","zip":"24710"},{"name":"YILMAZ KÖYÜ","zip":"24710"},{"name":"YUKARI AĞILDERE MAH.","zip":"24710"}]},{"name":"KEMAH","cityName":null,"quarters":[{"name":"BEKLİMÇAY MAH.","zip":"24400"},{"name":"CİRGİŞİN MAH.","zip":"24400"},{"name":"ÇARŞI MAH.","zip":"24400"},{"name":"GÖĞÜSBAĞI MAH.","zip":"24400"},{"name":"KARŞIBAĞ MAH.","zip":"24400"},{"name":"MEKTEPÖNÜ MAH.","zip":"24400"},{"name":"ORTAGEDİK MAH.","zip":"24400"},{"name":"PÖRHENKBAŞI MAH.","zip":"24400"},{"name":"YUKARI MAH.","zip":"24400"}]},{"name":"MERKEZKÖYLER","cityName":null,"quarters":[{"name":"AĞAÇSARAY KÖYÜ","zip":"24402"},{"name":"AKBUDAK KÖYÜ","zip":"24402"},{"name":"AKÇA KÖYÜ","zip":"24402"},{"name":"AKSAKAL MAH.","zip":"24402"},{"name":"AKTAŞ KÖYÜ","zip":"24402"},{"name":"AKTAŞ MAH.","zip":"24402"},{"name":"AKYÜNLÜ KÖYÜ","zip":"24402"},{"name":"ALİGICİKGİL MAH.","zip":"24402"},{"name":"ALP KÖYÜ","zip":"24402"},{"name":"ANTAK MAH.","zip":"24402"},{"name":"AŞAĞI MAH.","zip":"24402"},{"name":"AŞAĞIAVCILAR MAH.","zip":"24402"},{"name":"ATEŞLER MAH.","zip":"24402"},{"name":"ATMA KÖYÜ","zip":"24402"},{"name":"AYRANPINAR KÖYÜ","zip":"24402"},{"name":"BAĞLARBAŞI MAH.","zip":"24402"},{"name":"BAHÇE MAH.","zip":"24402"},{"name":"BALKAYA MAH.","zip":"24402"},{"name":"BALLI KIŞLA MAH.","zip":"24402"},{"name":"BEŞİKLİ KÖYÜ","zip":"24402"},{"name":"BOĞAZİÇİ KÖYÜ","zip":"24402"},{"name":"BOZOĞLAK KÖYÜ","zip":"24402"},{"name":"BUZLA MAH.","zip":"24402"},{"name":"CEBESOY İSTASYONU MAH.","zip":"24402"},{"name":"CEMOLAR MAH.","zip":"24402"},{"name":"CEVİZLİ MAH.","zip":"24402"},{"name":"CEVİZLİK KÖYÜ","zip":"24402"},{"name":"ÇAKIRLAR KÖYÜ","zip":"24402"},{"name":"ÇAKŞIR MAH.","zip":"24402"},{"name":"ÇALGI KÖYÜ","zip":"24402"},{"name":"ÇALIKLAR KÖYÜ","zip":"24402"},{"name":"ÇALOLAR MAH.","zip":"24402"},{"name":"ÇAMLIYAYLA KÖYÜ","zip":"24402"},{"name":"ÇAT MAH.","zip":"24402"},{"name":"ÇAY MAH.","zip":"24402"},{"name":"ÇİĞDEMLİ KÖYÜ","zip":"24402"},{"name":"DEDEK KÖYÜ","zip":"24402"},{"name":"DEDEOĞLU KÖYÜ","zip":"24402"},{"name":"DERE KÖYÜ","zip":"24402"},{"name":"DİKYAMAÇ KÖYÜ","zip":"24402"},{"name":"DOĞAN KÖYÜ","zip":"24402"},{"name":"DOĞANBEYLİ KÖYÜ","zip":"24402"},{"name":"DOLMABAHÇE MAH.","zip":"24402"},{"name":"DORUCA KÖYÜ","zip":"24402"},{"name":"DUTLU KÖYÜ","zip":"24402"},{"name":"ELMALI KÖYÜ","zip":"24402"},{"name":"ELMALI MAH.","zip":"24402"},{"name":"ERİÇ İSTASYONU MAH.","zip":"24402"},{"name":"ERİÇ KÖYÜ","zip":"24402"},{"name":"ESENTEPE MAH.","zip":"24402"},{"name":"ESİMLİ KÖYÜ","zip":"24402"},{"name":"ESKİ KÖY MAH.","zip":"24402"},{"name":"ESKİBAĞLAR KÖYÜ","zip":"24402"},{"name":"GAVURYURDU MAH.","zip":"24402"},{"name":"GEDİKTEPE KÖYÜ","zip":"24402"},{"name":"GİNDİRA MAH.","zip":"24402"},{"name":"GÖKDERE MAH.","zip":"24402"},{"name":"GÖKKAYA KÖYÜ","zip":"24402"},{"name":"GÖLBAŞI MAH.","zip":"24402"},{"name":"GÖLKAYNAK KÖYÜ","zip":"24402"},{"name":"GÜLBAHÇE KÖYÜ","zip":"24402"},{"name":"GÜLLÜBAĞ MAH.","zip":"24402"},{"name":"HACIKOMU MAH.","zip":"24402"},{"name":"HAKBİLİR KÖYÜ","zip":"24402"},{"name":"ILGARLI KÖYÜ","zip":"24402"},{"name":"İNCEDERE KÖYÜ","zip":"24402"},{"name":"İNCESU MAH.","zip":"24402"},{"name":"KALEMİS MAH.","zip":"24402"},{"name":"KARACA KÖYÜ","zip":"24402"},{"name":"KARADAĞ KÖYÜ","zip":"24402"},{"name":"KARAMUSTAFALAR MAH.","zip":"24402"},{"name":"KARDERE KÖYÜ","zip":"24402"},{"name":"KARDEŞLER MAH.","zip":"24402"},{"name":"KARŞIYAKA MAH.","zip":"24402"},{"name":"KAYABAŞI KÖYÜ","zip":"24402"},{"name":"KAZANKAYA KÖYÜ","zip":"24402"},{"name":"KEDEK KÖYÜ","zip":"24402"},{"name":"KEMERYAKA KÖYÜ","zip":"24402"},{"name":"KERER KÖYÜ","zip":"24402"},{"name":"KIRIKDERE KÖYÜ","zip":"24402"},{"name":"KIZILMAĞARA MAH.","zip":"24402"},{"name":"KIZILPINAR MAH.","zip":"24402"},{"name":"KIZILYAZI MAH.","zip":"24402"},{"name":"KOÇKAR KÖYÜ","zip":"24402"},{"name":"KONUKSEVER KÖYÜ","zip":"24402"},{"name":"KORUYOLU KÖYÜ","zip":"24402"},{"name":"KÖMÜR KÖYÜ","zip":"24402"},{"name":"KÖSELER MAH.","zip":"24402"},{"name":"KURT BAHÇESİ MAH.","zip":"24402"},{"name":"KUŞLU MAH.","zip":"24402"},{"name":"KUTLUOVA KÖYÜ","zip":"24402"},{"name":"KÜPLÜ KÖYÜ","zip":"24402"},{"name":"MAKSUTUŞAĞI KÖYÜ","zip":"24402"},{"name":"MERKEZ MAH.","zip":"24402"},{"name":"MERMERLİ KÖYÜ","zip":"24402"},{"name":"MEZRA KÖYÜ","zip":"24402"},{"name":"MURATBOYNU KÖYÜ","zip":"24402"},{"name":"OĞUZ KÖYÜ","zip":"24402"},{"name":"OLUKPINAR KÖYÜ","zip":"24402"},{"name":"ORTA MAH.","zip":"24402"},{"name":"ÖTEGEÇE MAH.","zip":"24402"},{"name":"ÖZDAMAR KÖYÜ","zip":"24402"},{"name":"PARMAKKAYA KÖYÜ","zip":"24402"},{"name":"PINARBAŞI MAH.","zip":"24402"},{"name":"SAMANLI MAH.","zip":"24402"},{"name":"SARIYAZI KÖYÜ","zip":"24402"},{"name":"SERİNGÖZE KÖYÜ","zip":"24402"},{"name":"SÜREK KÖYÜ","zip":"24402"},{"name":"ŞAHİNTEPE KÖYÜ","zip":"24402"},{"name":"TAN KÖYÜ","zip":"24402"},{"name":"TANDIRBAŞI KÖYÜ","zip":"24402"},{"name":"TAN'IN KOMLARI MAH.","zip":"24402"},{"name":"TAŞBULAK KÖYÜ","zip":"24402"},{"name":"TUZLA KÖYÜ","zip":"24402"},{"name":"ULUÇINAR KÖYÜ","zip":"24402"},{"name":"YAĞCA KÖYÜ","zip":"24402"},{"name":"YAHŞILAR KÖYÜ","zip":"24402"},{"name":"YARDERE KÖYÜ","zip":"24402"},{"name":"YASTIKTEPE KÖYÜ","zip":"24402"},{"name":"YAZMALI MAH.","zip":"24402"},{"name":"YENİYERLEŞİM MAH.","zip":"24402"},{"name":"YUKARI ÇAKIRLAR MAH.","zip":"24402"},{"name":"YUKARI MAH.","zip":"24402"},{"name":"YUSUFLAR MAH.","zip":"24402"},{"name":"YUVACIK MAH.","zip":"24402"},{"name":"YÜCEBELEN KÖYÜ","zip":"24402"}]},{"name":"BAŞPINAR","cityName":null,"quarters":[{"name":"AŞAĞIUMUTLU KÖYÜ","zip":"24610"},{"name":"AVCI KÖYÜ","zip":"24610"},{"name":"BAHÇECİK MAH.","zip":"24610"},{"name":"BALKIRI KÖYÜ","zip":"24610"},{"name":"BAŞBAĞLAR KÖYÜ","zip":"24610"},{"name":"BAŞPINAR KÖYÜ","zip":"24610"},{"name":"BUĞDAYPINAR KÖYÜ","zip":"24610"},{"name":"DEĞİRMENDERE MAH.","zip":"24610"},{"name":"EKİNDERE MAH.","zip":"24610"},{"name":"ESENCE KÖYÜ","zip":"24610"},{"name":"GÜNYOLU KÖYÜ","zip":"24610"},{"name":"KAVACIK KÖYÜ","zip":"24610"},{"name":"KOMLAR MAH.","zip":"24610"},{"name":"KUTLUCA KÖYÜ","zip":"24610"},{"name":"MERKEZ MAH.","zip":"24610"},{"name":"SUBAŞI KÖYÜ","zip":"24610"},{"name":"ŞAHİNLER KÖYÜ","zip":"24610"},{"name":"YEŞİLYAYLA KÖYÜ","zip":"24610"},{"name":"YILDIZLI KÖYÜ","zip":"24610"},{"name":"YUKARIUMUTLU KÖYÜ","zip":"24610"}]},{"name":"DUTLUCA","cityName":null,"quarters":[{"name":"AKÇALI KÖYÜ","zip":"24620"},{"name":"AKÇİÇEK MAH.","zip":"24620"},{"name":"AŞAĞI MAH.","zip":"24620"},{"name":"AŞAĞI YUVACIK MAH.","zip":"24620"},{"name":"BOYLU KÖYÜ","zip":"24620"},{"name":"ÇAKIRTAŞ KÖYÜ","zip":"24620"},{"name":"ÇAT KÖYÜ","zip":"24620"},{"name":"ÇİT KÖYÜ","zip":"24620"},{"name":"DEMİR KÖYÜ","zip":"24620"},{"name":"DUTLUCA KÖYÜ","zip":"24620"},{"name":"EFELER KÖYÜ","zip":"24620"},{"name":"KARAPINAR KÖYÜ","zip":"24620"},{"name":"KARŞI MAH.","zip":"24620"},{"name":"KEKİKPINARI KÖYÜ","zip":"24620"},{"name":"KIŞLACIK KÖYÜ","zip":"24620"},{"name":"KIYI MAH.","zip":"24620"},{"name":"KIYI MEZRA MAH.","zip":"24620"},{"name":"KIZILÇUKUR MAH.","zip":"24620"},{"name":"KONACIK MAH.","zip":"24620"},{"name":"KUŞAK KÖYÜ","zip":"24620"},{"name":"OCAK KÖYÜ","zip":"24620"},{"name":"ORTA MAH.","zip":"24620"},{"name":"SALKIMLI MAH.","zip":"24620"},{"name":"TOPKAPI KÖYÜ","zip":"24620"},{"name":"YAZMAKAYA KÖYÜ","zip":"24620"},{"name":"YENİ MAH.","zip":"24620"},{"name":"YUKARI MAH.","zip":"24620"},{"name":"YUKARI YUVACIK MAH.","zip":"24620"}]},{"name":"KEMALİYE","cityName":null,"quarters":[{"name":"BAHÇE MAH.","zip":"24600"},{"name":"DÖRTYOLAĞZI MAH.","zip":"24600"},{"name":"GENÇAĞA MAH.","zip":"24600"},{"name":"HACI YUSUF MAH.","zip":"24600"},{"name":"HALİLAĞA MAH.","zip":"24600"},{"name":"İSHAKPAŞA MAH.","zip":"24600"},{"name":"NAİP MAH.","zip":"24600"},{"name":"SANDIKBAĞI MAH.","zip":"24600"},{"name":"TAŞDİBİ MAH.","zip":"24600"}]},{"name":"MERKEZKÖYLER","cityName":null,"quarters":[{"name":"AĞILLAR MAH.","zip":"24602"},{"name":"AKSÖĞÜT KÖYÜ","zip":"24602"},{"name":"APÇAĞA KÖYÜ","zip":"24602"},{"name":"ARSLANOBA KÖYÜ","zip":"24602"},{"name":"BAŞARI KÖYÜ","zip":"24602"},{"name":"BEY MAH.","zip":"24602"},{"name":"CAMİ MAH.","zip":"24602"},{"name":"ÇALDERE KÖYÜ","zip":"24602"},{"name":"ÇALTI MAH.","zip":"24602"},{"name":"ÇANAKÇI KÖYÜ","zip":"24602"},{"name":"ÇEREZ MAH.","zip":"24602"},{"name":"DALLICA KÖYÜ","zip":"24602"},{"name":"DİLLİ KÖYÜ","zip":"24602"},{"name":"DOLUNAY KÖYÜ","zip":"24602"},{"name":"EMİRLİ MAH.","zip":"24602"},{"name":"ERGÜ KÖYÜ","zip":"24602"},{"name":"ESERTEPE KÖYÜ","zip":"24602"},{"name":"GÖZAYDIN KÖYÜ","zip":"24602"},{"name":"GÜLDİBİ KÖYÜ","zip":"24602"},{"name":"GÜMÜŞÇEŞME KÖYÜ","zip":"24602"},{"name":"HACCA MAH.","zip":"24602"},{"name":"HARMANKAYA KÖYÜ","zip":"24602"},{"name":"KABATAŞ KÖYÜ","zip":"24602"},{"name":"KARAKOÇLU KÖYÜ","zip":"24602"},{"name":"KARŞI MAH.","zip":"24602"},{"name":"KAYABAŞI MAH.","zip":"24602"},{"name":"KEMERALTI MAH.","zip":"24602"},{"name":"KOCAÇİMEN KÖYÜ","zip":"24602"},{"name":"KOZLUPINAR KÖYÜ","zip":"24602"},{"name":"MEREKLER MAH.","zip":"24602"},{"name":"MERKEZ MAH.","zip":"24602"},{"name":"MESCİT MAH.","zip":"24602"},{"name":"NERKAT MAH.","zip":"24602"},{"name":"ORTA MAH.","zip":"24602"},{"name":"OTTAŞ MAH.","zip":"24602"},{"name":"POSER MAH.","zip":"24602"},{"name":"SALİHLİ KÖYÜ","zip":"24602"},{"name":"SANDIK KÖYÜ","zip":"24602"},{"name":"SIRAKONAK KÖYÜ","zip":"24602"},{"name":"TOYBELEN KÖYÜ","zip":"24602"},{"name":"TUĞLU KÖYÜ","zip":"24602"},{"name":"ULAŞ MAH.","zip":"24602"},{"name":"YAKA KÖYÜ","zip":"24602"},{"name":"YAYLA MAH.","zip":"24602"},{"name":"YAYLADAMI KÖYÜ","zip":"24602"},{"name":"YENİKÖY MAH.","zip":"24602"},{"name":"YEŞİLYAMAÇ KÖYÜ","zip":"24602"},{"name":"YEŞİLYURT KÖYÜ","zip":"24602"},{"name":"YUVA KÖYÜ","zip":"24602"}]},{"name":"AKŞEMSETTİN","cityName":null,"quarters":[{"name":"ATATÜRK MAH.","zip":"24100"},{"name":"BARBAROS MAH.","zip":"24100"},{"name":"BAŞBAĞLAR MAH.","zip":"24100"},{"name":"CUMHURİYET MAH.","zip":"24100"},{"name":"ÇARŞI MAH.","zip":"24100"},{"name":"ERSEVENLER MAH.","zip":"24100"},{"name":"FATİH MAH.","zip":"24100"},{"name":"GÜLABİBEY MAH.","zip":"24100"},{"name":"İZZETPAŞA MAH.","zip":"24100"},{"name":"KARAAĞAÇ MAH.","zip":"24100"},{"name":"MENGÜCELİ MAH.","zip":"24100"},{"name":"YUNUS EMRE MAH.","zip":"24100"}]},{"name":"BAHÇELİEVLER","cityName":null,"quarters":[{"name":"BAHÇELİEVLER MAH.","zip":"24050"},{"name":"ERGENEKON MAH.","zip":"24050"},{"name":"HALİTPAŞA MAH.","zip":"24050"},{"name":"HOCABEY MAH.","zip":"24050"},{"name":"İNÖNÜ MAH.","zip":"24050"},{"name":"KAZIM KARABEKİR MAH.","zip":"24050"},{"name":"KIZILAY MAH.","zip":"24050"},{"name":"MİMAR SİNAN MAH.","zip":"24050"},{"name":"TAKSİM MAH.","zip":"24050"},{"name":"YAVUZ SELİM MAH.","zip":"24050"},{"name":"YENİMAHALLE MAH.","zip":"24050"}]},{"name":"MERKEZKÖYLER","cityName":null,"quarters":[{"name":"AĞILÖZÜ KÖYÜ","zip":"24002"},{"name":"AHMETLİ KÖYÜ","zip":"24002"},{"name":"AKŞEMSETTİN MAH.","zip":"24002"},{"name":"AKTEPE MAH.","zip":"24002"},{"name":"AKYAZI KÖYÜ","zip":"24002"},{"name":"ATATÜRK MAH.","zip":"24002"},{"name":"AYDOĞDU KÖYÜ","zip":"24002"},{"name":"BAHÇELİKÖY KÖYÜ","zip":"24002"},{"name":"BAHÇEYAZI KÖYÜ","zip":"24002"},{"name":"BALIBEYİ KÖYÜ","zip":"24002"},{"name":"BALLI KÖYÜ","zip":"24002"},{"name":"BALTAŞI KÖYÜ","zip":"24002"},{"name":"BARIŞ MAH.","zip":"24002"},{"name":"BAŞPINAR MAH.","zip":"24002"},{"name":"BAYRAK MAH.","zip":"24002"},{"name":"BEŞİKTAŞ MAH.","zip":"24002"},{"name":"BEŞSARAY KÖYÜ","zip":"24002"},{"name":"BİNKOÇ KÖYÜ","zip":"24002"},{"name":"BOZYAZI MAH.","zip":"24002"},{"name":"BUĞDAYLI KÖYÜ","zip":"24002"},{"name":"BULUTLU MAH.","zip":"24002"},{"name":"BÜYÜKÇAKIRMAN KÖYÜ","zip":"24002"},{"name":"CAFERLİ KÖYÜ","zip":"24002"},{"name":"CAFOLAR MAH.","zip":"24002"},{"name":"CANAHMET MAH.","zip":"24002"},{"name":"CELABUZUR MAH.","zip":"24002"},{"name":"CEMAL GÜRSEL MAH.","zip":"24002"},{"name":"CENGİZ TOPEL MAH.","zip":"24002"},{"name":"CEVİZLİ KÖYÜ","zip":"24002"},{"name":"CEVİZLİ MAH.","zip":"24002"},{"name":"CUMHURİYET MAH.","zip":"24002"},{"name":"ÇADIRKAYA MAH.","zip":"24002"},{"name":"ÇAĞLAYAN KÖYÜ","zip":"24002"},{"name":"ÇATALARMUT KÖYÜ","zip":"24002"},{"name":"ÇATALÖREN KÖYÜ","zip":"24002"},{"name":"ÇAY MAH.","zip":"24002"},{"name":"ÇUBUKLU KÖYÜ","zip":"24002"},{"name":"ÇUKURKUYU KÖYÜ","zip":"24002"},{"name":"DAVARLI MAH.","zip":"24002"},{"name":"DEĞİRMENKÖY KÖYÜ","zip":"24002"},{"name":"DEĞİRMENKÖY MAH.","zip":"24002"},{"name":"DEMETEVLER MAH.","zip":"24002"},{"name":"DEMİRKENT KÖYÜ","zip":"24002"},{"name":"DEREBAĞ MAH.","zip":"24002"},{"name":"DEREYURT MAH.","zip":"24002"},{"name":"EKİNCİ KÖYÜ","zip":"24002"},{"name":"EKİNLİ MAH.","zip":"24002"},{"name":"EKMEKLİ KÖYÜ","zip":"24002"},{"name":"ELMAKÖY KÖYÜ","zip":"24002"},{"name":"ERDENE MAH.","zip":"24002"},{"name":"ERGAN KÖYÜ","zip":"24002"},{"name":"ERGENEKON MAH.","zip":"24002"},{"name":"ESENTEPE MAH.","zip":"24002"},{"name":"EŞEKMEYDANI MAH.","zip":"24002"},{"name":"EYÜP SULTAN MAH.","zip":"24002"},{"name":"FAİKOSMAN MAH.","zip":"24002"},{"name":"FATİH MAH.","zip":"24002"},{"name":"GANİEFENDİÇİFTLİĞİ KÖYÜ","zip":"24002"},{"name":"GAZİ MAH.","zip":"24002"},{"name":"GEÇİT KÖYÜ","zip":"24002"},{"name":"GÖLPINAR KÖYÜ","zip":"24002"},{"name":"GÖYNE KÖYÜ","zip":"24002"},{"name":"GÜLLÜCE MAH.","zip":"24002"},{"name":"GÜMÜŞTARLA KÖYÜ","zip":"24002"},{"name":"GÜNBAĞI KÖYÜ","zip":"24002"},{"name":"GÜNEBAKAN KÖYÜ","zip":"24002"},{"name":"GÜNEBAKAN MAH.","zip":"24002"},{"name":"GÜRLEVİK KÖYÜ","zip":"24002"},{"name":"HACIALİPALANGASI KÖYÜ","zip":"24002"},{"name":"HAMİDİYE MAH.","zip":"24002"},{"name":"HANCI MAH.","zip":"24002"},{"name":"HANCIÇİFTLİĞİ KÖYÜ","zip":"24002"},{"name":"HANİDERE KÖYÜ","zip":"24002"},{"name":"HEYBELİ KÖYÜ","zip":"24002"},{"name":"HOCA AHMET YESEVİ MAH.","zip":"24002"},{"name":"HÜRREMPALANGASI MAH.","zip":"24002"},{"name":"ILIDERE KÖYÜ","zip":"24002"},{"name":"IŞIKPINAR KÖYÜ","zip":"24002"},{"name":"İNÖNÜ MAH.","zip":"24002"},{"name":"KALECİK KÖYÜ","zip":"24002"},{"name":"KARADİĞİN KÖYÜ","zip":"24002"},{"name":"KARATUŞ KÖYÜ","zip":"24002"},{"name":"KAVAKYOLU KÖYÜ","zip":"24002"},{"name":"KEKLİKKAYASI KÖYÜ","zip":"24002"},{"name":"KEŞKUYUSU MAH.","zip":"24002"},{"name":"KILIÇKAYA KÖYÜ","zip":"24002"},{"name":"KIR MAH.","zip":"24002"},{"name":"KİLİMLİ KÖYÜ","zip":"24002"},{"name":"KİLOĞLU MAH.","zip":"24002"},{"name":"KOÇYATAĞI KÖYÜ","zip":"24002"},{"name":"KONAKBAŞI KÖYÜ","zip":"24002"},{"name":"KONAKBAŞI MAH.","zip":"24002"},{"name":"KÖKLÜ MAH.","zip":"24002"},{"name":"KÖPRÜBAŞI MAH.","zip":"24002"},{"name":"KURTULUŞ MAH.","zip":"24002"},{"name":"KURUTİLEK KÖYÜ","zip":"24002"},{"name":"KÜÇÜKÇAKIRMAN KÖYÜ","zip":"24002"},{"name":"KÜÇÜKKADAĞAN KÖYÜ","zip":"24002"},{"name":"MAHMUTLU MAH.","zip":"24002"},{"name":"MECİDİYE KÖYÜ","zip":"24002"},{"name":"MEMETALİBEY MAH.","zip":"24002"},{"name":"MENDERES MAH.","zip":"24002"},{"name":"MERTEKLİ MAH.","zip":"24002"},{"name":"MİMAR SİNAN MAH.","zip":"24002"},{"name":"MİMARSİNAN MAH.","zip":"24002"},{"name":"MOLLAKÖY KÖYÜ","zip":"24002"},{"name":"MUNZUR MAH.","zip":"24002"},{"name":"MÜFTÜOĞLU MAH.","zip":"24002"},{"name":"OĞLAKTEPE KÖYÜ","zip":"24002"},{"name":"OLUKLU MAH.","zip":"24002"},{"name":"ORTA MAH.","zip":"24002"},{"name":"ORTAYURT KÖYÜ","zip":"24002"},{"name":"ORTAYURT MAH.","zip":"24002"},{"name":"OSB MAH.","zip":"24002"},{"name":"OSMANLI MAH.","zip":"24002"},{"name":"PARABAĞ MAH.","zip":"24002"},{"name":"PEKMEZLİ KÖYÜ","zip":"24002"},{"name":"PINARÖNÜ KÖYÜ","zip":"24002"},{"name":"SANCAK MAH.","zip":"24002"},{"name":"SARIGÖL MAH.","zip":"24002"},{"name":"SAZLIPINAR KÖYÜ","zip":"24002"},{"name":"SAZTEPE KÖYÜ","zip":"24002"},{"name":"SELAM MAH.","zip":"24002"},{"name":"SOĞUKOLUK KÖYÜ","zip":"24002"},{"name":"SÖĞÜTÖZÜ KÖYÜ","zip":"24002"},{"name":"SÜTPINAR KÖYÜ","zip":"24002"},{"name":"ŞEHİTSERHAT MAH.","zip":"24002"},{"name":"ŞELALE MAH.","zip":"24002"},{"name":"ŞHT. SERHAT YURTBAŞI MAH.","zip":"24002"},{"name":"ŞORAK MAH.","zip":"24002"},{"name":"TANDIRLI KÖYÜ","zip":"24002"},{"name":"TATLISU KÖYÜ","zip":"24002"},{"name":"TEPECİK MAH.","zip":"24002"},{"name":"TERZİBABA MAH.","zip":"24002"},{"name":"TÜRKMENOĞLU KÖYÜ","zip":"24002"},{"name":"ULALAR KÖYÜ","zip":"24002"},{"name":"ULUKÖY KÖYÜ","zip":"24002"},{"name":"ÜÇKONAK MAH.","zip":"24002"},{"name":"ÜREK KÖYÜ","zip":"24002"},{"name":"ÜREK MAH.","zip":"24002"},{"name":"VANK MAH.","zip":"24002"},{"name":"YALINCA KÖYÜ","zip":"24002"},{"name":"YALNIZBAĞ KÖYÜ","zip":"24002"},{"name":"YAMAÇLI MAH.","zip":"24002"},{"name":"YAYLABAŞI KÖYÜ","zip":"24002"},{"name":"YENİ MAH.","zip":"24002"},{"name":"YENİDOĞAN MAH.","zip":"24002"},{"name":"YENİKÖY KÖYÜ","zip":"24002"},{"name":"YENİMAHALLE MAH.","zip":"24002"},{"name":"YEŞİLÇAT KÖYÜ","zip":"24002"},{"name":"YEŞİLÇAY KÖYÜ","zip":"24002"},{"name":"YEŞİLYURT MAH.","zip":"24002"},{"name":"YOĞURTLU KÖYÜ","zip":"24002"},{"name":"YUNUS EMRE MAH.","zip":"24002"},{"name":"AĞAMÇAĞAM KÖYÜ","zip":"24515"},{"name":"AVCIÇAYIRI KÖYÜ","zip":"24515"},{"name":"BOĞAZLI KÖYÜ","zip":"24515"},{"name":"KARADİVAN KÖYÜ","zip":"24515"},{"name":"KÜÇÜKOTLUKBELİ KÖYÜ","zip":"24515"},{"name":"MEZRA MAH.","zip":"24515"},{"name":"ÖRDEKHACI KÖYÜ","zip":"24515"},{"name":"SÖĞÜTLÜ KÖYÜ","zip":"24515"},{"name":"UMURLU KÖYÜ","zip":"24515"},{"name":"YENİKÖY KÖYÜ","zip":"24515"},{"name":"YEŞİLBÜK KÖYÜ","zip":"24515"}]},{"name":"OTLUKBELİ","cityName":null,"quarters":[{"name":"MEHMET AKİF ERSOY MAH.","zip":"24510"},{"name":"ŞEHİTLER MAH.","zip":"24510"}]},{"name":"MERKEZKÖYLER","cityName":null,"quarters":[{"name":"AĞTAŞ MAH.","zip":"24302"},{"name":"AKARSU KÖYÜ","zip":"24302"},{"name":"AKBAĞ KÖYÜ","zip":"24302"},{"name":"AKÇİĞDEM KÖYÜ","zip":"24302"},{"name":"AKMEŞE MAH.","zip":"24302"},{"name":"ALACAHAN MAH.","zip":"24302"},{"name":"ALACATLI KÖYÜ","zip":"24302"},{"name":"ALAÇAYIR KÖYÜ","zip":"24302"},{"name":"ALAPINAR KÖYÜ","zip":"24302"},{"name":"ALTKÖY KÖYÜ","zip":"24302"},{"name":"ARDIÇLIK KÖYÜ","zip":"24302"},{"name":"ARMUTLU KÖYÜ","zip":"24302"},{"name":"ARPAYAZI KÖYÜ","zip":"24302"},{"name":"ASLANYUSUF KÖYÜ","zip":"24302"},{"name":"AŞAĞIMADEN-ÇAMDİBİ MAH.","zip":"24302"},{"name":"AŞAĞISÜTLÜ KÖYÜ","zip":"24302"},{"name":"AŞUT KÖYÜ","zip":"24302"},{"name":"AVŞARÖZÜ KÖYÜ","zip":"24302"},{"name":"AYDINCIK KÖYÜ","zip":"24302"},{"name":"AYDINCIK MAH.","zip":"24302"},{"name":"AYDOĞAN KÖYÜ","zip":"24302"},{"name":"AYDOĞAN MAH.","zip":"24302"},{"name":"BABAASLAN KÖYÜ","zip":"24302"},{"name":"BABOLAR MAH.","zip":"24302"},{"name":"BAKACAK KÖYÜ","zip":"24302"},{"name":"BALOĞLU KÖYÜ","zip":"24302"},{"name":"BAŞTOSUN KÖYÜ","zip":"24302"},{"name":"BEKTAŞLI MAH.","zip":"24302"},{"name":"BİÇER KÖYÜ","zip":"24302"},{"name":"BOSTANDERE KÖYÜ","zip":"24302"},{"name":"BÖLÜKTEPE KÖYÜ","zip":"24302"},{"name":"BULAK MAH.","zip":"24302"},{"name":"CENGERLİ KÖYÜ","zip":"24302"},{"name":"ÇALTI KÖYÜ","zip":"24302"},{"name":"ÇAMDİBİ KÖYÜ","zip":"24302"},{"name":"ÇAMLIMÜLK KÖYÜ","zip":"24302"},{"name":"ÇAT KÖYÜ","zip":"24302"},{"name":"ÇATAK KÖYÜ","zip":"24302"},{"name":"ÇATALÇAM KÖYÜ","zip":"24302"},{"name":"ÇAVUŞ KÖYÜ","zip":"24302"},{"name":"ÇERÇİLER MAH.","zip":"24302"},{"name":"ÇIRAGEDİĞİ KÖYÜ","zip":"24302"},{"name":"ÇİÇEKALİ KÖYÜ","zip":"24302"},{"name":"ÇOBANLI MAH.","zip":"24302"},{"name":"ÇUKURÇİMEN KÖYÜ","zip":"24302"},{"name":"ÇUKURYAZI KÖYÜ","zip":"24302"},{"name":"DAHAR MAH.","zip":"24302"},{"name":"DAMLACA KÖYÜ","zip":"24302"},{"name":"DEDEPINAR MAH.","zip":"24302"},{"name":"DELİKTAŞ MAH.","zip":"24302"},{"name":"DEREBAŞI KÖYÜ","zip":"24302"},{"name":"DERE-YAYLA MAH.","zip":"24302"},{"name":"DİKKE--BAYIRLI MAH.","zip":"24302"},{"name":"DİŞTAŞ KÖYÜ","zip":"24302"},{"name":"DİYARLAR KÖYÜ","zip":"24302"},{"name":"DOĞANDERE KÖYÜ","zip":"24302"},{"name":"DOLAYLI KÖYÜ","zip":"24302"},{"name":"DOSTOLAR-UYSAL MAH.","zip":"24302"},{"name":"EKECİK KÖYÜ","zip":"24302"},{"name":"EMİRDERE MAH.","zip":"24302"},{"name":"ERECEK KÖYÜ","zip":"24302"},{"name":"ESKİKONAK MAH.","zip":"24302"},{"name":"GAZİPINARI KÖYÜ","zip":"24302"},{"name":"GEMECİK KÖYÜ","zip":"24302"},{"name":"GENCOLAR-ESENLİK MAH.","zip":"24302"},{"name":"GÖKSEKİ KÖYÜ","zip":"24302"},{"name":"GÖLCÜK MAH.","zip":"24302"},{"name":"GÖLKÖY KÖYÜ","zip":"24302"},{"name":"GÖMÜ MAH.","zip":"24302"},{"name":"GÜLENSU KÖYÜ","zip":"24302"},{"name":"GÜMÜŞAKAR KÖYÜ","zip":"24302"},{"name":"GÜNYÜZÜ KÖYÜ","zip":"24302"},{"name":"GÜVENDİK MAH.","zip":"24302"},{"name":"GÜVENTEPE KÖYÜ","zip":"24302"},{"name":"GÜZLE KÖYÜ","zip":"24302"},{"name":"HACIKÖY KÖYÜ","zip":"24302"},{"name":"HALİTLER KÖYÜ","zip":"24302"},{"name":"HİNİSLER-BAŞAKLI MAH.","zip":"24302"},{"name":"IŞIKLI MAH.","zip":"24302"},{"name":"İMECİK MAH.","zip":"24302"},{"name":"İNCEHATİPLER MAH.","zip":"24302"},{"name":"KABULLER KÖYÜ","zip":"24302"},{"name":"KAÇAK KÖYÜ","zip":"24302"},{"name":"KADIKÖY KÖYÜ","zip":"24302"},{"name":"KALKANCI KÖYÜ","zip":"24302"},{"name":"KAMBERAĞA KÖYÜ","zip":"24302"},{"name":"KANDİL KÖYÜ","zip":"24302"},{"name":"KANLITAŞ KÖYÜ","zip":"24302"},{"name":"KARASU KÖYÜ","zip":"24302"},{"name":"KARAYAPRAK KÖYÜ","zip":"24302"},{"name":"KARDEŞLER MAH.","zip":"24302"},{"name":"KARYATAĞI MAH.","zip":"24302"},{"name":"KAYI KÖYÜ","zip":"24302"},{"name":"KAZI MAH.","zip":"24302"},{"name":"KAZÖREN KÖYÜ","zip":"24302"},{"name":"KEÇEGÖZ KÖYÜ","zip":"24302"},{"name":"KEL SÜLEYMAN MAH.","zip":"24302"},{"name":"KERDAĞ MAH.","zip":"24302"},{"name":"KERSEN KÖYÜ","zip":"24302"},{"name":"KINOĞLU MAH.","zip":"24302"},{"name":"KIRANTEPE KÖYÜ","zip":"24302"},{"name":"KIRIKTAŞ KÖYÜ","zip":"24302"},{"name":"KIRKBULAK KÖYÜ","zip":"24302"},{"name":"KIZILENİŞ KÖYÜ","zip":"24302"},{"name":"KOÇKAYA KÖYÜ","zip":"24302"},{"name":"KOÇO MAH.","zip":"24302"},{"name":"KONAKKÖY KÖYÜ","zip":"24302"},{"name":"KOVA MAH.","zip":"24302"},{"name":"KÖÇEVİ KÖYÜ","zip":"24302"},{"name":"KÖRİSMAİL MAH.","zip":"24302"},{"name":"KUŞCULLU MAH.","zip":"24302"},{"name":"KUZULUK KÖYÜ","zip":"24302"},{"name":"KÜRELİK KÖYÜ","zip":"24302"},{"name":"LALELİ KÖYÜ","zip":"24302"},{"name":"LEVENTLER KÖYÜ","zip":"24302"},{"name":"MADENDERE KÖYÜ","zip":"24302"},{"name":"MEMİYURDU MAH.","zip":"24302"},{"name":"MENDEMEBAŞI KÖYÜ","zip":"24302"},{"name":"MENDEMEKÖYÇUKURU KÖYÜ","zip":"24302"},{"name":"MERKEZ KALKANCI KÖYÜ","zip":"24302"},{"name":"MURATÇAYIRI KÖYÜ","zip":"24302"},{"name":"MÜLK KÖYÜ","zip":"24302"},{"name":"OLGUNLAR KÖYÜ","zip":"24302"},{"name":"OLUKLU MAH.","zip":"24302"},{"name":"ONURLU KÖYÜ","zip":"24302"},{"name":"ORTAGÖZE KÖYÜ","zip":"24302"},{"name":"OZAN MAH.","zip":"24302"},{"name":"ÖREN KÖYÜ","zip":"24302"},{"name":"ÖREN MAH.","zip":"24302"},{"name":"ÖRTÜLÜ MAH.","zip":"24302"},{"name":"PERÇEM KÖYÜ","zip":"24302"},{"name":"PINARYOLU KÖYÜ","zip":"24302"},{"name":"PİROĞLU MAH.","zip":"24302"},{"name":"RESULLAR KÖYÜ","zip":"24302"},{"name":"RESULOĞLU MAH.","zip":"24302"},{"name":"SAĞLIK KÖYÜ","zip":"24302"},{"name":"SALUR KÖYÜ","zip":"24302"},{"name":"SARHAN KÖYÜ","zip":"24302"},{"name":"SARIBAYIR KÖYÜ","zip":"24302"},{"name":"SARIKOÇ KÖYÜ","zip":"24302"},{"name":"SIRALI KÖYÜ","zip":"24302"},{"name":"SÖĞÜTLÜ KÖYÜ","zip":"24302"},{"name":"ŞAHALOĞLU KÖYÜ","zip":"24302"},{"name":"ŞAHVERDİ KÖYÜ","zip":"24302"},{"name":"ŞAİP KÖYÜ","zip":"24302"},{"name":"ŞAKKA-ÇİFTLİK MAH.","zip":"24302"},{"name":"ŞIHORUÇ MAH.","zip":"24302"},{"name":"TAHAR MAH.","zip":"24302"},{"name":"TAŞDİBİ-TAŞBAŞI MAH.","zip":"24302"},{"name":"TAŞLICA MAH.","zip":"24302"},{"name":"TEKNECİK KÖYÜ","zip":"24302"},{"name":"TEMÜR MAH.","zip":"24302"},{"name":"TEPE KÖYÜ","zip":"24302"},{"name":"TOPAĞAÇ KÖYÜ","zip":"24302"},{"name":"TOSUNLU MAH.","zip":"24302"},{"name":"TUZLAKONAĞI MAH.","zip":"24302"},{"name":"TUZLUÇAYIR KÖYÜ","zip":"24302"},{"name":"TÜLÜ KÖYÜ","zip":"24302"},{"name":"ULUCAK KÖYÜ","zip":"24302"},{"name":"ULUDERE KÖYÜ","zip":"24302"},{"name":"ÜÇÖREN KÖYÜ","zip":"24302"},{"name":"YAĞMURTEPE MAH.","zip":"24302"},{"name":"YANIK MAH.","zip":"24302"},{"name":"YAYLA MAH.","zip":"24302"},{"name":"YAYLABAŞI MAH.","zip":"24302"},{"name":"YAYLABELİ KÖYÜ","zip":"24302"},{"name":"YAYLACIK MAH.","zip":"24302"},{"name":"YAYLAPINARI KÖYÜ","zip":"24302"},{"name":"YAZI KÖYÜ","zip":"24302"},{"name":"YAZI MAH.","zip":"24302"},{"name":"YAZIGEDİĞİ KÖYÜ","zip":"24302"},{"name":"YENİKÖY KÖYÜ","zip":"24302"},{"name":"YENİYURT KÖYÜ","zip":"24302"},{"name":"YERLİCE MAH.","zip":"24302"},{"name":"YILDIZÖREN KÖYÜ","zip":"24302"},{"name":"YUKARISÜTLÜ KÖYÜ","zip":"24302"},{"name":"YUKARIYENİKÖY KÖYÜ","zip":"24302"},{"name":"YURTBAŞI KÖYÜ","zip":"24302"},{"name":"YUVADAĞI KÖYÜ","zip":"24302"},{"name":"YÜNLÜCE MAH.","zip":"24302"},{"name":"ZERELER MAH.","zip":"24302"}]},{"name":"REFAHİYE","cityName":null,"quarters":[{"name":"HAKOĞLU MAH.","zip":"24300"},{"name":"KEMALİYE MAH.","zip":"24300"},{"name":"YENİDOĞAN MAH.","zip":"24300"}]},{"name":"MERKEZKÖYLER","cityName":null,"quarters":[{"name":"AĞÖREN KÖYÜ","zip":"24802"},{"name":"AKMEZAR MEZRASI MAH.","zip":"24802"},{"name":"AKŞEMSETTİN MAH.","zip":"24802"},{"name":"AKTAŞ KÖYÜ","zip":"24802"},{"name":"AKYURT KÖYÜ","zip":"24802"},{"name":"ALTINCA MAH.","zip":"24802"},{"name":"ALTINKAYA KÖYÜ","zip":"24802"},{"name":"ALTINOVA MEZRASI MAH.","zip":"24802"},{"name":"ARAKEL KOMU MAH.","zip":"24802"},{"name":"ARMUTLUK KÖYÜ","zip":"24802"},{"name":"ASLAN ÇAYIR MAH.","zip":"24802"},{"name":"AŞAĞI BAHÇE MEZRASI MAH.","zip":"24802"},{"name":"AŞAĞI CEMAL MEZRASI MAH.","zip":"24802"},{"name":"AŞAĞI KONARLI MEZRASI MAH.","zip":"24802"},{"name":"ATATÜRK MAH.","zip":"24802"},{"name":"ATÇAYIRI MAH.","zip":"24802"},{"name":"BAĞPINAR KÖYÜ","zip":"24802"},{"name":"BALÖZÜ MEZRASI MAH.","zip":"24802"},{"name":"BALYAYLA KÖYÜ","zip":"24802"},{"name":"BAŞBUDAK KÖYÜ","zip":"24802"},{"name":"BEĞENDİK KÖYÜ","zip":"24802"},{"name":"BEŞGÖZE KÖYÜ","zip":"24802"},{"name":"BEŞKAYA KÖYÜ","zip":"24802"},{"name":"BEY KOMU MEZRASI MAH.","zip":"24802"},{"name":"BEYKONAK KÖYÜ","zip":"24802"},{"name":"BULMUŞ KÖYÜ","zip":"24802"},{"name":"BULMUŞ-KOM MAH.","zip":"24802"},{"name":"BÜKLÜMDERE KÖYÜ","zip":"24802"},{"name":"CAMİİ KEBİR MAH.","zip":"24802"},{"name":"CAMİİ ŞERİF MAH.","zip":"24802"},{"name":"CEMAL MEZRASI MAH.","zip":"24802"},{"name":"CIRNAVUK MAH.","zip":"24802"},{"name":"ÇADIRKAYA KÖYÜ","zip":"24802"},{"name":"ÇALKIŞLA KÖYÜ","zip":"24802"},{"name":"ÇATAKDERE KÖYÜ","zip":"24802"},{"name":"ÇAYIRDÜZÜ KÖYÜ","zip":"24802"},{"name":"ÇERME MAH.","zip":"24802"},{"name":"ÇİFTELER MEZRASI MAH.","zip":"24802"},{"name":"ÇUKURYURT KÖYÜ","zip":"24802"},{"name":"DALLICA KÖYÜ","zip":"24802"},{"name":"DARITEPE KÖYÜ","zip":"24802"},{"name":"DEĞİRMEN ARKASI MAH.","zip":"24802"},{"name":"DEĞİRMENARKASI MAH.","zip":"24802"},{"name":"DEMİRKAPI MAH.","zip":"24802"},{"name":"DEREÇAYIRI MAH.","zip":"24802"},{"name":"DERVİŞ MEZRASI MAH.","zip":"24802"},{"name":"DOLUCA KÖYÜ","zip":"24802"},{"name":"EDEBÜK KÖYÜ","zip":"24802"},{"name":"ELALDI KÖYÜ","zip":"24802"},{"name":"ELMALI KÖYÜ","zip":"24802"},{"name":"ELMALI MERKEZ MAH.","zip":"24802"},{"name":"ESENEVLER KÖYÜ","zip":"24802"},{"name":"FATİH MAH.","zip":"24802"},{"name":"FETTAH MAH.","zip":"24802"},{"name":"FINDIKLI KÖYÜ","zip":"24802"},{"name":"GAFUREFENDİ KÖYÜ","zip":"24802"},{"name":"GEDİKDERE KÖYÜ","zip":"24802"},{"name":"GENÇALİ MAH.","zip":"24802"},{"name":"GEVENLİK KÖYÜ","zip":"24802"},{"name":"GİRNEVİK MAH.","zip":"24802"},{"name":"GÖKÇE KÖYÜ","zip":"24802"},{"name":"GÖKDERE KÖYÜ","zip":"24802"},{"name":"GÖKPINAR KÖYÜ","zip":"24802"},{"name":"GÖKTAŞ KÖYÜ","zip":"24802"},{"name":"GÖL MEZRASI MAH.","zip":"24802"},{"name":"GÖLLÜCE MEZRASI MAH.","zip":"24802"},{"name":"GÖNCÜKHAN MAH.","zip":"24802"},{"name":"GÖZELER MAH.","zip":"24802"},{"name":"GÜZBULAK KÖYÜ","zip":"24802"},{"name":"HACI DERVİŞ MAH.","zip":"24802"},{"name":"HACIBAYRAM KÖYÜ","zip":"24802"},{"name":"HARHURU MAH.","zip":"24802"},{"name":"HAYRANLAR MAH.","zip":"24802"},{"name":"HAYRANLI MAH.","zip":"24802"},{"name":"HOT MAH.","zip":"24802"},{"name":"ILISU KÖYÜ","zip":"24802"},{"name":"İBRAHİMAĞA MEZRASI MAH.","zip":"24802"},{"name":"İKİZLER KÖYÜ","zip":"24802"},{"name":"İNAKLI MEZRASI MAH.","zip":"24802"},{"name":"İSHAK MAH.","zip":"24802"},{"name":"İSMAİL AĞA MAH.","zip":"24802"},{"name":"İSMAİLAĞA MAH.","zip":"24802"},{"name":"İSTASYON MAH.","zip":"24802"},{"name":"KADI MEZRASI MAH.","zip":"24802"},{"name":"KALE MEZRASI MAH.","zip":"24802"},{"name":"KALECİK KÖYÜ","zip":"24802"},{"name":"KAMER KOMU MAH.","zip":"24802"},{"name":"KANÇO MEZRASI MAH.","zip":"24802"},{"name":"KARABAŞ MAH.","zip":"24802"},{"name":"KARACAKIŞLAK KÖYÜ","zip":"24802"},{"name":"KARACAÖREN KÖYÜ","zip":"24802"},{"name":"KARAHÜSEYİN KÖYÜ","zip":"24802"},{"name":"KARGIN KÖYÜ","zip":"24802"},{"name":"KARGIN MAH.","zip":"24802"},{"name":"KARLIK MAH.","zip":"24802"},{"name":"KARŞIKARABAŞ MAH.","zip":"24802"},{"name":"KARUMNA MEZRASI MAH.","zip":"24802"},{"name":"KAVAKLIK KÖYÜ","zip":"24802"},{"name":"KEBANİ MEZRASI MAH.","zip":"24802"},{"name":"KEMERÇAM KÖYÜ","zip":"24802"},{"name":"KEŞİŞ KOMU MAH.","zip":"24802"},{"name":"KIZILCA KÖYÜ","zip":"24802"},{"name":"KİLİSE KOMU MAH.","zip":"24802"},{"name":"KİLİSE MEZRASI MAH.","zip":"24802"},{"name":"KOÇONUN KOMU MAH.","zip":"24802"},{"name":"KONARLI KÖYÜ","zip":"24802"},{"name":"KOT MEZRASI MAH.","zip":"24802"},{"name":"KÖPRÜBAŞI KÖYÜ","zip":"24802"},{"name":"KÖSEBEY KIŞLAĞI MEZRASI MAH.","zip":"24802"},{"name":"KÖZME MAH.","zip":"24802"},{"name":"KURUBEY MAH.","zip":"24802"},{"name":"KURUKOL KÖYÜ","zip":"24802"},{"name":"KUZÖREN KÖYÜ","zip":"24802"},{"name":"KÜÇÜKAĞA KÖYÜ","zip":"24802"},{"name":"KÜLLÜCE KÖYÜ","zip":"24802"},{"name":"KÜRÜK MEZRASI MAH.","zip":"24802"},{"name":"LOLAN MEZRASI MAH.","zip":"24802"},{"name":"MANTARLI KÖYÜ","zip":"24802"},{"name":"MERCAN KÖYÜ","zip":"24802"},{"name":"MOLLAVELİ MAH.","zip":"24802"},{"name":"MUSA KOMU MAH.","zip":"24802"},{"name":"MUSTAFABEY KÖYÜ","zip":"24802"},{"name":"MÜFTÜOĞLU KÖYÜ","zip":"24802"},{"name":"OĞULVEREN KÖYÜ","zip":"24802"},{"name":"ORTAKOM MAH.","zip":"24802"},{"name":"ORTAKÖY KÖYÜ","zip":"24802"},{"name":"OYMATAŞ MEZRASI MAH.","zip":"24802"},{"name":"PENCİREK MAH.","zip":"24802"},{"name":"ROSTO MEZRASI MAH.","zip":"24802"},{"name":"SAĞIR KOMU MAH.","zip":"24802"},{"name":"SAĞLICA KÖYÜ","zip":"24802"},{"name":"SARIKAYA KÖYÜ","zip":"24802"},{"name":"SEYGİ MEZRASI MAH.","zip":"24802"},{"name":"SIRMALI MAH.","zip":"24802"},{"name":"SUCUALİ MAH.","zip":"24802"},{"name":"ŞAKİRAĞA MAH.","zip":"24802"},{"name":"ŞENGÜL KÖYÜ","zip":"24802"},{"name":"TEPEBAŞI KÖYÜ","zip":"24802"},{"name":"TOPALHASAN KÖYÜ","zip":"24802"},{"name":"TOPDURAĞI MAH.","zip":"24802"},{"name":"ÜÇPINAR KÖYÜ","zip":"24802"},{"name":"Y.TEPECİK(İĞİKİ) MAH.","zip":"24802"},{"name":"YALINKAŞ KÖYÜ","zip":"24802"},{"name":"YAMANLAR KÖYÜ","zip":"24802"},{"name":"YASTIKKÖY KÖYÜ","zip":"24802"},{"name":"YAYLACIK KÖYÜ","zip":"24802"},{"name":"YAYLAYOLU KÖYÜ","zip":"24802"},{"name":"YAYLIM KÖYÜ","zip":"24802"},{"name":"YAZIÖREN KÖYÜ","zip":"24802"},{"name":"YENİ KÖY MEZRASI MAH.","zip":"24802"},{"name":"YENİ MAH.","zip":"24802"},{"name":"YENİBUCAK KÖYÜ","zip":"24802"},{"name":"YENİEVLER MAH.","zip":"24802"},{"name":"YEŞİLYAYLA KÖYÜ","zip":"24802"},{"name":"YOĞURTLU ( MAZAN) MAH.","zip":"24802"},{"name":"YOLLARÜSTÜ MAH.","zip":"24802"},{"name":"YONCALAR MAH.","zip":"24802"},{"name":"YUKARI BAHÇE MEZRASI MAH.","zip":"24802"},{"name":"YUKARI BÜKLÜMDERE MAH.","zip":"24802"},{"name":"YUKARI CEMAL MAZRASI MAH.","zip":"24802"},{"name":"YUKARI GEDİKDERE MEZRASI MAH.","zip":"24802"},{"name":"YUKARI KONARLI MEZRASI MAH.","zip":"24802"},{"name":"YUKARI PUN MAH.","zip":"24802"},{"name":"YUKARIKOM MAH.","zip":"24802"},{"name":"YUVALI KÖYÜ","zip":"24802"},{"name":"ZİNCİRLİ MAH.","zip":"24802"}]},{"name":"TERCAN","cityName":null,"quarters":[{"name":"ATATÜRK MAH.","zip":"24800"},{"name":"FATİH MAH.","zip":"24800"},{"name":"KAZIM KARABEKİR MAH.","zip":"24800"},{"name":"MAMAHATUN MAH.","zip":"24800"},{"name":"YAVUZ SELİM MAH.","zip":"24800"}]},{"name":"ALTINBAŞAK","cityName":null,"quarters":[{"name":"BÜYÜK KADAĞAN MAH.","zip":"24160"},{"name":"FIRAT MAHELLESİ MAH.","zip":"24160"},{"name":"İSTASYON MAH.","zip":"24160"},{"name":"PINARBAŞI MAH.","zip":"24160"},{"name":"SÜLEYMANLI MAHELLESİ MAH.","zip":"24160"}]},{"name":"MERKEZKÖYLER","cityName":null,"quarters":[{"name":"AKBİNBURNU MAH.","zip":"24152"},{"name":"AKBULUT MAH.","zip":"24152"},{"name":"AKÖREN VE AŞAĞI AKÖREN MAH.","zip":"24152"},{"name":"ATATÜRK MAH.","zip":"24152"},{"name":"AVCILAR KÖYÜ","zip":"24152"},{"name":"BAĞLAR DEMİRKAPI MAH.","zip":"24152"},{"name":"BAĞLAR KÖYÜ","zip":"24152"},{"name":"BAHÇELİEVLER MAH.","zip":"24152"},{"name":"BALABANLI KÖYÜ","zip":"24152"},{"name":"BAYIRBAĞ KÖYÜ","zip":"24152"},{"name":"BEKTAŞ MAH.","zip":"24152"},{"name":"BULANIK KÖYÜ","zip":"24152"},{"name":"BÜYÜKKÖY ESKİ YERLEŞİM MAH.","zip":"24152"},{"name":"BÜYÜKKÖY KÖYÜ","zip":"24152"},{"name":"ÇADIRTEPE KÖYÜ","zip":"24152"},{"name":"ÇAMLICA KÖYÜ","zip":"24152"},{"name":"ÇARDAKLI DERMELİ MEZRASI MAH.","zip":"24152"},{"name":"ÇARDAKLI DÜZALİ MEZRASI MAH.","zip":"24152"},{"name":"ÇARDAKLI GEDİKARASI MEZRASI MAH.","zip":"24152"},{"name":"ÇARDAKLI KÖYÜ","zip":"24152"},{"name":"ÇARDAKLI MURAT KOMU MEZRASI MAH.","zip":"24152"},{"name":"ÇARDAKLI ŞAKO MEZRASI MAH.","zip":"24152"},{"name":"ÇAYIRYAZI KÖYÜ","zip":"24152"},{"name":"ÇAYKOMU MAH.","zip":"24152"},{"name":"ÇERMİK MAH.","zip":"24152"},{"name":"ÇINARLI MAH.","zip":"24152"},{"name":"ÇİKOLAR MAH.","zip":"24152"},{"name":"DEĞİRMENDERE MAH.","zip":"24152"},{"name":"DEMİRPINAR KÖYÜ","zip":"24152"},{"name":"DENİZDAMI KÖYÜ","zip":"24152"},{"name":"DEREBÜK KÖYÜ","zip":"24152"},{"name":"DEREBÜK MAH.","zip":"24152"},{"name":"DÜZALİ MAH.","zip":"24152"},{"name":"ERGENEKON MAH.","zip":"24152"},{"name":"ESENYURT KÖYÜ","zip":"24152"},{"name":"ESKİ AVCILAR MAH.","zip":"24152"},{"name":"FEVZİPAŞA MAH.","zip":"24152"},{"name":"GALCA MAH.","zip":"24152"},{"name":"GEDİKARKASI MAH.","zip":"24152"},{"name":"GÖLLER KÖYÜ","zip":"24152"},{"name":"GÜLPINAR MAH.","zip":"24152"},{"name":"HASANAĞA MAH.","zip":"24152"},{"name":"İNANDIK MAH.","zip":"24152"},{"name":"İSTASYON GEÇİT MAH.","zip":"24152"},{"name":"KARACALAR ESKİ KÖY MAH.","zip":"24152"},{"name":"KARACALAR KÖYÜ","zip":"24152"},{"name":"KARAKAYA KÖYÜ","zip":"24152"},{"name":"KAZMALI MAH.","zip":"24152"},{"name":"KOM MAH.","zip":"24152"},{"name":"KUREYŞLİSARIKAYA KÖYÜ","zip":"24152"},{"name":"MAHO MEZRASI MAH.","zip":"24152"},{"name":"OCAKBAŞI KÖYÜ","zip":"24152"},{"name":"ORUM MEZRASI MAH.","zip":"24152"},{"name":"OTLUK KÖYÜ","zip":"24152"},{"name":"PELİTLİ KÖYÜ","zip":"24152"},{"name":"PINARLIKAYA KÖYÜ","zip":"24152"},{"name":"PİŞKİDAĞ KÖYÜ","zip":"24152"},{"name":"RESO SARIÇAM MAH.","zip":"24152"},{"name":"SAĞLAMLI MAH.","zip":"24152"},{"name":"SANSA MAH.","zip":"24152"},{"name":"SEDO MAH.","zip":"24152"},{"name":"SÜLÜMÜR MAH.","zip":"24152"},{"name":"YILDIZ MAH.","zip":"24152"},{"name":"YUNUS EMRE MAH.","zip":"24152"}]},{"name":"ÜZÜMLÜ","cityName":null,"quarters":[{"name":"BAHÇEŞEHİR MAH.","zip":"24150"},{"name":"CİMİNLİ BABA MAH.","zip":"24150"},{"name":"ÇAVUŞLU MAH.","zip":"24150"},{"name":"ÇAY MAH.","zip":"24150"},{"name":"FATİH MAH.","zip":"24150"},{"name":"GEYİKLİ MAH.","zip":"24150"},{"name":"ORUÇLU MAH.","zip":"24150"},{"name":"PİRİ SAMİ MAH.","zip":"24150"},{"name":"TERZİBABA MAH.","zip":"24150"},{"name":"ÜÇLER MAH.","zip":"24150"},{"name":"YUNUS EMRE MAH.","zip":"24150"}]}]}]}