{"id":25,"name":"ERZURUM","cities":[{"name":"city","districts":[{"name":"AŞKALE","cityName":null,"quarters":[{"name":"BAHÇELİEVLER MAH.","zip":"25500"},{"name":"BALLITAŞ MAH.","zip":"25500"},{"name":"BOZBURUN MAH.","zip":"25500"},{"name":"BÜYÜKGEÇİT MAH.","zip":"25500"},{"name":"CAHİT AYBAR MAH.","zip":"25500"},{"name":"ÇARŞI MAH.","zip":"25500"},{"name":"ÇATALBAYIR MAH.","zip":"25500"},{"name":"ÇAYKÖY MAH.","zip":"25500"},{"name":"ÇİFTLİK BUCAĞI ÇATÖREN MAH.","zip":"25500"},{"name":"ÇİFTLİK BUCAĞI GÖLÖREN MAH.","zip":"25500"},{"name":"ÇİFTLİK MAH.","zip":"25500"},{"name":"DAĞYURDU MAH.","zip":"25500"},{"name":"DALLI MAH.","zip":"25500"},{"name":"DEMİRKIRAN MAH.","zip":"25500"},{"name":"DEREKÖY MAH.","zip":"25500"},{"name":"DÜZYURT MAH.","zip":"25500"},{"name":"EMEK MAH.","zip":"25500"},{"name":"ESENTEPE MAH.","zip":"25500"},{"name":"EYÜPOĞLU MAH.","zip":"25500"},{"name":"GÖKÇEBÜK MAH.","zip":"25500"},{"name":"GÜLLÜDERE MAH.","zip":"25500"},{"name":"GÜMÜŞSEREN MAH.","zip":"25500"},{"name":"GÜNEYÇAM MAH.","zip":"25500"},{"name":"GÜRKAYNAK MAH.","zip":"25500"},{"name":"HACIBEKİR MAH.","zip":"25500"},{"name":"HACIHAMZA MAH.","zip":"25500"},{"name":"HACIMAHMUT MAH.","zip":"25500"},{"name":"HATUNCUK MAH.","zip":"25500"},{"name":"HAYDARHACI MAH.","zip":"25500"},{"name":"İSTASYON MAH.","zip":"25500"},{"name":"KANDİLLİ MAH.","zip":"25500"},{"name":"KAPIKALE MAH.","zip":"25500"},{"name":"KARAHASAN MAH.","zip":"25500"},{"name":"KARASU MAH.","zip":"25500"},{"name":"KAVURMAÇUKURU MAH.","zip":"25500"},{"name":"KIBRIS MAH.","zip":"25500"},{"name":"KOÇBABA MAH.","zip":"25500"},{"name":"KOŞAPINAR MAH.","zip":"25500"},{"name":"KURTMAHMUT MAH.","zip":"25500"},{"name":"KÜÇÜKGEÇİT MAH.","zip":"25500"},{"name":"KÜÇÜKOVA MAH.","zip":"25500"},{"name":"KÜKÜRTLÜ MAH.","zip":"25500"},{"name":"MERDİVENKÖY MAH.","zip":"25500"},{"name":"MERKEZ BUCAĞI ÇATÖREN MAH.","zip":"25500"},{"name":"MERKEZ BUCAĞI GÖLÖREN MAH.","zip":"25500"},{"name":"MEYDAN MAH.","zip":"25500"},{"name":"MEZREA MAH.","zip":"25500"},{"name":"MUSATANIŞMAN MAH.","zip":"25500"},{"name":"OCAKLI MAH.","zip":"25500"},{"name":"OVACIK MAH.","zip":"25500"},{"name":"ÖZLER MAH.","zip":"25500"},{"name":"PIRNAKABAN MAH.","zip":"25500"},{"name":"SAPTIRAN MAH.","zip":"25500"},{"name":"SARIBABA MAH.","zip":"25500"},{"name":"SAZLI MAH.","zip":"25500"},{"name":"ŞAFAK MAH.","zip":"25500"},{"name":"TAŞAĞIL MAH.","zip":"25500"},{"name":"TAŞLIÇAYIR MAH.","zip":"25500"},{"name":"TECER MAH.","zip":"25500"},{"name":"TEPSİCİK MAH.","zip":"25500"},{"name":"TOKÇA MAH.","zip":"25500"},{"name":"TOPALÇAVUŞ MAH.","zip":"25500"},{"name":"TOSUNLU MAH.","zip":"25500"},{"name":"TOZLUCA MAH.","zip":"25500"},{"name":"TURAÇ MAH.","zip":"25500"},{"name":"ÜÇ MART MAH.","zip":"25500"},{"name":"YAYLAKÖY MAH.","zip":"25500"},{"name":"YAYLAYOLU MAH.","zip":"25500"},{"name":"YAYLIMLI MAH.","zip":"25500"},{"name":"YENİ MAH.","zip":"25500"},{"name":"YENİKÖY HALİTPAŞA MAH.","zip":"25500"},{"name":"YEŞİLOVA MAH.","zip":"25500"},{"name":"YUMRUVEREN MAH.","zip":"25500"}]},{"name":"ILICA","cityName":null,"quarters":[{"name":"AĞCAKENT MAH.","zip":"25700"},{"name":"AĞÖREN MAH.","zip":"25700"},{"name":"AHIRCIK MAH.","zip":"25700"},{"name":"AKDAĞ MAH.","zip":"25700"},{"name":"AKYAZI MAH.","zip":"25700"},{"name":"ALACA MAH.","zip":"25700"},{"name":"ALAYBEYİ MAH.","zip":"25700"},{"name":"AŞAĞI YENİCE MAH.","zip":"25700"},{"name":"AŞAĞICANÖREN MAH.","zip":"25700"},{"name":"ATLIKONAK MAH.","zip":"25700"},{"name":"AYNALIKALE MAH.","zip":"25700"},{"name":"BAŞÇAKMAK MAH.","zip":"25700"},{"name":"BAŞKENT MAH.","zip":"25700"},{"name":"BAŞKURTDERE MAH.","zip":"25700"},{"name":"BAŞOVACIK MAH.","zip":"25700"},{"name":"BEYPINARI MAH.","zip":"25700"},{"name":"BİNGÖZE MAH.","zip":"25700"},{"name":"ÇAMLICA MAH.","zip":"25700"},{"name":"ÇATAK MAH.","zip":"25700"},{"name":"ÇAVDARLI MAH.","zip":"25700"},{"name":"ÇAVUŞOĞLU MAH.","zip":"25700"},{"name":"ÇIKRIKLI MAH.","zip":"25700"},{"name":"ÇİĞDEMLİ MAH.","zip":"25700"},{"name":"DAĞDAGÜL MAH.","zip":"25700"},{"name":"DEMİRGEÇİT MAH.","zip":"25700"},{"name":"DÜZTOPRAK MAH.","zip":"25700"},{"name":"EĞERTİ MAH.","zip":"25700"},{"name":"ELMALI MAH.","zip":"25700"},{"name":"EMRECİK MAH.","zip":"25700"},{"name":"ESKİPOLAT MAH.","zip":"25700"},{"name":"EŞKİNKAYA MAH.","zip":"25700"},{"name":"GELİNKAYA MAH.","zip":"25700"},{"name":"GEYİK MAH.","zip":"25700"},{"name":"GEZ KÖYÜOSB MAH.","zip":"25700"},{"name":"GÜLLÜCE MAH.","zip":"25700"},{"name":"HALİLKAYA MAH.","zip":"25700"},{"name":"ILICA MAH.","zip":"25700"},{"name":"KABAKTEPE MAH.","zip":"25700"},{"name":"KAHRAMANLAR MAH.","zip":"25700"},{"name":"KAPULU MAH.","zip":"25700"},{"name":"KARAKALE MAH.","zip":"25700"},{"name":"KAVAKLIDERE MAH.","zip":"25700"},{"name":"KAYAPA MAH.","zip":"25700"},{"name":"KIZILKALE MAH.","zip":"25700"},{"name":"KUMLUYAZI MAH.","zip":"25700"},{"name":"KUŞÇU MAH.","zip":"25700"},{"name":"KUZGUN MAH.","zip":"25700"},{"name":"KUZULUK MAH.","zip":"25700"},{"name":"OCAK MAH.","zip":"25700"},{"name":"ÖMERTEPE MAH.","zip":"25700"},{"name":"ÖZBEK MAH.","zip":"25700"},{"name":"ÖZBİLEN MAH.","zip":"25700"},{"name":"PAŞAYURDU MAH.","zip":"25700"},{"name":"RİZEKENT MAH.","zip":"25700"},{"name":"SAKALIKESİK MAH.","zip":"25700"},{"name":"SALTUKLU MAH.","zip":"25700"},{"name":"SARIYAYLA MAH.","zip":"25700"},{"name":"SELÇUKLU MAH.","zip":"25700"},{"name":"SIRLI MAH.","zip":"25700"},{"name":"SORKUNLU MAH.","zip":"25700"},{"name":"SÖĞÜTLÜ (OVACIK) MAH.","zip":"25700"},{"name":"SÖĞÜTLÜ MAH.","zip":"25700"},{"name":"TAŞPINAR MAH.","zip":"25700"},{"name":"TEBRİZCİK MAH.","zip":"25700"},{"name":"TINAZLI MAH.","zip":"25700"},{"name":"TOPRAKKALE MAH.","zip":"25700"},{"name":"ÜÇKÖŞE MAH.","zip":"25700"},{"name":"YARIMCA MAH.","zip":"25700"},{"name":"YEŞİLOVA MAH.","zip":"25700"},{"name":"YEŞİLVADİ MAH.","zip":"25700"},{"name":"YONCALIK MAH.","zip":"25700"},{"name":"YUKARICANÖREN MAH.","zip":"25700"}]},{"name":"ÇAT","cityName":null,"quarters":[{"name":"AŞAĞIÇAT MAH.","zip":"25750"},{"name":"BABADERESİ MAH.","zip":"25750"},{"name":"BAĞLICA MAH.","zip":"25750"},{"name":"BARDAKÇI MAH.","zip":"25750"},{"name":"BAŞKÖY MAH.","zip":"25750"},{"name":"BAYINDIR MAH.","zip":"25750"},{"name":"BOZYAZI MAH.","zip":"25750"},{"name":"BUDAKLAR MAH.","zip":"25750"},{"name":"ÇAYIRTEPE MAH.","zip":"25750"},{"name":"ÇİMENÖZÜ MAH.","zip":"25750"},{"name":"ÇİRİŞLİ MAH.","zip":"25750"},{"name":"ÇUKURÇAYIR MAH.","zip":"25750"},{"name":"DEĞİRMENLİ MAH.","zip":"25750"},{"name":"ELMAPINAR MAH.","zip":"25750"},{"name":"GÖBEKÖREN MAH.","zip":"25750"},{"name":"GÖKÇEŞEYH MAH.","zip":"25750"},{"name":"GÖLKÖY MAH.","zip":"25750"},{"name":"HATUNKÖY MAH.","zip":"25750"},{"name":"İŞKİNLİ MAH.","zip":"25750"},{"name":"KAPLICA MAH.","zip":"25750"},{"name":"KARABEY MAH.","zip":"25750"},{"name":"KARACA MAH.","zip":"25750"},{"name":"KARAŞEYH MAH.","zip":"25750"},{"name":"KIZILCA MAH.","zip":"25750"},{"name":"KÖSELER MAH.","zip":"25750"},{"name":"KUMAŞLI MAH.","zip":"25750"},{"name":"KURBANLI MAH.","zip":"25750"},{"name":"MOLLAÖMER MAH.","zip":"25750"},{"name":"MURATÇAYIRI MAH.","zip":"25750"},{"name":"OYUKLU MAH.","zip":"25750"},{"name":"PARMAKSIZ MAH.","zip":"25750"},{"name":"SALTAŞ MAH.","zip":"25750"},{"name":"SARIKAŞIK MAH.","zip":"25750"},{"name":"SARIKAYA MAH.","zip":"25750"},{"name":"SOĞUKPINAR MAH.","zip":"25750"},{"name":"SÖBEÇAYIR MAH.","zip":"25750"},{"name":"ŞEYHHASAN MAH.","zip":"25750"},{"name":"TAŞAĞIL MAH.","zip":"25750"},{"name":"TUZLATAŞI MAH.","zip":"25750"},{"name":"TUZLUCA MAH.","zip":"25750"},{"name":"TÜYSÜZ MAH.","zip":"25750"},{"name":"YARMAK MAH.","zip":"25750"},{"name":"YAVİ MAH.","zip":"25750"},{"name":"YAYLASUYU MAH.","zip":"25750"},{"name":"YUKARIÇAT MAH.","zip":"25750"}]},{"name":"HINIS","cityName":null,"quarters":[{"name":"AKBAYIR MAH.","zip":"25600"},{"name":"AKÇAMELİK MAH.","zip":"25600"},{"name":"AKGELİN MAH.","zip":"25600"},{"name":"AKGÖZE MAH.","zip":"25600"},{"name":"AKÖREN MAH.","zip":"25600"},{"name":"ALACA MAH.","zip":"25600"},{"name":"ALAGÖZ MAH.","zip":"25600"},{"name":"ALINTERİ MAH.","zip":"25600"},{"name":"ALİKIRI MAH.","zip":"25600"},{"name":"ALTINPINAR MAH.","zip":"25600"},{"name":"ARPADERESİ MAH.","zip":"25600"},{"name":"AŞAĞIKAYABAŞI MAH.","zip":"25600"},{"name":"AVCILAR MAH.","zip":"25600"},{"name":"BAHÇE MAH.","zip":"25600"},{"name":"BAŞKÖY MAH.","zip":"25600"},{"name":"BAYIRKÖY MAH.","zip":"25600"},{"name":"BELLİTAŞ MAH.","zip":"25600"},{"name":"BEYYURDU MAH.","zip":"25600"},{"name":"BURHANKÖY MAH.","zip":"25600"},{"name":"ÇAKMAK MAH.","zip":"25600"},{"name":"ÇAMURLU MAH.","zip":"25600"},{"name":"ÇATAK MAH.","zip":"25600"},{"name":"ÇİLLİGÖL MAH.","zip":"25600"},{"name":"DAĞÇAYIRI MAH.","zip":"25600"},{"name":"DEMİRCİ MAH.","zip":"25600"},{"name":"DERİNCE MAH.","zip":"25600"},{"name":"DERVİŞALİ MAH.","zip":"25600"},{"name":"DİBEKLİ MAH.","zip":"25600"},{"name":"DİKİLİ MAH.","zip":"25600"},{"name":"DİVANHÜSEYİN MAH.","zip":"25600"},{"name":"ELMADALI MAH.","zip":"25600"},{"name":"ERBEYLİ MAH.","zip":"25600"},{"name":"ERDURAN MAH.","zip":"25600"},{"name":"ERENCE MAH.","zip":"25600"},{"name":"ESENLİ MAH.","zip":"25600"},{"name":"GÖLLER MAH.","zip":"25600"},{"name":"GÜLİSTAN MAH.","zip":"25600"},{"name":"GÜLLÜÇİMEN MAH.","zip":"25600"},{"name":"GÜRÇAYIR MAH.","zip":"25600"},{"name":"GÜZELDERE MAH.","zip":"25600"},{"name":"HALİLÇAVUŞ MAH.","zip":"25600"},{"name":"HAYRAN MAH.","zip":"25600"},{"name":"ILICAKÖY MAH.","zip":"25600"},{"name":"İSMAİL MAH.","zip":"25600"},{"name":"KALECİK MAH.","zip":"25600"},{"name":"KARAAĞAÇ MAH.","zip":"25600"},{"name":"KARABUDAK MAH.","zip":"25600"},{"name":"KARAKULA MAH.","zip":"25600"},{"name":"KARAMOLLA MAH.","zip":"25600"},{"name":"KAZANCI MAH.","zip":"25600"},{"name":"KETENCİ MAH.","zip":"25600"},{"name":"KISIK MAH.","zip":"25600"},{"name":"KIZILAHMET MAH.","zip":"25600"},{"name":"KIZMUSA MAH.","zip":"25600"},{"name":"KOLHİSAR MAH.","zip":"25600"},{"name":"KONGUR MAH.","zip":"25600"},{"name":"KÖPRÜBAŞI MAH.","zip":"25600"},{"name":"MEYDANKÖY MAH.","zip":"25600"},{"name":"MEZRA MAH.","zip":"25600"},{"name":"MOLLACELİL MAH.","zip":"25600"},{"name":"MOLLAKULAÇ MAH.","zip":"25600"},{"name":"MUTLUCA MAH.","zip":"25600"},{"name":"ORTAKÖY MAH.","zip":"25600"},{"name":"OVAÇEVİRME MAH.","zip":"25600"},{"name":"OVAKOZLU MAH.","zip":"25600"},{"name":"PARMAKSIZ MAH.","zip":"25600"},{"name":"PINARBAŞI MAH.","zip":"25600"},{"name":"PINARKÖY MAH.","zip":"25600"},{"name":"SALTEPE MAH.","zip":"25600"},{"name":"SANAYİ MAH.","zip":"25600"},{"name":"SARILI MAH.","zip":"25600"},{"name":"SILDIZ MAH.","zip":"25600"},{"name":"SÖĞÜTLÜ MAH.","zip":"25600"},{"name":"SULTANLI MAH.","zip":"25600"},{"name":"SUVARAN MAH.","zip":"25600"},{"name":"ŞAHABETTİNKÖY MAH.","zip":"25600"},{"name":"ŞAHVERDİ MAH.","zip":"25600"},{"name":"ŞALGAMKÖY MAH.","zip":"25600"},{"name":"TANIR MAH.","zip":"25600"},{"name":"TAPUKÖY MAH.","zip":"25600"},{"name":"TAŞBUDAK MAH.","zip":"25600"},{"name":"TELLİTEPE MAH.","zip":"25600"},{"name":"TİPİDERESİ MAH.","zip":"25600"},{"name":"TOPRAKKALE MAH.","zip":"25600"},{"name":"TORAMAN MAH.","zip":"25600"},{"name":"ULUÇAYIR MAH.","zip":"25600"},{"name":"UYANIK MAH.","zip":"25600"},{"name":"ÜNLÜCE MAH.","zip":"25600"},{"name":"YAMANLAR MAH.","zip":"25600"},{"name":"YAYLAKONAK MAH.","zip":"25600"},{"name":"YELPİZ MAH.","zip":"25600"},{"name":"YENİKENT MAH.","zip":"25600"},{"name":"YENİKÖY MAH.","zip":"25600"},{"name":"YEŞİLBAHÇE MAH.","zip":"25600"},{"name":"YEŞİLYAZI MAH.","zip":"25600"},{"name":"YOLÜSTÜ MAH.","zip":"25600"},{"name":"YUKARIKAYABAŞI MAH.","zip":"25600"}]},{"name":"HORASAN","cityName":null,"quarters":[{"name":"AĞILLI MAH.","zip":"25800"},{"name":"AKÇATAŞ MAH.","zip":"25800"},{"name":"AKÇATOPRAK MAH.","zip":"25800"},{"name":"ALAGÖZ MAH.","zip":"25800"},{"name":"ALİÇEYREK MAH.","zip":"25800"},{"name":"ARAS MAH.","zip":"25800"},{"name":"ARDI MAH.","zip":"25800"},{"name":"ARPAÇAYIR MAH.","zip":"25800"},{"name":"AŞAĞIAKTAŞ MAH.","zip":"25800"},{"name":"AŞAĞIBADEMÖZÜ MAH.","zip":"25800"},{"name":"AZAP MAH.","zip":"25800"},{"name":"BAHÇE MAH.","zip":"25800"},{"name":"BULGURLU MAH.","zip":"25800"},{"name":"CAMİİ KEBİR MAH.","zip":"25800"},{"name":"ÇAMLIKALE MAH.","zip":"25800"},{"name":"ÇAMURLU MAH.","zip":"25800"},{"name":"ÇAYIRDÜZÜ MAH.","zip":"25800"},{"name":"ÇİFTLİK MAH.","zip":"25800"},{"name":"DALBAŞI MAH.","zip":"25800"},{"name":"DANİŞMENT MAH.","zip":"25800"},{"name":"DEĞİRMENLER MAH.","zip":"25800"},{"name":"DİKİLİ MAH.","zip":"25800"},{"name":"DÖLLEK MAH.","zip":"25800"},{"name":"DÖNERTAŞ MAH.","zip":"25800"},{"name":"EĞERTAŞLAR MAH.","zip":"25800"},{"name":"ESENTEPE MAH.","zip":"25800"},{"name":"FATİH SULTAN MEHMET MAH.","zip":"25800"},{"name":"GEREK MAH.","zip":"25800"},{"name":"GÜNDEĞER MAH.","zip":"25800"},{"name":"GÜZELYAYLA MAH.","zip":"25800"},{"name":"HACIAHMET MAH.","zip":"25800"},{"name":"HACIHALİL MAH.","zip":"25800"},{"name":"HARÇLI MAH.","zip":"25800"},{"name":"HASANBABA MAH.","zip":"25800"},{"name":"HASANBEY MAH.","zip":"25800"},{"name":"HAYDARLI MAH.","zip":"25800"},{"name":"HIZARDERE MAH.","zip":"25800"},{"name":"HIZIRİLYAS MAH.","zip":"25800"},{"name":"IĞIRBIĞIR MAH.","zip":"25800"},{"name":"İĞDELİ MAH.","zip":"25800"},{"name":"İNCESU MAH.","zip":"25800"},{"name":"İNÖNÜ MAH.","zip":"25800"},{"name":"KADICELAL MAH.","zip":"25800"},{"name":"KALENDER MAH.","zip":"25800"},{"name":"KARABIYIK MAH.","zip":"25800"},{"name":"KARACAÖREN MAH.","zip":"25800"},{"name":"KARAÇUHA MAH.","zip":"25800"},{"name":"KARAPINAR MAH.","zip":"25800"},{"name":"KAYNARCA MAH.","zip":"25800"},{"name":"KAZIM KARABEKİR MAH.","zip":"25800"},{"name":"KEMERLİ MAH.","zip":"25800"},{"name":"KEPENEK MAH.","zip":"25800"},{"name":"KIRIK MAH.","zip":"25800"},{"name":"KIRKDİKME MAH.","zip":"25800"},{"name":"KIRKGÖZELER MAH.","zip":"25800"},{"name":"KIRKLAR MAH.","zip":"25800"},{"name":"KIZILCA MAH.","zip":"25800"},{"name":"KIZLARKALE MAH.","zip":"25800"},{"name":"KÜÇÜKKONAK MAH.","zip":"25800"},{"name":"KÜKÜRTLÜ MAH.","zip":"25800"},{"name":"MOLLAAHMET MAH.","zip":"25800"},{"name":"MOLLAMELİK MAH.","zip":"25800"},{"name":"MURATBAĞI MAH.","zip":"25800"},{"name":"MÜMTAZ TURAN MAH.","zip":"25800"},{"name":"PINAR MAH.","zip":"25800"},{"name":"PİRALİ MAH.","zip":"25800"},{"name":"PİRHASAN MAH.","zip":"25800"},{"name":"RECEP TAYYİP ERDOĞAN MAH.","zip":"25800"},{"name":"SAÇLIK MAH.","zip":"25800"},{"name":"SEKMAN MAH.","zip":"25800"},{"name":"ŞEREFİYE MAH.","zip":"25800"},{"name":"ŞEYHYUSUF MAH.","zip":"25800"},{"name":"TAHİRHOCA MAH.","zip":"25800"},{"name":"TAVŞANCIK MAH.","zip":"25800"},{"name":"TEKNECİK MAH.","zip":"25800"},{"name":"YARBOĞAZ MAH.","zip":"25800"},{"name":"YAYLACIK MAH.","zip":"25800"},{"name":"YAZILITAŞ MAH.","zip":"25800"},{"name":"YEŞİLDERE MAH.","zip":"25800"},{"name":"YEŞİLÖZ MAH.","zip":"25800"},{"name":"YILDIRAN MAH.","zip":"25800"},{"name":"YUKARIBADEMÖZÜ MAH.","zip":"25800"},{"name":"YUKARIHORUM MAH.","zip":"25800"},{"name":"YUKARITAHİRHOCA MAH.","zip":"25800"},{"name":"YÜRÜKATLI MAH.","zip":"25800"},{"name":"YÜZÖREN MAH.","zip":"25800"}]},{"name":"İSPİR","cityName":null,"quarters":[{"name":"AKGÜNEY MAH.","zip":"25900"},{"name":"AKPINAR MAH.","zip":"25900"},{"name":"AKSEKİ MAH.","zip":"25900"},{"name":"AKSU MAH.","zip":"25900"},{"name":"AKTAŞ MAH.","zip":"25900"},{"name":"ALACABÜK MAH.","zip":"25900"},{"name":"ARAKÖY MAH.","zip":"25900"},{"name":"ARDIÇLI MAH.","zip":"25900"},{"name":"ARMUTLU MAH.","zip":"25900"},{"name":"AŞAĞI FINDIKLI MAH.","zip":"25900"},{"name":"AŞAĞI ÖZBAĞ MAH.","zip":"25900"},{"name":"ATÜRKÜTEN MAH.","zip":"25900"},{"name":"AVCIKÖY MAH.","zip":"25900"},{"name":"BADEMLİ MAH.","zip":"25900"},{"name":"BAHÇELİ MAH.","zip":"25900"},{"name":"BAŞÇEŞME MAH.","zip":"25900"},{"name":"BAŞKÖY MAH.","zip":"25900"},{"name":"BAŞPINAR MAH.","zip":"25900"},{"name":"BOSTANCI MAH.","zip":"25900"},{"name":"BOZAN MAH.","zip":"25900"},{"name":"CANKURTARAN MAH.","zip":"25900"},{"name":"CİBALİ MAH.","zip":"25900"},{"name":"ÇAKMAKLI MAH.","zip":"25900"},{"name":"ÇAMLICA MAH.","zip":"25900"},{"name":"ÇAMLIKAYA MAH.","zip":"25900"},{"name":"ÇATAKKAYA MAH.","zip":"25900"},{"name":"ÇAYIRBAŞI MAH.","zip":"25900"},{"name":"ÇAYIRÖZÜ MAH.","zip":"25900"},{"name":"ÇİÇEKLİ MAH.","zip":"25900"},{"name":"DEĞİRMENDERE MAH.","zip":"25900"},{"name":"DEĞİRMENLİ MAH.","zip":"25900"},{"name":"DEMİRBİLEK MAH.","zip":"25900"},{"name":"DEMİRKAYA MAH.","zip":"25900"},{"name":"DEVEDAĞI MAH.","zip":"25900"},{"name":"DURUKÖY MAH.","zip":"25900"},{"name":"DÜZKÖY MAH.","zip":"25900"},{"name":"ELMALI MAH.","zip":"25900"},{"name":"GAZİLER MAH.","zip":"25900"},{"name":"GEÇİTAĞZI MAH.","zip":"25900"},{"name":"GÖÇKÖY MAH.","zip":"25900"},{"name":"GÖLYURT MAH.","zip":"25900"},{"name":"GÜLHAS MAH.","zip":"25900"},{"name":"GÜLLÜBAĞ MAH.","zip":"25900"},{"name":"GÜNDOĞDU MAH.","zip":"25900"},{"name":"GÜNEY MAH.","zip":"25900"},{"name":"HALİLPAŞA MAH.","zip":"25900"},{"name":"IRMAKKÖY MAH.","zip":"25900"},{"name":"İKİSU MAH.","zip":"25900"},{"name":"İNCESU MAH.","zip":"25900"},{"name":"İYİDERE MAH.","zip":"25900"},{"name":"KARAHAN MAH.","zip":"25900"},{"name":"KARAKALE MAH.","zip":"25900"},{"name":"KARAKAMIŞ MAH.","zip":"25900"},{"name":"KARAKAYA MAH.","zip":"25900"},{"name":"KARASEYDİ MAH.","zip":"25900"},{"name":"KARŞIYAKA MAH.","zip":"25900"},{"name":"KAVAKLI MAH.","zip":"25900"},{"name":"KAYNAKBAŞI MAH.","zip":"25900"},{"name":"KIRIK MAH.","zip":"25900"},{"name":"KIZILHASAN MAH.","zip":"25900"},{"name":"KİRAZLI MAH.","zip":"25900"},{"name":"KOÇ MAH.","zip":"25900"},{"name":"KÖPRÜKÖY MAH.","zip":"25900"},{"name":"KÜMETAŞ MAH.","zip":"25900"},{"name":"LEYLEKKÖY MAH.","zip":"25900"},{"name":"MADENKÖPRÜBAŞI MAH.","zip":"25900"},{"name":"MESCİTLİ MAH.","zip":"25900"},{"name":"MORYAYLA MAH.","zip":"25900"},{"name":"MÜLKKÖY MAH.","zip":"25900"},{"name":"NUMANPAŞA MAH.","zip":"25900"},{"name":"ORTAKÖY MAH.","zip":"25900"},{"name":"ORTAÖREN MAH.","zip":"25900"},{"name":"ÖZLÜCE MAH.","zip":"25900"},{"name":"ÖZTOPRAK MAH.","zip":"25900"},{"name":"PETEKLİ MAH.","zip":"25900"},{"name":"PINARLI MAH.","zip":"25900"},{"name":"SANDIKLI MAH.","zip":"25900"},{"name":"SIRAKONAK MAH.","zip":"25900"},{"name":"SOĞUKSU MAH.","zip":"25900"},{"name":"ŞENKÖY MAH.","zip":"25900"},{"name":"TAŞBAŞI MAH.","zip":"25900"},{"name":"TAŞLICA MAH.","zip":"25900"},{"name":"TEKPINAR MAH.","zip":"25900"},{"name":"TEPECİK MAH.","zip":"25900"},{"name":"ULUBEL MAH.","zip":"25900"},{"name":"ULUTAŞ MAH.","zip":"25900"},{"name":"ÜZÜMBAĞI MAH.","zip":"25900"},{"name":"YAĞLI MAH.","zip":"25900"},{"name":"YAYLACIK MAH.","zip":"25900"},{"name":"YEDİGÖL MAH.","zip":"25900"},{"name":"YEDİGÖZE MAH.","zip":"25900"},{"name":"YEŞİLTEPE MAH.","zip":"25900"},{"name":"YEŞİLYURT MAH.","zip":"25900"},{"name":"YILDIZTEPE MAH.","zip":"25900"},{"name":"YUKARI FINDIKLI MAH.","zip":"25900"},{"name":"YUKARI MAH.","zip":"25900"},{"name":"YUKARI ÖZBAĞ MAH.","zip":"25900"},{"name":"YUNUSKÖY MAH.","zip":"25900"},{"name":"ZEYREK MAH.","zip":"25900"}]},{"name":"KARAÇOBAN","cityName":null,"quarters":[{"name":"BAĞLAR MAH.","zip":"25610"},{"name":"BAHÇELİ MAH.","zip":"25610"},{"name":"BİNPINAR MAH.","zip":"25610"},{"name":"BOZYAR MAH.","zip":"25610"},{"name":"BUDAKLI MAH.","zip":"25610"},{"name":"BURNAZ MAH.","zip":"25610"},{"name":"ÇATALGÜL MAH.","zip":"25610"},{"name":"DEDEÖREN MAH.","zip":"25610"},{"name":"DOĞANBEY MAH.","zip":"25610"},{"name":"DUMAN MAH.","zip":"25610"},{"name":"ERENLER MAH.","zip":"25610"},{"name":"ERHANLAR MAH.","zip":"25610"},{"name":"GÜNDÜZ MAH.","zip":"25610"},{"name":"HACILAR MAH.","zip":"25610"},{"name":"KARAGÖZ MAH.","zip":"25610"},{"name":"KARAKÖPRÜ MAH.","zip":"25610"},{"name":"KARMIŞ MAH.","zip":"25610"},{"name":"KAVAKLI MAH.","zip":"25610"},{"name":"KIRIMKAYA MAH.","zip":"25610"},{"name":"KOPAL MAH.","zip":"25610"},{"name":"KUŞLUCA MAH.","zip":"25610"},{"name":"MARUF MAH.","zip":"25610"},{"name":"MOLLADAVUT MAH.","zip":"25610"},{"name":"OVAYONCALI MAH.","zip":"25610"},{"name":"SARIVELİ MAH.","zip":"25610"},{"name":"SEYHAN MAH.","zip":"25610"}]},{"name":"KARAYAZI","cityName":null,"quarters":[{"name":"AĞAÇLI MAH.","zip":"25830"},{"name":"AKARSU MAH.","zip":"25830"},{"name":"AKPINAR MAH.","zip":"25830"},{"name":"ALEMDAĞI MAH.","zip":"25830"},{"name":"ALİKÜLLEK MAH.","zip":"25830"},{"name":"ANITLI MAH.","zip":"25830"},{"name":"AŞAĞIİNCESU MAH.","zip":"25830"},{"name":"AŞAĞISÖYLEMEZ MAH.","zip":"25830"},{"name":"AYDINSU MAH.","zip":"25830"},{"name":"BAYRAKTAR MAH.","zip":"25830"},{"name":"BEZİRHANE MAH.","zip":"25830"},{"name":"ÇAKMAKÖZÜ MAH.","zip":"25830"},{"name":"ÇALIŞKAN MAH.","zip":"25830"},{"name":"ÇALTILI MAH.","zip":"25830"},{"name":"ÇATALÖREN MAH.","zip":"25830"},{"name":"ÇAVUŞKÖY MAH.","zip":"25830"},{"name":"ÇAYIRBEYLİ MAH.","zip":"25830"},{"name":"ÇELİKLİ MAH.","zip":"25830"},{"name":"ÇEPİ MAH.","zip":"25830"},{"name":"DEĞİRMENKAYA MAH.","zip":"25830"},{"name":"DORUCA MAH.","zip":"25830"},{"name":"DÖRTPINAR MAH.","zip":"25830"},{"name":"DURUCA MAH.","zip":"25830"},{"name":"DÜNDAR MAH.","zip":"25830"},{"name":"ELMAAĞAÇ MAH.","zip":"25830"},{"name":"GEVENTEPE MAH.","zip":"25830"},{"name":"GÖKSU MAH.","zip":"25830"},{"name":"GÖKTEPE MAH.","zip":"25830"},{"name":"GÜLLÜ MAH.","zip":"25830"},{"name":"HACIBAYRAM MAH.","zip":"25830"},{"name":"HASANOVA MAH.","zip":"25830"},{"name":"KAPANLI MAH.","zip":"25830"},{"name":"KARAAĞIL MAH.","zip":"25830"},{"name":"KARABEY MAH.","zip":"25830"},{"name":"KARAKALE MAH.","zip":"25830"},{"name":"KARAKAYA MAH.","zip":"25830"},{"name":"KARASU MAH.","zip":"25830"},{"name":"KARŞIYAKA MAH.","zip":"25830"},{"name":"KAYALAR MAH.","zip":"25830"},{"name":"KAZBEL MAH.","zip":"25830"},{"name":"KIRGINDERE MAH.","zip":"25830"},{"name":"KIRIKPINAR MAH.","zip":"25830"},{"name":"KÖSEHASAN MAH.","zip":"25830"},{"name":"KÖYCEĞİZ MAH.","zip":"25830"},{"name":"KURUPINAR MAH.","zip":"25830"},{"name":"MOLLA OSMAN MAH.","zip":"25830"},{"name":"MOLLABEKİR MAH.","zip":"25830"},{"name":"MURATLI MAH.","zip":"25830"},{"name":"PAYVEREN MAH.","zip":"25830"},{"name":"SALYAMAÇ MAH.","zip":"25830"},{"name":"SANCAKTAR MAH.","zip":"25830"},{"name":"SARIÇİÇEK MAH.","zip":"25830"},{"name":"SELENLİ MAH.","zip":"25830"},{"name":"SUKONAK MAH.","zip":"25830"},{"name":"SULUTAŞ MAH.","zip":"25830"},{"name":"ŞAKİRKÖY MAH.","zip":"25830"},{"name":"TAŞAN MAH.","zip":"25830"},{"name":"TOSUNLU MAH.","zip":"25830"},{"name":"TURNAGÖL MAH.","zip":"25830"},{"name":"UĞURDALI MAH.","zip":"25830"},{"name":"ULUCANLAR MAH.","zip":"25830"},{"name":"ÜZENGİLİ MAH.","zip":"25830"},{"name":"YAHYAKÖY MAH.","zip":"25830"},{"name":"YALINDAL MAH.","zip":"25830"},{"name":"YENİ MAH.","zip":"25830"},{"name":"YENİKÖY MAH.","zip":"25830"},{"name":"YEŞİLOVA MAH.","zip":"25830"},{"name":"YEŞİLYURT MAH.","zip":"25830"},{"name":"YİĞİTYOLU MAH.","zip":"25830"},{"name":"YOLGÖREN MAH.","zip":"25830"},{"name":"YUKARICİHANBEY MAH.","zip":"25830"},{"name":"YUKARIÇIĞILGAN MAH.","zip":"25830"},{"name":"YUKARISÖYLEMEZ MAH.","zip":"25830"},{"name":"YÜCELİK MAH.","zip":"25830"}]},{"name":"KÖPRÜKÖY","cityName":null,"quarters":[{"name":"AKÇAM MAH.","zip":"25320"},{"name":"ALACA MAH.","zip":"25320"},{"name":"AŞAĞIÇAKMAK MAH.","zip":"25320"},{"name":"AŞAĞIKIZILKALE MAH.","zip":"25320"},{"name":"ATAKÖY MAH.","zip":"25320"},{"name":"BUĞDAYLI MAH.","zip":"25320"},{"name":"CAMİKEBİR MAH.","zip":"25320"},{"name":"ÇULLU MAH.","zip":"25320"},{"name":"DEREBAŞI MAH.","zip":"25320"},{"name":"DİLEK MAH.","zip":"25320"},{"name":"DUATEPE MAH.","zip":"25320"},{"name":"DUMANKAYA MAH.","zip":"25320"},{"name":"EĞİRMEZ MAH.","zip":"25320"},{"name":"EMRE MAH.","zip":"25320"},{"name":"EYÜPLER MAH.","zip":"25320"},{"name":"GEYİKLİ MAH.","zip":"25320"},{"name":"GÖLÇAYIR MAH.","zip":"25320"},{"name":"GÜZELHİSAR MAH.","zip":"25320"},{"name":"ILICASU MAH.","zip":"25320"},{"name":"KARATAŞLAR MAH.","zip":"25320"},{"name":"KAYABAŞI MAH.","zip":"25320"},{"name":"KIYIKONAK MAH.","zip":"25320"},{"name":"MARİFET MAH.","zip":"25320"},{"name":"MESCİTLİ MAH.","zip":"25320"},{"name":"ORTAKLAR MAH.","zip":"25320"},{"name":"ÖRENTAŞ MAH.","zip":"25320"},{"name":"PEKECİK MAH.","zip":"25320"},{"name":"SARITAŞ MAH.","zip":"25320"},{"name":"SAVATLI MAH.","zip":"25320"},{"name":"SOĞUKSU MAH.","zip":"25320"},{"name":"ŞEHİTLER MAH.","zip":"25320"},{"name":"TOPÇU MAH.","zip":"25320"},{"name":"YAĞAN MAH.","zip":"25320"},{"name":"YAPAĞILI MAH.","zip":"25320"},{"name":"YEMLİK MAH.","zip":"25320"},{"name":"YEŞİLÖZ MAH.","zip":"25320"},{"name":"YILANLI MAH.","zip":"25320"},{"name":"YUKARIKIZILCA MAH.","zip":"25320"},{"name":"YUKARIKIZILKALE MAH.","zip":"25320"},{"name":"YUKARISÖĞÜTLÜ MAH.","zip":"25320"},{"name":"ZİYARET MAH.","zip":"25320"}]},{"name":"NARMAN","cityName":null,"quarters":[{"name":"ALACAYAR MAH.","zip":"25530"},{"name":"ARAKÖY MAH.","zip":"25530"},{"name":"AŞAĞIYAYLA MAH.","zip":"25530"},{"name":"BAŞKALE MAH.","zip":"25530"},{"name":"BEYLER MAH.","zip":"25530"},{"name":"BOĞAKALE MAH.","zip":"25530"},{"name":"CAMİİKEBİR MAH.","zip":"25530"},{"name":"CAMİİSAĞIR MAH.","zip":"25530"},{"name":"ÇAMLIYAYLA MAH.","zip":"25530"},{"name":"ÇİMENLİ MAH.","zip":"25530"},{"name":"DAĞYOLU MAH.","zip":"25530"},{"name":"DEMİRDAĞ MAH.","zip":"25530"},{"name":"ERGAZİ MAH.","zip":"25530"},{"name":"GÖKDAĞ MAH.","zip":"25530"},{"name":"GÖLLÜ MAH.","zip":"25530"},{"name":"GÜLLÜDAĞ MAH.","zip":"25530"},{"name":"GÜVENLİK MAH.","zip":"25530"},{"name":"KAMIŞÖZÜ MAH.","zip":"25530"},{"name":"KARADAĞ MAH.","zip":"25530"},{"name":"KARAPINAR MAH.","zip":"25530"},{"name":"KIŞLAKÖY MAH.","zip":"25530"},{"name":"KİLİMLİ MAH.","zip":"25530"},{"name":"KOÇKAYA MAH.","zip":"25530"},{"name":"KOYUNÖREN MAH.","zip":"25530"},{"name":"KURUÇALI MAH.","zip":"25530"},{"name":"MAHMUTÇAVUŞ MAH.","zip":"25530"},{"name":"MERCİMEKLİ MAH.","zip":"25530"},{"name":"OTLUTEPE MAH.","zip":"25530"},{"name":"PINARYOLU MAH.","zip":"25530"},{"name":"SAMİKALE MAH.","zip":"25530"},{"name":"SAPANLI MAH.","zip":"25530"},{"name":"SAVAŞÇILAR MAH.","zip":"25530"},{"name":"SERİNSU MAH.","zip":"25530"},{"name":"SEYYİD ALİ BABA MAH.","zip":"25530"},{"name":"SÜLÜKLÜ MAH.","zip":"25530"},{"name":"SÜTPINAR MAH.","zip":"25530"},{"name":"ŞEHİTLER MAH.","zip":"25530"},{"name":"ŞEKERLİ MAH.","zip":"25530"},{"name":"TAŞBURUN MAH.","zip":"25530"},{"name":"TELLİ MAH.","zip":"25530"},{"name":"TOYGARLI MAH.","zip":"25530"},{"name":"TUZLA MAH.","zip":"25530"},{"name":"YANIKTAŞ MAH.","zip":"25530"},{"name":"YOLDERE MAH.","zip":"25530"},{"name":"YUKARIYAYLA MAH.","zip":"25530"}]},{"name":"OLTU","cityName":null,"quarters":[{"name":"ARITAŞ MAH.","zip":"25400"},{"name":"ASLANPAŞA MAH.","zip":"25400"},{"name":"AŞAĞIÇAMLI MAH.","zip":"25400"},{"name":"AŞAĞIKUMLU MAH.","zip":"25400"},{"name":"AYVALI MAH.","zip":"25400"},{"name":"AYYILDIZ MAH.","zip":"25400"},{"name":"BAHÇECİK MAH.","zip":"25400"},{"name":"BAHÇELİKIŞLA MAH.","zip":"25400"},{"name":"BALLICA MAH.","zip":"25400"},{"name":"BAŞAKLI MAH.","zip":"25400"},{"name":"BAŞBAĞLAR MAH.","zip":"25400"},{"name":"CUMHURİYET MAH.","zip":"25400"},{"name":"ÇAMLIBEL MAH.","zip":"25400"},{"name":"ÇANAKPINAR MAH.","zip":"25400"},{"name":"ÇATAK MAH.","zip":"25400"},{"name":"ÇATALSÖĞÜT MAH.","zip":"25400"},{"name":"ÇAYÜSTÜ MAH.","zip":"25400"},{"name":"ÇENGELLİ MAH.","zip":"25400"},{"name":"DAĞDİBİ MAH.","zip":"25400"},{"name":"DAMARLITAŞ MAH.","zip":"25400"},{"name":"DEMİRTAŞ MAH.","zip":"25400"},{"name":"DEREBAŞI MAH.","zip":"25400"},{"name":"DOKUZDEĞİRMEN MAH.","zip":"25400"},{"name":"DURALAR MAH.","zip":"25400"},{"name":"ELMADÜZÜ MAH.","zip":"25400"},{"name":"ERDOĞMUŞ MAH.","zip":"25400"},{"name":"ESENYAMAÇ MAH.","zip":"25400"},{"name":"GÖKÇEDERE MAH.","zip":"25400"},{"name":"GÜNLÜCE MAH.","zip":"25400"},{"name":"GÜRYAPRAK MAH.","zip":"25400"},{"name":"GÜZELSU MAH.","zip":"25400"},{"name":"HALİTPAŞA MAH.","zip":"25400"},{"name":"İĞDELİ MAH.","zip":"25400"},{"name":"İNANMIŞ MAH.","zip":"25400"},{"name":"İNCİ MAH.","zip":"25400"},{"name":"İPEKÇAYIRI MAH.","zip":"25400"},{"name":"İRİAĞAÇ MAH.","zip":"25400"},{"name":"KALEBOĞAZI MAH.","zip":"25400"},{"name":"KARABEKİR MAH.","zip":"25400"},{"name":"KARATAŞ MAH.","zip":"25400"},{"name":"KAYAALTI MAH.","zip":"25400"},{"name":"KEMERKAYA MAH.","zip":"25400"},{"name":"KONUKSEVEN MAH.","zip":"25400"},{"name":"KÜÇÜKORUCUK MAH.","zip":"25400"},{"name":"NÜĞÜRCÜK MAH.","zip":"25400"},{"name":"OBAYAYLA MAH.","zip":"25400"},{"name":"ORUCUK MAH.","zip":"25400"},{"name":"ÖZDERE MAH.","zip":"25400"},{"name":"SAĞLICAK MAH.","zip":"25400"},{"name":"SARISAZ MAH.","zip":"25400"},{"name":"SUBATUK MAH.","zip":"25400"},{"name":"SÜLEYMANLI MAH.","zip":"25400"},{"name":"SÜLÜNKAYA MAH.","zip":"25400"},{"name":"ŞEHİTLER MAH.","zip":"25400"},{"name":"ŞENDURAK MAH.","zip":"25400"},{"name":"TEKELİ MAH.","zip":"25400"},{"name":"TOKLU MAH.","zip":"25400"},{"name":"TOPKAYNAK MAH.","zip":"25400"},{"name":"TOPRAKKALE MAH.","zip":"25400"},{"name":"TUTLU MAH.","zip":"25400"},{"name":"TUTMAÇ MAH.","zip":"25400"},{"name":"TUZLA MAH.","zip":"25400"},{"name":"ÜNLÜKAYA MAH.","zip":"25400"},{"name":"VİŞNELİ MAH.","zip":"25400"},{"name":"YARBAŞI MAH.","zip":"25400"},{"name":"YASİN HAŞİMOĞLU MAH.","zip":"25400"},{"name":"YAYLAÇAYIR MAH.","zip":"25400"},{"name":"YOLBOYU MAH.","zip":"25400"},{"name":"YUKARIÇAMLI MAH.","zip":"25400"},{"name":"YUKARIKUMLU MAH.","zip":"25400"},{"name":"YUSUF ZİYABEY MAH.","zip":"25400"}]},{"name":"OLUR","cityName":null,"quarters":[{"name":"AKTEPE MAH.","zip":"25650"},{"name":"ALTUNKAYA MAH.","zip":"25650"},{"name":"AŞAĞIÇAYIRLI MAH.","zip":"25650"},{"name":"AŞAĞIKARACASU MAH.","zip":"25650"},{"name":"ATLI MAH.","zip":"25650"},{"name":"BEĞENDİK MAH.","zip":"25650"},{"name":"BEŞKAYA MAH.","zip":"25650"},{"name":"BOĞAZGÖREN MAH.","zip":"25650"},{"name":"BOZDOĞAN MAH.","zip":"25650"},{"name":"COŞKUNLAR MAH.","zip":"25650"},{"name":"ÇATAKSU MAH.","zip":"25650"},{"name":"EĞLEK MAH.","zip":"25650"},{"name":"EKİNLİK MAH.","zip":"25650"},{"name":"FİLİZLİ MAH.","zip":"25650"},{"name":"GÜNGÖRÜNDÜ MAH.","zip":"25650"},{"name":"HÜKKAM MAH.","zip":"25650"},{"name":"ILIKAYNAK MAH.","zip":"25650"},{"name":"KABAN MAH.","zip":"25650"},{"name":"KALEDİBİ MAH.","zip":"25650"},{"name":"KARAKOÇLAR MAH.","zip":"25650"},{"name":"KEÇİLİ MAH.","zip":"25650"},{"name":"KEKİKLİ MAH.","zip":"25650"},{"name":"KÖPRÜBAŞI MAH.","zip":"25650"},{"name":"MERKEZ MAH.","zip":"25650"},{"name":"OĞUZKENT MAH.","zip":"25650"},{"name":"OLGUN MAH.","zip":"25650"},{"name":"OLURDERE MAH.","zip":"25650"},{"name":"ORMANAĞZI MAH.","zip":"25650"},{"name":"SARIBAŞAK MAH.","zip":"25650"},{"name":"SOĞUKGÖZE MAH.","zip":"25650"},{"name":"SÜNGÜBAYIR MAH.","zip":"25650"},{"name":"ŞALPAZARI MAH.","zip":"25650"},{"name":"TAŞGEÇİT MAH.","zip":"25650"},{"name":"UZUNHARMAN MAH.","zip":"25650"},{"name":"ÜRÜNLÜ MAH.","zip":"25650"},{"name":"YAYLABAŞI MAH.","zip":"25650"},{"name":"YEŞİL BAĞLAR MAH.","zip":"25650"},{"name":"YEŞİLBAĞLAR MAH.","zip":"25650"},{"name":"YILDIZKAYA MAH.","zip":"25650"},{"name":"YOLGÖZLER MAH.","zip":"25650"},{"name":"YUKARIÇAYIRLI MAH.","zip":"25650"},{"name":"YUKARIKARACASU MAH.","zip":"25650"}]},{"name":"PALANDÖKEN","cityName":null,"quarters":[{"name":"ADNAN MENDERES MAH.","zip":"25080"},{"name":"ALİ BEZİRGAN MAH.","zip":"25080"},{"name":"AZİZİYE MAH.","zip":"25080"},{"name":"DEREBOĞAZI MAH.","zip":"25080"},{"name":"GÜZELYURT MAH.","zip":"25080"},{"name":"HÜSEYİN AVNİ ULAŞ MAH.","zip":"25080"},{"name":"NENE HATUN MAH.","zip":"25080"},{"name":"TEKKEDERESİ MAH.","zip":"25080"},{"name":"UZUN AHMET MAH.","zip":"25080"},{"name":"YIKILGAN MAH.","zip":"25080"},{"name":"YUKARIYENİCE MAH.","zip":"25080"},{"name":"YUNUSEMRE MAH.","zip":"25080"}]},{"name":"YILDIZKENT","cityName":null,"quarters":[{"name":"ÇEPERLİ MAH.","zip":"25070"},{"name":"GÜLLÜ MAH.","zip":"25070"},{"name":"HANCIĞAZ MAH.","zip":"25070"},{"name":"KONAKLI MAH.","zip":"25070"},{"name":"KÜMBET MAH.","zip":"25070"},{"name":"MÜFTÜ SOLAKZADE MAH.","zip":"25070"},{"name":"SIĞIRLI MAH.","zip":"25070"},{"name":"ŞEHİTLER MAH.","zip":"25070"},{"name":"TAŞLIGÜNEY MAH.","zip":"25070"},{"name":"TEPEKÖY MAH.","zip":"25070"},{"name":"TOPARLAK MAH.","zip":"25070"},{"name":"YAĞMURCUK MAH.","zip":"25070"}]},{"name":"PASİNLER","cityName":null,"quarters":[{"name":"AĞAÇMİNARE MAH.","zip":"25300"},{"name":"AĞCALAR MAH.","zip":"25300"},{"name":"ALTINBAŞAK MAH.","zip":"25300"},{"name":"ALVAR MAH.","zip":"25300"},{"name":"ARDIÇLI MAH.","zip":"25300"},{"name":"AŞITLAR MAH.","zip":"25300"},{"name":"BAHÇELİEVLER MAH.","zip":"25300"},{"name":"BALDIZI MAH.","zip":"25300"},{"name":"BAŞÖREN MAH.","zip":"25300"},{"name":"BULKASIM MAH.","zip":"25300"},{"name":"BÜYÜKDERE MAH.","zip":"25300"},{"name":"BÜYÜKTÜY MAH.","zip":"25300"},{"name":"CAMİKEBİR MAH.","zip":"25300"},{"name":"ÇAKIRTAŞ MAH.","zip":"25300"},{"name":"ÇALIYAZI MAH.","zip":"25300"},{"name":"ÇAMLICA MAH.","zip":"25300"},{"name":"ÇİÇEKLİ MAH.","zip":"25300"},{"name":"ÇÖĞENDER MAH.","zip":"25300"},{"name":"DEMİRDÖVEN MAH.","zip":"25300"},{"name":"EMİRŞEYH MAH.","zip":"25300"},{"name":"EPSEMCE MAH.","zip":"25300"},{"name":"ERZURUMKAPI MAH.","zip":"25300"},{"name":"ESENDERE MAH.","zip":"25300"},{"name":"GERDEKKAYA MAH.","zip":"25300"},{"name":"GÖLCİĞEZ MAH.","zip":"25300"},{"name":"HANAHMET MAH.","zip":"25300"},{"name":"HASANDEDE MAH.","zip":"25300"},{"name":"KAPLICALAR MAH.","zip":"25300"},{"name":"KARAKALE MAH.","zip":"25300"},{"name":"KARAVELET MAH.","zip":"25300"},{"name":"KASIMPAŞA MAH.","zip":"25300"},{"name":"KAVUŞTURAN MAH.","zip":"25300"},{"name":"KETHUDA MAH.","zip":"25300"},{"name":"KEVENLİK MAH.","zip":"25300"},{"name":"KIZILÖREN MAH.","zip":"25300"},{"name":"KOTANDÜZÜ MAH.","zip":"25300"},{"name":"KURBANÇAYIR MAH.","zip":"25300"},{"name":"KURTULUŞ MAH.","zip":"25300"},{"name":"KÜÇÜKTÜY MAH.","zip":"25300"},{"name":"OTLUKKAPI MAH.","zip":"25300"},{"name":"OVAKÖY MAH.","zip":"25300"},{"name":"ÖVENLER MAH.","zip":"25300"},{"name":"PAŞABEY MAH.","zip":"25300"},{"name":"PELİTLİ MAH.","zip":"25300"},{"name":"PORSUK MAH.","zip":"25300"},{"name":"PUSUDERE MAH.","zip":"25300"},{"name":"REŞADİYE MAH.","zip":"25300"},{"name":"SAKSI MAH.","zip":"25300"},{"name":"SERÇEBOĞAZI MAH.","zip":"25300"},{"name":"SİVAS MAH.","zip":"25300"},{"name":"SUNAK MAH.","zip":"25300"},{"name":"ŞEHİT BURAK KARAKOÇ MAH.","zip":"25300"},{"name":"TAŞAĞIL MAH.","zip":"25300"},{"name":"TAŞKAYNAK MAH.","zip":"25300"},{"name":"TAŞLIGÜNEY MAH.","zip":"25300"},{"name":"TAŞLIYURT MAH.","zip":"25300"},{"name":"TEPECİK MAH.","zip":"25300"},{"name":"TİMAR MAH.","zip":"25300"},{"name":"UZUNARK MAH.","zip":"25300"},{"name":"ÜĞÜMÜ MAH.","zip":"25300"},{"name":"YAMAÇ MAH.","zip":"25300"},{"name":"YASTIKTEPE MAH.","zip":"25300"},{"name":"YAVUZLU MAH.","zip":"25300"},{"name":"YAYLA MAH.","zip":"25300"},{"name":"YAYLADAĞ MAH.","zip":"25300"},{"name":"YENİ MAH.","zip":"25300"},{"name":"YENİKÖY MAH.","zip":"25300"},{"name":"YİĞİTPINARI MAH.","zip":"25300"},{"name":"YİĞİTTAŞI MAH.","zip":"25300"},{"name":"YUKARIÇAKMAK MAH.","zip":"25300"},{"name":"YUKARIDANİŞMENT MAH.","zip":"25300"}]},{"name":"PAZARYOLU","cityName":null,"quarters":[{"name":"AKBULUT MAH.","zip":"25930"},{"name":"ALIÇLI MAH.","zip":"25930"},{"name":"AMBARALAN MAH.","zip":"25930"},{"name":"AYÇUKURU MAH.","zip":"25930"},{"name":"BAYINDIR MAH.","zip":"25930"},{"name":"BURÇAKLI MAH.","zip":"25930"},{"name":"BÜYÜKDERE MAH.","zip":"25930"},{"name":"CENNETPINARI MAH.","zip":"25930"},{"name":"CEVİZLİDERE MAH.","zip":"25930"},{"name":"ÇATAKBAHÇE MAH.","zip":"25930"},{"name":"ÇAYDERE MAH.","zip":"25930"},{"name":"ÇİFTEPINAR MAH.","zip":"25930"},{"name":"DELİKTAŞ MAH.","zip":"25930"},{"name":"DEMİRGÖZE MAH.","zip":"25930"},{"name":"DİKMETAŞ MAH.","zip":"25930"},{"name":"ESENYURT MAH.","zip":"25930"},{"name":"GÖLYANI MAH.","zip":"25930"},{"name":"GÖZTEPE MAH.","zip":"25930"},{"name":"GÜLÇİMEN MAH.","zip":"25930"},{"name":"GÜNEYSU MAH.","zip":"25930"},{"name":"HACILAR MAH.","zip":"25930"},{"name":"KARAKOÇ MAH.","zip":"25930"},{"name":"KARATAŞ MAH.","zip":"25930"},{"name":"KILIÇÇI MAH.","zip":"25930"},{"name":"KONAKYERİ MAH.","zip":"25930"},{"name":"KORKUTKÖY MAH.","zip":"25930"},{"name":"KOZLU MAH.","zip":"25930"},{"name":"KÖŞEYOLU MAH.","zip":"25930"},{"name":"KUMAŞKAYA MAH.","zip":"25930"},{"name":"KUYMAKLI MAH.","zip":"25930"},{"name":"KÜMBETTEPE MAH.","zip":"25930"},{"name":"LALELİ MAH.","zip":"25930"},{"name":"MERKEZ MAH.","zip":"25930"},{"name":"MEŞEBAŞI MAH.","zip":"25930"},{"name":"PAMUKLUDAĞ MAH.","zip":"25930"},{"name":"SADAKA MAH.","zip":"25930"},{"name":"SERGENKAYA MAH.","zip":"25930"},{"name":"SÜLEYMANBAĞI MAH.","zip":"25930"},{"name":"ŞEHİTLİK MAH.","zip":"25930"},{"name":"YAYLALI MAH.","zip":"25930"},{"name":"YAYLAÖZÜ MAH.","zip":"25930"},{"name":"YENİ MAH.","zip":"25930"},{"name":"YİĞİTBAŞI MAH.","zip":"25930"}]},{"name":"ŞENKAYA","cityName":null,"quarters":[{"name":"AKTAŞ MAH.","zip":"25360"},{"name":"ALICIK MAH.","zip":"25360"},{"name":"AŞAĞI MAH.","zip":"25360"},{"name":"AŞAĞIBAKRAÇLI MAH.","zip":"25360"},{"name":"ATYOLU MAH.","zip":"25360"},{"name":"AYDOĞDU MAH.","zip":"25360"},{"name":"BALKAYA MAH.","zip":"25360"},{"name":"BEREKETLİ MAH.","zip":"25360"},{"name":"BEŞPINARLAR MAH.","zip":"25360"},{"name":"BEYKAYNAK MAH.","zip":"25360"},{"name":"ÇAMLIALAN MAH.","zip":"25360"},{"name":"ÇATALELMA MAH.","zip":"25360"},{"name":"DEĞİRMENLİDERE MAH.","zip":"25360"},{"name":"DELİKTAŞ MAH.","zip":"25360"},{"name":"DOĞANKÖY MAH.","zip":"25360"},{"name":"DOKUZELMA MAH.","zip":"25360"},{"name":"DOLUNAY MAH.","zip":"25360"},{"name":"DÖRTYOL MAH.","zip":"25360"},{"name":"ESENCE MAH.","zip":"25360"},{"name":"ESENYURT MAH.","zip":"25360"},{"name":"EVBAKAN MAH.","zip":"25360"},{"name":"GAZİLER MAH.","zip":"25360"},{"name":"GEZENEK MAH.","zip":"25360"},{"name":"GÖLLET MAH.","zip":"25360"},{"name":"GÖREŞKEN MAH.","zip":"25360"},{"name":"GÖZALAN MAH.","zip":"25360"},{"name":"GÖZEBAŞI MAH.","zip":"25360"},{"name":"GÜLVEREN MAH.","zip":"25360"},{"name":"HOŞKÖY MAH.","zip":"25360"},{"name":"İÇMESU MAH.","zip":"25360"},{"name":"İĞDELİ MAH.","zip":"25360"},{"name":"İKİZPINAR MAH.","zip":"25360"},{"name":"İNCEÇAY MAH.","zip":"25360"},{"name":"KAYALISU MAH.","zip":"25360"},{"name":"KAYNAK MAH.","zip":"25360"},{"name":"KİREÇLİ MAH.","zip":"25360"},{"name":"KÖROĞLU MAH.","zip":"25360"},{"name":"KÖŞKKÖY MAH.","zip":"25360"},{"name":"KÜRKÇÜ MAH.","zip":"25360"},{"name":"NİŞANTAŞI MAH.","zip":"25360"},{"name":"ORMANLI MAH.","zip":"25360"},{"name":"OYUKTAŞ MAH.","zip":"25360"},{"name":"ÖZYURT MAH.","zip":"25360"},{"name":"PAŞALI MAH.","zip":"25360"},{"name":"PENEK MAH.","zip":"25360"},{"name":"SARIKAYALAR MAH.","zip":"25360"},{"name":"SARIYAR MAH.","zip":"25360"},{"name":"SINDIRAN MAH.","zip":"25360"},{"name":"SÖĞÜTLER MAH.","zip":"25360"},{"name":"SUSUZ MAH.","zip":"25360"},{"name":"ŞENPINAR MAH.","zip":"25360"},{"name":"TAHTKÖY MAH.","zip":"25360"},{"name":"TAZEKÖY MAH.","zip":"25360"},{"name":"TEKETAŞ MAH.","zip":"25360"},{"name":"TİMURKIŞLA MAH.","zip":"25360"},{"name":"TURNALI MAH.","zip":"25360"},{"name":"TÜTENOCAK MAH.","zip":"25360"},{"name":"UĞURLU MAH.","zip":"25360"},{"name":"YANIKKAVAL MAH.","zip":"25360"},{"name":"YAYMEŞE MAH.","zip":"25360"},{"name":"YAZILI MAH.","zip":"25360"},{"name":"YELKIRAN MAH.","zip":"25360"},{"name":"YEŞİLDEMET MAH.","zip":"25360"},{"name":"YEŞİLKAYA MAH.","zip":"25360"},{"name":"YOĞURTÇULAR MAH.","zip":"25360"},{"name":"YUKARI MAH.","zip":"25360"},{"name":"YUKARIBAKRAÇLI MAH.","zip":"25360"},{"name":"YÜNÖREN MAH.","zip":"25360"},{"name":"YÜREKLİ MAH.","zip":"25360"},{"name":"ZÜMRÜT MAH.","zip":"25360"}]},{"name":"TEKMAN","cityName":null,"quarters":[{"name":"AKDAĞ MAH.","zip":"25560"},{"name":"AKDAMAR MAH.","zip":"25560"},{"name":"AKPINAR MAH.","zip":"25560"},{"name":"ALABAYIR MAH.","zip":"25560"},{"name":"AŞAĞIHANBEYİ MAH.","zip":"25560"},{"name":"AŞAĞITEPECİK MAH.","zip":"25560"},{"name":"AYDINLI MAH.","zip":"25560"},{"name":"AYDINLIK MAH.","zip":"25560"},{"name":"BEŞDERE MAH.","zip":"25560"},{"name":"BEYKÖY MAH.","zip":"25560"},{"name":"CİHAN MAH.","zip":"25560"},{"name":"ÇAĞLAR MAH.","zip":"25560"},{"name":"ÇATAK MAH.","zip":"25560"},{"name":"ÇATKALE MAH.","zip":"25560"},{"name":"ÇAYIRDAĞI MAH.","zip":"25560"},{"name":"ÇEVİRME MAH.","zip":"25560"},{"name":"ÇİÇEKDAĞI MAH.","zip":"25560"},{"name":"ÇUKURYAYLA MAH.","zip":"25560"},{"name":"DALSÖĞÜT MAH.","zip":"25560"},{"name":"DELİLER MAH.","zip":"25560"},{"name":"DENGİZ MAH.","zip":"25560"},{"name":"DÜZYURT MAH.","zip":"25560"},{"name":"ERENCE MAH.","zip":"25560"},{"name":"GEÇİTKÖY MAH.","zip":"25560"},{"name":"GÖKOĞLAN MAH.","zip":"25560"},{"name":"GÖZLÜCE MAH.","zip":"25560"},{"name":"GÜLVEREN MAH.","zip":"25560"},{"name":"GÜMÜŞLÜK MAH.","zip":"25560"},{"name":"GÜNDAMI MAH.","zip":"25560"},{"name":"GÜNEŞLİ MAH.","zip":"25560"},{"name":"GÜRGÜR MAH.","zip":"25560"},{"name":"GÜZELDERE MAH.","zip":"25560"},{"name":"HACIÖMER MAH.","zip":"25560"},{"name":"HAMZALAR MAH.","zip":"25560"},{"name":"HÜRRİYET MAH.","zip":"25560"},{"name":"HÜSEYİNAĞA MAH.","zip":"25560"},{"name":"ILIGÖZE MAH.","zip":"25560"},{"name":"IŞIKLAR MAH.","zip":"25560"},{"name":"İNCESU MAH.","zip":"25560"},{"name":"İSMETPAŞA MAH.","zip":"25560"},{"name":"KALAYCI MAH.","zip":"25560"},{"name":"KARAPINAR MAH.","zip":"25560"},{"name":"KARATAŞ MAH.","zip":"25560"},{"name":"KARATEPE MAH.","zip":"25560"},{"name":"KARLICA MAH.","zip":"25560"},{"name":"KATRANLI MAH.","zip":"25560"},{"name":"KAYABOĞAZ MAH.","zip":"25560"},{"name":"KAZANCIK MAH.","zip":"25560"},{"name":"KIRIKAN MAH.","zip":"25560"},{"name":"KOÇYAYLA MAH.","zip":"25560"},{"name":"KÖRSU MAH.","zip":"25560"},{"name":"KURUCA MAH.","zip":"25560"},{"name":"KÜLLÜ MAH.","zip":"25560"},{"name":"MESCİTLİ MAH.","zip":"25560"},{"name":"MOLLAMEHMET MAH.","zip":"25560"},{"name":"SUSUZ MAH.","zip":"25560"},{"name":"ŞAKŞAK MAH.","zip":"25560"},{"name":"TAŞKESEN MAH.","zip":"25560"},{"name":"TOPTEPE MAH.","zip":"25560"},{"name":"TURNAGÖL MAH.","zip":"25560"},{"name":"VATAN MAH.","zip":"25560"},{"name":"YALINCA MAH.","zip":"25560"},{"name":"YERKÖY MAH.","zip":"25560"},{"name":"YEŞİLÖREN MAH.","zip":"25560"},{"name":"YİĞİTLER MAH.","zip":"25560"},{"name":"YONCALI MAH.","zip":"25560"},{"name":"YUKARIHANBEYİ MAH.","zip":"25560"},{"name":"YUKARITEPECİK MAH.","zip":"25560"},{"name":"YUVAKLI MAH.","zip":"25560"},{"name":"YÜCEPINAR MAH.","zip":"25560"}]},{"name":"TORTUM","cityName":null,"quarters":[{"name":"AKSU MAH.","zip":"25430"},{"name":"AKTAŞ MAH.","zip":"25430"},{"name":"ALAPINAR MAH.","zip":"25430"},{"name":"ALPARSLAN MAH.","zip":"25430"},{"name":"ARILI MAH.","zip":"25430"},{"name":"AŞAĞI SERDARLI MAH.","zip":"25430"},{"name":"BAĞBAŞI MAH.","zip":"25430"},{"name":"BAHÇELİ MAH.","zip":"25430"},{"name":"BALLI MAH.","zip":"25430"},{"name":"CİHANLI MAH.","zip":"25430"},{"name":"ÇAKILLI MAH.","zip":"25430"},{"name":"ÇAMLICA MAH.","zip":"25430"},{"name":"ÇARDAKLI MAH.","zip":"25430"},{"name":"ÇATALDERE MAH.","zip":"25430"},{"name":"ÇAYLICA MAH.","zip":"25430"},{"name":"ÇİFTLİK MAH.","zip":"25430"},{"name":"ÇİVİLİKAYA MAH.","zip":"25430"},{"name":"DEMİRCİLER MAH.","zip":"25430"},{"name":"DEREKAPI MAH.","zip":"25430"},{"name":"DERİNPINAR MAH.","zip":"25430"},{"name":"DİKMEN MAH.","zip":"25430"},{"name":"DORUKLU MAH.","zip":"25430"},{"name":"ESENDURAK MAH.","zip":"25430"},{"name":"GÖKDERE MAH.","zip":"25430"},{"name":"HAMİDİYE MAH.","zip":"25430"},{"name":"İNCEDERE MAH.","zip":"25430"},{"name":"KALEBOYNU MAH.","zip":"25430"},{"name":"KALEDİBİ MAH.","zip":"25430"},{"name":"KAPIKAYA MAH.","zip":"25430"},{"name":"KARLI MAH.","zip":"25430"},{"name":"KAZANDERE MAH.","zip":"25430"},{"name":"KEMERKAYA MAH.","zip":"25430"},{"name":"KIRMALI MAH.","zip":"25430"},{"name":"KİREÇLİ MAH.","zip":"25430"},{"name":"KONAK MAH.","zip":"25430"},{"name":"MEYDANLAR MAH.","zip":"25430"},{"name":"PEHLİVANLI MAH.","zip":"25430"},{"name":"PEYNİRLİ MAH.","zip":"25430"},{"name":"SERDARLI MAH.","zip":"25430"},{"name":"SÖĞÜTLÜ MAH.","zip":"25430"},{"name":"SUYATAĞI MAH.","zip":"25430"},{"name":"ŞENYURT MAH.","zip":"25430"},{"name":"TAŞBAŞI MAH.","zip":"25430"},{"name":"TAŞOLUK MAH.","zip":"25430"},{"name":"TATLISU MAH.","zip":"25430"},{"name":"TİPİLİ MAH.","zip":"25430"},{"name":"TORTUMKALE MAH.","zip":"25430"},{"name":"UZUNKAVAK MAH.","zip":"25430"},{"name":"VİŞNELİ MAH.","zip":"25430"},{"name":"YAĞCILAR MAH.","zip":"25430"},{"name":"YAMANKAYA MAH.","zip":"25430"},{"name":"YAVUZ SULTAN SELİM MAH.","zip":"25430"},{"name":"YAZYURDU MAH.","zip":"25430"},{"name":"YELLİTEPE MAH.","zip":"25430"},{"name":"YUKARISİVRİ MAH.","zip":"25430"},{"name":"YUMAKLI MAH.","zip":"25430"},{"name":"ZİYARETLİ MAH.","zip":"25430"}]},{"name":"UZUNDERE","cityName":null,"quarters":[{"name":"BALIKLI MAH.","zip":"25440"},{"name":"CEVİZLİ MAH.","zip":"25440"},{"name":"CÖMERTLER MAH.","zip":"25440"},{"name":"ÇAĞLAYAN MAH.","zip":"25440"},{"name":"ÇAMLIYAMAÇ MAH.","zip":"25440"},{"name":"ÇAYBAŞI MAH.","zip":"25440"},{"name":"DİKYAR MAH.","zip":"25440"},{"name":"ERİKLİ MAH.","zip":"25440"},{"name":"GÖLBAŞI MAH.","zip":"25440"},{"name":"KİRAZLI MAH.","zip":"25440"},{"name":"MERKEZ MAH.","zip":"25440"},{"name":"MURATEFENDİ MAH.","zip":"25440"},{"name":"SAPACA MAH.","zip":"25440"},{"name":"SEYİTEFENDİ MAH.","zip":"25440"},{"name":"ULUBAĞ MAH.","zip":"25440"},{"name":"UZUNDERE MAH.","zip":"25440"},{"name":"YAYLA MAH.","zip":"25440"}]},{"name":"MUMCU","cityName":null,"quarters":null},{"name":"TERMİNAL","cityName":null,"quarters":[{"name":"ALTINBULAK MAH.","zip":"25050"},{"name":"ALTINTEPE MAH.","zip":"25050"},{"name":"ÇİFTLİK MAH.","zip":"25050"},{"name":"DEĞİRMENLER MAH.","zip":"25050"},{"name":"GÜLPINAR MAH.","zip":"25050"},{"name":"GÜZELOVA MAH.","zip":"25050"},{"name":"KIRMIZITAŞ MAH.","zip":"25050"},{"name":"MURATGELDİ MAH.","zip":"25050"},{"name":"ÜNİVERSİTE MAH.","zip":"25050"},{"name":"YEŞİLYAYLA MAH.","zip":"25050"},{"name":"YOLGEÇTİ MAH.","zip":"25050"}]},{"name":"YAKUTİYE","cityName":null,"quarters":[{"name":"ARIBAHÇE MAH.","zip":"25100"},{"name":"ÇAYIRCA MAH.","zip":"25100"},{"name":"ÇAYIRTEPE MAH.","zip":"25100"},{"name":"DADAŞKÖY MAH.","zip":"25100"},{"name":"DUMLU MAH.","zip":"25100"},{"name":"GÖKÇEYAMAÇ MAH.","zip":"25100"},{"name":"GÜNGÖRMEZ MAH.","zip":"25100"},{"name":"GÜZELYAYLA MAH.","zip":"25100"},{"name":"İBRAHİM HAKKI MAH.","zip":"25100"},{"name":"KARAGÖBEK MAH.","zip":"25100"},{"name":"KAZIM KARABEKİR PAŞA MAH.","zip":"25100"},{"name":"KIRKGÖZE MAH.","zip":"25100"},{"name":"KÖSE MEHMET MAH.","zip":"25100"},{"name":"KÖŞKKÖY MAH.","zip":"25100"},{"name":"KURTULUŞ MAH.","zip":"25100"},{"name":"LALAPAŞA MAH.","zip":"25100"},{"name":"MURATPAŞA MAH.","zip":"25100"},{"name":"MÜLK MAH.","zip":"25100"},{"name":"ORTA DÜZÜ MAH.","zip":"25100"},{"name":"ÖMER NASUHİ BİLMEN MAH.","zip":"25100"},{"name":"RABİA ANA MAH.","zip":"25100"},{"name":"SOĞUCAK MAH.","zip":"25100"},{"name":"SÖĞÜTYANI MAH.","zip":"25100"},{"name":"ŞENYURT MAH.","zip":"25100"},{"name":"UMUDUM MAH.","zip":"25100"},{"name":"UZUNYAYLA MAH.","zip":"25100"},{"name":"YAZI PINARI MAH.","zip":"25100"},{"name":"YERLİ SU MAH.","zip":"25100"},{"name":"YEŞİLDERE MAH.","zip":"25100"},{"name":"YEŞİLOVA MAH.","zip":"25100"}]}]}]}