{"id":26,"name":"ESKİŞEHİR","cities":[{"name":"city","districts":[{"name":"ALPU","cityName":null,"quarters":[{"name":"ARIKAYA MAH.","zip":"26850"},{"name":"BAHÇECİK MAH.","zip":"26850"},{"name":"BAŞÖREN MAH.","zip":"26850"},{"name":"BELKESE MAH.","zip":"26850"},{"name":"BOZAN MAH.","zip":"26850"},{"name":"BÜĞDÜZ MAH.","zip":"26850"},{"name":"ÇARDAKBAŞI MAH.","zip":"26850"},{"name":"ÇERKEZ ÇUKURHİSAR MAH.","zip":"26850"},{"name":"DEREKÖY MAH.","zip":"26850"},{"name":"ESENCE MAH.","zip":"26850"},{"name":"FATİH MAH.","zip":"26850"},{"name":"FEVZİ PAŞA MAH.","zip":"26850"},{"name":"FEVZİYE MAH.","zip":"26850"},{"name":"GÖKÇEKAYA MAH.","zip":"26850"},{"name":"GÖKÇEOĞLU MAH.","zip":"26850"},{"name":"GÜROLUK MAH.","zip":"26850"},{"name":"IŞIKÖREN MAH.","zip":"26850"},{"name":"KARACAÖREN MAH.","zip":"26850"},{"name":"KARAKAMIŞ MAH.","zip":"26850"},{"name":"KEMALPAŞA MAH.","zip":"26850"},{"name":"KOŞMAT MAH.","zip":"26850"},{"name":"MAMURE MAH.","zip":"26850"},{"name":"OSMANİYE MAH.","zip":"26850"},{"name":"ÖZDENK MAH.","zip":"26850"},{"name":"SAKARIKARACAÖREN MAH.","zip":"26850"},{"name":"SARIKAVAK MAH.","zip":"26850"},{"name":"SÖĞÜTÇÜK MAH.","zip":"26850"},{"name":"UYUZHAMAMKÖYÜ MAH.","zip":"26850"},{"name":"YEŞİLDON MAH.","zip":"26850"},{"name":"YUNUSEMRE MAH.","zip":"26850"}]},{"name":"BEYLİKOVA","cityName":null,"quarters":[{"name":"AŞAĞIDUDAŞ MAH.","zip":"26750"},{"name":"AŞAĞIİĞDEAĞACI MAH.","zip":"26750"},{"name":"ATA MAH.","zip":"26750"},{"name":"DOĞANOĞLU MAH.","zip":"26750"},{"name":"DOĞRAY MAH.","zip":"26750"},{"name":"EMİRCİK MAH.","zip":"26750"},{"name":"GÖKÇEAYVA MAH.","zip":"26750"},{"name":"HALİLBAĞI MAH.","zip":"26750"},{"name":"İKİPINAR MAH.","zip":"26750"},{"name":"İMİKLER MAH.","zip":"26750"},{"name":"KIZILCAÖREN MAH.","zip":"26750"},{"name":"KÖPRÜBAŞI MAH.","zip":"26750"},{"name":"KÖPRÜBAŞI OSB MAH.","zip":"26750"},{"name":"OKÇU MAH.","zip":"26750"},{"name":"PARSIBEY MAH.","zip":"26750"},{"name":"RAHMİYE MAH.","zip":"26750"},{"name":"SULTANİYE MAH.","zip":"26750"},{"name":"SÜLEYMANİYE MAH.","zip":"26750"},{"name":"UZUNBURUN MAH.","zip":"26750"},{"name":"YALINLI MAH.","zip":"26750"},{"name":"YENİ MAH.","zip":"26750"},{"name":"YENİYURT MAH.","zip":"26750"},{"name":"YUKARIDUDAŞ MAH.","zip":"26750"},{"name":"YUKARIİĞDEAĞACI MAH.","zip":"26750"},{"name":"YUNUS EMRE MAH.","zip":"26750"}]},{"name":"ÇİFTELER","cityName":null,"quarters":[{"name":"ADALAR MAH.","zip":"26700"},{"name":"ALİKAN MAH.","zip":"26700"},{"name":"ARSLANLI MAH.","zip":"26700"},{"name":"BAŞKURT MAH.","zip":"26700"},{"name":"BELPINAR MAH.","zip":"26700"},{"name":"ÇATMAPINAR MAH.","zip":"26700"},{"name":"ÇİFTÇİ MAH.","zip":"26700"},{"name":"DİKİLİKAYA MAH.","zip":"26700"},{"name":"DİKMEN MAH.","zip":"26700"},{"name":"DOĞANAY MAH.","zip":"26700"},{"name":"EMİNEKİN MAH.","zip":"26700"},{"name":"ERBAP MAH.","zip":"26700"},{"name":"HAYRİYE MAH.","zip":"26700"},{"name":"ILICABAŞI MAH.","zip":"26700"},{"name":"KADIKUYUSU MAH.","zip":"26700"},{"name":"KÖRHASAN MAH.","zip":"26700"},{"name":"ORHANİYE MAH.","zip":"26700"},{"name":"ORTAKÖY MAH.","zip":"26700"},{"name":"OSMANİYE MAH.","zip":"26700"},{"name":"SADIROĞLU MAH.","zip":"26700"},{"name":"SAİTHALİMPAŞA MAH.","zip":"26700"},{"name":"SAKARYA MAH.","zip":"26700"},{"name":"SARIKAVAK MAH.","zip":"26700"},{"name":"YENİ MAH.","zip":"26700"},{"name":"YENİDOĞAN MAH.","zip":"26700"},{"name":"YILDIZÖREN MAH.","zip":"26700"},{"name":"ZAFERHAMİT MAH.","zip":"26700"}]},{"name":"GÜNYÜZÜ","cityName":null,"quarters":[{"name":"AYVALI MAH.","zip":"26630"},{"name":"BEDİL MAH.","zip":"26630"},{"name":"BEYYAYLA MAH.","zip":"26630"},{"name":"ÇAKMAK MAH.","zip":"26630"},{"name":"ÇARDAKÖZÜ MAH.","zip":"26630"},{"name":"DOĞRAY MAH.","zip":"26630"},{"name":"FATİH MAH.","zip":"26630"},{"name":"GECEK MAH.","zip":"26630"},{"name":"GÜMÜŞKONAK MAH.","zip":"26630"},{"name":"KAVACIK MAH.","zip":"26630"},{"name":"KAVUNCU MAH.","zip":"26630"},{"name":"KAYAKENT MAH.","zip":"26630"},{"name":"KUZÖREN MAH.","zip":"26630"},{"name":"MERCAN MAH.","zip":"26630"},{"name":"ÖZLER MAH.","zip":"26630"},{"name":"SÜMER MAH.","zip":"26630"},{"name":"TUTLU MAH.","zip":"26630"},{"name":"YAĞRI MAH.","zip":"26630"},{"name":"YAZIR MAH.","zip":"26630"},{"name":"YENİKENT MAH.","zip":"26630"},{"name":"YEŞİLYAKA MAH.","zip":"26630"}]},{"name":"HAN","cityName":null,"quarters":[{"name":"AKDERE MAH.","zip":"26710"},{"name":"AKHİSAR MAH.","zip":"26710"},{"name":"BAŞARA MAH.","zip":"26710"},{"name":"ERTEN MAH.","zip":"26710"},{"name":"GÖKÇEKUYU MAH.","zip":"26710"},{"name":"GÖKÇEYAYLA MAH.","zip":"26710"},{"name":"HACILAR MAH.","zip":"26710"},{"name":"HANKARAAĞAÇ MAH.","zip":"26710"},{"name":"HÜSREVPAŞA MAH.","zip":"26710"},{"name":"İSKANKUYU MAH.","zip":"26710"},{"name":"KAYI MAH.","zip":"26710"},{"name":"PEÇENE MAH.","zip":"26710"},{"name":"TEPEKÖY MAH.","zip":"26710"},{"name":"YAZILI MAH.","zip":"26710"}]},{"name":"İNÖNÜ","cityName":null,"quarters":[{"name":"ÇARŞI MAH.","zip":"26670"},{"name":"DEREYALAK MAH.","zip":"26670"},{"name":"DUTLUCA MAH.","zip":"26670"},{"name":"ERENKÖY MAH.","zip":"26670"},{"name":"ESNEMEZ MAH.","zip":"26670"},{"name":"İSMETPAŞA MAH.","zip":"26670"},{"name":"KÜMBET MAH.","zip":"26670"},{"name":"KÜMBETAKPINAR MAH.","zip":"26670"},{"name":"KÜMBETYENİKÖY MAH.","zip":"26670"},{"name":"OKLUBALI MAH.","zip":"26670"},{"name":"ORTA MAH.","zip":"26670"},{"name":"SEYİTALİKÖYÜ MAH.","zip":"26670"},{"name":"YENİCE MAH.","zip":"26670"},{"name":"YUKARIKUZFINDIK MAH.","zip":"26670"},{"name":"YÜRÜKYAYLA MAH.","zip":"26670"}]},{"name":"MAHMUDİYE","cityName":null,"quarters":[{"name":"BALÇIKHİSAR MAH.","zip":"26800"},{"name":"ÇAL MAH.","zip":"26800"},{"name":"DOĞANCA MAH.","zip":"26800"},{"name":"FAHRİYE MAH.","zip":"26800"},{"name":"GÜLLÜCE MAH.","zip":"26800"},{"name":"HAMİDİYE MAH.","zip":"26800"},{"name":"IŞIKLAR MAH.","zip":"26800"},{"name":"İSMETPAŞA MAH.","zip":"26800"},{"name":"KAYMAZYAYLA MAH.","zip":"26800"},{"name":"MESUDİYE MAH.","zip":"26800"},{"name":"ORTA MAH.","zip":"26800"},{"name":"ŞEREFİYE MAH.","zip":"26800"},{"name":"TOKATHAN MAH.","zip":"26800"},{"name":"TOPKAYA MAH.","zip":"26800"},{"name":"TÜRKMENMECİDİYE MAH.","zip":"26800"},{"name":"YENİ MAH.","zip":"26800"},{"name":"YENİKÖY MAH.","zip":"26800"},{"name":"YEŞİLYURT MAH.","zip":"26800"}]},{"name":"MİHALGAZİ","cityName":null,"quarters":[{"name":"BOZANİÇ MAH.","zip":"26880"},{"name":"CUMHURİYET MAH.","zip":"26880"},{"name":"DEMİRCİLER MAH.","zip":"26880"},{"name":"DOKUZ MAYIS MAH.","zip":"26880"},{"name":"HÜRRİYET MAH.","zip":"26880"},{"name":"İSTİKLAL MAH.","zip":"26880"},{"name":"KARAOĞLAN MAH.","zip":"26880"},{"name":"SAKARIILICA MAH.","zip":"26880"}]},{"name":"DİNEK","cityName":null,"quarters":[{"name":"AHUR MAH.","zip":"26940"},{"name":"AHURÖZÜ MAH.","zip":"26940"},{"name":"AKÇAÖREN MAH.","zip":"26940"},{"name":"AYDINLAR MAH.","zip":"26940"},{"name":"BAHTİYAR MAH.","zip":"26940"},{"name":"BELEN MAH.","zip":"26940"},{"name":"BEY MAH.","zip":"26940"},{"name":"CAMİKEBİR MAH.","zip":"26940"},{"name":"ÇALÇI MAH.","zip":"26940"},{"name":"ÇALKAYA MAH.","zip":"26940"},{"name":"ÇARDAK MAH.","zip":"26940"},{"name":"ÇUKURÖREN MAH.","zip":"26940"},{"name":"DAĞCI MAH.","zip":"26940"},{"name":"DİKÖZÜ MAH.","zip":"26940"},{"name":"DİNEK MAH.","zip":"26940"},{"name":"DÜMREK MAH.","zip":"26940"},{"name":"GÖZELER MAH.","zip":"26940"},{"name":"GÜCE MAH.","zip":"26940"},{"name":"GÜREŞ MAH.","zip":"26940"},{"name":"GÜRLEYİK MAH.","zip":"26940"},{"name":"HAMİDİYE MAH.","zip":"26940"},{"name":"ILICALAR MAH.","zip":"26940"},{"name":"İĞDECİK MAH.","zip":"26940"},{"name":"İKİZAFER MAH.","zip":"26940"},{"name":"KARAÇAM MAH.","zip":"26940"},{"name":"KARAGEYİKLİ MAH.","zip":"26940"},{"name":"KAVAK MAH.","zip":"26940"},{"name":"KAYI MAH.","zip":"26940"},{"name":"KIZILBÖRÜKLÜ MAH.","zip":"26940"},{"name":"KORUCU MAH.","zip":"26940"},{"name":"KOYUNAĞILI MAH.","zip":"26940"},{"name":"KOZLU MAH.","zip":"26940"},{"name":"LÜTFİYE MAH.","zip":"26940"},{"name":"MAHMUTHİSAR MAH.","zip":"26940"},{"name":"MEDRESE MAH.","zip":"26940"},{"name":"NARLI MAH.","zip":"26940"},{"name":"OBRUK MAH.","zip":"26940"},{"name":"OTLUK MAH.","zip":"26940"},{"name":"ÖMER MAH.","zip":"26940"},{"name":"SARAY MAH.","zip":"26940"},{"name":"SAZAK MAH.","zip":"26940"},{"name":"SEKİ MAH.","zip":"26940"},{"name":"SEKİÖREN MAH.","zip":"26940"},{"name":"SORKUN MAH.","zip":"26940"},{"name":"SÜLELER MAH.","zip":"26940"},{"name":"TATARCIK MAH.","zip":"26940"},{"name":"UŞAKBÜKÜ MAH.","zip":"26940"},{"name":"ÜÇBAŞLI MAH.","zip":"26940"},{"name":"YALIMKAYA MAH.","zip":"26940"},{"name":"YAYLA MAH.","zip":"26940"},{"name":"YEŞİLYURT MAH.","zip":"26940"},{"name":"YUNUSEMRE MAH.","zip":"26940"}]},{"name":"ALANÖNÜ","cityName":null,"quarters":[{"name":"ALANÖNÜ MAH.","zip":"26030"},{"name":"CUNUDİYE MAH.","zip":"26030"},{"name":"DEDE MAH.","zip":"26030"},{"name":"KARAPINAR MAH.","zip":"26030"},{"name":"ORTA MAH.","zip":"26030"},{"name":"PAŞA MAH.","zip":"26030"},{"name":"ŞARKİYE MAH.","zip":"26030"}]},{"name":"ARİFİYE","cityName":null,"quarters":[{"name":"İSTİKLAL MAH.","zip":"26010"}]},{"name":"BÜYÜKDERE","cityName":null,"quarters":[{"name":"GÖZTEPE MAH.","zip":"26040"},{"name":"GÜLTEPE MAH.","zip":"26040"},{"name":"YILDIZTEPE MAH.","zip":"26040"}]},{"name":"EMEK","cityName":null,"quarters":[{"name":"EMEK MAH.","zip":"26080"}]},{"name":"GÖKMEYDAN","cityName":null,"quarters":[{"name":"GÜNDOĞDU MAH.","zip":"26100"}]},{"name":"HUZUR","cityName":null,"quarters":[{"name":"HUZUR MAH.","zip":"26060"},{"name":"YENİDOĞAN MAH.","zip":"26060"}]},{"name":"KANLIPINAR","cityName":null,"quarters":[{"name":"AKKAYA MAH.","zip":"26004"},{"name":"AKPINAR MAH.","zip":"26004"},{"name":"AŞAĞIILICA MAH.","zip":"26004"},{"name":"AVDAN MAH.","zip":"26004"},{"name":"AYVACIK MAH.","zip":"26004"},{"name":"ÇAMLICA MAH.","zip":"26004"},{"name":"DEMİRLİ MAH.","zip":"26004"},{"name":"DOĞANKAYA MAH.","zip":"26004"},{"name":"EŞENKARA MAH.","zip":"26004"},{"name":"GÜLPINAR MAH.","zip":"26004"},{"name":"GÜMELE MAH.","zip":"26004"},{"name":"HARMANDALI MAH.","zip":"26004"},{"name":"İMİŞEHİR MAH.","zip":"26004"},{"name":"KANLIPINAR MAH.","zip":"26004"},{"name":"KARAALAN MAH.","zip":"26004"},{"name":"KARACAŞEHİR MAH.","zip":"26004"},{"name":"KARAÇAY MAH.","zip":"26004"},{"name":"KARAHÜYÜK MAH.","zip":"26004"},{"name":"KARAMUSTAFA MAH.","zip":"26004"},{"name":"KARAPAZAR MAH.","zip":"26004"},{"name":"KARATEPE MAH.","zip":"26004"},{"name":"KARGIN MAH.","zip":"26004"},{"name":"KAYACIK MAH.","zip":"26004"},{"name":"KIRAVDAN MAH.","zip":"26004"},{"name":"KİREÇ MAH.","zip":"26004"},{"name":"KUYUCAK MAH.","zip":"26004"},{"name":"LÜTFİYE MAH.","zip":"26004"},{"name":"MUSALAR MAH.","zip":"26004"},{"name":"SARISUNGUR MAH.","zip":"26004"},{"name":"SEKLİCE MAH.","zip":"26004"},{"name":"SULTANDERE MAH.","zip":"26004"},{"name":"SÜPÜREN MAH.","zip":"26004"},{"name":"TÜRKMENTOKAT MAH.","zip":"26004"},{"name":"ULUÇAYIR MAH.","zip":"26004"},{"name":"YAHNİKAPAN MAH.","zip":"26004"},{"name":"YENİSOFÇA MAH.","zip":"26004"},{"name":"YUKARIÇAĞLAN MAH.","zip":"26004"},{"name":"YUKARIILICA MAH.","zip":"26004"},{"name":"YUKARIKALABAK MAH.","zip":"26004"},{"name":"YÜRÜKKARACAÖREN MAH.","zip":"26004"},{"name":"YÜRÜKKIRKA MAH.","zip":"26004"}]},{"name":"KURTULUŞ","cityName":null,"quarters":[{"name":"DELİKLİTAŞ MAH.","zip":"26090"},{"name":"KURTULUŞ MAH.","zip":"26090"}]},{"name":"ODUNPAZARIKÖY","cityName":null,"quarters":[{"name":"AŞAĞI ÇAĞLAN MAH.","zip":"26576"},{"name":"ÇAVLUM MAH.","zip":"26576"},{"name":"KALKANLI MAH.","zip":"26576"},{"name":"KARACAHÖYÜK MAH.","zip":"26576"},{"name":"KAYAPINAR MAH.","zip":"26576"},{"name":"SEVİNÇ MAH.","zip":"26576"},{"name":"YASSIHÖYÜK MAH.","zip":"26576"}]},{"name":"ORHANGAZİ","cityName":null,"quarters":null},{"name":"SULTANDERE","cityName":null,"quarters":[{"name":"OSB MAH.","zip":"26250"}]},{"name":"SÜMER","cityName":null,"quarters":[{"name":"SÜMER MAH.","zip":"26140"}]},{"name":"VADİŞEHİR","cityName":null,"quarters":[{"name":"IHLAMURKENT MAH.","zip":"26240"},{"name":"VADİŞEHİR MAH.","zip":"26240"}]},{"name":"VİŞNELİK","cityName":null,"quarters":[{"name":"KIRMIZITOPRAK MAH.","zip":"26020"},{"name":"VİŞNELİK MAH.","zip":"26020"}]},{"name":"YENİKENT","cityName":null,"quarters":null},{"name":"SARICAKAYA","cityName":null,"quarters":[{"name":"BEYYAYLA MAH.","zip":"26870"},{"name":"BİLAL HABEŞİ MAH.","zip":"26870"},{"name":"CAMİKEBİR MAH.","zip":"26870"},{"name":"DAĞKÜPLÜ MAH.","zip":"26870"},{"name":"DÜZKÖY MAH.","zip":"26870"},{"name":"FATİH MAH.","zip":"26870"},{"name":"GÜNEY MAH.","zip":"26870"},{"name":"İĞDİR MAH.","zip":"26870"},{"name":"KAPIKAYA MAH.","zip":"26870"},{"name":"LAÇİN MAH.","zip":"26870"},{"name":"MAYISLAR MAH.","zip":"26870"},{"name":"SARIKAYA MAH.","zip":"26870"},{"name":"YENİ MAH.","zip":"26870"}]},{"name":"SEYİTGAZİ","cityName":null,"quarters":[{"name":"AKSAKLI MAH.","zip":"26950"},{"name":"ASLANBEYLİ MAH.","zip":"26950"},{"name":"AŞAĞISÖĞÜT MAH.","zip":"26950"},{"name":"AYVALI MAH.","zip":"26950"},{"name":"BARDAKÇI MAH.","zip":"26950"},{"name":"BEŞSARAY MAH.","zip":"26950"},{"name":"BEYKIŞLA MAH.","zip":"26950"},{"name":"BÜYÜKDERE MAH.","zip":"26950"},{"name":"BÜYÜKYAYLA MAH.","zip":"26950"},{"name":"CEVİZLİ MAH.","zip":"26950"},{"name":"ÇATÖREN MAH.","zip":"26950"},{"name":"ÇUKURAĞIL MAH.","zip":"26950"},{"name":"ÇUKURCA MAH.","zip":"26950"},{"name":"ÇÜRÜTTÜM MAH.","zip":"26950"},{"name":"DEĞİŞÖREN MAH.","zip":"26950"},{"name":"DEREBENEK MAH.","zip":"26950"},{"name":"DOĞANÇAYIR MAH.","zip":"26950"},{"name":"FETHİYE MAH.","zip":"26950"},{"name":"GEMİÇ MAH.","zip":"26950"},{"name":"GÖCENOLUK MAH.","zip":"26950"},{"name":"GÖKBAHÇE MAH.","zip":"26950"},{"name":"GÖKÇEGÜNEY MAH.","zip":"26950"},{"name":"GÖKNEBİ MAH.","zip":"26950"},{"name":"GÜMÜŞBEL MAH.","zip":"26950"},{"name":"İDRİSYAYLA MAH.","zip":"26950"},{"name":"İKİÇEŞME MAH.","zip":"26950"},{"name":"İKİZOLUK MAH.","zip":"26950"},{"name":"KARACALIK MAH.","zip":"26950"},{"name":"KARAÖREN MAH.","zip":"26950"},{"name":"KESENLER MAH.","zip":"26950"},{"name":"KIRKA MAH.","zip":"26950"},{"name":"KÜMBET MAH.","zip":"26950"},{"name":"NUMANOLUK MAH.","zip":"26950"},{"name":"OYNAŞ MAH.","zip":"26950"},{"name":"ÖRENCİK MAH.","zip":"26950"},{"name":"SALİHLER MAH.","zip":"26950"},{"name":"SANCAR MAH.","zip":"26950"},{"name":"SANDIKÖZÜ MAH.","zip":"26950"},{"name":"SARAYÖREN MAH.","zip":"26950"},{"name":"SARICAİLYAS MAH.","zip":"26950"},{"name":"ŞÜKRANLI MAH.","zip":"26950"},{"name":"TAŞLIKKÖY MAH.","zip":"26950"},{"name":"ÜÇSARAY MAH.","zip":"26950"},{"name":"YAPILDAK MAH.","zip":"26950"},{"name":"YARBASAN MAH.","zip":"26950"},{"name":"YAZIDERE MAH.","zip":"26950"},{"name":"YENİKENT MAH.","zip":"26950"},{"name":"YEŞİLTEPE MAH.","zip":"26950"},{"name":"YUKARISÖĞÜT MAH.","zip":"26950"},{"name":"YUNUS MAH.","zip":"26950"}]},{"name":"SİVRİHİSAR","cityName":null,"quarters":[{"name":"AKTAŞ MAH.","zip":"26600"},{"name":"AŞAĞIKEPEN MAH.","zip":"26600"},{"name":"AYDINLI MAH.","zip":"26600"},{"name":"BABADAT MAH.","zip":"26600"},{"name":"BAHÇECİK MAH.","zip":"26600"},{"name":"BALLIHİSAR MAH.","zip":"26600"},{"name":"BENLİKUYU MAH.","zip":"26600"},{"name":"BENLİYAVER MAH.","zip":"26600"},{"name":"BEYYAZI MAH.","zip":"26600"},{"name":"BİÇER MAH.","zip":"26600"},{"name":"BÖĞÜRTLEN MAH.","zip":"26600"},{"name":"BUHARA MAH.","zip":"26600"},{"name":"BUZLUCA MAH.","zip":"26600"},{"name":"CAMİKEBİR MAH.","zip":"26600"},{"name":"CUMHURİYET MAH.","zip":"26600"},{"name":"ÇANDIR MAH.","zip":"26600"},{"name":"ÇAYKOZ MAH.","zip":"26600"},{"name":"DEMİRCİ MAH.","zip":"26600"},{"name":"DEMİRCİKÖY MAH.","zip":"26600"},{"name":"DİNEK MAH.","zip":"26600"},{"name":"DUMLUCA MAH.","zip":"26600"},{"name":"DÜMREK MAH.","zip":"26600"},{"name":"ELCİK MAH.","zip":"26600"},{"name":"ELMALI MAH.","zip":"26600"},{"name":"ERTUĞRULKÖY MAH.","zip":"26600"},{"name":"GEDİK MAH.","zip":"26600"},{"name":"GERENLİ MAH.","zip":"26600"},{"name":"GÖKTEPE MAH.","zip":"26600"},{"name":"GÜLÇAYIR MAH.","zip":"26600"},{"name":"GÜVEMLİ MAH.","zip":"26600"},{"name":"HAMAMKARAHİSAR MAH.","zip":"26600"},{"name":"HIZIRBEY MAH.","zip":"26600"},{"name":"HÜDAVENDİGAR MAH.","zip":"26600"},{"name":"İBİKSEYDİ MAH.","zip":"26600"},{"name":"İĞDECİK MAH.","zip":"26600"},{"name":"İLÖREN MAH.","zip":"26600"},{"name":"İLYASPAŞA MAH.","zip":"26600"},{"name":"İSTİKLALBAĞI MAH.","zip":"26600"},{"name":"KADINCIK MAH.","zip":"26600"},{"name":"KALDIRIMKÖY MAH.","zip":"26600"},{"name":"KARABAŞLI MAH.","zip":"26600"},{"name":"KARABURHAN MAH.","zip":"26600"},{"name":"KARACAKAYA MAH.","zip":"26600"},{"name":"KARACALAR MAH.","zip":"26600"},{"name":"KARACAÖREN MAH.","zip":"26600"},{"name":"KARACAÖRENYAYLASI MAH.","zip":"26600"},{"name":"KARADAT MAH.","zip":"26600"},{"name":"KARAKAYA MAH.","zip":"26600"},{"name":"KARKIN MAH.","zip":"26600"},{"name":"KAYMAZ MAH.","zip":"26600"},{"name":"KERTEK MAH.","zip":"26600"},{"name":"KILIÇ MAH.","zip":"26600"},{"name":"KINIK MAH.","zip":"26600"},{"name":"KOÇAŞ MAH.","zip":"26600"},{"name":"KOLTAN MAH.","zip":"26600"},{"name":"KUBBELİ MAH.","zip":"26600"},{"name":"KURŞUNLU MAH.","zip":"26600"},{"name":"KURTŞEYH MAH.","zip":"26600"},{"name":"MEMİK MAH.","zip":"26600"},{"name":"MÜLKKÖY MAH.","zip":"26600"},{"name":"NASRETTİN HOCA MAH.","zip":"26600"},{"name":"OĞLAKÇI MAH.","zip":"26600"},{"name":"ORTAKLAR MAH.","zip":"26600"},{"name":"PAŞAKADIN MAH.","zip":"26600"},{"name":"SADIKBAĞI MAH.","zip":"26600"},{"name":"SARIKAVAK MAH.","zip":"26600"},{"name":"SELİMİYE MAH.","zip":"26600"},{"name":"SIĞIRCIK MAH.","zip":"26600"},{"name":"TEKÖREN MAH.","zip":"26600"},{"name":"YAVERÖREN MAH.","zip":"26600"},{"name":"YENİCE MAH.","zip":"26600"},{"name":"YENİDOĞAN MAH.","zip":"26600"},{"name":"YENİKÖY MAH.","zip":"26600"},{"name":"YEŞİLKÖY MAH.","zip":"26600"},{"name":"YUKARIKEPEN MAH.","zip":"26600"},{"name":"YUNUSEMRE MAH.","zip":"26600"},{"name":"ZEYKÖYÜ MAH.","zip":"26600"}]},{"name":"BAHÇELİEVLER","cityName":null,"quarters":[{"name":"ESKİBAĞLAR MAH.","zip":"26170"},{"name":"YENİBAĞLAR MAH.","zip":"26170"}]},{"name":"CUMHURİYE","cityName":null,"quarters":[{"name":"HOŞNUDİYE MAH.","zip":"26130"}]},{"name":"ÇAMLICA","cityName":null,"quarters":[{"name":"ÇAMLICA MAH.","zip":"26180"}]},{"name":"ÇUKURHİSAR","cityName":null,"quarters":[{"name":"BOYACIOĞLU MAH.","zip":"26563"},{"name":"ÇUKURHİSAR YENİ MAH.","zip":"26563"},{"name":"EĞRİÖZ MAH.","zip":"26563"},{"name":"GÖKDERE MAH.","zip":"26563"},{"name":"HASANBEY MAH.","zip":"26563"},{"name":"HİSAR MAH.","zip":"26563"},{"name":"KAVACIK MAH.","zip":"26563"},{"name":"KESKİN MAH.","zip":"26563"},{"name":"KOZKAYI MAH.","zip":"26563"},{"name":"SATILMIŞOĞLU MAH.","zip":"26563"},{"name":"YUKARI SÖĞÜTÖNÜ MAH.","zip":"26563"}]},{"name":"FATİH","cityName":null,"quarters":[{"name":"GÜLLÜK MAH.","zip":"26220"},{"name":"KUMLUBEL MAH.","zip":"26220"},{"name":"ÖMERAĞA MAH.","zip":"26220"},{"name":"TUNALI MAH.","zip":"26220"},{"name":"ZAFER MAH.","zip":"26220"}]},{"name":"FEVZİÇAKMAK","cityName":null,"quarters":[{"name":"ŞARHÖYÜK MAH.","zip":"26230"}]},{"name":"HACIALİBEY","cityName":null,"quarters":[{"name":"HACI SEYİT MAH.","zip":"26120"},{"name":"HAYRİYE MAH.","zip":"26120"},{"name":"IŞIKLAR MAH.","zip":"26120"},{"name":"İHSANİYE MAH.","zip":"26120"},{"name":"MAMURE MAH.","zip":"26120"},{"name":"MERKEZ YENİ MAH.","zip":"26120"},{"name":"MUSTAFA KEMAL PAŞA MAH.","zip":"26120"},{"name":"ŞEKER MAH.","zip":"26120"}]},{"name":"MUTTALİP","cityName":null,"quarters":[{"name":"GAZİPAŞA MAH.","zip":"26555"},{"name":"MUTTALİP EMİRLER MAH.","zip":"26555"},{"name":"MUTTALİP KOYUNLAR MAH.","zip":"26555"},{"name":"MUTTALİP ORTA MAH.","zip":"26555"},{"name":"SAKİNTEPE MAH.","zip":"26555"}]},{"name":"SAZOVA","cityName":null,"quarters":[{"name":"SAZOVA MAH.","zip":"26150"}]},{"name":"TEPEBAŞIKÖY","cityName":null,"quarters":[{"name":"ATALAN MAH.","zip":"26005"},{"name":"ATALANTEKKE MAH.","zip":"26005"},{"name":"AVLAMIŞ MAH.","zip":"26005"},{"name":"BEHÇETİYE MAH.","zip":"26005"},{"name":"BEKTAŞPINARI MAH.","zip":"26005"},{"name":"BEYAZALTIN MAH.","zip":"26005"},{"name":"BOZDAĞ MAH.","zip":"26005"},{"name":"BULDUKPINAR MAH.","zip":"26005"},{"name":"CUMHURİYET MAH.","zip":"26005"},{"name":"ÇALKARA MAH.","zip":"26005"},{"name":"ÇANAKKIRAN MAH.","zip":"26005"},{"name":"DANİŞMENT MAH.","zip":"26005"},{"name":"GÖKÇEKISIK MAH.","zip":"26005"},{"name":"GÜNDÜZLER MAH.","zip":"26005"},{"name":"HEKİMDAĞ MAH.","zip":"26005"},{"name":"KARAÇOBANPINARI MAH.","zip":"26005"},{"name":"KARADERE MAH.","zip":"26005"},{"name":"KARAGÖZLER MAH.","zip":"26005"},{"name":"KIZILCAÖREN MAH.","zip":"26005"},{"name":"KIZILİNLER MAH.","zip":"26005"},{"name":"KOZLUBEL MAH.","zip":"26005"},{"name":"MOLLAOĞLU MAH.","zip":"26005"},{"name":"MUSAÖZÜ MAH.","zip":"26005"},{"name":"NEMLİ MAH.","zip":"26005"},{"name":"SULUKARAAĞAÇ MAH.","zip":"26005"},{"name":"TAKMAK MAH.","zip":"26005"},{"name":"TANDIR MAH.","zip":"26005"},{"name":"TAYCILAR MAH.","zip":"26005"},{"name":"TEKECİLER MAH.","zip":"26005"},{"name":"TURGUTLAR MAH.","zip":"26005"},{"name":"ULUDERE MAH.","zip":"26005"},{"name":"YAKAKAYI MAH.","zip":"26005"},{"name":"YARIMCA MAH.","zip":"26005"},{"name":"YENİAKÇAYIR MAH.","zip":"26005"},{"name":"YENİİNCESU MAH.","zip":"26005"},{"name":"YUKARIKARTAL MAH.","zip":"26005"},{"name":"YUSUFLAR MAH.","zip":"26005"},{"name":"YÜRÜKAKÇAYIR MAH.","zip":"26005"}]},{"name":"ULUÖNDER","cityName":null,"quarters":null},{"name":"YEŞİLTEPE","cityName":null,"quarters":[{"name":"AŞAĞI SÖĞÜTÖNÜ MAH.","zip":"26210"},{"name":"ESENTEPE MAH.","zip":"26210"},{"name":"SÜTLÜCE MAH.","zip":"26210"},{"name":"ŞİRİNTEPE MAH.","zip":"26210"},{"name":"YEŞİLTEPE MAH.","zip":"26210"},{"name":"ZİNCİRLİKUYU MAH.","zip":"26210"}]}]}]}