{"id":27,"name":"GAZİANTEP","cities":[{"name":"city","districts":[{"name":"ARABAN","cityName":null,"quarters":[{"name":"AŞAĞIKARAVAİZ MAH.","zip":"27650"},{"name":"AŞAĞIYUFKALI MAH.","zip":"27650"},{"name":"BAĞLICA MAH.","zip":"27650"},{"name":"BAŞPINAR MAH.","zip":"27650"},{"name":"BEYDİLİ MAH.","zip":"27650"},{"name":"ÇİFTEKOZ MAH.","zip":"27650"},{"name":"DAĞDANCIK MAH.","zip":"27650"},{"name":"DOĞAN MAH.","zip":"27650"},{"name":"DUMLUPINAR MAH.","zip":"27650"},{"name":"ELİF MAH.","zip":"27650"},{"name":"EMİRHAYDAR MAH.","zip":"27650"},{"name":"ERENBAĞ MAH.","zip":"27650"},{"name":"ESENTEPE MAH.","zip":"27650"},{"name":"ESKİALTINTAŞ MAH.","zip":"27650"},{"name":"FAKILI MAH.","zip":"27650"},{"name":"FEVZİ ÇAKMAK MAH.","zip":"27650"},{"name":"FISTIKLIDAĞ MAH.","zip":"27650"},{"name":"GELİNBUĞDAY MAH.","zip":"27650"},{"name":"GÖKÇEPAYAM MAH.","zip":"27650"},{"name":"GÜLLÜCE MAH.","zip":"27650"},{"name":"GÜMÜŞPINAR MAH.","zip":"27650"},{"name":"GÜZEY MAH.","zip":"27650"},{"name":"HASANOĞLU MAH.","zip":"27650"},{"name":"HİSAR MAH.","zip":"27650"},{"name":"KALE MAH.","zip":"27650"},{"name":"KARABABA MAH.","zip":"27650"},{"name":"KARACAÖREN MAH.","zip":"27650"},{"name":"KÖKLÜCE MAH.","zip":"27650"},{"name":"KÖRHACIOBASI MAH.","zip":"27650"},{"name":"KÜÇÜKLÜ MAH.","zip":"27650"},{"name":"MEHMET GÖKÇEK MAH.","zip":"27650"},{"name":"MURATLI MAH.","zip":"27650"},{"name":"NURETTİN MAH.","zip":"27650"},{"name":"SARIKAYA MAH.","zip":"27650"},{"name":"SARITEPE MAH.","zip":"27650"},{"name":"TARLABAŞI MAH.","zip":"27650"},{"name":"TAŞDEĞİRMEN MAH.","zip":"27650"},{"name":"TURGUT ÖZAL MAH.","zip":"27650"},{"name":"YAYLACIK MAH.","zip":"27650"},{"name":"YENİ ALTINTAŞ MAH.","zip":"27650"},{"name":"YEŞİLOVA MAH.","zip":"27650"},{"name":"YOLVEREN MAH.","zip":"27650"},{"name":"YUKARIKARAVAİZ MAH.","zip":"27650"},{"name":"YUKARIYUFKALI MAH.","zip":"27650"},{"name":"ZİYARET MAH.","zip":"27650"}]},{"name":"İSLAHİYE","cityName":null,"quarters":[{"name":"AĞALAROBASI MAH.","zip":"27800"},{"name":"AKINYOLU MAH.","zip":"27800"},{"name":"ALACA MAH.","zip":"27800"},{"name":"ALTINÜZÜM MAH.","zip":"27800"},{"name":"ARPALI MAH.","zip":"27800"},{"name":"ATATÜRK MAH.","zip":"27800"},{"name":"AYDINLIK MAH.","zip":"27800"},{"name":"BAHÇELİ MAH.","zip":"27800"},{"name":"BAYRAKTEPE MAH.","zip":"27800"},{"name":"BEYLER MAH.","zip":"27800"},{"name":"BOĞAZİÇİ MAH.","zip":"27800"},{"name":"BURHANİYE MAH.","zip":"27800"},{"name":"BURUNSUZLAR MAH.","zip":"27800"},{"name":"CEVDETPAŞA MAH.","zip":"27800"},{"name":"CUMHURİYET MAH.","zip":"27800"},{"name":"ÇAMLICA MAH.","zip":"27800"},{"name":"ÇERÇİLİ MAH.","zip":"27800"},{"name":"ÇINARLI MAH.","zip":"27800"},{"name":"ÇOLAKLAR MAH.","zip":"27800"},{"name":"ÇUBUK MAH.","zip":"27800"},{"name":"DEĞİRMENCİK MAH.","zip":"27800"},{"name":"DERVİŞPAŞA MAH.","zip":"27800"},{"name":"ELBİSTANHÜYÜĞÜ MAH.","zip":"27800"},{"name":"ERENLER MAH.","zip":"27800"},{"name":"ESENLER MAH.","zip":"27800"},{"name":"FEVZİ ÇAKMAK MAH.","zip":"27800"},{"name":"FEVZİPAŞA MAH.","zip":"27800"},{"name":"GÜLLÜHÜYÜK MAH.","zip":"27800"},{"name":"GÜNGÖREN MAH.","zip":"27800"},{"name":"HACİ ALİ ÖZTÜRK MAH.","zip":"27800"},{"name":"HANAĞZI MAH.","zip":"27800"},{"name":"HASANLÖK MAH.","zip":"27800"},{"name":"HÜRRİYET MAH.","zip":"27800"},{"name":"İDİLLİ MAH.","zip":"27800"},{"name":"KABAKLAR MAH.","zip":"27800"},{"name":"KALAYCIK MAH.","zip":"27800"},{"name":"KALEOBASI MAH.","zip":"27800"},{"name":"KARACAÖREN MAH.","zip":"27800"},{"name":"KARAKAYA MAH.","zip":"27800"},{"name":"KARAPINAR MAH.","zip":"27800"},{"name":"KARAPOLAT MAH.","zip":"27800"},{"name":"KAYABAŞI MAH.","zip":"27800"},{"name":"KAZIKLI MAH.","zip":"27800"},{"name":"KIRIKÇALI MAH.","zip":"27800"},{"name":"KOÇCAĞIZ MAH.","zip":"27800"},{"name":"KOZDERE MAH.","zip":"27800"},{"name":"KÖKLÜ MAH.","zip":"27800"},{"name":"KUŞÇUMUSTAFA MAH.","zip":"27800"},{"name":"ORTAKLI MAH.","zip":"27800"},{"name":"ÖRTÜLÜ MAH.","zip":"27800"},{"name":"PINARBAŞI MAH.","zip":"27800"},{"name":"SERİNEVLER MAH.","zip":"27800"},{"name":"SULUMAĞARA MAH.","zip":"27800"},{"name":"ŞAHMARAN MAH.","zip":"27800"},{"name":"ŞERİKANLI MAH.","zip":"27800"},{"name":"TANDIR MAH.","zip":"27800"},{"name":"TELLİ MAH.","zip":"27800"},{"name":"TÜRKBAHÇE MAH.","zip":"27800"},{"name":"YAĞIZLAR MAH.","zip":"27800"},{"name":"YELLİBURUN MAH.","zip":"27800"},{"name":"YENİ MAH.","zip":"27800"},{"name":"YENİCELİ MAH.","zip":"27800"},{"name":"YENİKÖY MAH.","zip":"27800"},{"name":"YESEMEK MAH.","zip":"27800"},{"name":"YEŞİLOVA MAH.","zip":"27800"},{"name":"YEŞİLYURT MAH.","zip":"27800"},{"name":"YOLBAŞI MAH.","zip":"27800"},{"name":"YUKARIBİLENLER MAH.","zip":"27800"},{"name":"ZİNCİRLİ MAH.","zip":"27800"}]},{"name":"KARKAMIŞ","cityName":null,"quarters":[{"name":"ALAÇALI MAH.","zip":"27880"},{"name":"ALAGÖZ MAH.","zip":"27880"},{"name":"ARIKDERE MAH.","zip":"27880"},{"name":"AYYILDIZ MAH.","zip":"27880"},{"name":"BALABAN MAH.","zip":"27880"},{"name":"BEŞKILIÇ MAH.","zip":"27880"},{"name":"ÇARŞI MAH.","zip":"27880"},{"name":"ÇİFTLİK MAH.","zip":"27880"},{"name":"ECELER MAH.","zip":"27880"},{"name":"ELİFOĞLU MAH.","zip":"27880"},{"name":"ERENYOLU MAH.","zip":"27880"},{"name":"ETİLER MAH.","zip":"27880"},{"name":"GÜRÇAY MAH.","zip":"27880"},{"name":"KARACURUN MAH.","zip":"27880"},{"name":"KARANFİL MAH.","zip":"27880"},{"name":"KARŞIYAKA MAH.","zip":"27880"},{"name":"KELEKLİ MAH.","zip":"27880"},{"name":"KEPİRLER MAH.","zip":"27880"},{"name":"KIVIRCIK MAH.","zip":"27880"},{"name":"KORKMAZLAR MAH.","zip":"27880"},{"name":"KURUYAZI MAH.","zip":"27880"},{"name":"LOJMANLAR MAH.","zip":"27880"},{"name":"ÖNCÜLER MAH.","zip":"27880"},{"name":"ÖRMETAŞ MAH.","zip":"27880"},{"name":"SAVAŞ MAH.","zip":"27880"},{"name":"SOYLU MAH.","zip":"27880"},{"name":"SUBAĞI MAH.","zip":"27880"},{"name":"ŞENLİK MAH.","zip":"27880"},{"name":"TEKETAŞI MAH.","zip":"27880"},{"name":"TOSUNLU MAH.","zip":"27880"},{"name":"TÜRKYURDU MAH.","zip":"27880"},{"name":"YARIMCA MAH.","zip":"27880"},{"name":"YAŞAR MAH.","zip":"27880"},{"name":"YAZIR MAH.","zip":"27880"},{"name":"YEŞERTİ MAH.","zip":"27880"},{"name":"YOLAĞZI MAH.","zip":"27880"},{"name":"YURTBAĞI MAH.","zip":"27880"},{"name":"ZÜHRECİK MAH.","zip":"27880"}]},{"name":"NİZİP","cityName":null,"quarters":[{"name":"AKÇAKENT MAH.","zip":"27700"},{"name":"AKKUYU MAH.","zip":"27700"},{"name":"ALAHACI MAH.","zip":"27700"},{"name":"ALTINDAĞ MAH.","zip":"27700"},{"name":"AŞAĞIBAYINDIR MAH.","zip":"27700"},{"name":"AŞAĞIÇARDAK MAH.","zip":"27700"},{"name":"ATATÜRK MAH.","zip":"27700"},{"name":"BAĞLICA MAH.","zip":"27700"},{"name":"BAHÇELİ MAH.","zip":"27700"},{"name":"BALLI MAH.","zip":"27700"},{"name":"BELKIS (MERKEZ) MAH.","zip":"27700"},{"name":"BELKIS MAH.","zip":"27700"},{"name":"BOYLUCA MAH.","zip":"27700"},{"name":"BOZALİOĞLU MAH.","zip":"27700"},{"name":"CUMHURİYET MAH.","zip":"27700"},{"name":"ÇAKMAKTEPE MAH.","zip":"27700"},{"name":"ÇANAKÇI MAH.","zip":"27700"},{"name":"ÇATALCA MAH.","zip":"27700"},{"name":"DAYIDAĞI MAH.","zip":"27700"},{"name":"DAZHÜYÜK MAH.","zip":"27700"},{"name":"DERNEK MAH.","zip":"27700"},{"name":"DOĞRULAR MAH.","zip":"27700"},{"name":"DURAKLI MAH.","zip":"27700"},{"name":"DUTLU MAH.","zip":"27700"},{"name":"DÜZBAYIR MAH.","zip":"27700"},{"name":"EKİNCİ MAH.","zip":"27700"},{"name":"ERENKÖY MAH.","zip":"27700"},{"name":"ESKİKONAK MAH.","zip":"27700"},{"name":"EYÜP SULTAN MAH.","zip":"27700"},{"name":"FATİH SULTAN MAH.","zip":"27700"},{"name":"FEVKANİ MAH.","zip":"27700"},{"name":"FEVZİ PAŞA MAH.","zip":"27700"},{"name":"FIRAT MAH.","zip":"27700"},{"name":"GAZİLER MAH.","zip":"27700"},{"name":"GEVENCE MAH.","zip":"27700"},{"name":"GÖKÇELİ MAH.","zip":"27700"},{"name":"GÜDER MAH.","zip":"27700"},{"name":"GÜLKAYA MAH.","zip":"27700"},{"name":"GÜMÜŞGÜN MAH.","zip":"27700"},{"name":"GÜNALTI MAH.","zip":"27700"},{"name":"GÜRBAŞAK MAH.","zip":"27700"},{"name":"GÜZELKÖY MAH.","zip":"27700"},{"name":"HAFIZPAŞA MAH.","zip":"27700"},{"name":"HANCAĞIZ MAH.","zip":"27700"},{"name":"HAZIMOĞLU MAH.","zip":"27700"},{"name":"İKİZCE MAH.","zip":"27700"},{"name":"İNTEPE MAH.","zip":"27700"},{"name":"İSTASYON MAH.","zip":"27700"},{"name":"İSTİKLAL MAH.","zip":"27700"},{"name":"KALEKÖY MAH.","zip":"27700"},{"name":"KAMIŞLI MAH.","zip":"27700"},{"name":"KARABURÇ MAH.","zip":"27700"},{"name":"KARŞIYAKA MAH.","zip":"27700"},{"name":"KAYALAR MAH.","zip":"27700"},{"name":"KEKLİK MAH.","zip":"27700"},{"name":"KESİKTAŞ MAH.","zip":"27700"},{"name":"KIBRIS MAH.","zip":"27700"},{"name":"KIRAÇGÜLÜ MAH.","zip":"27700"},{"name":"KIRATLI MAH.","zip":"27700"},{"name":"KIZILCAKENT MAH.","zip":"27700"},{"name":"KIZILİN MAH.","zip":"27700"},{"name":"KOCATEPE MAH.","zip":"27700"},{"name":"KORUCAK MAH.","zip":"27700"},{"name":"KÖSELER MAH.","zip":"27700"},{"name":"KUMLA MAH.","zip":"27700"},{"name":"KURUCAHÜYÜK MAH.","zip":"27700"},{"name":"MAĞARACIK MAH.","zip":"27700"},{"name":"MEHMETOBASI MAH.","zip":"27700"},{"name":"MENDERES MAH.","zip":"27700"},{"name":"MERCANLI MAH.","zip":"27700"},{"name":"MEVLANA MAH.","zip":"27700"},{"name":"MİHRAP MAH.","zip":"27700"},{"name":"MİMAR SİNAN MAH.","zip":"27700"},{"name":"NAHIRTEPE MAH.","zip":"27700"},{"name":"NAMIK KEMAL MAH.","zip":"27700"},{"name":"NİZİP OSB MAH.","zip":"27700"},{"name":"ÖZYURT MAH.","zip":"27700"},{"name":"PAZAR CAMİİ MAH.","zip":"27700"},{"name":"SAHA MAH.","zip":"27700"},{"name":"SALKIM MAH.","zip":"27700"},{"name":"SAMANDÖKEN MAH.","zip":"27700"},{"name":"SAMANLI MAH.","zip":"27700"},{"name":"SARAY MAH.","zip":"27700"},{"name":"SARIKOÇ MAH.","zip":"27700"},{"name":"SEKİLİ MAH.","zip":"27700"},{"name":"SÖĞÜTLÜ MAH.","zip":"27700"},{"name":"SUBOYU MAH.","zip":"27700"},{"name":"SULTAN ABDÜLHAMİT MAH.","zip":"27700"},{"name":"ŞAHİNBEY MAH.","zip":"27700"},{"name":"ŞIHLAR MAH.","zip":"27700"},{"name":"TAHTANİ MAH.","zip":"27700"},{"name":"TANIR MAH.","zip":"27700"},{"name":"TATLICAK MAH.","zip":"27700"},{"name":"TOSUNLU MAH.","zip":"27700"},{"name":"TOYDEMİR MAH.","zip":"27700"},{"name":"TULUKTAŞ MAH.","zip":"27700"},{"name":"TURLU MAH.","zip":"27700"},{"name":"TURNALI MAH.","zip":"27700"},{"name":"ULUYATIR MAH.","zip":"27700"},{"name":"YAĞCILAR MAH.","zip":"27700"},{"name":"YAĞMURALAN MAH.","zip":"27700"},{"name":"YARIMTEPE MAH.","zip":"27700"},{"name":"YENİYAPAN MAH.","zip":"27700"},{"name":"YENİYAZI MAH.","zip":"27700"},{"name":"YEŞİLEVLER MAH.","zip":"27700"},{"name":"YOLÇATI MAH.","zip":"27700"},{"name":"YUKARIBAYINDIR MAH.","zip":"27700"},{"name":"YUKARIÇARDAK MAH.","zip":"27700"},{"name":"YUNUS EMRE MAH.","zip":"27700"},{"name":"ZEYTİNLİK MAH.","zip":"27700"}]},{"name":"NURDAĞI","cityName":null,"quarters":[{"name":"ASLANLI MAH.","zip":"27840"},{"name":"ATAKÖY MAH.","zip":"27840"},{"name":"ATATÜRK MAH.","zip":"27840"},{"name":"ATMALI MAH.","zip":"27840"},{"name":"BADEMLİ MAH.","zip":"27840"},{"name":"BAHÇELİEVLER MAH.","zip":"27840"},{"name":"BALIKALAN MAH.","zip":"27840"},{"name":"BAŞPINAR MAH.","zip":"27840"},{"name":"BELPINAR MAH.","zip":"27840"},{"name":"ÇAKMAK MAH.","zip":"27840"},{"name":"DEMİRLER MAH.","zip":"27840"},{"name":"DURMUŞLAR MAH.","zip":"27840"},{"name":"EMİRLER MAH.","zip":"27840"},{"name":"ESENYURT MAH.","zip":"27840"},{"name":"FATİH MAH.","zip":"27840"},{"name":"GEDİKLİ MAH.","zip":"27840"},{"name":"GÖKÇEDERE MAH.","zip":"27840"},{"name":"GÖZLÜHÜYÜK MAH.","zip":"27840"},{"name":"HAMİDİYE MAH.","zip":"27840"},{"name":"İÇERİSU MAH.","zip":"27840"},{"name":"İKİZKUYU MAH.","zip":"27840"},{"name":"İNCEGEDİK MAH.","zip":"27840"},{"name":"İNCİRLİ MAH.","zip":"27840"},{"name":"KARABURÇLU MAH.","zip":"27840"},{"name":"KARTAL MAH.","zip":"27840"},{"name":"KATRANCI MAH.","zip":"27840"},{"name":"KIRIŞKAL MAH.","zip":"27840"},{"name":"KIRKPINAR MAH.","zip":"27840"},{"name":"KÖMÜRLER MAH.","zip":"27840"},{"name":"KURUDERE MAH.","zip":"27840"},{"name":"KUZOLUK MAH.","zip":"27840"},{"name":"MEHMET AKİF ERSOY MAH.","zip":"27840"},{"name":"MESTHÜYÜK MAH.","zip":"27840"},{"name":"NAİMLER MAH.","zip":"27840"},{"name":"NOGAYLAR MAH.","zip":"27840"},{"name":"OLUCAK MAH.","zip":"27840"},{"name":"SAKÇAGÖZÜ MAH.","zip":"27840"},{"name":"ŞATIRHÜYÜK MAH.","zip":"27840"},{"name":"TANDIRLI MAH.","zip":"27840"},{"name":"TERKEN MAH.","zip":"27840"},{"name":"TOPLAMALAR MAH.","zip":"27840"},{"name":"TÜLLÜCE MAH.","zip":"27840"},{"name":"YAVUZSELİM MAH.","zip":"27840"},{"name":"YAYLACIK MAH.","zip":"27840"},{"name":"YENİ MAH.","zip":"27840"}]},{"name":"OĞUZELİ","cityName":null,"quarters":[{"name":"AKÇAMEZRA MAH.","zip":"27900"},{"name":"ALTINYURT MAH.","zip":"27900"},{"name":"AMBARCIK MAH.","zip":"27900"},{"name":"ARSLANLI MAH.","zip":"27900"},{"name":"ASMACIK MAH.","zip":"27900"},{"name":"AŞAĞI GÜNEYSE MAH.","zip":"27900"},{"name":"AŞAĞI YENİYAPAN MAH.","zip":"27900"},{"name":"AYDINKAYA MAH.","zip":"27900"},{"name":"BELÖREN MAH.","zip":"27900"},{"name":"BEŞDELİ MAH.","zip":"27900"},{"name":"BULDUK MAH.","zip":"27900"},{"name":"BÜYÜKKARACAVİRAN MAH.","zip":"27900"},{"name":"CUMHURİYET MAH.","zip":"27900"},{"name":"ÇATALÇAM MAH.","zip":"27900"},{"name":"ÇATALSU MAH.","zip":"27900"},{"name":"ÇAVUŞBAŞI MAH.","zip":"27900"},{"name":"ÇAYBAŞI MAH.","zip":"27900"},{"name":"ÇAYBAŞI OSB MAH.","zip":"27900"},{"name":"ÇAYBEYİ MAH.","zip":"27900"},{"name":"DEMİRKONAK MAH.","zip":"27900"},{"name":"DERO KÜÇÜKKARACAVİRAN MAH.","zip":"27900"},{"name":"DEVEHÜYÜĞÜ MAH.","zip":"27900"},{"name":"DİBECİK MAH.","zip":"27900"},{"name":"DİKMETAŞ MAH.","zip":"27900"},{"name":"DİREKLİ MAH.","zip":"27900"},{"name":"DOĞANPINAR MAH.","zip":"27900"},{"name":"DOKUZYOL MAH.","zip":"27900"},{"name":"DURUKÖY MAH.","zip":"27900"},{"name":"DUTLUCA MAH.","zip":"27900"},{"name":"EKİNVEREN MAH.","zip":"27900"},{"name":"ERMİŞ MAH.","zip":"27900"},{"name":"FATİH MAH.","zip":"27900"},{"name":"GEBE MAH.","zip":"27900"},{"name":"GEDİK MAH.","zip":"27900"},{"name":"GÜLLÜK MAH.","zip":"27900"},{"name":"GÜNDOĞAN MAH.","zip":"27900"},{"name":"GÜVEÇLİ MAH.","zip":"27900"},{"name":"GÜZELCE MAH.","zip":"27900"},{"name":"HACAR MAH.","zip":"27900"},{"name":"HATUNLU MAH.","zip":"27900"},{"name":"HÖTOĞLU MAH.","zip":"27900"},{"name":"HÜRRİYET MAH.","zip":"27900"},{"name":"İKİZKUYU MAH.","zip":"27900"},{"name":"İNCEYOL MAH.","zip":"27900"},{"name":"İNKILAP MAH.","zip":"27900"},{"name":"İNÖNÜ MAH.","zip":"27900"},{"name":"KABACAAĞAÇ MAH.","zip":"27900"},{"name":"KARABURUN MAH.","zip":"27900"},{"name":"KARADİBEK MAH.","zip":"27900"},{"name":"KARAMAN MAH.","zip":"27900"},{"name":"KARATAŞ MAH.","zip":"27900"},{"name":"KAŞYOLU MAH.","zip":"27900"},{"name":"KAVUNLUK MAH.","zip":"27900"},{"name":"KAYACIK MAH.","zip":"27900"},{"name":"KAYALIPINAR MAH.","zip":"27900"},{"name":"KEÇİKUYUSU MAH.","zip":"27900"},{"name":"KEÇİLİ MAH.","zip":"27900"},{"name":"KERSENTAŞ MAH.","zip":"27900"},{"name":"KILAVUZ MAH.","zip":"27900"},{"name":"KOÇAKLAR MAH.","zip":"27900"},{"name":"KOVANLI MAH.","zip":"27900"},{"name":"KÖRKÜN MAH.","zip":"27900"},{"name":"KURTULUŞ MAH.","zip":"27900"},{"name":"KURUÇAY MAH.","zip":"27900"},{"name":"MİMAR SİNAN MAH.","zip":"27900"},{"name":"OĞUZLAR MAH.","zip":"27900"},{"name":"SAZGIN MAH.","zip":"27900"},{"name":"SERGİLİ MAH.","zip":"27900"},{"name":"SEVİNDİ MAH.","zip":"27900"},{"name":"SUBAŞI MAH.","zip":"27900"},{"name":"SÜTLÜCE MAH.","zip":"27900"},{"name":"ŞAHİNBEY MAH.","zip":"27900"},{"name":"ŞIH KÜÇÜKKARACAVİRAN MAH.","zip":"27900"},{"name":"TAŞÇANAK MAH.","zip":"27900"},{"name":"TAŞLI MAH.","zip":"27900"},{"name":"TAŞYAZI MAH.","zip":"27900"},{"name":"TINAZDERE MAH.","zip":"27900"},{"name":"TÜZEL MAH.","zip":"27900"},{"name":"UĞUROVA MAH.","zip":"27900"},{"name":"ULAŞLI MAH.","zip":"27900"},{"name":"ÜÇDAMLAR MAH.","zip":"27900"},{"name":"ÜÇKUBBE MAH.","zip":"27900"},{"name":"YAKACIK MAH.","zip":"27900"},{"name":"YALNIZBAĞ MAH.","zip":"27900"},{"name":"YAZILI MAH.","zip":"27900"},{"name":"YENİ CUMHURİYET MAH.","zip":"27900"},{"name":"YENİKÖY MAH.","zip":"27900"},{"name":"YEŞİLDERE MAH.","zip":"27900"},{"name":"YEŞİLTEPE MAH.","zip":"27900"},{"name":"YUKARIGÜNEYSE MAH.","zip":"27900"}]},{"name":"YEŞİLDERE","cityName":null,"quarters":null},{"name":"DÜZTEPE","cityName":null,"quarters":[{"name":"ALİBABA MAH.","zip":"27300"},{"name":"AYDINBABA MAH.","zip":"27300"},{"name":"BARIŞ MAH.","zip":"27300"},{"name":"BEYBAHÇE MAH.","zip":"27300"},{"name":"BEYDİLLİ MAH.","zip":"27300"},{"name":"DARACIK MAH.","zip":"27300"},{"name":"DELBES MAH.","zip":"27300"},{"name":"DUMLUPINAR MAH.","zip":"27300"},{"name":"DÜZTEPE MAH.","zip":"27300"},{"name":"GÜNDOĞDU MAH.","zip":"27300"},{"name":"GÜZELVADİ MAH.","zip":"27300"},{"name":"İNÖNÜ MAH.","zip":"27300"},{"name":"KARAYILAN MAH.","zip":"27300"},{"name":"KILINÇOĞLU MAH.","zip":"27300"},{"name":"KURTULUŞ MAH.","zip":"27300"},{"name":"OĞUZLAR MAH.","zip":"27300"},{"name":"ÖZDEMİRBEY MAH.","zip":"27300"},{"name":"SAÇAKLI MAH.","zip":"27300"},{"name":"ŞENYURT MAH.","zip":"27300"},{"name":"TÜRKMENLER MAH.","zip":"27300"},{"name":"ULUCANLAR MAH.","zip":"27300"},{"name":"ÜNALDI MAH.","zip":"27300"},{"name":"YAVUZLAR MAH.","zip":"27300"}]},{"name":"HOŞGÖR","cityName":null,"quarters":[{"name":"ÇAMLICA MAH.","zip":"27200"},{"name":"ETİLER MAH.","zip":"27200"},{"name":"GÜLTEPE MAH.","zip":"27200"},{"name":"GÜMÜŞTEKİN MAH.","zip":"27200"},{"name":"HOŞGÖR MAH.","zip":"27200"},{"name":"KAHVELİPINAR MAH.","zip":"27200"},{"name":"KIBRIS MAH.","zip":"27200"},{"name":"KURBANBABA MAH.","zip":"27200"},{"name":"NURİPAZARBAŞI MAH.","zip":"27200"},{"name":"ONUR MAH.","zip":"27200"},{"name":"SAKARYA MAH.","zip":"27200"},{"name":"SAVCILI MAH.","zip":"27200"},{"name":"SÜLEYMANŞAH MAH.","zip":"27200"},{"name":"YUKARIBAYIR MAH.","zip":"27200"}]},{"name":"KARATAŞ","cityName":null,"quarters":[{"name":"KARATAŞ MAH.","zip":"27470"},{"name":"YEDİTEPE MAH.","zip":"27470"}]},{"name":"KONAK","cityName":null,"quarters":[{"name":"75.YIL MAH.","zip":"27070"},{"name":"BEYAZLAR MAH.","zip":"27070"},{"name":"BİNEVLER MAH.","zip":"27070"},{"name":"ÇAĞDAŞ MAH.","zip":"27070"},{"name":"DENİZ MAH.","zip":"27070"},{"name":"GÜNEŞ MAH.","zip":"27070"},{"name":"İSTİKLAL MAH.","zip":"27070"},{"name":"KAVAKLIK MAH.","zip":"27070"},{"name":"KOLEJTEPE MAH.","zip":"27070"},{"name":"KONAK MAH.","zip":"27070"},{"name":"YEŞİLEVLER MAH.","zip":"27070"}]},{"name":"PERİLİKAYA","cityName":null,"quarters":[{"name":"BAYRAMLI MAH.","zip":"27100"},{"name":"BOZOKLAR MAH.","zip":"27100"},{"name":"FIRAT MAH.","zip":"27100"},{"name":"NARLITEPE MAH.","zip":"27100"},{"name":"OCAKLAR MAH.","zip":"27100"},{"name":"OSMANLI MAH.","zip":"27100"},{"name":"PERİLİKAYA MAH.","zip":"27100"},{"name":"SERİNEVLER MAH.","zip":"27100"},{"name":"TEKSTİLKENT MAH.","zip":"27100"},{"name":"ÜÇOKLAR MAH.","zip":"27100"},{"name":"VATAN MAH.","zip":"27100"},{"name":"YEŞİLKENT MAH.","zip":"27100"}]},{"name":"SARIBAŞAK","cityName":null,"quarters":[{"name":"BAĞLARBAŞI MAH.","zip":"27220"},{"name":"CEBELER MAH.","zip":"27220"},{"name":"DAMLACIK MAH.","zip":"27220"},{"name":"DEREDÜZÜ MAH.","zip":"27220"},{"name":"GENEYİK MAH.","zip":"27220"},{"name":"KALEBOYNU MAH.","zip":"27220"},{"name":"KARAÇOMAK MAH.","zip":"27220"},{"name":"KERER MAH.","zip":"27220"},{"name":"KÜÇÜKKIZILHİSAR MAH.","zip":"27220"},{"name":"SARIBAŞAK MAH.","zip":"27220"},{"name":"SARISALKIM MAH.","zip":"27220"},{"name":"SARIT MAH.","zip":"27220"},{"name":"SERİNCE MAH.","zip":"27220"},{"name":"YAĞDÖVER MAH.","zip":"27220"}]},{"name":"ŞAHİNBEY","cityName":null,"quarters":[{"name":"25 ARALIK MAH.","zip":"27010"},{"name":"ABDÜLHAMİT HAN MAH.","zip":"27010"},{"name":"AKBAYIR MAH.","zip":"27010"},{"name":"AKKENT MAH.","zip":"27010"},{"name":"AKPINAR MAH.","zip":"27010"},{"name":"AKYAZI MAH.","zip":"27010"},{"name":"AKYOL MAH.","zip":"27010"},{"name":"ALAYBEY MAH.","zip":"27010"},{"name":"ALLEBEN MAH.","zip":"27010"},{"name":"ALMALI MAH.","zip":"27010"},{"name":"BAHÇELİEVLER MAH.","zip":"27010"},{"name":"BEKİŞLİ MAH.","zip":"27010"},{"name":"BELENKÖY MAH.","zip":"27010"},{"name":"BEŞKUYU MAH.","zip":"27010"},{"name":"BEŞTEPE MAH.","zip":"27010"},{"name":"BEY MAH.","zip":"27010"},{"name":"BOSTANCIK MAH.","zip":"27010"},{"name":"BOZCA MAH.","zip":"27010"},{"name":"BURÇ ESENTEPE MAH.","zip":"27010"},{"name":"BURÇ KARAKUYU MAH.","zip":"27010"},{"name":"BÜLBÜLZADE MAH.","zip":"27010"},{"name":"CEMAL GÜRSEL MAH.","zip":"27010"},{"name":"CENGİZ TOPEL MAH.","zip":"27010"},{"name":"CEVİZLİ MAH.","zip":"27010"},{"name":"ÇAPALI MAH.","zip":"27010"},{"name":"ÇEVRELİ MAH.","zip":"27010"},{"name":"ÇİMENLİ MAH.","zip":"27010"},{"name":"ÇÖREKLİK MAH.","zip":"27010"},{"name":"ÇUBUKDİKEN MAH.","zip":"27010"},{"name":"ÇUKUR MAH.","zip":"27010"},{"name":"DOĞANCA MAH.","zip":"27010"},{"name":"DOKUR MAH.","zip":"27010"},{"name":"DURANTAŞ MAH.","zip":"27010"},{"name":"EKİNLİ MAH.","zip":"27010"},{"name":"ERTUĞRULGAZİ MAH.","zip":"27010"},{"name":"ESENTEPE MAH.","zip":"27010"},{"name":"EYÜPOĞLU MAH.","zip":"27010"},{"name":"FİDANLIK MAH.","zip":"27010"},{"name":"GERCİĞİN MAH.","zip":"27010"},{"name":"GEYLANİ MAH.","zip":"27010"},{"name":"GÜLLÜCE MAH.","zip":"27010"},{"name":"GÜLPINAR MAH.","zip":"27010"},{"name":"HACIARSLAN MAH.","zip":"27010"},{"name":"HACIKÖPRÜ MAH.","zip":"27010"},{"name":"HACIKÖY MAH.","zip":"27010"},{"name":"IBN-I SINA MAH.","zip":"27010"},{"name":"İSMETPAŞA MAH.","zip":"27010"},{"name":"KABARCIK MAH.","zip":"27010"},{"name":"KALE MAH.","zip":"27010"},{"name":"KAPÇAĞIZ MAH.","zip":"27010"},{"name":"KARATARLA MAH.","zip":"27010"},{"name":"KAVŞAK MAH.","zip":"27010"},{"name":"KAYAKENT MAH.","zip":"27010"},{"name":"KAZIKLI MAH.","zip":"27010"},{"name":"KİLLİK MAH.","zip":"27010"},{"name":"KOZANLI MAH.","zip":"27010"},{"name":"KUMRUHAMURKESEN MAH.","zip":"27010"},{"name":"KUŞÇU MAH.","zip":"27010"},{"name":"KÜLECİK MAH.","zip":"27010"},{"name":"KÜRÜM MAH.","zip":"27010"},{"name":"MAVİKENT MAH.","zip":"27010"},{"name":"MİMAR SİNAN MAH.","zip":"27010"},{"name":"MORCALI MAH.","zip":"27010"},{"name":"MUHACİROSMAN MAH.","zip":"27010"},{"name":"NARLICA MAH.","zip":"27010"},{"name":"ORTAKLAR MAH.","zip":"27010"},{"name":"OZANLI MAH.","zip":"27010"},{"name":"ÖĞRETMENEVLERİ MAH.","zip":"27010"},{"name":"PANCARLI MAH.","zip":"27010"},{"name":"SARIKAYA MAH.","zip":"27010"},{"name":"SIRASÖĞÜT MAH.","zip":"27010"},{"name":"SULTAN SELİM MAH.","zip":"27010"},{"name":"ŞAHİNBEY MAH.","zip":"27010"},{"name":"ŞAHİNBEY MÜLK MAH.","zip":"27010"},{"name":"ŞAHİNTEPE MAH.","zip":"27010"},{"name":"ŞAHVELİ MAH.","zip":"27010"},{"name":"TEPEBAŞI MAH.","zip":"27010"},{"name":"TİYEKLİ MAH.","zip":"27010"},{"name":"TÖRELİ MAH.","zip":"27010"},{"name":"TURAN EMEKSİZ MAH.","zip":"27010"},{"name":"TÜRKÖZÜ MAH.","zip":"27010"},{"name":"UFACIK MAH.","zip":"27010"},{"name":"UĞURTEPE MAH.","zip":"27010"},{"name":"ULAŞ MAH.","zip":"27010"},{"name":"YAMAÇTEPE MAH.","zip":"27010"},{"name":"YAYCI MAH.","zip":"27010"},{"name":"YAYLACIK MAH.","zip":"27010"},{"name":"YAZIBAĞI MAH.","zip":"27010"},{"name":"YENİKÖY MAH.","zip":"27010"},{"name":"YEŞİLKÖY MAH.","zip":"27010"},{"name":"YEŞİLPINAR MAH.","zip":"27010"},{"name":"YIĞMATEPE MAH.","zip":"27010"},{"name":"YOĞUNTAŞ MAH.","zip":"27010"},{"name":"ZEYTİNLİ MAH.","zip":"27010"}]},{"name":"TABAKHANE","cityName":null,"quarters":[{"name":"BOSTANCI MAH.","zip":"27400"},{"name":"BOYACI MAH.","zip":"27400"},{"name":"CABİ MAH.","zip":"27400"},{"name":"DÜĞMECİ MAH.","zip":"27400"},{"name":"KANALICI MAH.","zip":"27400"},{"name":"KARAGÖZ MAH.","zip":"27400"},{"name":"KEPENEK MAH.","zip":"27400"},{"name":"KOZLUCA MAH.","zip":"27400"},{"name":"SEFERPAŞA MAH.","zip":"27400"},{"name":"SUYABATMAZ MAH.","zip":"27400"},{"name":"ŞEKEROĞLU MAH.","zip":"27400"},{"name":"TIŞLAKİ MAH.","zip":"27400"},{"name":"TÜRKTEPE MAH.","zip":"27400"},{"name":"YAZICIK MAH.","zip":"27400"}]},{"name":"AKTOPRAK","cityName":null,"quarters":null},{"name":"ALLEBEN","cityName":null,"quarters":[{"name":"DEĞİRMİÇEM MAH.","zip":"27090"},{"name":"ERİKLİ MAH.","zip":"27090"},{"name":"GÖKSÜNCÜK MAH.","zip":"27090"},{"name":"HACIKAMBER MAH.","zip":"27090"},{"name":"İBRAHİMŞEHİR MAH.","zip":"27090"},{"name":"KARACABURÇ MAH.","zip":"27090"},{"name":"KIZIKHAMURKESEN MAH.","zip":"27090"},{"name":"MÜCAHİTLER MAH.","zip":"27090"},{"name":"NESİMİ MAH.","zip":"27090"},{"name":"ULUS MAH.","zip":"27090"}]},{"name":"ARIL","cityName":null,"quarters":[{"name":"KÜLLÜ MAH.","zip":"27660"}]},{"name":"ATATÜRK","cityName":null,"quarters":[{"name":"ATATÜRK MAH.","zip":"27560"},{"name":"BATIKENT MAH.","zip":"27560"},{"name":"GÜVENEVLER MAH.","zip":"27560"},{"name":"İBRAHİMLİ MAH.","zip":"27560"},{"name":"OSMANGAZİ MAH.","zip":"27560"},{"name":"SANCAKTEPE MAH.","zip":"27560"},{"name":"ŞEHİRGÖSTEREN MAH.","zip":"27560"}]},{"name":"BEYLERBEYİ","cityName":null,"quarters":[{"name":"ATABEK MAH.","zip":"27630"},{"name":"BEYLERBEYİ MAH.","zip":"27630"},{"name":"FISTIKLIK MAH.","zip":"27630"},{"name":"GÖKTÜRK MAH.","zip":"27630"},{"name":"KARAHÜYÜK MAH.","zip":"27630"},{"name":"KOZLUYAZI MAH.","zip":"27630"},{"name":"TUĞLU MAH.","zip":"27630"}]},{"name":"ÇIKSORUT","cityName":null,"quarters":[{"name":"ÇIKSORUT MAH.","zip":"27080"},{"name":"GİRNE MAH.","zip":"27080"},{"name":"GÖLLÜCE MAH.","zip":"27080"},{"name":"GÜZELYURT MAH.","zip":"27080"},{"name":"HUMANIZ MAH.","zip":"27080"},{"name":"İNCİLİKAYA MAH.","zip":"27080"},{"name":"KARAOĞLAN MAH.","zip":"27080"},{"name":"SACIR MAH.","zip":"27080"},{"name":"SEYRANTEPE MAH.","zip":"27080"},{"name":"ŞİRİNEVLER MAH.","zip":"27080"},{"name":"UMUT MAH.","zip":"27080"},{"name":"YAPRAK MAH.","zip":"27080"},{"name":"YENİ MAH.","zip":"27080"}]},{"name":"EMEK","cityName":null,"quarters":[{"name":"FATİH MAH.","zip":"27060"},{"name":"GAZİ MAH.","zip":"27060"},{"name":"PANCARLI MAH.","zip":"27060"},{"name":"SARIGÜLLÜK MAH.","zip":"27060"}]},{"name":"GAZİKENT","cityName":null,"quarters":[{"name":"AYDINLAR MAH.","zip":"27580"},{"name":"BELKIZ MAH.","zip":"27580"},{"name":"BEYKENT MAH.","zip":"27580"},{"name":"BURAK MAH.","zip":"27580"},{"name":"ÇAMLITEPE MAH.","zip":"27580"},{"name":"GAZİKENT MAH.","zip":"27580"},{"name":"GAZİLER MAH.","zip":"27580"}]},{"name":"KARŞIYAKA","cityName":null,"quarters":[{"name":"8 ŞUBAT MAH.","zip":"27500"},{"name":"ACAROBA MAH.","zip":"27500"},{"name":"AĞAÇLIBOYNO MAH.","zip":"27500"},{"name":"AKÇABURÇ MAH.","zip":"27500"},{"name":"AKÇAGÖZE MAH.","zip":"27500"},{"name":"AKTOPRAK SB MAH.","zip":"27500"},{"name":"AŞAĞI ARIL MAH.","zip":"27500"},{"name":"ATALAR MAH.","zip":"27500"},{"name":"AYDINTEPE MAH.","zip":"27500"},{"name":"BAĞBAŞI MAH.","zip":"27500"},{"name":"BAŞPINAR(ORGANİZE)OSB MAH.","zip":"27500"},{"name":"BATTAL MAH.","zip":"27500"},{"name":"BAYATLI MAH.","zip":"27500"},{"name":"BEDİRKÖY MAH.","zip":"27500"},{"name":"BEYRELİ MAH.","zip":"27500"},{"name":"BOYNO MAH.","zip":"27500"},{"name":"BOZOBASI MAH.","zip":"27500"},{"name":"BÜYÜKPINAR MAH.","zip":"27500"},{"name":"CERİTYENİYAPAN MAH.","zip":"27500"},{"name":"ÇAĞKUYU MAH.","zip":"27500"},{"name":"ÇAĞLAYAN MAH.","zip":"27500"},{"name":"DURNALIK MAH.","zip":"27500"},{"name":"DÜLÜK MAH.","zip":"27500"},{"name":"DÜLÜKBABA MAH.","zip":"27500"},{"name":"DÜNDARLI MAH.","zip":"27500"},{"name":"ESKİŞARKAYA MAH.","zip":"27500"},{"name":"EYDİBABA MAH.","zip":"27500"},{"name":"FEVZİ PAŞA MAH.","zip":"27500"},{"name":"GÖZTEPE MAH.","zip":"27500"},{"name":"GÜNBULUR MAH.","zip":"27500"},{"name":"GÜNGÜRGE MAH.","zip":"27500"},{"name":"HACIBABA MAH.","zip":"27500"},{"name":"HASIRCIOĞLU MAH.","zip":"27500"},{"name":"HÜRRİYET MAH.","zip":"27500"},{"name":"İNCESU MAH.","zip":"27500"},{"name":"İNCİLİ PINAR MAH.","zip":"27500"},{"name":"İSKENDERLİ MAH.","zip":"27500"},{"name":"KABASAKIZ MAH.","zip":"27500"},{"name":"KARACAÖREN MAH.","zip":"27500"},{"name":"KARAKESEK MAH.","zip":"27500"},{"name":"KARAYUSUFLU MAH.","zip":"27500"},{"name":"KARPUZKAYA MAH.","zip":"27500"},{"name":"KARŞIYAKA MAH.","zip":"27500"},{"name":"KAYAÖNÜ MAH.","zip":"27500"},{"name":"KIZIK KARASAKAL MAH.","zip":"27500"},{"name":"KİRAZLIBAHÇE MAH.","zip":"27500"},{"name":"KOCATEPE MAH.","zip":"27500"},{"name":"KOÇLU MAH.","zip":"27500"},{"name":"KÖKSALAN MAH.","zip":"27500"},{"name":"MEDEGÖZ MAH.","zip":"27500"},{"name":"MİTHATPAŞA MAH.","zip":"27500"},{"name":"MÜNÜFPAŞA MAH.","zip":"27500"},{"name":"NURTEPE MAH.","zip":"27500"},{"name":"ONAT KUTLAR MAH.","zip":"27500"},{"name":"ÖĞÜMSÖĞÜT MAH.","zip":"27500"},{"name":"ÖVÜNDÜK MAH.","zip":"27500"},{"name":"ÖZGÜRLÜK MAH.","zip":"27500"},{"name":"PİRSULTAN MAH.","zip":"27500"},{"name":"SAM MAH.","zip":"27500"},{"name":"SARILAR MAH.","zip":"27500"},{"name":"SELAHATTİN EYYUBİ MAH.","zip":"27500"},{"name":"SERİNTEPE MAH.","zip":"27500"},{"name":"SEYMENLİ MAH.","zip":"27500"},{"name":"SİNAN MAH.","zip":"27500"},{"name":"SİNAN OSB MAH.","zip":"27500"},{"name":"SOFALICI MAH.","zip":"27500"},{"name":"SUBOĞAZ MAH.","zip":"27500"},{"name":"SÜLÜKLÜ MAH.","zip":"27500"},{"name":"TEKİRSİN MAH.","zip":"27500"},{"name":"TOKDEMİR MAH.","zip":"27500"},{"name":"TÜRKYURDU MAH.","zip":"27500"},{"name":"UĞRUCA MAH.","zip":"27500"},{"name":"ÜÇGÖZE MAH.","zip":"27500"},{"name":"ÜLKERLİ MAH.","zip":"27500"},{"name":"YALANKOZ MAH.","zip":"27500"},{"name":"YAMAÇOBA MAH.","zip":"27500"},{"name":"YAYIKTAŞ MAH.","zip":"27500"},{"name":"YENİŞARKAYA MAH.","zip":"27500"},{"name":"YEŞİLCE MAH.","zip":"27500"},{"name":"YEŞİLOVA MAH.","zip":"27500"},{"name":"YIĞINLI MAH.","zip":"27500"},{"name":"YUKARI ARIL MAH.","zip":"27500"},{"name":"YUNUS EMRE MAH.","zip":"27500"},{"name":"ZEYTİNLİ MAH.","zip":"27500"}]},{"name":"KÜSGET","cityName":null,"quarters":[{"name":"TAŞLICA MAH.","zip":"27110"}]},{"name":"MERVE","cityName":null,"quarters":[{"name":"KARACAAHMET MAH.","zip":"27590"},{"name":"KARACAOĞLAN MAH.","zip":"27590"},{"name":"MERVEŞEHİR MAH.","zip":"27590"},{"name":"MEVLANA MAH.","zip":"27590"},{"name":"SELİMİYE MAH.","zip":"27590"}]},{"name":"SAFAŞEHİR","cityName":null,"quarters":[{"name":"IŞIKLI MAH.","zip":"27610"},{"name":"KARADEDE MAH.","zip":"27610"},{"name":"SEFAŞEHİR MAH.","zip":"27610"},{"name":"ZÜLFİKAR MAH.","zip":"27610"}]},{"name":"YAVUZELİ","cityName":null,"quarters":[{"name":"AŞAĞIHÖÇÜKLÜ MAH.","zip":"27970"},{"name":"AŞAĞIKAYABAŞI MAH.","zip":"27970"},{"name":"AŞAĞIKEKLİKTEPE MAH.","zip":"27970"},{"name":"BAĞTEPE MAH.","zip":"27970"},{"name":"BAKIRCA MAH.","zip":"27970"},{"name":"BALLIK MAH.","zip":"27970"},{"name":"BEĞENDİK MAH.","zip":"27970"},{"name":"BÜLBÜL MAH.","zip":"27970"},{"name":"BÜYÜKKARAKUYU MAH.","zip":"27970"},{"name":"CİNGİFE MAH.","zip":"27970"},{"name":"CUMHURİYET MAH.","zip":"27970"},{"name":"ÇİLTOPRAK MAH.","zip":"27970"},{"name":"ÇİMENLİ MAH.","zip":"27970"},{"name":"DEĞİRMİTAŞ MAH.","zip":"27970"},{"name":"DÜZCE MAH.","zip":"27970"},{"name":"FEVZİ ÇAKMAK MAH.","zip":"27970"},{"name":"GÖÇMEZ MAH.","zip":"27970"},{"name":"GÜLPINAR MAH.","zip":"27970"},{"name":"HACIMALLI MAH.","zip":"27970"},{"name":"HAVUZ MAH.","zip":"27970"},{"name":"HÜRRİYET MAH.","zip":"27970"},{"name":"ILICAK MAH.","zip":"27970"},{"name":"KARABEY MAH.","zip":"27970"},{"name":"KARAHÜSEYİNLİ MAH.","zip":"27970"},{"name":"KASABA MAH.","zip":"27970"},{"name":"KEŞROBASI MAH.","zip":"27970"},{"name":"KUZUYATAĞI MAH.","zip":"27970"},{"name":"KÜÇÜKKARAKUYU MAH.","zip":"27970"},{"name":"NOHUTALAN MAH.","zip":"27970"},{"name":"ÖRENLİ MAH.","zip":"27970"},{"name":"SARAYMAĞARA MAH.","zip":"27970"},{"name":"SARIBUĞDAY MAH.","zip":"27970"},{"name":"SARILAR MAH.","zip":"27970"},{"name":"SULTAN SELİM MAH.","zip":"27970"},{"name":"SÜLEYMANOBASI MAH.","zip":"27970"},{"name":"ŞENLİKÇE MAH.","zip":"27970"},{"name":"TOKAÇLI MAH.","zip":"27970"},{"name":"ÜÇGÖL MAH.","zip":"27970"},{"name":"YARIMCA MAH.","zip":"27970"},{"name":"YENİYURT MAH.","zip":"27970"},{"name":"YÖRELİ MAH.","zip":"27970"},{"name":"YUKARIKEKLİKTEPE MAH.","zip":"27970"},{"name":"YUKARIYENİKÖY MAH.","zip":"27970"}]}]}]}