{"id":28,"name":"GİRESUN","cities":[{"name":"city","districts":[{"name":"MERKEZKÖYLER","cityName":null,"quarters":[{"name":"AKÇİÇEK KÖYÜ","zip":"28702"},{"name":"AKPINAR MAH.","zip":"28702"},{"name":"AKTEPE KÖYÜ","zip":"28702"},{"name":"AKTEPE MAH.","zip":"28702"},{"name":"AKYATAK MAH.","zip":"28702"},{"name":"ALAMACAN MAH.","zip":"28702"},{"name":"ALANTARLA MAH.","zip":"28702"},{"name":"ALİUŞAĞI MAH.","zip":"28702"},{"name":"ANDIRLI MAH.","zip":"28702"},{"name":"ARDA KÖYÜ","zip":"28702"},{"name":"ARDUÇ KÖYÜ","zip":"28702"},{"name":"ARMUTALAĞI MAH.","zip":"28702"},{"name":"ARMUTLU KÖYÜ","zip":"28702"},{"name":"AVLUK AĞZI MAH.","zip":"28702"},{"name":"AYDINYAYLA KÖYÜ","zip":"28702"},{"name":"BABAPINAR MAH.","zip":"28702"},{"name":"BATU MAH.","zip":"28702"},{"name":"BEKİRLİ MAH.","zip":"28702"},{"name":"BELANÇAYIR MAH.","zip":"28702"},{"name":"BEREKETLİ KÖYÜ","zip":"28702"},{"name":"BEYLERCE KÖYÜ","zip":"28702"},{"name":"BOYLUCA KÖYÜ","zip":"28702"},{"name":"CAMI YANI MAH.","zip":"28702"},{"name":"ÇAKRAK KÖYÜ","zip":"28702"},{"name":"ÇALGAN KÖYÜ","zip":"28702"},{"name":"ÇAMLIYAYLA KÖYÜ","zip":"28702"},{"name":"ÇIĞRIKALAN MAH.","zip":"28702"},{"name":"ÇOŞKUR MAH.","zip":"28702"},{"name":"ÇUKUR MAH.","zip":"28702"},{"name":"DEĞİRMİCE MAH.","zip":"28702"},{"name":"DEMİRÖZÜ KÖYÜ","zip":"28702"},{"name":"DERE MAH.","zip":"28702"},{"name":"DEREÇİFTLİK KÖYÜ","zip":"28702"},{"name":"DOLUDERE KÖYÜ","zip":"28702"},{"name":"EKİZLİ MAH.","zip":"28702"},{"name":"ELMACIK KÖYÜ","zip":"28702"},{"name":"ESKİKÖY MAH.","zip":"28702"},{"name":"FATİH MAH.","zip":"28702"},{"name":"FEVZİ ÇAKMAK KÖYÜ","zip":"28702"},{"name":"GELİNKAYA MAH.","zip":"28702"},{"name":"GEVEZELİ MAH.","zip":"28702"},{"name":"GÖKÇEBEL KÖYÜ","zip":"28702"},{"name":"GÜNÜGÜZEL KÖYÜ","zip":"28702"},{"name":"GÜRBULAK KÖYÜ","zip":"28702"},{"name":"GÜVENBÜKÜ MAH.","zip":"28702"},{"name":"HABİBLİ MAH.","zip":"28702"},{"name":"HACIHASAN KÖYÜ","zip":"28702"},{"name":"HACILI KÖYÜ","zip":"28702"},{"name":"HAPANBELE MAH.","zip":"28702"},{"name":"İĞDECİK KÖYÜ","zip":"28702"},{"name":"KABAKTEPE KÖYÜ","zip":"28702"},{"name":"KALEDİBİ KÖYÜ","zip":"28702"},{"name":"KAMIŞLI KÖYÜ","zip":"28702"},{"name":"KAMIŞLIK MAH.","zip":"28702"},{"name":"KANLIOĞLU MAH.","zip":"28702"},{"name":"KARAAĞAÇ MAH.","zip":"28702"},{"name":"KARABÖRK KÖYÜ","zip":"28702"},{"name":"KARAGÖZ MAH.","zip":"28702"},{"name":"KARAYAZI MAH.","zip":"28702"},{"name":"KAVAKLIDERE KÖYÜ","zip":"28702"},{"name":"KAYADİBİ MAH.","zip":"28702"},{"name":"KEMALLI MAH.","zip":"28702"},{"name":"KILIÇLAR MAH.","zip":"28702"},{"name":"KILIÇLI MAH.","zip":"28702"},{"name":"KIMILLI MAH.","zip":"28702"},{"name":"KIŞLA MAH.","zip":"28702"},{"name":"KİLİSE PINARI MAH.","zip":"28702"},{"name":"KİRAZDİBİ MAH.","zip":"28702"},{"name":"KOMAN KÖYÜ","zip":"28702"},{"name":"KONAKLI KÖYÜ","zip":"28702"},{"name":"KÖKLÜCE KÖYÜ","zip":"28702"},{"name":"KUMLUK MAH.","zip":"28702"},{"name":"KURUCAALİ MAH.","zip":"28702"},{"name":"KURUÇAY MAH.","zip":"28702"},{"name":"KÜÇÜK MAH.","zip":"28702"},{"name":"MACARA MAH.","zip":"28702"},{"name":"MERKEZ MAH.","zip":"28702"},{"name":"MEZRA MAH.","zip":"28702"},{"name":"MUTAFLI MAH.","zip":"28702"},{"name":"MÜSEEL MAH.","zip":"28702"},{"name":"ORTA MAH.","zip":"28702"},{"name":"ÖRNEK MAH.","zip":"28702"},{"name":"PARAVARLI MAH.","zip":"28702"},{"name":"PİRİLİ KÖYÜ","zip":"28702"},{"name":"SARAÇLI MAH.","zip":"28702"},{"name":"SEFERLİ MAH.","zip":"28702"},{"name":"SEYYİDHAN MAH.","zip":"28702"},{"name":"SIK MAH.","zip":"28702"},{"name":"SOLAKLI MAH.","zip":"28702"},{"name":"SUBAŞI KÖYÜ","zip":"28702"},{"name":"SUİÇTİ MAH.","zip":"28702"},{"name":"SUYURDU KÖYÜ","zip":"28702"},{"name":"ŞAHANLI MAH.","zip":"28702"},{"name":"ŞIHLI MAH.","zip":"28702"},{"name":"TAŞTAMİR MAH.","zip":"28702"},{"name":"TEFİLLİ MAH.","zip":"28702"},{"name":"TEPE MAH.","zip":"28702"},{"name":"TEPEKÖY KÖYÜ","zip":"28702"},{"name":"TOHUMLUK KÖYÜ","zip":"28702"},{"name":"TOPÇAM MAH.","zip":"28702"},{"name":"TURNALI MAH.","zip":"28702"},{"name":"UNCUOĞLU MAH.","zip":"28702"},{"name":"ÜST MAH.","zip":"28702"},{"name":"VEYSELLİ MAH.","zip":"28702"},{"name":"YENİ MAH.","zip":"28702"},{"name":"YENİKÖY MAH.","zip":"28702"},{"name":"YEŞİLYURT KÖYÜ","zip":"28702"},{"name":"YOĞURDUGARA MAH.","zip":"28702"},{"name":"YÜKSELEN KÖYÜ","zip":"28702"}]},{"name":"BULANCAK","cityName":null,"quarters":[{"name":"BAHÇELİEVLER MAH.","zip":"28300"},{"name":"BALLICA MAH.","zip":"28300"},{"name":"BULANCAK MAH.","zip":"28300"},{"name":"DUACIOĞLU MAH.","zip":"28300"},{"name":"GÜZELYALI MAH.","zip":"28300"},{"name":"İHSANİYE MAH.","zip":"28300"},{"name":"İSMET PAŞA MAH.","zip":"28300"},{"name":"KIZILOT MAH.","zip":"28300"},{"name":"SANAYİİ MAH.","zip":"28300"},{"name":"SARAÇLI MAH.","zip":"28300"},{"name":"SİSİN MAH.","zip":"28300"},{"name":"ŞEMSETTİN MAH.","zip":"28300"},{"name":"TOPRAKDEĞİRMENİ MAH.","zip":"28300"},{"name":"UCARLI MAH.","zip":"28300"}]},{"name":"KOVANLIK","cityName":null,"quarters":[{"name":"ALÇAKBEL MAH.","zip":"28310"},{"name":"ALİBEY KÖYÜ","zip":"28310"},{"name":"ARDIÇ MAH.","zip":"28310"},{"name":"AŞAĞI YATAK MAH.","zip":"28310"},{"name":"AYDINDERE KÖYÜ","zip":"28310"},{"name":"AYDINLAR MAH.","zip":"28310"},{"name":"BAYINDIR KÖYÜ","zip":"28310"},{"name":"BEKTAŞ MAH.","zip":"28310"},{"name":"BERCİN MAH.","zip":"28310"},{"name":"BEYALAN MAH.","zip":"28310"},{"name":"BÜYÜKDÜZ MAH.","zip":"28310"},{"name":"CAMİ YANI MERKEZ MAH.","zip":"28310"},{"name":"ÇALIK MAH.","zip":"28310"},{"name":"ÇAMKIRI MAH.","zip":"28310"},{"name":"ÇATAL ÇAM MAH.","zip":"28310"},{"name":"ÇINARLIKAYA MAH.","zip":"28310"},{"name":"ÇUKURCA OBA MAH.","zip":"28310"},{"name":"DERECİKALAN MAH.","zip":"28310"},{"name":"DÖNGERİ KÖYÜ","zip":"28310"},{"name":"DÜZ MAH.","zip":"28310"},{"name":"EĞRİCE ALAN MAH.","zip":"28310"},{"name":"ELMALI KÖYÜ","zip":"28310"},{"name":"ERİCEALAN MAH.","zip":"28310"},{"name":"ERİKOBUZU MAH.","zip":"28310"},{"name":"GAMAR MAH.","zip":"28310"},{"name":"GÜNEY MAH.","zip":"28310"},{"name":"GÜZELYURT KÖYÜ","zip":"28310"},{"name":"HACI KAZAN MAH.","zip":"28310"},{"name":"HACIGÜNEY MAH.","zip":"28310"},{"name":"HASANDEDE MAH.","zip":"28310"},{"name":"KABALI MAH.","zip":"28310"},{"name":"KABURLU MAH.","zip":"28310"},{"name":"KALABOYUN MAH.","zip":"28310"},{"name":"KAMAR MAH.","zip":"28310"},{"name":"KANCIKALANI MAH.","zip":"28310"},{"name":"KARAAĞAÇ MAH.","zip":"28310"},{"name":"KARATEPE MAH.","zip":"28310"},{"name":"KERTBOĞAZ MAH.","zip":"28310"},{"name":"KIRIMLAR MAH.","zip":"28310"},{"name":"KIZALAN MAH.","zip":"28310"},{"name":"KOR MAH.","zip":"28310"},{"name":"KOVANLIK KÖYÜ","zip":"28310"},{"name":"KÖMYANI MAH.","zip":"28310"},{"name":"KURBAN PINARI MAH.","zip":"28310"},{"name":"KURTKAYA MAH.","zip":"28310"},{"name":"KUŞBURNU MAH.","zip":"28310"},{"name":"MANASTIR MAH.","zip":"28310"},{"name":"MAŞAT YAYLASI İKİ OLUK VE DALMAN OBASI MAH.","zip":"28310"},{"name":"MERKEZ MAH.","zip":"28310"},{"name":"MUSAGÜNEY MAH.","zip":"28310"},{"name":"OYRAK MAH.","zip":"28310"},{"name":"PAZARSUYU MAH.","zip":"28310"},{"name":"PENCİK MAH.","zip":"28310"},{"name":"PİR HASAN MAH.","zip":"28310"},{"name":"SALAKYATAK MAH.","zip":"28310"},{"name":"SAZOBA MAH.","zip":"28310"},{"name":"SOFULU MAH.","zip":"28310"},{"name":"SOĞUKSU MAH.","zip":"28310"},{"name":"TAFLANCIK MAH.","zip":"28310"},{"name":"TANDIR KÖYÜ","zip":"28310"},{"name":"TAŞAL MAH.","zip":"28310"},{"name":"TEKNEKESEK MAH.","zip":"28310"},{"name":"TEPE YATAK MAH.","zip":"28310"},{"name":"TOKMADİN KÖYÜ","zip":"28310"},{"name":"ÜST MAH.","zip":"28310"},{"name":"YANIKALAN MAH.","zip":"28310"},{"name":"YANIKOBA MAH.","zip":"28310"},{"name":"YENİ MAH.","zip":"28310"},{"name":"YENİKÖY KÖYÜ","zip":"28310"},{"name":"YEŞİLTEPE KÖYÜ","zip":"28310"},{"name":"YOĞUNDERE MAH.","zip":"28310"},{"name":"YOKUŞYOL MAH.","zip":"28310"}]},{"name":"MERKEZKÖYLER","cityName":null,"quarters":[{"name":"AHMETLİ KÖYÜ","zip":"28302"},{"name":"AKKAŞ MAH.","zip":"28302"},{"name":"AKTEPE MAH.","zip":"28302"},{"name":"ALINCA MAH.","zip":"28302"},{"name":"ALİUSTA MAH.","zip":"28302"},{"name":"ALT MAH.","zip":"28302"},{"name":"ARALICAK MAH.","zip":"28302"},{"name":"ARDAHAN KÖYÜ","zip":"28302"},{"name":"ARİFLİ KÖYÜ","zip":"28302"},{"name":"ARMUTÇUKURU MAH.","zip":"28302"},{"name":"AŞAĞI MAH.","zip":"28302"},{"name":"ATAKÖY KÖYÜ","zip":"28302"},{"name":"AYDINLAR MAH.","zip":"28302"},{"name":"BAHÇELİ KÖYÜ","zip":"28302"},{"name":"BAKACAK MAH.","zip":"28302"},{"name":"BALIKÇIKMAZ MAH.","zip":"28302"},{"name":"BELEĞEN MAH.","zip":"28302"},{"name":"BODUROĞLU MAH.","zip":"28302"},{"name":"BOSTANLI KÖYÜ","zip":"28302"},{"name":"BÖLÜKBAŞI MAH.","zip":"28302"},{"name":"BURUNUCU KÖYÜ","zip":"28302"},{"name":"BÜK MEZRA MAH.","zip":"28302"},{"name":"BÜYÜK YAYLIM MAH.","zip":"28302"},{"name":"BÜYÜKADA KÖYÜ","zip":"28302"},{"name":"CAFEROĞLU MAH.","zip":"28302"},{"name":"CAMİ MAH.","zip":"28302"},{"name":"CAMİYANI MAH.","zip":"28302"},{"name":"CANALİ MAH.","zip":"28302"},{"name":"CERELLİ MAH.","zip":"28302"},{"name":"CILANBUS MAH.","zip":"28302"},{"name":"CİNDİ KÖYÜ","zip":"28302"},{"name":"CUKURCA MAH.","zip":"28302"},{"name":"CÜRGÜLOĞLU MAH.","zip":"28302"},{"name":"ÇAKILDAK MAH.","zip":"28302"},{"name":"ÇAKIROĞLU MAH.","zip":"28302"},{"name":"ÇARDAKTEPE MAH.","zip":"28302"},{"name":"ÇARŞIK MAH.","zip":"28302"},{"name":"ÇEKMEBEL MAH.","zip":"28302"},{"name":"ÇEL MAH.","zip":"28302"},{"name":"ÇIRAKLI MAH.","zip":"28302"},{"name":"ÇİRİŞOĞLU MAH.","zip":"28302"},{"name":"ÇUKUR MAH.","zip":"28302"},{"name":"DAMUDERE KÖYÜ","zip":"28302"},{"name":"DAVUTOĞLU MAH.","zip":"28302"},{"name":"DEMİRCİLİ KÖYÜ","zip":"28302"},{"name":"DERE PAZARI MAH.","zip":"28302"},{"name":"DEREDİBİ \/ DUACIOĞLU MAH.","zip":"28302"},{"name":"DIŞKAYA MAH.","zip":"28302"},{"name":"DUACIOĞLU MAH.","zip":"28302"},{"name":"DUTTEPE KÖYÜ","zip":"28302"},{"name":"DÜZ MAH.","zip":"28302"},{"name":"ELYASLI MAH.","zip":"28302"},{"name":"EMECAN MAH.","zip":"28302"},{"name":"EMECAN YENİ MAH.","zip":"28302"},{"name":"ERDOĞAN KÖYÜ","zip":"28302"},{"name":"ERİKLİK KÖYÜ","zip":"28302"},{"name":"ESEBEY MAH.","zip":"28302"},{"name":"ESENKÖY KÖYÜ","zip":"28302"},{"name":"ESKİ CAMİ YANI MAH.","zip":"28302"},{"name":"EYÜPAĞA MAH.","zip":"28302"},{"name":"EZELTERE KÖYÜ","zip":"28302"},{"name":"FINDIK ÇUKUR MAH.","zip":"28302"},{"name":"GANCU MAH.","zip":"28302"},{"name":"GÜLTEPE KÖYÜ","zip":"28302"},{"name":"GÜNDOĞDU KÖYÜ","zip":"28302"},{"name":"GÜNEY MAH.","zip":"28302"},{"name":"GÜNEYKÖY KÖYÜ","zip":"28302"},{"name":"GÜZEREN MAH.","zip":"28302"},{"name":"HACET KÖYÜ","zip":"28302"},{"name":"HACILAR MAH.","zip":"28302"},{"name":"HANALAN MAH.","zip":"28302"},{"name":"HASAN YATAĞI MAH.","zip":"28302"},{"name":"HASANBAŞLI MAH.","zip":"28302"},{"name":"HEBİLLİ MAH.","zip":"28302"},{"name":"HENDEN MAH.","zip":"28302"},{"name":"HENDENLİ MAH.","zip":"28302"},{"name":"HİSARKAYA KÖYÜ","zip":"28302"},{"name":"II OSB MAH.","zip":"28302"},{"name":"İCİLLİ KÖYÜ","zip":"28302"},{"name":"İDİÇOĞLU MAH.","zip":"28302"},{"name":"İMİDOLU MAH.","zip":"28302"},{"name":"İNCAL MAH.","zip":"28302"},{"name":"İNCEBEL MAH.","zip":"28302"},{"name":"İNECE KÖYÜ","zip":"28302"},{"name":"İNÜSTÜ MAH.","zip":"28302"},{"name":"KABAKÇIOĞLU MAH.","zip":"28302"},{"name":"KALE GÜNEY MAH.","zip":"28302"},{"name":"KARAAĞAÇ KÖYÜ","zip":"28302"},{"name":"KARACARESUL KÖYÜ","zip":"28302"},{"name":"KARADERE MAH.","zip":"28302"},{"name":"KARAKOÇ MAH.","zip":"28302"},{"name":"KARAMANLI MAH.","zip":"28302"},{"name":"KARAŞLI MAH.","zip":"28302"},{"name":"KARŞIKUŞLUHAN MAH.","zip":"28302"},{"name":"KAVAKLAR VE BELEN MAH.","zip":"28302"},{"name":"KAYABAŞI KÖYÜ","zip":"28302"},{"name":"KAYADİBİ KÖYÜ","zip":"28302"},{"name":"KAYHAN KÖYÜ","zip":"28302"},{"name":"KELALİOĞLU MAH.","zip":"28302"},{"name":"KELLER MAH.","zip":"28302"},{"name":"KILIÇLI MAH.","zip":"28302"},{"name":"KILIÇTARLA MAH.","zip":"28302"},{"name":"KIRAN MAH.","zip":"28302"},{"name":"KIRMA MAH.","zip":"28302"},{"name":"KIŞ YATAĞI MAH.","zip":"28302"},{"name":"KIŞLA KÖYÜ","zip":"28302"},{"name":"KIŞLA MAH.","zip":"28302"},{"name":"KIŞLACIK MAH.","zip":"28302"},{"name":"KİBARCAR MAH.","zip":"28302"},{"name":"KİRAZLIK MAH.","zip":"28302"},{"name":"KİREZLİ MAH.","zip":"28302"},{"name":"KONAKYANI MAH.","zip":"28302"},{"name":"KOVANCAK MAH.","zip":"28302"},{"name":"KOZLUK MAH.","zip":"28302"},{"name":"KURUKOCA MAH.","zip":"28302"},{"name":"KUŞLUHAN KÖYÜ","zip":"28302"},{"name":"KUZKÖY KÖYÜ","zip":"28302"},{"name":"KÜÇÜKADA KÖYÜ","zip":"28302"},{"name":"KÜÇÜKDERE KÖYÜ","zip":"28302"},{"name":"KÜÇÜKLÜ KÖYÜ","zip":"28302"},{"name":"KÜÇÜKLÜ MAH.","zip":"28302"},{"name":"LAZLAR MAH.","zip":"28302"},{"name":"LAZOĞLU MAH.","zip":"28302"},{"name":"MADENALTI MAH.","zip":"28302"},{"name":"MELİKLİ OĞLU MAH.","zip":"28302"},{"name":"MERKEZ MAH.","zip":"28302"},{"name":"MUHAL MAH.","zip":"28302"},{"name":"MURATLI KÖYÜ","zip":"28302"},{"name":"ODABAŞOĞLU MAH.","zip":"28302"},{"name":"ODADÜZÜ KÖYÜ","zip":"28302"},{"name":"OFRAN MAH.","zip":"28302"},{"name":"OKULYANI MAH.","zip":"28302"},{"name":"ORTA DİKMEN MAH.","zip":"28302"},{"name":"ORTA MAH.","zip":"28302"},{"name":"OSMAN ŞIH MAH.","zip":"28302"},{"name":"ÖKSÜZOĞLU MAH.","zip":"28302"},{"name":"PAZARSUYU KÖYÜ","zip":"28302"},{"name":"RESULOĞLU MAH.","zip":"28302"},{"name":"SALİBAŞI MAH.","zip":"28302"},{"name":"SALMAN MAH.","zip":"28302"},{"name":"SAMUGÜNEY KÖYÜ","zip":"28302"},{"name":"SANDIK KAYA KİRAZLIK MAH.","zip":"28302"},{"name":"SARIMUSA MAH.","zip":"28302"},{"name":"SARIVELİ MAH.","zip":"28302"},{"name":"SOĞULCA MAH.","zip":"28302"},{"name":"SÜLEYMANŞEYH MAH.","zip":"28302"},{"name":"SÜME KÖYÜ","zip":"28302"},{"name":"SÜNNETÇİ MAH.","zip":"28302"},{"name":"ŞARDAĞ DÜZ MAH.","zip":"28302"},{"name":"ŞARDAĞ YUKARI MAH.","zip":"28302"},{"name":"ŞEBLİ MAH.","zip":"28302"},{"name":"ŞEHİT YAKUP ÖZGEN MAH.","zip":"28302"},{"name":"ŞENKAYA MAH.","zip":"28302"},{"name":"ŞEVHMUSA MAH.","zip":"28302"},{"name":"ŞEYHMUSA KÖYÜ","zip":"28302"},{"name":"TALİPLİ KÖYÜ","zip":"28302"},{"name":"TAŞDİBEK MAH.","zip":"28302"},{"name":"TAŞO MAH.","zip":"28302"},{"name":"TATARLI MAH.","zip":"28302"},{"name":"TATAROĞLU MAH.","zip":"28302"},{"name":"TEKMEZAR KÖYÜ","zip":"28302"},{"name":"TEKNETAŞ MAH.","zip":"28302"},{"name":"TELLİOĞLU MAH.","zip":"28302"},{"name":"TEPECİK KÖYÜ","zip":"28302"},{"name":"TEPECİK MAH.","zip":"28302"},{"name":"TEPEÖREN KÖYÜ","zip":"28302"},{"name":"TEZİLLİ MAH.","zip":"28302"},{"name":"TOPALAK MAH.","zip":"28302"},{"name":"TOPALOĞLU MAH.","zip":"28302"},{"name":"TORÇAN KÖYÜ","zip":"28302"},{"name":"TORUN MAH.","zip":"28302"},{"name":"TORUNOĞLU MAH.","zip":"28302"},{"name":"TÖMGELDÜZÜ MAH.","zip":"28302"},{"name":"TRINGO-TOPÇU-CULHA MAH.","zip":"28302"},{"name":"UĞURLU MAH.","zip":"28302"},{"name":"ÜST MAH.","zip":"28302"},{"name":"YALI MAH.","zip":"28302"},{"name":"YALIKÖY KÖYÜ","zip":"28302"},{"name":"YASLI MAH.","zip":"28302"},{"name":"YASLIBAHÇE KÖYÜ","zip":"28302"},{"name":"YAZI MAH.","zip":"28302"},{"name":"YENİ MAH.","zip":"28302"},{"name":"YEŞİLHİSAR KÖYÜ","zip":"28302"},{"name":"YEŞİLKÖY KÖYÜ","zip":"28302"},{"name":"YILANDİLOĞLU MAH.","zip":"28302"},{"name":"YILDIZ KÖYÜ","zip":"28302"},{"name":"YUKARI DİKMEN MAH.","zip":"28302"},{"name":"YUNUSLU KÖYÜ","zip":"28302"}]},{"name":"ÇAMOLUK","cityName":null,"quarters":[{"name":"KURTULUŞ MAH.","zip":"28710"}]},{"name":"MERKEZKÖYLER","cityName":null,"quarters":[{"name":"ALIZSIZ MAH.","zip":"28712"},{"name":"BAYIR KÖYÜ","zip":"28712"},{"name":"ÇAKILKAYA KÖYÜ","zip":"28712"},{"name":"DALDİBİ KÖYÜ","zip":"28712"},{"name":"DULUNDAS MAH.","zip":"28712"},{"name":"EĞNİR KÖYÜ","zip":"28712"},{"name":"FINDIKLI KÖYÜ","zip":"28712"},{"name":"GÜCER KÖYÜ","zip":"28712"},{"name":"GÜRÇALI KÖYÜ","zip":"28712"},{"name":"HACIAHMETOĞLU KÖYÜ","zip":"28712"},{"name":"HACIÖREN KÖYÜ","zip":"28712"},{"name":"HOTAR MAH.","zip":"28712"},{"name":"HÜRRİYET MAH.","zip":"28712"},{"name":"HÜSEYİN AĞA DERESİ MAH.","zip":"28712"},{"name":"İMAMLAR MAH.","zip":"28712"},{"name":"KADİL MAH.","zip":"28712"},{"name":"KALEDERE KÖYÜ","zip":"28712"},{"name":"KARABAYIR MAH.","zip":"28712"},{"name":"KARADİKMEN KÖYÜ","zip":"28712"},{"name":"KAYACIK KÖYÜ","zip":"28712"},{"name":"KAYNAR KÖYÜ","zip":"28712"},{"name":"KILIÇTUTAN KÖYÜ","zip":"28712"},{"name":"KOÇAK KÖYÜ","zip":"28712"},{"name":"KÖROĞLU MAH.","zip":"28712"},{"name":"KURUKOL MAH.","zip":"28712"},{"name":"KUTLUCA KÖYÜ","zip":"28712"},{"name":"MERKEZ MAH.","zip":"28712"},{"name":"OKÇAÖREN KÖYÜ","zip":"28712"},{"name":"OZAN KÖYÜ","zip":"28712"},{"name":"PAZAR MAH.","zip":"28712"},{"name":"PINARBAŞI MAH.","zip":"28712"},{"name":"PINARLI KÖYÜ","zip":"28712"},{"name":"SARPKAYA KÖYÜ","zip":"28712"},{"name":"TAŞCILAR KÖYÜ","zip":"28712"},{"name":"TAŞDEMİR KÖYÜ","zip":"28712"},{"name":"USLUCA KÖYÜ","zip":"28712"},{"name":"YAZILAR MAH.","zip":"28712"},{"name":"YENİCE KÖYÜ","zip":"28712"},{"name":"YENİKÖY KÖYÜ","zip":"28712"},{"name":"YUSUFELİ KÖYÜ","zip":"28712"},{"name":"YUVACIK MAH.","zip":"28712"}]},{"name":"ÇANAKÇI","cityName":null,"quarters":[{"name":"ARMUTDÜZÜ MAH.","zip":"28810"},{"name":"AŞAĞI MAH.","zip":"28810"},{"name":"BAKIMLI KÖYÜ","zip":"28810"},{"name":"BEKÜŞLÜ MAH.","zip":"28810"},{"name":"BEYLİ MAH.","zip":"28810"},{"name":"BOZTOPRAK MAH.","zip":"28810"},{"name":"CAMİ MAH.","zip":"28810"},{"name":"CAMİ YANI MAH.","zip":"28810"},{"name":"CÜCÜKLÜ MAH.","zip":"28810"},{"name":"ÇAĞLAYAN KÖYÜ","zip":"28810"},{"name":"ÇORAK MAH.","zip":"28810"},{"name":"ÇÖCEN MAH.","zip":"28810"},{"name":"DALMANLI MAH.","zip":"28810"},{"name":"DEREGÖZÜ KÖYÜ","zip":"28810"},{"name":"DERGÖZÜ MAH.","zip":"28810"},{"name":"DOĞANKÖY KÖYÜ","zip":"28810"},{"name":"DÜZKÖY KÖYÜ","zip":"28810"},{"name":"EGE MAH.","zip":"28810"},{"name":"EGEKÖY KÖYÜ","zip":"28810"},{"name":"ERENKÖY KÖYÜ","zip":"28810"},{"name":"ERİKBÜKÜ MAH.","zip":"28810"},{"name":"GÜCER MAH.","zip":"28810"},{"name":"GÜNEY MAH.","zip":"28810"},{"name":"GÜREBÜKÜ 2 MAH.","zip":"28810"},{"name":"GÜREBÜKÜ MAH.","zip":"28810"},{"name":"GÜREGERİŞ MAH.","zip":"28810"},{"name":"GÜVENDE ÇUBUĞU MAH.","zip":"28810"},{"name":"GÜZÖREN MAH.","zip":"28810"},{"name":"HARMAN KIRANI MAH.","zip":"28810"},{"name":"İZZETLİ MAH.","zip":"28810"},{"name":"KAHRAMAN KÖYÜ","zip":"28810"},{"name":"KALE MAH.","zip":"28810"},{"name":"KALEDİBİ KÖYÜ","zip":"28810"},{"name":"KARABÖRK KÖYÜ","zip":"28810"},{"name":"KARAÇATAK MAH.","zip":"28810"},{"name":"KAŞDİBİ MAH.","zip":"28810"},{"name":"KAVAK MAH.","zip":"28810"},{"name":"KIRAN MAH.","zip":"28810"},{"name":"KIRIKLI MAH.","zip":"28810"},{"name":"KİRAZÖREN MAH.","zip":"28810"},{"name":"KİSE 2 MAH.","zip":"28810"},{"name":"KİSE MAH.","zip":"28810"},{"name":"KONAK MAH.","zip":"28810"},{"name":"KÖSEKIRANI MAH.","zip":"28810"},{"name":"KUŞKÖY KÖYÜ","zip":"28810"},{"name":"KUZ MAH.","zip":"28810"},{"name":"MERKEZ ALT MAH.","zip":"28810"},{"name":"MERKEZ MAH.","zip":"28810"},{"name":"MERKEZ ÜST MAH.","zip":"28810"},{"name":"ORTA MAH.","zip":"28810"},{"name":"ÖMERLİ MAH.","zip":"28810"},{"name":"ÖTE MAH.","zip":"28810"},{"name":"SARAYKÖY KÖYÜ","zip":"28810"},{"name":"SEKÜ MAH.","zip":"28810"},{"name":"ŞIHLI MAH.","zip":"28810"},{"name":"TEKDORUK MAH.","zip":"28810"},{"name":"TEZDERESİ MAH.","zip":"28810"},{"name":"ÜST MAH.","zip":"28810"},{"name":"YAKUPLU MAH.","zip":"28810"},{"name":"YAPLU MAH.","zip":"28810"},{"name":"YARGELİŞ MAH.","zip":"28810"},{"name":"YAZLIK MAH.","zip":"28810"},{"name":"YENİŞADI KÖYÜ","zip":"28810"},{"name":"YEŞİLKÖY KÖYÜ","zip":"28810"},{"name":"YUKARI MAH.","zip":"28810"}]},{"name":"DERELİ","cityName":null,"quarters":[{"name":"DERELİ MAH.","zip":"28950"},{"name":"FATİH MAH.","zip":"28950"},{"name":"KUŞLUHAN MAH.","zip":"28950"},{"name":"KUZCA MAH.","zip":"28950"},{"name":"SÜTLÜCE MAH.","zip":"28950"}]},{"name":"MERKEZKÖYLER","cityName":null,"quarters":[{"name":"ADIBEŞ MAH.","zip":"28952"},{"name":"AĞGÖZLÜ MAH.","zip":"28952"},{"name":"AĞUT MAH.","zip":"28952"},{"name":"AHMETLİ MAH.","zip":"28952"},{"name":"AKKAYA KÖYÜ","zip":"28952"},{"name":"AKKAYA MAH.","zip":"28952"},{"name":"AKMAZGÖL MAH.","zip":"28952"},{"name":"AKSU KÖYÜ","zip":"28952"},{"name":"ALAGERİŞ MAH.","zip":"28952"},{"name":"ALANCIK KÖYÜ","zip":"28952"},{"name":"ALİÇAVUŞLU MAH.","zip":"28952"},{"name":"ALİPAŞA MAH.","zip":"28952"},{"name":"ALT MAH.","zip":"28952"},{"name":"ANGUTLU MAH.","zip":"28952"},{"name":"ARALCAK MAH.","zip":"28952"},{"name":"ARDIÇLI MAH.","zip":"28952"},{"name":"ARMUTALANI MAH.","zip":"28952"},{"name":"ARPAÇUKURU MAH.","zip":"28952"},{"name":"ASARBELEN MAH.","zip":"28952"},{"name":"AŞAĞI MAH.","zip":"28952"},{"name":"AYILIYATAK MAH.","zip":"28952"},{"name":"AYIYATAĞI MAH.","zip":"28952"},{"name":"AYMAÇ MAH.","zip":"28952"},{"name":"AYNO MAH.","zip":"28952"},{"name":"AYTEPESİ-GAVUR HENDEĞİ MAH.","zip":"28952"},{"name":"BAKACAK MAH.","zip":"28952"},{"name":"BALTAMI MAH.","zip":"28952"},{"name":"BAŞ YAYLA MAH.","zip":"28952"},{"name":"BAŞALAN MAH.","zip":"28952"},{"name":"BAŞÇATAK MAH.","zip":"28952"},{"name":"BAŞLAK MAH.","zip":"28952"},{"name":"BATI MAH.","zip":"28952"},{"name":"BAYRAMLI MAH.","zip":"28952"},{"name":"BEKİRLER MAH.","zip":"28952"},{"name":"BEKTAŞ MAH.","zip":"28952"},{"name":"BEKTAŞ YAYLASI(OBA) MAH.","zip":"28952"},{"name":"BİDİKO MAH.","zip":"28952"},{"name":"BUDAĞAĞZI MAH.","zip":"28952"},{"name":"BÜK MAH.","zip":"28952"},{"name":"CABLI MAH.","zip":"28952"},{"name":"CAL MAH.","zip":"28952"},{"name":"CAMİ MAH.","zip":"28952"},{"name":"CAMİYANI MAH.","zip":"28952"},{"name":"CEVİZLİK MAH.","zip":"28952"},{"name":"CİNAHMETLİ MAH.","zip":"28952"},{"name":"ÇAĞMAN-AĞA KAYA MAH.","zip":"28952"},{"name":"ÇAĞMAN-GAVRAZ MAH.","zip":"28952"},{"name":"ÇALCA KÖYÜ","zip":"28952"},{"name":"ÇALKÖY KÖYÜ","zip":"28952"},{"name":"ÇAMAĞZI MAH.","zip":"28952"},{"name":"ÇAMBELEN MAH.","zip":"28952"},{"name":"ÇAMLI KÖYÜ","zip":"28952"},{"name":"ÇAMLICI MAH.","zip":"28952"},{"name":"ÇAMURBOĞAZI MAH.","zip":"28952"},{"name":"ÇANAKÇI MAH.","zip":"28952"},{"name":"ÇATAK MAH.","zip":"28952"},{"name":"ÇATALAN MAH.","zip":"28952"},{"name":"ÇAYIRLI MAH.","zip":"28952"},{"name":"ÇENGELKÖY KÖYÜ","zip":"28952"},{"name":"ÇIRAKTAMI MAH.","zip":"28952"},{"name":"ÇITLAK MAH.","zip":"28952"},{"name":"ÇITLAKLI MAH.","zip":"28952"},{"name":"ÇİFTÇİOĞLU MAH.","zip":"28952"},{"name":"ÇİLİNGİR MAH.","zip":"28952"},{"name":"ÇOBANLI MAH.","zip":"28952"},{"name":"ÇOMAKKONAĞI MAH.","zip":"28952"},{"name":"ÇORAKALAN MAH.","zip":"28952"},{"name":"ÇORUKOĞLU MAH.","zip":"28952"},{"name":"ÇUBUK MAH.","zip":"28952"},{"name":"DAĞ GÜZLEĞİ MAH.","zip":"28952"},{"name":"DAĞLIAĞAÇ MAH.","zip":"28952"},{"name":"DALİNO MAH.","zip":"28952"},{"name":"DARAKCI MAH.","zip":"28952"},{"name":"DAYIPOĞLU MAH.","zip":"28952"},{"name":"DEĞİNMENARKASI MAH.","zip":"28952"},{"name":"DERECİK MAH.","zip":"28952"},{"name":"DOĞUCA MAH.","zip":"28952"},{"name":"DÜZÇAYIR MAH.","zip":"28952"},{"name":"DÜZYATAK MAH.","zip":"28952"},{"name":"EFELİOĞLU MAH.","zip":"28952"},{"name":"EĞME MAH.","zip":"28952"},{"name":"EĞMEDAĞ MAH.","zip":"28952"},{"name":"EĞRİANBAR KÖYÜ","zip":"28952"},{"name":"ELEMEĞİ MAH.","zip":"28952"},{"name":"EMİNGİL MAH.","zip":"28952"},{"name":"EMİR ALİOĞLU MAH.","zip":"28952"},{"name":"EMÜRAĞA MAH.","zip":"28952"},{"name":"ERİKDERESİ MAH.","zip":"28952"},{"name":"ESELİ MAH.","zip":"28952"},{"name":"ESKIŞLA MAH.","zip":"28952"},{"name":"EVLİYADÜZÜ MAH.","zip":"28952"},{"name":"FAİKOĞLU MAH.","zip":"28952"},{"name":"FALCILI MAH.","zip":"28952"},{"name":"FINDIKLI MAH.","zip":"28952"},{"name":"FİŞEKLİ MAH.","zip":"28952"},{"name":"GARİPLİ MAH.","zip":"28952"},{"name":"GEMİDİREĞİ MAH.","zip":"28952"},{"name":"GEYREZ MAH.","zip":"28952"},{"name":"GÖBEL 2 MAH.","zip":"28952"},{"name":"GÖBEL MAH.","zip":"28952"},{"name":"GÖBLÜ MAH.","zip":"28952"},{"name":"GÖÇEK MAH.","zip":"28952"},{"name":"GÖKÇEBEL MAH.","zip":"28952"},{"name":"GÖKSEKİ MAH.","zip":"28952"},{"name":"GÜCESE MAH.","zip":"28952"},{"name":"GÜCÜKBURUN MAH.","zip":"28952"},{"name":"GÜDÜL KÖYÜ","zip":"28952"},{"name":"GÜDÜLDİBİ MAH.","zip":"28952"},{"name":"GÜNEY MAH.","zip":"28952"},{"name":"GÜVELEN MAH.","zip":"28952"},{"name":"GÜZELKÖY KÖYÜ","zip":"28952"},{"name":"GÜZYURDU MAH.","zip":"28952"},{"name":"HACIDERESİ MAH.","zip":"28952"},{"name":"HACIKÖY MAH.","zip":"28952"},{"name":"HACIOĞLU MAH.","zip":"28952"},{"name":"HACIYERİ MAH.","zip":"28952"},{"name":"HAMURLU MAH.","zip":"28952"},{"name":"HANCIYANI MAH.","zip":"28952"},{"name":"HANTO MAH.","zip":"28952"},{"name":"HANYANI MAH.","zip":"28952"},{"name":"HAPAN MAH.","zip":"28952"},{"name":"HARMANBAŞI MAH.","zip":"28952"},{"name":"HATİPLİ MAH.","zip":"28952"},{"name":"HEYDERE KÖYÜ","zip":"28952"},{"name":"HIDIMLI MAH.","zip":"28952"},{"name":"HIDIRELLEZ MAH.","zip":"28952"},{"name":"HİSARKÖY KÖYÜ","zip":"28952"},{"name":"HOLUNLU MAH.","zip":"28952"},{"name":"İÇMESU KÖYÜ","zip":"28952"},{"name":"İKİSU MAH.","zip":"28952"},{"name":"İNÇEŞME MAH.","zip":"28952"},{"name":"İNİŞDİBİ MAH.","zip":"28952"},{"name":"İSKENDER MAH.","zip":"28952"},{"name":"KABAKLI MAH.","zip":"28952"},{"name":"KADIGİL MAH.","zip":"28952"},{"name":"KAPIKAYA MAH.","zip":"28952"},{"name":"KAPTANCI MAH.","zip":"28952"},{"name":"KARAÇUKUR MAH.","zip":"28952"},{"name":"KARAKIŞLA MAH.","zip":"28952"},{"name":"KARAKOÇ MAH.","zip":"28952"},{"name":"KARAKOÇÇAYIRI MAH.","zip":"28952"},{"name":"KARAŞLI KIRAN MAH.","zip":"28952"},{"name":"KARAVELİ MAH.","zip":"28952"},{"name":"KARINCA MAH.","zip":"28952"},{"name":"KAVUZOĞLU MAH.","zip":"28952"},{"name":"KAYAALTI MAH.","zip":"28952"},{"name":"KAYADİBİ MAH.","zip":"28952"},{"name":"KELEŞKIRAN MAH.","zip":"28952"},{"name":"KENDİRLİK MAH.","zip":"28952"},{"name":"KERTİL MAH.","zip":"28952"},{"name":"KEŞOĞLU MAH.","zip":"28952"},{"name":"KEYMANA MAH.","zip":"28952"},{"name":"KIRAN MAH.","zip":"28952"},{"name":"KIRANYATAK MAH.","zip":"28952"},{"name":"KIRIK MAH.","zip":"28952"},{"name":"KIŞLA MAH.","zip":"28952"},{"name":"KIZILOT MAH.","zip":"28952"},{"name":"KIZILTAŞ KÖYÜ","zip":"28952"},{"name":"KİRAZÖREN MAH.","zip":"28952"},{"name":"KOÇDERE MAH.","zip":"28952"},{"name":"KOÇKAYASI MAH.","zip":"28952"},{"name":"KOÇTEPE MAH.","zip":"28952"},{"name":"KONUKLU KÖYÜ","zip":"28952"},{"name":"KOYUNALAN MAH.","zip":"28952"},{"name":"KOZ KÖYÜ MAH.","zip":"28952"},{"name":"KOZDERE MAH.","zip":"28952"},{"name":"KÖPRÜBAŞI MAH.","zip":"28952"},{"name":"KÖSEHASAN MAH.","zip":"28952"},{"name":"KÖSELİOĞLU MAH.","zip":"28952"},{"name":"KÖYİÇİ MAH.","zip":"28952"},{"name":"KÖYYERİ MAH.","zip":"28952"},{"name":"KULAKKAYA MAH.","zip":"28952"},{"name":"KURTULMUŞ KÖYÜ","zip":"28952"},{"name":"KUZALAN MAH.","zip":"28952"},{"name":"KUZCA MAH.","zip":"28952"},{"name":"KÜÇÜKAHMET KÖYÜ","zip":"28952"},{"name":"KÜKNARLI KÖYÜ","zip":"28952"},{"name":"KÜMBET KÖYÜ","zip":"28952"},{"name":"KÜMBET MAH.","zip":"28952"},{"name":"KÜRTÜN MAH.","zip":"28952"},{"name":"MADEN KÖYÜ","zip":"28952"},{"name":"MADEN MAH.","zip":"28952"},{"name":"MASKARA MAH.","zip":"28952"},{"name":"MELENSE MAH.","zip":"28952"},{"name":"MELİKALAN MAH.","zip":"28952"},{"name":"MERKEZ MAH.","zip":"28952"},{"name":"MERYEMANA MAH.","zip":"28952"},{"name":"MEŞELİYATAK KÖYÜ","zip":"28952"},{"name":"MOLLA AHMET MAH.","zip":"28952"},{"name":"MOLLAKIRAN MAH.","zip":"28952"},{"name":"MOR MAH.","zip":"28952"},{"name":"MUSALI MAH.","zip":"28952"},{"name":"NAMLU MAH.","zip":"28952"},{"name":"NEFESLİ MAH.","zip":"28952"},{"name":"OKULYANI MAH.","zip":"28952"},{"name":"ORTA MAH.","zip":"28952"},{"name":"ÖREN MAH.","zip":"28952"},{"name":"ÖZÜL MAH.","zip":"28952"},{"name":"PINARÇUKURU MAH.","zip":"28952"},{"name":"PINARLAR KÖYÜ","zip":"28952"},{"name":"PITIRAK MAH.","zip":"28952"},{"name":"SAKARLI MAH.","zip":"28952"},{"name":"SALONÇAYIRI MAH.","zip":"28952"},{"name":"SALTUK MAH.","zip":"28952"},{"name":"SANDIKKAYA MAH.","zip":"28952"},{"name":"SARAYCIK MAH.","zip":"28952"},{"name":"SARIMSAK MAH.","zip":"28952"},{"name":"SARIYAKUP KÖYÜ","zip":"28952"},{"name":"SATIRGİL MAH.","zip":"28952"},{"name":"SIRGANLI MAH.","zip":"28952"},{"name":"SIYLIK MAH.","zip":"28952"},{"name":"SUSUZ MAH.","zip":"28952"},{"name":"SUÜSTÜ MAH.","zip":"28952"},{"name":"SÜNGÜTLÜ MAH.","zip":"28952"},{"name":"SÜRMEN MAH.","zip":"28952"},{"name":"ŞEKER MAH.","zip":"28952"},{"name":"ŞIH MAH.","zip":"28952"},{"name":"ŞIHLAR MAH.","zip":"28952"},{"name":"ŞİMŞİRLİK MAH.","zip":"28952"},{"name":"ŞİRİNLER MAH.","zip":"28952"},{"name":"TAMDERE KÖYÜ","zip":"28952"},{"name":"TAMDERE YAYLASI MAH.","zip":"28952"},{"name":"TAŞBAŞI MAH.","zip":"28952"},{"name":"TAŞLICA KÖYÜ","zip":"28952"},{"name":"TEKKE MAH.","zip":"28952"},{"name":"TEKKELİOĞLU MAH.","zip":"28952"},{"name":"TEPEKÖY KÖYÜ","zip":"28952"},{"name":"TEPEKÜKNARLI KÖYÜ","zip":"28952"},{"name":"TESBİ MAH.","zip":"28952"},{"name":"TİTİRİK MAH.","zip":"28952"},{"name":"TOKAÇ KIRANI MAH.","zip":"28952"},{"name":"TONAR MAH.","zip":"28952"},{"name":"TÖNGEL MAH.","zip":"28952"},{"name":"TÜRÜDÜLÜ MAH.","zip":"28952"},{"name":"UCUMENGİL MAH.","zip":"28952"},{"name":"UMUTLU MAH.","zip":"28952"},{"name":"USTALI MAH.","zip":"28952"},{"name":"UZUNDERE KÖYÜ","zip":"28952"},{"name":"ÜST MAH.","zip":"28952"},{"name":"YAĞMURCA MAH.","zip":"28952"},{"name":"YANGINCI MAH.","zip":"28952"},{"name":"YASLIBEL MAH.","zip":"28952"},{"name":"YAVAŞCADERE MAH.","zip":"28952"},{"name":"YAVUZKEMAL KÖYÜ","zip":"28952"},{"name":"YAYLACIK KÖYÜ","zip":"28952"},{"name":"YAZLIK MAH.","zip":"28952"},{"name":"YENİ MAH.","zip":"28952"},{"name":"YEŞİLKAYA KÖYÜ","zip":"28952"},{"name":"YEŞİLTEPE KÖYÜ","zip":"28952"},{"name":"YEŞİLVADİ KÖYÜ","zip":"28952"},{"name":"YEŞİLYURT MAH.","zip":"28952"},{"name":"YILANLICA MAH.","zip":"28952"},{"name":"YILDIZ KÖYÜ","zip":"28952"},{"name":"YUKARI MAH.","zip":"28952"},{"name":"YUVA MAH.","zip":"28952"},{"name":"YÜCE KÖYÜ","zip":"28952"},{"name":"ZİYARET OBASI MAH.","zip":"28952"}]},{"name":"DOĞANKENT","cityName":null,"quarters":[{"name":"SADAKLI MAH.","zip":"28510"},{"name":"SÜTTAŞI MAH.","zip":"28510"},{"name":"YENİ MAH.","zip":"28510"},{"name":"YEŞİLTEPE MAH.","zip":"28510"}]},{"name":"MERKEZKÖYLER","cityName":null,"quarters":[{"name":"ALMADİBİ MAH.","zip":"28512"},{"name":"ALT MAH.","zip":"28512"},{"name":"ANNAKKIRAN MAH.","zip":"28512"},{"name":"AŞAĞI MAH.","zip":"28512"},{"name":"BAŞHOZAN MAH.","zip":"28512"},{"name":"BÜYÜKDAĞ MAH.","zip":"28512"},{"name":"CAMİYANI MAH.","zip":"28512"},{"name":"CELEL MAH.","zip":"28512"},{"name":"ÇAKIRLI MAH.","zip":"28512"},{"name":"ÇATAK KÖYÜ","zip":"28512"},{"name":"ÇATALAĞAÇ KÖYÜ","zip":"28512"},{"name":"ÇERKEZLİ MAH.","zip":"28512"},{"name":"DERE MAH.","zip":"28512"},{"name":"DEREGÖZÜ MAH.","zip":"28512"},{"name":"DEREYATAK MAH.","zip":"28512"},{"name":"DERİNDERE MAH.","zip":"28512"},{"name":"DOYMUŞ KÖYÜ","zip":"28512"},{"name":"ELLEZLİ MAH.","zip":"28512"},{"name":"EMİRLİ MAH.","zip":"28512"},{"name":"ESKİMADEN MAH.","zip":"28512"},{"name":"GÖKÇEBEL MAH.","zip":"28512"},{"name":"GÜDÜL KÖYÜ","zip":"28512"},{"name":"GÜNEY MAH.","zip":"28512"},{"name":"GÜVENLİK KÖYÜ","zip":"28512"},{"name":"HACIOĞLU MAH.","zip":"28512"},{"name":"İSLAM MAH.","zip":"28512"},{"name":"KAHVEYANI MAH.","zip":"28512"},{"name":"KALEBOYNU MAH.","zip":"28512"},{"name":"KAVRAZLI MAH.","zip":"28512"},{"name":"KIRAN MAH.","zip":"28512"},{"name":"KIRANYATAK MAH.","zip":"28512"},{"name":"KOCAMANLI MAH.","zip":"28512"},{"name":"KOZKÖY KÖYÜ","zip":"28512"},{"name":"MELİKLİ MAH.","zip":"28512"},{"name":"ORTA MAH.","zip":"28512"},{"name":"OYRACA KÖYÜ","zip":"28512"},{"name":"OYRACA MAH.","zip":"28512"},{"name":"ÖRENALAN MAH.","zip":"28512"},{"name":"SÖĞÜTAĞZI KÖYÜ","zip":"28512"},{"name":"TÖNGELBÜKÜ MAH.","zip":"28512"},{"name":"USTALI MAH.","zip":"28512"},{"name":"ÜZÜMCE MAH.","zip":"28512"},{"name":"YAMAKLI MAH.","zip":"28512"},{"name":"YANAĞZI MAH.","zip":"28512"},{"name":"YANLIZCA MAH.","zip":"28512"},{"name":"YAZLIK MAH.","zip":"28512"},{"name":"YENİKÖY KÖYÜ","zip":"28512"},{"name":"YERLİCE MAH.","zip":"28512"},{"name":"ZÖGELİ MAH.","zip":"28512"}]},{"name":"ESPİYE","cityName":null,"quarters":[{"name":"ÇAM MAH.","zip":"28600"},{"name":"ESENTEPE MAH.","zip":"28600"},{"name":"KARADERE MAH.","zip":"28600"},{"name":"MERKEZ MAH.","zip":"28600"}]},{"name":"MERKEZKÖYLER","cityName":null,"quarters":[{"name":"AĞALIKMADENİ MAH.","zip":"28602"},{"name":"AKKAŞ MAH.","zip":"28602"},{"name":"AKKAŞ MÜCAVİR ALANI MAH.","zip":"28602"},{"name":"AKKAYA KÖYÜ","zip":"28602"},{"name":"AKTAŞ MAH.","zip":"28602"},{"name":"AKTAŞ(MÜCAVİR) MAH.","zip":"28602"},{"name":"ALAŞERİT MAH.","zip":"28602"},{"name":"ALİCAN MAH.","zip":"28602"},{"name":"ANDOZ MÜCAVİR ALAN MAH.","zip":"28602"},{"name":"ARALICAK KÖYÜ","zip":"28602"},{"name":"ARPACIK KÖYÜ","zip":"28602"},{"name":"ARPAGERİŞİ MAH.","zip":"28602"},{"name":"AŞAĞI BALIKLI MAH.","zip":"28602"},{"name":"AŞAĞI MAH.","zip":"28602"},{"name":"ATTUTAN MAH.","zip":"28602"},{"name":"AVLUCA KÖYÜ","zip":"28602"},{"name":"AVRUK MAH.","zip":"28602"},{"name":"AYVAZLI KIRANI MAH.","zip":"28602"},{"name":"AZAPLI MAH.","zip":"28602"},{"name":"BAHÇECİK KÖYÜ","zip":"28602"},{"name":"BALIKLI ORTA MAH.","zip":"28602"},{"name":"BAYRAMBEY KÖYÜ","zip":"28602"},{"name":"BEKİRLİ MAH.","zip":"28602"},{"name":"BİTENE-YAR MAH.","zip":"28602"},{"name":"BOCULLU MAH.","zip":"28602"},{"name":"BOĞMANLIK MAH.","zip":"28602"},{"name":"BONCUK KIRANI MAH.","zip":"28602"},{"name":"BURUNTARLA MAH.","zip":"28602"},{"name":"BURUŞLU MAH.","zip":"28602"},{"name":"CENNETLİ MAH.","zip":"28602"},{"name":"CİBRİL MAH.","zip":"28602"},{"name":"CİNALİ MAH.","zip":"28602"},{"name":"CİVEK(MÜCAVİR ALANI) MAH.","zip":"28602"},{"name":"ÇALKAYA KÖYÜ","zip":"28602"},{"name":"ÇAM MAH.","zip":"28602"},{"name":"ÇAMANLI MAH.","zip":"28602"},{"name":"ÇAMBURNU MAH.","zip":"28602"},{"name":"ÇAMDİBİ MAH.","zip":"28602"},{"name":"ÇAY GÖZÜ MAH.","zip":"28602"},{"name":"ÇAY MAH.","zip":"28602"},{"name":"ÇAYKARA MAH.","zip":"28602"},{"name":"ÇEPNİKÖY KÖYÜ","zip":"28602"},{"name":"ÇINGIL MAH.","zip":"28602"},{"name":"ÇİTLİBELİ MAH.","zip":"28602"},{"name":"ÇUKUR MAH.","zip":"28602"},{"name":"DEĞİRMENAĞZI KÖYÜ","zip":"28602"},{"name":"DEĞİRMENARDI MAH.","zip":"28602"},{"name":"DEMİRCİLİ KÖYÜ","zip":"28602"},{"name":"DEPEN  KIZ MAH.","zip":"28602"},{"name":"DERE MAH.","zip":"28602"},{"name":"DİKEN DÜZÜ-ÖMER TARLA MAH.","zip":"28602"},{"name":"DİKMEN MAH.","zip":"28602"},{"name":"DİREKBÜKÜ KÖYÜ","zip":"28602"},{"name":"DİREKBÜKÜ MAH.","zip":"28602"},{"name":"DÜZ MAH.","zip":"28602"},{"name":"ELEVLİ MAH.","zip":"28602"},{"name":"ELLEZLİ MAH.","zip":"28602"},{"name":"EMECAN MAH.","zip":"28602"},{"name":"ENGELEK MAH.","zip":"28602"},{"name":"ERİCEK KÖYÜ","zip":"28602"},{"name":"FİRARLI MAH.","zip":"28602"},{"name":"GEBELLİ KÖYÜ","zip":"28602"},{"name":"GEDİKLİ MAH.","zip":"28602"},{"name":"GEZİNLİ MAH.","zip":"28602"},{"name":"GÖL YANI MAH.","zip":"28602"},{"name":"GUYANI MAH.","zip":"28602"},{"name":"GÜLBURNU KÖYÜ","zip":"28602"},{"name":"GÜMÜŞDERE KÖYÜ","zip":"28602"},{"name":"GÜNEY MAH.","zip":"28602"},{"name":"GÜNEYKÖY KÖYÜ","zip":"28602"},{"name":"GÜZELYURT KÖYÜ","zip":"28602"},{"name":"HACAKLI MAH.","zip":"28602"},{"name":"HACIKÖY KÖYÜ","zip":"28602"},{"name":"HACIMAHMUTLU KÖYÜ","zip":"28602"},{"name":"HAÇBEY MAH.","zip":"28602"},{"name":"HANYANI MAH.","zip":"28602"},{"name":"HARMAN MAH.","zip":"28602"},{"name":"HARŞITLI MAH.","zip":"28602"},{"name":"HENDEK ALTI MAH.","zip":"28602"},{"name":"HENDEK ÜSTÜ MAH.","zip":"28602"},{"name":"HENEK MAH.","zip":"28602"},{"name":"HIDIROĞLU MAH.","zip":"28602"},{"name":"HIZARCIOĞLU MAH.","zip":"28602"},{"name":"HURMA KIRAN MÜCAVİR ALAN MAH.","zip":"28602"},{"name":"ISAKLI MAH.","zip":"28602"},{"name":"İBRAHİMŞEYH KÖYÜ","zip":"28602"},{"name":"İKİLİKLİ MAH.","zip":"28602"},{"name":"İNİŞDİBİ MAH.","zip":"28602"},{"name":"KABAK ÇUKURU MAH.","zip":"28602"},{"name":"KALEBOYNU MAH.","zip":"28602"},{"name":"KANDAOR MAH.","zip":"28602"},{"name":"KARAKAŞ MAH.","zip":"28602"},{"name":"KARAKUZU MAH.","zip":"28602"},{"name":"KARAMANLI MAH.","zip":"28602"},{"name":"KARŞI MAH.","zip":"28602"},{"name":"KARŞIKÖY MAH.","zip":"28602"},{"name":"KAŞDİBİ KÖYÜ","zip":"28602"},{"name":"KAYADİBİ MAH.","zip":"28602"},{"name":"KAYADÜZÜ MAH.","zip":"28602"},{"name":"KEÇİGERİŞ MAH.","zip":"28602"},{"name":"KELDAĞ ABANOZLU MAH.","zip":"28602"},{"name":"KELEŞLİ MAH.","zip":"28602"},{"name":"KIDIL(MÜCAVİR ALAN) MAH.","zip":"28602"},{"name":"KIRAN ALT(MÜCAVİR) MAH.","zip":"28602"},{"name":"KIRAN MAH.","zip":"28602"},{"name":"KIRAN ÜST (MÜCAVİR ALAN) MAH.","zip":"28602"},{"name":"KIZILDERE MAH.","zip":"28602"},{"name":"KIZILEVKUR MAH.","zip":"28602"},{"name":"KIZILOT MAH.","zip":"28602"},{"name":"KİLLİK MAH.","zip":"28602"},{"name":"KİREÇÇİLİ MAH.","zip":"28602"},{"name":"KONAK KIRANI MAH.","zip":"28602"},{"name":"KONAKKIRANI MAH.","zip":"28602"},{"name":"KOZBÜKÜ MAH.","zip":"28602"},{"name":"KOZKÖY MAH.","zip":"28602"},{"name":"KÖKDİKEN MAH.","zip":"28602"},{"name":"KÖPRÜBAŞI MAH.","zip":"28602"},{"name":"KÖSE MAH.","zip":"28602"},{"name":"KÖSE TEPESİ MAH.","zip":"28602"},{"name":"KÖY ETEĞİ MAH.","zip":"28602"},{"name":"KUNDUZ MRK MÜCAVİR ALANI MAH.","zip":"28602"},{"name":"KURUGERİŞ KÖYÜ","zip":"28602"},{"name":"KUZ MAH.","zip":"28602"},{"name":"KUZ SAĞMANI MAH.","zip":"28602"},{"name":"KUZBAHÇE MAH.","zip":"28602"},{"name":"KUZBAŞI MAH.","zip":"28602"},{"name":"KÜLCÜLÜ MAH.","zip":"28602"},{"name":"LİMAN(MÜCAVİR ALAN) MAH.","zip":"28602"},{"name":"M MAH.","zip":"28602"},{"name":"MADEN MERKEZ MAH.","zip":"28602"},{"name":"MAMAK EVYANI MAH.","zip":"28602"},{"name":"MERKEZ MAH.","zip":"28602"},{"name":"MÜCAVİR ALAN MAH.","zip":"28602"},{"name":"NEEL MAH.","zip":"28602"},{"name":"ORTA ALAN MAH.","zip":"28602"},{"name":"ORTA BURUN MAH.","zip":"28602"},{"name":"ORTA MAH.","zip":"28602"},{"name":"ÖTEKÖY MAH.","zip":"28602"},{"name":"PORTAKALLI MAH.","zip":"28602"},{"name":"PORTLU MAH.","zip":"28602"},{"name":"PÜLLÜ MAH.","zip":"28602"},{"name":"SAKARYA KÖYÜ","zip":"28602"},{"name":"SALİ MAH.","zip":"28602"},{"name":"SALİHLİ MAH.","zip":"28602"},{"name":"SALMAN MAH.","zip":"28602"},{"name":"SARIBAŞLI MAH.","zip":"28602"},{"name":"SARIMAHMUT MAH.","zip":"28602"},{"name":"SARNIÇ MAH.","zip":"28602"},{"name":"SASU MAH.","zip":"28602"},{"name":"SAZ MAH.","zip":"28602"},{"name":"SEDELEKLİ MAH.","zip":"28602"},{"name":"SEDELEKLİ MÜCAVİR ALAN MAH.","zip":"28602"},{"name":"SEYDİKÖY KÖYÜ","zip":"28602"},{"name":"SOĞUKPINAR KÖYÜ","zip":"28602"},{"name":"SÜLÜK GÖLÜ MAH.","zip":"28602"},{"name":"ŞAHİNYUVA KÖYÜ","zip":"28602"},{"name":"ŞALCI MAH.","zip":"28602"},{"name":"TAFLANCIK KÖYÜ","zip":"28602"},{"name":"TAMDÜZÜ MAH.","zip":"28602"},{"name":"TEPE MAH.","zip":"28602"},{"name":"TEPEÇUBUK MÜCAVİR ALAN MAH.","zip":"28602"},{"name":"TEPEKORU MAH.","zip":"28602"},{"name":"TEPEKÖY MAH.","zip":"28602"},{"name":"TEZDERESİ MAH.","zip":"28602"},{"name":"TİKENCE KÖYÜ","zip":"28602"},{"name":"TÖRSELCİK MAH.","zip":"28602"},{"name":"TURUNÇÖNÜ MAH.","zip":"28602"},{"name":"TUYGUN MAH.","zip":"28602"},{"name":"ULUBURUN MAH.","zip":"28602"},{"name":"UZUNKUM MAH.","zip":"28602"},{"name":"VARDOMUZ -ALİŞANGİL MAH.","zip":"28602"},{"name":"VELİPLİ MAH.","zip":"28602"},{"name":"YAKAAĞZI MAH.","zip":"28602"},{"name":"YAYKIN MAH.","zip":"28602"},{"name":"YAZLIK MAH.","zip":"28602"},{"name":"YENİ MAH.","zip":"28602"},{"name":"YENİ(MÜCAVİR ALAN) MAH.","zip":"28602"},{"name":"YENİKÖY KÖYÜ","zip":"28602"},{"name":"YEŞİLKÖY KÖYÜ","zip":"28602"},{"name":"YEŞİLYURT KÖYÜ","zip":"28602"},{"name":"YILDIRIMLAR MAH.","zip":"28602"},{"name":"YIRTAKLI MAH.","zip":"28602"},{"name":"YUKARI MAH.","zip":"28602"},{"name":"YUSUFEV YANI MAH.","zip":"28602"},{"name":"YUSUFLU MAH.","zip":"28602"}]},{"name":"EYNESİL","cityName":null,"quarters":[{"name":"BOZTEPE MAH.","zip":"28850"},{"name":"DEREBAŞI MAH.","zip":"28850"},{"name":"GÜMÜŞÇAY MAH.","zip":"28850"},{"name":"KÖSELİ MAH.","zip":"28850"},{"name":"MUHTELİF KÜMELER MAH.","zip":"28850"}]},{"name":"MERKEZKÖYLER","cityName":null,"quarters":[{"name":"ALT MAH.","zip":"28852"},{"name":"ARALIK KÖYÜ","zip":"28852"},{"name":"ARMUTLU ALAN MAH.","zip":"28852"},{"name":"AŞAĞI MAH.","zip":"28852"},{"name":"BALCILI KÖYÜ","zip":"28852"},{"name":"BELEN MAH.","zip":"28852"},{"name":"BERBERLİ MAH.","zip":"28852"},{"name":"CAMİDÜZÜ MAH.","zip":"28852"},{"name":"ÇOLAKLI MAH.","zip":"28852"},{"name":"ÇORAPÇILAR KÖYÜ","zip":"28852"},{"name":"DERE MAH.","zip":"28852"},{"name":"DEREKÖY KÖYÜ","zip":"28852"},{"name":"EMANETLİ GÜNEY MAH.","zip":"28852"},{"name":"ERZİKIRANI MAH.","zip":"28852"},{"name":"GENÇALİGİL KAYALI MAH.","zip":"28852"},{"name":"GÜLALAN MAH.","zip":"28852"},{"name":"HALİLOĞLU MAH.","zip":"28852"},{"name":"İSHAKLI KÖYÜ","zip":"28852"},{"name":"KAZAKLI MAH.","zip":"28852"},{"name":"KEKİKTEPE KÖYÜ","zip":"28852"},{"name":"KEMALİYE KÖYÜ","zip":"28852"},{"name":"KEMERLİ KÖYÜ","zip":"28852"},{"name":"KIRAN MAH.","zip":"28852"},{"name":"KIRCAALİ MAH.","zip":"28852"},{"name":"KÖSEMEN KÖYÜ","zip":"28852"},{"name":"MERKEZ MAH.","zip":"28852"},{"name":"MİCANOĞLU MAH.","zip":"28852"},{"name":"ORTA MAH.","zip":"28852"},{"name":"ÖREN KÖYÜ","zip":"28852"},{"name":"SİSDAĞI MEVKİİ MAH.","zip":"28852"},{"name":"SOKAK MAH.","zip":"28852"},{"name":"TAMYANI MAH.","zip":"28852"},{"name":"TAŞBAŞI MAH.","zip":"28852"},{"name":"TİRYAKİLER MAH.","zip":"28852"},{"name":"TOKLUGİL MAH.","zip":"28852"},{"name":"ÜST MAH.","zip":"28852"},{"name":"YAKUPLU MAH.","zip":"28852"},{"name":"YARIMCA KÖYÜ","zip":"28852"},{"name":"YEŞİLTEPE MAH.","zip":"28852"}]},{"name":"GÖRELE","cityName":null,"quarters":[{"name":"BAHÇELİEVLER MAH.","zip":"28800"},{"name":"BOZCAALİ MAH.","zip":"28800"},{"name":"ÇEŞMEBAŞI MAH.","zip":"28800"},{"name":"HENDEKBAŞI MAH.","zip":"28800"},{"name":"KUMYALI MAH.","zip":"28800"},{"name":"SAYFİYE MAH.","zip":"28800"},{"name":"SOĞUKSU MAH.","zip":"28800"},{"name":"YEŞİLTEPE MAH.","zip":"28800"}]},{"name":"MERKEZKÖYLER","cityName":null,"quarters":[{"name":"ACIMAN MAH.","zip":"28802"},{"name":"AĞNAK MAH.","zip":"28802"},{"name":"AHMETLİ MAH.","zip":"28802"},{"name":"AKHARMAN KÖYÜ","zip":"28802"},{"name":"ALAMATLI MAH.","zip":"28802"},{"name":"ALT MAH.","zip":"28802"},{"name":"AMBARLI MAH.","zip":"28802"},{"name":"ARALIKOZ KÖYÜ","zip":"28802"},{"name":"ARDIÇ KÖYÜ","zip":"28802"},{"name":"AŞAĞI MAH.","zip":"28802"},{"name":"ATAKÖY KÖYÜ","zip":"28802"},{"name":"ATICIGIRAN MAH.","zip":"28802"},{"name":"AYCILI MAH.","zip":"28802"},{"name":"AYDINLAR KÖYÜ","zip":"28802"},{"name":"BAHŞİŞ MAH.","zip":"28802"},{"name":"BALKANLI MAH.","zip":"28802"},{"name":"BAYAZIT KÖYÜ","zip":"28802"},{"name":"BAYRAMLI MAH.","zip":"28802"},{"name":"BEKİRLİ MAH.","zip":"28802"},{"name":"BELEN MAH.","zip":"28802"},{"name":"BEŞİR KÖYÜ","zip":"28802"},{"name":"BEŞİRLİ KÖYÜ","zip":"28802"},{"name":"BEYLİ MAH.","zip":"28802"},{"name":"BEYTAMI MAH.","zip":"28802"},{"name":"BOĞALI KÖYÜ","zip":"28802"},{"name":"BOZBAŞI MAH.","zip":"28802"},{"name":"BURUNUCU KÖYÜ","zip":"28802"},{"name":"BÜYÜK BEYAZIT MAH.","zip":"28802"},{"name":"CAMİ YANI MAH.","zip":"28802"},{"name":"CAMİYANI MAH.","zip":"28802"},{"name":"CINBATLI MAH.","zip":"28802"},{"name":"CİLLİOĞLU MAH.","zip":"28802"},{"name":"CİVİLLİ MAH.","zip":"28802"},{"name":"ÇAĞMAN MAH.","zip":"28802"},{"name":"ÇAKALLI MAH.","zip":"28802"},{"name":"ÇAKIRCA MAH.","zip":"28802"},{"name":"ÇALIŞ KÖYÜ","zip":"28802"},{"name":"ÇATAK KÖYÜ","zip":"28802"},{"name":"ÇATAK MAH.","zip":"28802"},{"name":"ÇATAKKIRI KÖYÜ","zip":"28802"},{"name":"ÇATALASAR MAH.","zip":"28802"},{"name":"ÇAVUŞLU KÖYÜ","zip":"28802"},{"name":"ÇEŞME YANI MAH.","zip":"28802"},{"name":"ÇINARLAR MAH.","zip":"28802"},{"name":"ÇİFTLİKKÖY KÖYÜ","zip":"28802"},{"name":"ÇOLAKLI MAH.","zip":"28802"},{"name":"ÇORTUKLU MAH.","zip":"28802"},{"name":"ÇÖLEN MAH.","zip":"28802"},{"name":"ÇUKUR ALTI MAH.","zip":"28802"},{"name":"ÇUKUR MAH.","zip":"28802"},{"name":"DAYILI KÖYÜ","zip":"28802"},{"name":"DEDELİ KÖYÜ","zip":"28802"},{"name":"DEĞİRMEN YANI MAH.","zip":"28802"},{"name":"DEĞİRMENYANI MAH.","zip":"28802"},{"name":"DERE MAH.","zip":"28802"},{"name":"DEREBOYU KÖYÜ","zip":"28802"},{"name":"DEREGÖZÜ MAH.","zip":"28802"},{"name":"DEREKUŞÇULU KÖYÜ","zip":"28802"},{"name":"DİKMEN KÖYÜ","zip":"28802"},{"name":"DUDUKIRAN MAH.","zip":"28802"},{"name":"EGELİ MAH.","zip":"28802"},{"name":"ERİKYANI MAH.","zip":"28802"},{"name":"ESELİ MAH.","zip":"28802"},{"name":"ESENLİ KÖYÜ","zip":"28802"},{"name":"ESENYURT KÖYÜ","zip":"28802"},{"name":"ESERLİ KÖYÜ","zip":"28802"},{"name":"ESKİTAM MAH.","zip":"28802"},{"name":"EVCİ MAH.","zip":"28802"},{"name":"EYÜPOĞLU MAH.","zip":"28802"},{"name":"GEÇİT MAH.","zip":"28802"},{"name":"GOCUKLU MAH.","zip":"28802"},{"name":"GÖLBAŞI KÖYÜ","zip":"28802"},{"name":"GÖLBAŞI MAH.","zip":"28802"},{"name":"GÖNDER MAH.","zip":"28802"},{"name":"GÜLPINAR KÖYÜ","zip":"28802"},{"name":"GÜLPINAR MAH.","zip":"28802"},{"name":"GÜLTEPE KÖYÜ","zip":"28802"},{"name":"GÜNEY MAH.","zip":"28802"},{"name":"GÜNEYKÖY KÖYÜ","zip":"28802"},{"name":"GÜVENDİK KÖYÜ","zip":"28802"},{"name":"HACILI MAH.","zip":"28802"},{"name":"HACIOĞLU MAH.","zip":"28802"},{"name":"HAMZALI KÖYÜ","zip":"28802"},{"name":"HARAMLI MAH.","zip":"28802"},{"name":"HASTAFLANLAR MAH.","zip":"28802"},{"name":"HAYDARLI KÖYÜ","zip":"28802"},{"name":"HAYDARLI MAH.","zip":"28802"},{"name":"HIDIR MAH.","zip":"28802"},{"name":"HİMMET MAH.","zip":"28802"},{"name":"HOCALI MAH.","zip":"28802"},{"name":"HOPA MAH.","zip":"28802"},{"name":"HOROZKÖY MAH.","zip":"28802"},{"name":"HOTMAKÇI MAH.","zip":"28802"},{"name":"HURMACIOĞLU MAH.","zip":"28802"},{"name":"HÜRRİYET MAH.","zip":"28802"},{"name":"İBADOĞLU MAH.","zip":"28802"},{"name":"İĞDİR MAH.","zip":"28802"},{"name":"İKİZLİ MAH.","zip":"28802"},{"name":"İMATLI MAH.","zip":"28802"},{"name":"İNANCA KÖYÜ","zip":"28802"},{"name":"İSMAİLBEYLİ KÖYÜ","zip":"28802"},{"name":"İYİBAĞ MAH.","zip":"28802"},{"name":"KABA MAH.","zip":"28802"},{"name":"KABAKULAK MAH.","zip":"28802"},{"name":"KAHVECİOĞLU MAH.","zip":"28802"},{"name":"KAHVEYANI MAH.","zip":"28802"},{"name":"KALE MAH.","zip":"28802"},{"name":"KARAAHMET MAH.","zip":"28802"},{"name":"KARAALLI MAH.","zip":"28802"},{"name":"KARABURUN KÖYÜ","zip":"28802"},{"name":"KARAÇOMAK MAH.","zip":"28802"},{"name":"KARADERE KÖYÜ","zip":"28802"},{"name":"KARADERE MAH.","zip":"28802"},{"name":"KARADUDULLU MAH.","zip":"28802"},{"name":"KARAKEŞ KÖYÜ","zip":"28802"},{"name":"KARAKEŞ MAH.","zip":"28802"},{"name":"KARAYANLI MAH.","zip":"28802"},{"name":"KARGANYATAK MAH.","zip":"28802"},{"name":"KARLIBEL KÖYÜ","zip":"28802"},{"name":"KARNALLI MAH.","zip":"28802"},{"name":"KARŞI MAH.","zip":"28802"},{"name":"KARTBAHÇE MAH.","zip":"28802"},{"name":"KAVRAZLI MAH.","zip":"28802"},{"name":"KAYAYANI MAH.","zip":"28802"},{"name":"KAYNAR KÖYÜ","zip":"28802"},{"name":"KAYNAR MAH.","zip":"28802"},{"name":"KEFERELİ MAH.","zip":"28802"},{"name":"KELDÜZÜ MAH.","zip":"28802"},{"name":"KIDIR MAH.","zip":"28802"},{"name":"KIRAN MAH.","zip":"28802"},{"name":"KIRANAĞZI MAH.","zip":"28802"},{"name":"KIRCALI MAH.","zip":"28802"},{"name":"KIRIKLI KÖYÜ","zip":"28802"},{"name":"KIŞLA MAH.","zip":"28802"},{"name":"KIZANCIK MAH.","zip":"28802"},{"name":"KIZILELMA MAH.","zip":"28802"},{"name":"KİRSE MAH.","zip":"28802"},{"name":"KOBALLI MAH.","zip":"28802"},{"name":"KODALAK MAH.","zip":"28802"},{"name":"KODALKIRAN MAH.","zip":"28802"},{"name":"KOYUNHAMZA KÖYÜ","zip":"28802"},{"name":"KÖMÜRLÜK MAH.","zip":"28802"},{"name":"KÖPRÜBAŞI KÖYÜ","zip":"28802"},{"name":"KÖRÜKKIRANI MAH.","zip":"28802"},{"name":"KÖSELİ MAH.","zip":"28802"},{"name":"KUDRET MAH.","zip":"28802"},{"name":"KULAKLI MAH.","zip":"28802"},{"name":"KULOĞLU MAH.","zip":"28802"},{"name":"KURTOĞLU MAH.","zip":"28802"},{"name":"KUŞÇULU KÖYÜ","zip":"28802"},{"name":"KUTLU MAH.","zip":"28802"},{"name":"KUZ MAH.","zip":"28802"},{"name":"MAKSUTLU KÖYÜ","zip":"28802"},{"name":"MENTEŞE KÖYÜ","zip":"28802"},{"name":"MENTEŞELİ MAH.","zip":"28802"},{"name":"MENZİLLİ MAH.","zip":"28802"},{"name":"MERKEZ MAH.","zip":"28802"},{"name":"MEYİTOĞLU MAH.","zip":"28802"},{"name":"MEZARLIKBAŞI MAH.","zip":"28802"},{"name":"MEZBAHANEYANI MAH.","zip":"28802"},{"name":"MUNCU MAH.","zip":"28802"},{"name":"MUSTAFAOĞLU MAH.","zip":"28802"},{"name":"OBAKIRAN MAH.","zip":"28802"},{"name":"OKULYANI MAH.","zip":"28802"},{"name":"ORTA MAH.","zip":"28802"},{"name":"ORTAKÖY KÖYÜ","zip":"28802"},{"name":"ÖNERLİ KÖYÜ","zip":"28802"},{"name":"ÖNERLİ MAH.","zip":"28802"},{"name":"ÖRNEK MAH.","zip":"28802"},{"name":"ÖZDEMİR MAH.","zip":"28802"},{"name":"ÖZKARLIBEL MAH.","zip":"28802"},{"name":"PATANLI MAH.","zip":"28802"},{"name":"PAZARYERİ MAH.","zip":"28802"},{"name":"PIRAMATLI MAH.","zip":"28802"},{"name":"RECEPLİ KÖYÜ","zip":"28802"},{"name":"SAĞLIK KÖYÜ","zip":"28802"},{"name":"SAHİL MAH.","zip":"28802"},{"name":"SARIÇAMURLUK MAH.","zip":"28802"},{"name":"SEFERLİ KÖYÜ","zip":"28802"},{"name":"SEKİ MAH.","zip":"28802"},{"name":"SOFULLU MAH.","zip":"28802"},{"name":"SOFULU KÖYÜ","zip":"28802"},{"name":"SOĞUKPINAR KÖYÜ","zip":"28802"},{"name":"ŞAFAKLI KÖYÜ","zip":"28802"},{"name":"ŞAHALİ MAH.","zip":"28802"},{"name":"ŞAHİNYUVA KÖYÜ","zip":"28802"},{"name":"ŞIHLI MAH.","zip":"28802"},{"name":"TAMYANI MAH.","zip":"28802"},{"name":"TAŞLIK KÖYÜ","zip":"28802"},{"name":"TAŞLIK MAH.","zip":"28802"},{"name":"TAVACIOĞLU MAH.","zip":"28802"},{"name":"TEKGÖZ KÖYÜ","zip":"28802"},{"name":"TEMELAĞA MAH.","zip":"28802"},{"name":"TENKOĞLU MAH.","zip":"28802"},{"name":"TEPEBAŞI MAH.","zip":"28802"},{"name":"TEPEKÖY KÖYÜ","zip":"28802"},{"name":"TERZİALİ KÖYÜ","zip":"28802"},{"name":"TERZİLİ MAH.","zip":"28802"},{"name":"TINGIRLI MAH.","zip":"28802"},{"name":"TORUNLU MAH.","zip":"28802"},{"name":"TURP MAH.","zip":"28802"},{"name":"TURPALLI MAH.","zip":"28802"},{"name":"TUZLUK MAH.","zip":"28802"},{"name":"TÜRKELLİ KÖYÜ","zip":"28802"},{"name":"UMUTLU KÖYÜ","zip":"28802"},{"name":"UMUTLU MAH.","zip":"28802"},{"name":"USTALI MAH.","zip":"28802"},{"name":"UZUNOĞLU MAH.","zip":"28802"},{"name":"UZUNÖNERLİ MAH.","zip":"28802"},{"name":"ÜNLÜCE MAH.","zip":"28802"},{"name":"ÜST MAH.","zip":"28802"},{"name":"VERDİLİ MAH.","zip":"28802"},{"name":"YALI MAH.","zip":"28802"},{"name":"YALIKÖY KÖYÜ","zip":"28802"},{"name":"YASIMLI MAH.","zip":"28802"},{"name":"YEĞENLİ KÖYÜ","zip":"28802"},{"name":"YELÜCE MAH.","zip":"28802"},{"name":"YENİ MAH.","zip":"28802"},{"name":"YENİKÖY MAH.","zip":"28802"},{"name":"YENİYOL MAH.","zip":"28802"},{"name":"YEŞİLDERE KÖYÜ","zip":"28802"},{"name":"YUKARI MAH.","zip":"28802"},{"name":"ZIVA MAH.","zip":"28802"}]},{"name":"GÜCE","cityName":null,"quarters":null},{"name":"MERKEZKÖYLER","cityName":null,"quarters":[{"name":"ABSAK MAH.","zip":"28522"},{"name":"AHMATLI MAH.","zip":"28522"},{"name":"AKBAŞ MAH.","zip":"28522"},{"name":"AKKAKONAĞI MAH.","zip":"28522"},{"name":"AKPINAR KÖYÜ","zip":"28522"},{"name":"ALANAĞZI MAH.","zip":"28522"},{"name":"ALOĞLU MAH.","zip":"28522"},{"name":"AŞAĞI MAH.","zip":"28522"},{"name":"AYDINLAR MAH.","zip":"28522"},{"name":"BAŞ ÇUKUR MAH.","zip":"28522"},{"name":"BELEN MAH.","zip":"28522"},{"name":"BONCUKÇUKUR KÖYÜ","zip":"28522"},{"name":"BOYNU KIRAN MAH.","zip":"28522"},{"name":"BÜK MAH.","zip":"28522"},{"name":"CAMİ MAH.","zip":"28522"},{"name":"CAMİ YANI MAH.","zip":"28522"},{"name":"CARDAK ÇUKURU MAH.","zip":"28522"},{"name":"ÇAKALAĞZI MAH.","zip":"28522"},{"name":"ÇAL MAH.","zip":"28522"},{"name":"ÇAMDÜZÜ MAH.","zip":"28522"},{"name":"ÇATAK MAH.","zip":"28522"},{"name":"DANIŞMAN MAH.","zip":"28522"},{"name":"DAYICIK KÖYÜ","zip":"28522"},{"name":"DEREBÜK MAH.","zip":"28522"},{"name":"DEREBÜKÜ MAH.","zip":"28522"},{"name":"DÜZ MAH.","zip":"28522"},{"name":"DÜZÇUKUR KÖYÜ","zip":"28522"},{"name":"EBULU MAH.","zip":"28522"},{"name":"ERGENEKON KÖYÜ","zip":"28522"},{"name":"EYÜPGİL MAH.","zip":"28522"},{"name":"EZELTEPE MAH.","zip":"28522"},{"name":"FEVZİ ÇAKMAK MAH.","zip":"28522"},{"name":"FINDIKLI KÖYÜ","zip":"28522"},{"name":"FINDIKLI MAH.","zip":"28522"},{"name":"FIRINLI KÖYÜ","zip":"28522"},{"name":"GARGAN TAZLAĞI MAH.","zip":"28522"},{"name":"GIRAN MAH.","zip":"28522"},{"name":"GİYİMLİ MAH.","zip":"28522"},{"name":"GÜNEY MAH.","zip":"28522"},{"name":"GÜNİ MAH.","zip":"28522"},{"name":"GÜRAĞAÇ KÖYÜ","zip":"28522"},{"name":"HASANŞIH MAH.","zip":"28522"},{"name":"HENE MAH.","zip":"28522"},{"name":"İLİT KÖYÜ","zip":"28522"},{"name":"İRİZOĞLU MAH.","zip":"28522"},{"name":"KABAALAN MAH.","zip":"28522"},{"name":"KARADERE MAH.","zip":"28522"},{"name":"KAVACIK MAH.","zip":"28522"},{"name":"KAYA GÜNEY MAH.","zip":"28522"},{"name":"KEMAL KIŞLA MAH.","zip":"28522"},{"name":"KEMALİYE MAH.","zip":"28522"},{"name":"KIRAN MAH.","zip":"28522"},{"name":"KIRIK MAH.","zip":"28522"},{"name":"KOVANCAK MAH.","zip":"28522"},{"name":"KÖK DİKEN MAH.","zip":"28522"},{"name":"KÖYETEĞİ MAH.","zip":"28522"},{"name":"KULUNCAK KÖYÜ","zip":"28522"},{"name":"KÜÇÜK KARGAŞA MAH.","zip":"28522"},{"name":"KÜÇÜKKÖY MAH.","zip":"28522"},{"name":"MAZIDÜZÜ MAH.","zip":"28522"},{"name":"MERKEZ MAH.","zip":"28522"},{"name":"OCAK TAMI (MEZRA) MAH.","zip":"28522"},{"name":"OCAK TAMI MAH.","zip":"28522"},{"name":"OKUL YANI MAH.","zip":"28522"},{"name":"ORTA MAH.","zip":"28522"},{"name":"ÖRNEKKÖY KÖYÜ","zip":"28522"},{"name":"SARIYAR KÖYÜ","zip":"28522"},{"name":"SOĞUKPINAR KÖYÜ","zip":"28522"},{"name":"ŞEHİT MUHAMMER DUR MAH.","zip":"28522"},{"name":"TEKKEKÖY KÖYÜ","zip":"28522"},{"name":"TEVEKLİ MAH.","zip":"28522"},{"name":"TUZLAKBAŞI MAH.","zip":"28522"},{"name":"ÜS MAH.","zip":"28522"},{"name":"ÜST MAH.","zip":"28522"},{"name":"VELEDİNAĞZI MAH.","zip":"28522"},{"name":"YAYLI GIRAN MAH.","zip":"28522"},{"name":"YAZLIK MAH.","zip":"28522"},{"name":"YENİ MAH.","zip":"28522"},{"name":"YUKARI MAH.","zip":"28522"},{"name":"YUKARIBOYNUYOĞUN KÖYÜ","zip":"28522"}]},{"name":"KEŞAP","cityName":null,"quarters":[{"name":"FINDIKLI MAH.","zip":"28900"}]},{"name":"MERKEZKÖYLER","cityName":null,"quarters":[{"name":"ABİDİNOĞLU MAH.","zip":"28902"},{"name":"ACI ARMUT MAH.","zip":"28902"},{"name":"AĞOT MAH.","zip":"28902"},{"name":"AKÇUKUR MAH.","zip":"28902"},{"name":"AKELMA MAH.","zip":"28902"},{"name":"AKTAŞ MAH.","zip":"28902"},{"name":"ALAKAŞ MAH.","zip":"28902"},{"name":"ALAŞALVAROĞLU MAH.","zip":"28902"},{"name":"ALATAŞ KÖYÜ","zip":"28902"},{"name":"ALIN MAH.","zip":"28902"},{"name":"ALT MAH.","zip":"28902"},{"name":"ALTINPINAR KÖYÜ","zip":"28902"},{"name":"ARACA MAH.","zip":"28902"},{"name":"ARALCAK MAH.","zip":"28902"},{"name":"ARAPLI MAH.","zip":"28902"},{"name":"ARMUTDÜZÜ KÖYÜ","zip":"28902"},{"name":"ARMUTDÜZÜ MAH.","zip":"28902"},{"name":"ARNAVUT KÖYÜ","zip":"28902"},{"name":"ARNAVUT MAH.","zip":"28902"},{"name":"AŞAĞI MAH.","zip":"28902"},{"name":"AVUT MAH.","zip":"28902"},{"name":"AYDINLI MAH.","zip":"28902"},{"name":"AYHANLAR(EVŞEN) MAH.","zip":"28902"},{"name":"AYKITLI MAH.","zip":"28902"},{"name":"AZAPLI MAH.","zip":"28902"},{"name":"BALIKLISU KÖYÜ","zip":"28902"},{"name":"BALIKLISU MAH.","zip":"28902"},{"name":"BAŞKÖY MAH.","zip":"28902"},{"name":"BAYRAMBEY KÖYÜ","zip":"28902"},{"name":"BAYRAMŞAH KÖYÜ","zip":"28902"},{"name":"BEKİRLİ MAH.","zip":"28902"},{"name":"BEKTAŞOĞULLARI MAH.","zip":"28902"},{"name":"BEŞİRLİ MAH.","zip":"28902"},{"name":"BIDIKLI MAH.","zip":"28902"},{"name":"BÖLÜKBAŞLAR MAH.","zip":"28902"},{"name":"BURUN MAH.","zip":"28902"},{"name":"BÜYÜK ŞEREFLİ MAH.","zip":"28902"},{"name":"BÜYÜKGERİŞ MAH.","zip":"28902"},{"name":"CAMİ MAH.","zip":"28902"},{"name":"CAMİ YANI MAH.","zip":"28902"},{"name":"CAMİİ MAH.","zip":"28902"},{"name":"CAMİYANI MAH.","zip":"28902"},{"name":"CEBECİOĞLU MAH.","zip":"28902"},{"name":"CEYLANPINAR KÖYÜ","zip":"28902"},{"name":"CIMULA MAH.","zip":"28902"},{"name":"CİBİLLİ MAH.","zip":"28902"},{"name":"CİTKÖPRÜ (DAVULCUOĞLU) MAH.","zip":"28902"},{"name":"ÇAĞLAYAN MAH.","zip":"28902"},{"name":"ÇAKALTUZAĞI MAH.","zip":"28902"},{"name":"ÇAKIRLI KÖYÜ","zip":"28902"},{"name":"ÇAKIROĞLU MAH.","zip":"28902"},{"name":"ÇAKMAKLI MAH.","zip":"28902"},{"name":"ÇAKRAKLI MAH.","zip":"28902"},{"name":"ÇAMLICA KÖYÜ","zip":"28902"},{"name":"ÇAPAR MAH.","zip":"28902"},{"name":"ÇARDAKDÜZÜ MAH.","zip":"28902"},{"name":"ÇARDAKLI MAH.","zip":"28902"},{"name":"ÇATALOLUK MAH.","zip":"28902"},{"name":"ÇAYIR MAH.","zip":"28902"},{"name":"ÇENGEL DEĞİRMENİ MAH.","zip":"28902"},{"name":"ÇEŞME YANI MAH.","zip":"28902"},{"name":"ÇİFTIRLI MAH.","zip":"28902"},{"name":"ÇİLESİZOĞLU MAH.","zip":"28902"},{"name":"ÇİRİŞ MAH.","zip":"28902"},{"name":"ÇOBANLI MAH.","zip":"28902"},{"name":"ÇOLAKOĞLU MAH.","zip":"28902"},{"name":"ÇUKUR MAH.","zip":"28902"},{"name":"DAĞ DİBİ MAH.","zip":"28902"},{"name":"DAĞ MAH.","zip":"28902"},{"name":"DAĞDİBİ MAH.","zip":"28902"},{"name":"DAĞTARLA MAH.","zip":"28902"},{"name":"DEDELİ MAH.","zip":"28902"},{"name":"DEĞİRMEN ARDI MAH.","zip":"28902"},{"name":"DEĞİRMEN MAH.","zip":"28902"},{"name":"DEĞİRMENLİ MAH.","zip":"28902"},{"name":"DELİCİOĞLU MAH.","zip":"28902"},{"name":"DEMİRCİ KÖYÜ","zip":"28902"},{"name":"DEPOZAN ÇİFTELER TARLA MAH.","zip":"28902"},{"name":"DERVİŞLİ MAH.","zip":"28902"},{"name":"DİLBERLİ MAH.","zip":"28902"},{"name":"DİZAĞIZ MAH.","zip":"28902"},{"name":"DOĞANLI MAH.","zip":"28902"},{"name":"DOKUZTEPE KÖYÜ","zip":"28902"},{"name":"DÖLLEK MAH.","zip":"28902"},{"name":"DUMAN ÇUKURU MAH.","zip":"28902"},{"name":"DUMAN MAH.","zip":"28902"},{"name":"DÜZ MAH.","zip":"28902"},{"name":"DÜZKESTANE MAH.","zip":"28902"},{"name":"DÜZKÖY KÖYÜ","zip":"28902"},{"name":"EĞİRCEN MAH.","zip":"28902"},{"name":"ELEKÇİOĞLU MAH.","zip":"28902"},{"name":"ELMALIK MAH.","zip":"28902"},{"name":"ERKÖY KÖYÜ","zip":"28902"},{"name":"FERİZDEREN MAH.","zip":"28902"},{"name":"GAZANFERLİ (AŞAĞI) MAH.","zip":"28902"},{"name":"GAZANFERLİ (YUKARI) MAH.","zip":"28902"},{"name":"GEÇİT KÖYÜ","zip":"28902"},{"name":"GELENE MAH.","zip":"28902"},{"name":"GIRAN MAH.","zip":"28902"},{"name":"GÖDEÇ ALTI MAH.","zip":"28902"},{"name":"GÖLDÜZÜ MAH.","zip":"28902"},{"name":"GÖNEB MAH.","zip":"28902"},{"name":"GÖNEP MAH.","zip":"28902"},{"name":"GÖNÜLLÜ KÖYÜ","zip":"28902"},{"name":"GURABA MAH.","zip":"28902"},{"name":"GÜLBAHAROĞLU MAH.","zip":"28902"},{"name":"GÜNEYÇUKUR MAH.","zip":"28902"},{"name":"GÜNEYKÖY KÖYÜ","zip":"28902"},{"name":"GÜRE MAH.","zip":"28902"},{"name":"GÜRPINAR KÖYÜ","zip":"28902"},{"name":"HACIHASAN MAH.","zip":"28902"},{"name":"HACIHASANOĞLU MAH.","zip":"28902"},{"name":"HALKALI KÖYÜ","zip":"28902"},{"name":"HANYANI MAH.","zip":"28902"},{"name":"HAPSA MAH.","zip":"28902"},{"name":"HARMANCIK GÜZLÜK MAH.","zip":"28902"},{"name":"HARMANDARLI KÖYÜ","zip":"28902"},{"name":"HASANCA MAH.","zip":"28902"},{"name":"HAVAOĞLU MAH.","zip":"28902"},{"name":"HAYDARLI MAH.","zip":"28902"},{"name":"HIDIROĞULLARI MAH.","zip":"28902"},{"name":"HİSARÜSTÜ KÖYÜ","zip":"28902"},{"name":"HÜSEYİN TEPE MAH.","zip":"28902"},{"name":"HÜSEYİN TEPESİ MAH.","zip":"28902"},{"name":"İBİLLİ MAH.","zip":"28902"},{"name":"İMAMLI-1 MAH.","zip":"28902"},{"name":"İMAMLI-2 MAH.","zip":"28902"},{"name":"İNCİRLİK MAH.","zip":"28902"},{"name":"KABACA YATAK MAH.","zip":"28902"},{"name":"KABACAOĞLU MAH.","zip":"28902"},{"name":"KAHYALI MAH.","zip":"28902"},{"name":"KALEV MAH.","zip":"28902"},{"name":"KARA YUNUS MAH.","zip":"28902"},{"name":"KARABEDİR MAH.","zip":"28902"},{"name":"KARABİÇLİ MAH.","zip":"28902"},{"name":"KARABULDUK KÖYÜ","zip":"28902"},{"name":"KARADERE KÖYÜ","zip":"28902"},{"name":"KARAHASAN MAH.","zip":"28902"},{"name":"KARAİSHAK KÖYÜ","zip":"28902"},{"name":"KARAKAŞ MAH.","zip":"28902"},{"name":"KARAKOÇ KÖYÜ","zip":"28902"},{"name":"KARAMUSTAFAOĞLU MAH.","zip":"28902"},{"name":"KARAVELİOĞLU MAH.","zip":"28902"},{"name":"KARGIN MAH.","zip":"28902"},{"name":"KARŞI MAH.","zip":"28902"},{"name":"KARŞIYAKA MAH.","zip":"28902"},{"name":"KAŞALTI KÖYÜ","zip":"28902"},{"name":"KAŞALTI MAH.","zip":"28902"},{"name":"KAVACIK MAH.","zip":"28902"},{"name":"KAYABAŞI KÖYÜ","zip":"28902"},{"name":"KAYADİBİ MAH.","zip":"28902"},{"name":"KAYALAR MAH.","zip":"28902"},{"name":"KAYİŞOĞLU MAH.","zip":"28902"},{"name":"KELEŞLİ MAH.","zip":"28902"},{"name":"KENDİROĞLU MAH.","zip":"28902"},{"name":"KERİMLİ MAH.","zip":"28902"},{"name":"KESEBELEN MAH.","zip":"28902"},{"name":"KESİKAĞIZLAR MAH.","zip":"28902"},{"name":"KEZ MAH.","zip":"28902"},{"name":"KILIÇLI KÖYÜ","zip":"28902"},{"name":"KIRAN MAH.","zip":"28902"},{"name":"KIRANARDİ MAH.","zip":"28902"},{"name":"KIŞLA MAH.","zip":"28902"},{"name":"KIŞLAK MAH.","zip":"28902"},{"name":"KIZIL BELEN MAH.","zip":"28902"},{"name":"KIZILCAİNİŞ MAH.","zip":"28902"},{"name":"KİLİSELİ MAH.","zip":"28902"},{"name":"KİRAZLI KÖYÜ","zip":"28902"},{"name":"KÖKLÜCE-MAĞDALI MAH.","zip":"28902"},{"name":"KÖMYANI MAH.","zip":"28902"},{"name":"KÖROĞLU KELOĞULLARI MAH.","zip":"28902"},{"name":"KÖYİÇİ MAH.","zip":"28902"},{"name":"KULAK MAH.","zip":"28902"},{"name":"KURBANPINARI KÖYÜ","zip":"28902"},{"name":"KURTAĞZI MAH.","zip":"28902"},{"name":"KURUKİRAZ MAH.","zip":"28902"},{"name":"KUŞKAYASI MAH.","zip":"28902"},{"name":"KUZANLI MAH.","zip":"28902"},{"name":"KUZÇUKUR MAH.","zip":"28902"},{"name":"KÜÇÜK ŞEREFLİ MAH.","zip":"28902"},{"name":"KÜÇÜKGERİŞ KÖYÜ","zip":"28902"},{"name":"KÜRTHASANLI MAH.","zip":"28902"},{"name":"KÜŞTÜL MAH.","zip":"28902"},{"name":"LİBOS MAH.","zip":"28902"},{"name":"LOMBATOĞLU MAH.","zip":"28902"},{"name":"MEHRAÇ MAH.","zip":"28902"},{"name":"MEKTEPYANI MAH.","zip":"28902"},{"name":"MERKEZ MAH.","zip":"28902"},{"name":"MERKEZ OKUL MAH.","zip":"28902"},{"name":"MEYVALIK MAH.","zip":"28902"},{"name":"MÜCAVİR MAH.","zip":"28902"},{"name":"OKUL YANI MAH.","zip":"28902"},{"name":"ORTA ESKİ ÇİF MAH.","zip":"28902"},{"name":"ORTA MAH.","zip":"28902"},{"name":"ORUÇLU MAH.","zip":"28902"},{"name":"ÖMER OĞLU MAH.","zip":"28902"},{"name":"ÖTE GEÇE MAH.","zip":"28902"},{"name":"ÖTE MAH.","zip":"28902"},{"name":"PAMUKOĞLU MAH.","zip":"28902"},{"name":"PANCARCI MAH.","zip":"28902"},{"name":"PAŞALI OĞLU MAH.","zip":"28902"},{"name":"PAZARYOLU MAH.","zip":"28902"},{"name":"PİNAZOĞLU MAH.","zip":"28902"},{"name":"RAHMİLER MAH.","zip":"28902"},{"name":"SAMSUNLU MAH.","zip":"28902"},{"name":"SANCAKLITEPE KÖYÜ","zip":"28902"},{"name":"SARAYCIK KÖYÜ","zip":"28902"},{"name":"SARI MAH.","zip":"28902"},{"name":"SARI ÖMER OĞLU MAH.","zip":"28902"},{"name":"SAYBAŞI MAH.","zip":"28902"},{"name":"SAYCA KÖYÜ","zip":"28902"},{"name":"SAYYANI MAH.","zip":"28902"},{"name":"SERDAROĞLU MAH.","zip":"28902"},{"name":"SOKULCUK MAH.","zip":"28902"},{"name":"SOKURCUK MAH.","zip":"28902"},{"name":"SÜRMENLİ KÖYÜ","zip":"28902"},{"name":"TAFLANCIK KÖYÜ","zip":"28902"},{"name":"TAMGERİŞ MAH.","zip":"28902"},{"name":"TAPANOĞLU MAH.","zip":"28902"},{"name":"TAŞBAŞI MAH.","zip":"28902"},{"name":"TAVUKLUK MAH.","zip":"28902"},{"name":"TEKBAŞLI MAH.","zip":"28902"},{"name":"TEKERLİ MAH.","zip":"28902"},{"name":"TEPEBAŞI MAH.","zip":"28902"},{"name":"TEPEKÖY KÖYÜ","zip":"28902"},{"name":"TOHTAMUR MAH.","zip":"28902"},{"name":"TOKUŞLU MAH.","zip":"28902"},{"name":"TOSUNLU MAH.","zip":"28902"},{"name":"TÖNGEL KÖYÜ","zip":"28902"},{"name":"UĞURCA MAH.","zip":"28902"},{"name":"UNACA KÖYÜ","zip":"28902"},{"name":"UNACAKUZU MAH.","zip":"28902"},{"name":"UZUNKUM BADEMELİ MAH.","zip":"28902"},{"name":"UZUNKUM BODUR MAH.","zip":"28902"},{"name":"UZUNKUM MAH.","zip":"28902"},{"name":"UZUNKUM SAHİL MAH.","zip":"28902"},{"name":"UZUNKUM YIFTI MAH.","zip":"28902"},{"name":"ÜST MAH.","zip":"28902"},{"name":"VEZİROĞLU MAH.","zip":"28902"},{"name":"YAĞLIKUZ MAH.","zip":"28902"},{"name":"YAKUPLU MAH.","zip":"28902"},{"name":"YALI MAH.","zip":"28902"},{"name":"YALIGUZ MAH.","zip":"28902"},{"name":"YAZLIK KÖYÜ","zip":"28902"},{"name":"YENİ MAH.","zip":"28902"},{"name":"YİVDİNCİK KÖYÜ","zip":"28902"},{"name":"YOLAĞZI KÖYÜ","zip":"28902"},{"name":"YOLAĞZI MERKEZ 1. NOLU YERLEŞİM MAH.","zip":"28902"},{"name":"YOLAĞZI MERKEZ 2. NOLU YERLEŞİM MAH.","zip":"28902"},{"name":"YOLBAŞI KÖYÜ","zip":"28902"},{"name":"YOLİÇİ MAH.","zip":"28902"},{"name":"YUKARI (KAYA ARDI) MAH.","zip":"28902"},{"name":"YUKARI MAH.","zip":"28902"},{"name":"YÜNLÜCE KÖYÜ","zip":"28902"},{"name":"ZIBIÇ MAH.","zip":"28902"}]},{"name":"AKSU","cityName":null,"quarters":[{"name":"AYDINLAR MAH.","zip":"28100"},{"name":"ÇAYKARA MAH.","zip":"28100"},{"name":"ÇINARLAR MAH.","zip":"28100"},{"name":"GEDİKKAYA MAH.","zip":"28100"},{"name":"GEMİLERÇEKEĞİ MAH.","zip":"28100"},{"name":"HACI HÜSEYİN MAH.","zip":"28100"},{"name":"KALE MAH.","zip":"28100"},{"name":"KAPU MAH.","zip":"28100"},{"name":"KAVAKLAR MAH.","zip":"28100"},{"name":"KAYADİBİ MAH.","zip":"28100"},{"name":"KÜÇÜKKÖY MAH.","zip":"28100"},{"name":"ORGANİZE SANAYİ BÖLGESİ MAH.","zip":"28100"},{"name":"OSMANİYE MAH.","zip":"28100"},{"name":"SAMANLIKKIRANI MAH.","zip":"28100"},{"name":"SULTAN SELİM MAH.","zip":"28100"}]},{"name":"BATLAMA","cityName":null,"quarters":[{"name":"ERİKLİMAN MAH.","zip":"28200"},{"name":"FEVZİ ÇAKMAK MAH.","zip":"28200"},{"name":"GAZİLER MAH.","zip":"28200"},{"name":"GÜRE MAH.","zip":"28200"},{"name":"HACIMİKTAT MAH.","zip":"28200"},{"name":"HACISİYAM MAH.","zip":"28200"},{"name":"NİZAMİYE MAH.","zip":"28200"},{"name":"SELDEĞİRMENİ MAH.","zip":"28200"},{"name":"ŞEYHKERAMETTİN MAH.","zip":"28200"},{"name":"TEYYAREDÜZÜ MAH.","zip":"28200"},{"name":"YALI MAH.","zip":"28200"}]},{"name":"MERKEZKÖYLER","cityName":null,"quarters":[{"name":"AĞSAK MAH.","zip":"28018"},{"name":"AKÇALI KÖYÜ","zip":"28018"},{"name":"AKÇAYOĞLU MAH.","zip":"28018"},{"name":"AKINCI KÖYÜ","zip":"28018"},{"name":"AKKÖY KÖYÜ","zip":"28018"},{"name":"AKSEKİ MAH.","zip":"28018"},{"name":"ALINCA KÖYÜ","zip":"28018"},{"name":"ALİBAŞOĞLU MAH.","zip":"28018"},{"name":"ALİGARA MAH.","zip":"28018"},{"name":"ALİKAHYAOĞLU MAH.","zip":"28018"},{"name":"ALİOĞULLARI MAH.","zip":"28018"},{"name":"ALT MAH.","zip":"28018"},{"name":"ANBARALAN KÖYÜ","zip":"28018"},{"name":"ARALICAK MAH.","zip":"28018"},{"name":"ARMUTTEPE MAH.","zip":"28018"},{"name":"AŞAĞI MAH.","zip":"28018"},{"name":"AŞAĞI YARAŞ MAH.","zip":"28018"},{"name":"AŞŞA MAH.","zip":"28018"},{"name":"AYAROĞLU MAH.","zip":"28018"},{"name":"AYDIN MAH.","zip":"28018"},{"name":"AYDINOĞLU MAH.","zip":"28018"},{"name":"AYINCA MAH.","zip":"28018"},{"name":"BALÇIKLI MAH.","zip":"28018"},{"name":"BARÇA KÖYÜ","zip":"28018"},{"name":"BARÇAÇAKIRLI KÖYÜ","zip":"28018"},{"name":"BARÇAÇAKIRLI MAH.","zip":"28018"},{"name":"BARGANU MAH.","zip":"28018"},{"name":"BAŞDÜZ MAH.","zip":"28018"},{"name":"BAŞKONAK MAH.","zip":"28018"},{"name":"BATLAMA MAH.","zip":"28018"},{"name":"BAYAZIT KÖYÜ","zip":"28018"},{"name":"BEKİRLİ MAH.","zip":"28018"},{"name":"BEKİROĞLU MAH.","zip":"28018"},{"name":"BEYAZIT MAH.","zip":"28018"},{"name":"BIÇAKCI MAH.","zip":"28018"},{"name":"BOĞUNTU MAH.","zip":"28018"},{"name":"BOZTEKKE KÖYÜ","zip":"28018"},{"name":"BOZTEPE MAH.","zip":"28018"},{"name":"BURHANİYE KÖYÜ","zip":"28018"},{"name":"BÜK MAH.","zip":"28018"},{"name":"BÜYÜK KARAALİ MAH.","zip":"28018"},{"name":"CAMİ MAH.","zip":"28018"},{"name":"CAMİ YANI MAH.","zip":"28018"},{"name":"CAMİİ YANI MAH.","zip":"28018"},{"name":"CAMİLİ KÖYÜ","zip":"28018"},{"name":"CAMİYANI MAH.","zip":"28018"},{"name":"CAMİYANI USTALAR MAH.","zip":"28018"},{"name":"CIMANOĞLU MAH.","zip":"28018"},{"name":"CINARAK MAH.","zip":"28018"},{"name":"CİVELEKOĞLU MAH.","zip":"28018"},{"name":"COLAR MAH.","zip":"28018"},{"name":"CUMHURİYET MAH.","zip":"28018"},{"name":"CÜRGÜLLÜ MAH.","zip":"28018"},{"name":"ÇAĞLANBAŞI MAH.","zip":"28018"},{"name":"ÇAĞLAYAN MAH.","zip":"28018"},{"name":"ÇAKIROĞLU MAH.","zip":"28018"},{"name":"ÇALDAĞ KÖYÜ","zip":"28018"},{"name":"ÇAMLIK KÖYÜ","zip":"28018"},{"name":"ÇANDIR KÖYÜ","zip":"28018"},{"name":"ÇARDAKYANI MAH.","zip":"28018"},{"name":"ÇAŞAK MAH.","zip":"28018"},{"name":"ÇATAK MAH.","zip":"28018"},{"name":"ÇATALTEPE MAH.","zip":"28018"},{"name":"ÇAVUŞOĞLU KÖYÜ","zip":"28018"},{"name":"ÇAVUŞOĞLU MAH.","zip":"28018"},{"name":"ÇAYIRAĞZI MAH.","zip":"28018"},{"name":"ÇERKEZLİ MAH.","zip":"28018"},{"name":"ÇIĞDİBİ MAH.","zip":"28018"},{"name":"ÇINARLAR MAH.","zip":"28018"},{"name":"ÇINGILI MAH.","zip":"28018"},{"name":"ÇİÇEKLİ KÖYÜ","zip":"28018"},{"name":"ÇİMŞİR KÖYÜ","zip":"28018"},{"name":"ÇİNKO DERESİ MAH.","zip":"28018"},{"name":"ÇİRİŞLİ MAH.","zip":"28018"},{"name":"ÇOBANLI MAH.","zip":"28018"},{"name":"ÇONUKOĞLU MAH.","zip":"28018"},{"name":"ÇORAKLIK MAH.","zip":"28018"},{"name":"ÇORTYOL MAH.","zip":"28018"},{"name":"ÇUKUR MAH.","zip":"28018"},{"name":"ÇUKURKÖY KÖYÜ","zip":"28018"},{"name":"DAĞ BAHÇE MAH.","zip":"28018"},{"name":"DAĞ MAH.","zip":"28018"},{"name":"DAĞTARLA MAH.","zip":"28018"},{"name":"DALLIKIRAN MAH.","zip":"28018"},{"name":"DAMÇUKURU MAH.","zip":"28018"},{"name":"DAMDÜZÜ MAH.","zip":"28018"},{"name":"DARIBÜKÜ MAH.","zip":"28018"},{"name":"DARIKÖY KÖYÜ","zip":"28018"},{"name":"DAŞDİBİ MAH.","zip":"28018"},{"name":"DELEMADDU MAH.","zip":"28018"},{"name":"DEMİRCİ AĞZI MAH.","zip":"28018"},{"name":"DEMİRCİ MAH.","zip":"28018"},{"name":"DEMİROLUK MAH.","zip":"28018"},{"name":"DEREGÖZÜ MAH.","zip":"28018"},{"name":"DEREİÇİ MAH.","zip":"28018"},{"name":"DEREKOL MAH.","zip":"28018"},{"name":"DERVİŞOĞLU MAH.","zip":"28018"},{"name":"DEVECİOĞLU MAH.","zip":"28018"},{"name":"DİKMEN MAH.","zip":"28018"},{"name":"DİKMENDİBİ MAH.","zip":"28018"},{"name":"DİLBER MAH.","zip":"28018"},{"name":"DİLLİOĞLU MAH.","zip":"28018"},{"name":"DİVAN MAH.","zip":"28018"},{"name":"DİYELCİK MAH.","zip":"28018"},{"name":"DORUK MAH.","zip":"28018"},{"name":"DUMAN MAH.","zip":"28018"},{"name":"DUROĞLU KÖYÜ","zip":"28018"},{"name":"DUZAK MAH.","zip":"28018"},{"name":"DÜZ MAH.","zip":"28018"},{"name":"ELMA TEPESİ MAH.","zip":"28018"},{"name":"ERGENCE KÖYÜ","zip":"28018"},{"name":"ERİKLİMANI KÖYÜ","zip":"28018"},{"name":"ESELO MAH.","zip":"28018"},{"name":"ESENBÜK MAH.","zip":"28018"},{"name":"ESENTEPE KÖYÜ","zip":"28018"},{"name":"ESENYURT MAH.","zip":"28018"},{"name":"EVRENKÖY KÖYÜ","zip":"28018"},{"name":"EYLENCE MAH.","zip":"28018"},{"name":"EZİRKANCI MAH.","zip":"28018"},{"name":"FATİH MAH.","zip":"28018"},{"name":"FELLAHOĞLU MAH.","zip":"28018"},{"name":"GAMARO MAH.","zip":"28018"},{"name":"GAZİLER TEPESİ ALT MAH.","zip":"28018"},{"name":"GAZİLER TEPESİ ÜST MAH.","zip":"28018"},{"name":"GEÇİCİOĞLU MAH.","zip":"28018"},{"name":"GEDİK ÇUKURU MAH.","zip":"28018"},{"name":"GEDİKLİ KÖYÜ","zip":"28018"},{"name":"GERDENCİK MAH.","zip":"28018"},{"name":"GIRAN MAH.","zip":"28018"},{"name":"GÖNEP MAH.","zip":"28018"},{"name":"GÜNDOĞDU MAH.","zip":"28018"},{"name":"GÜNEY KÖYÜ","zip":"28018"},{"name":"GÜNEY MAH.","zip":"28018"},{"name":"GÜRE MAH.","zip":"28018"},{"name":"GÜRKÖY KÖYÜ","zip":"28018"},{"name":"GÜRLEĞEN MAH.","zip":"28018"},{"name":"GÜVEÇ KÖYÜ","zip":"28018"},{"name":"HACI EMİN MAH.","zip":"28018"},{"name":"HACI İLYAS MAH.","zip":"28018"},{"name":"HACIBAHAR MAH.","zip":"28018"},{"name":"HACIOĞLU MAH.","zip":"28018"},{"name":"HACIÖMER MAH.","zip":"28018"},{"name":"HALAC MAH.","zip":"28018"},{"name":"HALİL AĞA MAH.","zip":"28018"},{"name":"HALİLOĞLU MAH.","zip":"28018"},{"name":"HAMBARCA MAH.","zip":"28018"},{"name":"HAMİDİYE KÖYÜ","zip":"28018"},{"name":"HATİPOĞLU MAH.","zip":"28018"},{"name":"HİMMETOĞLU MAH.","zip":"28018"},{"name":"HİSARGERİŞ KÖYÜ","zip":"28018"},{"name":"HOCAOĞLU MAH.","zip":"28018"},{"name":"HOMURLU MAH.","zip":"28018"},{"name":"HÜSEYİNDAĞ MAH.","zip":"28018"},{"name":"İBİLOĞLU MAH.","zip":"28018"},{"name":"İKİSU MAH.","zip":"28018"},{"name":"İMAM TORUNOĞLU MAH.","zip":"28018"},{"name":"İMAMLI MAH.","zip":"28018"},{"name":"İMAMOĞLU ALT MAH.","zip":"28018"},{"name":"İMAMOĞLU MAH.","zip":"28018"},{"name":"İMAMOĞLU ÜST MAH.","zip":"28018"},{"name":"İNCEGERİŞ KÖYÜ","zip":"28018"},{"name":"İNCİRLİ MAH.","zip":"28018"},{"name":"İNDİBİ MAH.","zip":"28018"},{"name":"İNİŞDİBİ KÖYÜ","zip":"28018"},{"name":"KABAKÖSE MAH.","zip":"28018"},{"name":"KADIOĞLU MAH.","zip":"28018"},{"name":"KALAFATLI MAH.","zip":"28018"},{"name":"KALE MAH.","zip":"28018"},{"name":"KALEYANI MAH.","zip":"28018"},{"name":"KAMUZLU MAH.","zip":"28018"},{"name":"KARAAĞAÇ MAH.","zip":"28018"},{"name":"KARAALİ KÖYÜ","zip":"28018"},{"name":"KARABACAKOĞLU MAH.","zip":"28018"},{"name":"KARABALÇIK MAH.","zip":"28018"},{"name":"KARADAĞ MAH.","zip":"28018"},{"name":"KARAHIDIR MAH.","zip":"28018"},{"name":"KARAKESTANE MAH.","zip":"28018"},{"name":"KARAOSMANOĞLU MAH.","zip":"28018"},{"name":"KARAOYRAK MAH.","zip":"28018"},{"name":"KARATEPE MAH.","zip":"28018"},{"name":"KARAYAKUP MAH.","zip":"28018"},{"name":"KARGA TARLASI MAH.","zip":"28018"},{"name":"KARGAOĞLU MAH.","zip":"28018"},{"name":"KATMECİOĞLU MAH.","zip":"28018"},{"name":"KAVACIK MAH.","zip":"28018"},{"name":"KAVAK MAH.","zip":"28018"},{"name":"KAVAKBOĞAZI MAH.","zip":"28018"},{"name":"KAVAKLI MAH.","zip":"28018"},{"name":"KAVALCIOĞLU DERE MAH.","zip":"28018"},{"name":"KAVLAKLI MAH.","zip":"28018"},{"name":"KAYIŞOĞLU MAH.","zip":"28018"},{"name":"KAYNARCA MAH.","zip":"28018"},{"name":"KEÇEMENLİ MAH.","zip":"28018"},{"name":"KEMALİYE KÖYÜ","zip":"28018"},{"name":"KEMALLI MAH.","zip":"28018"},{"name":"KEMALOĞLU MAH.","zip":"28018"},{"name":"KERTBOĞAZ MAH.","zip":"28018"},{"name":"KESTANE DERESİ MAH.","zip":"28018"},{"name":"KIRAN MAH.","zip":"28018"},{"name":"KİLLİK MAH.","zip":"28018"},{"name":"KİLTİK KIRAN MAH.","zip":"28018"},{"name":"KOÇMAR MAH.","zip":"28018"},{"name":"KOLOĞLU MAH.","zip":"28018"},{"name":"KONACIK MAH.","zip":"28018"},{"name":"KOVANACIK MAH.","zip":"28018"},{"name":"KOZOĞLU MAH.","zip":"28018"},{"name":"KÖMÜRCE MAH.","zip":"28018"},{"name":"KÖROĞLU MAH.","zip":"28018"},{"name":"KÖYİÇİ MAH.","zip":"28018"},{"name":"KUMAŞOĞLU MAH.","zip":"28018"},{"name":"KUŞÇULU MAH.","zip":"28018"},{"name":"KUYU TEPESİ MAH.","zip":"28018"},{"name":"KUZ ÇUKURU MAH.","zip":"28018"},{"name":"KUZ MAH.","zip":"28018"},{"name":"KÜÇÜK KARAALİ MAH.","zip":"28018"},{"name":"KÜÇÜKLÜ MAH.","zip":"28018"},{"name":"KÜÇÜKSANAYİ MAH.","zip":"28018"},{"name":"KÜLCÜOĞLU MAH.","zip":"28018"},{"name":"KÜLÜOĞLU MAH.","zip":"28018"},{"name":"KÜPEROĞLU MAH.","zip":"28018"},{"name":"KÜRTÜNLÜ MAH.","zip":"28018"},{"name":"LAPA KÖYÜ","zip":"28018"},{"name":"LEFKOŞE MAH.","zip":"28018"},{"name":"MACARO MAH.","zip":"28018"},{"name":"MACAROĞLU MAH.","zip":"28018"},{"name":"MACİR MAH.","zip":"28018"},{"name":"MADEN MAH.","zip":"28018"},{"name":"MAĞDALU MAH.","zip":"28018"},{"name":"MAHMUTCALI MAH.","zip":"28018"},{"name":"MANAR MAH.","zip":"28018"},{"name":"MEHMET YUSUFOĞLU MAH.","zip":"28018"},{"name":"MEHMETAĞA MAH.","zip":"28018"},{"name":"MELİKLİ KÖYÜ","zip":"28018"},{"name":"MERKEZ CAMİ YANI MAH.","zip":"28018"},{"name":"MERKEZ MAH.","zip":"28018"},{"name":"MESUDİYE KÖYÜ","zip":"28018"},{"name":"MEŞELİ MAH.","zip":"28018"},{"name":"MINDIZ MAH.","zip":"28018"},{"name":"MOLLA MUSTAFA MAH.","zip":"28018"},{"name":"MOLLAALİ MAH.","zip":"28018"},{"name":"MOLO MAHMUT MAH.","zip":"28018"},{"name":"MUSACOĞLU MAH.","zip":"28018"},{"name":"MÜEZZİNOĞLU MAH.","zip":"28018"},{"name":"NEBİOĞLU MAH.","zip":"28018"},{"name":"NURİ SEYİT ALİOĞLU MAH.","zip":"28018"},{"name":"OKÇU KÖYÜ","zip":"28018"},{"name":"OKUL YANI MAH.","zip":"28018"},{"name":"OLUK MAH.","zip":"28018"},{"name":"ORHANİYE KÖYÜ","zip":"28018"},{"name":"ORTA MAH.","zip":"28018"},{"name":"ORTAKÖY KÖYÜ","zip":"28018"},{"name":"OSMANAĞA MAH.","zip":"28018"},{"name":"OSMANİYE MAH.","zip":"28018"},{"name":"ÖMERLİ MAH.","zip":"28018"},{"name":"ÖREN MAH.","zip":"28018"},{"name":"ÖRENCİK MAH.","zip":"28018"},{"name":"ÖZGÜRLÜK MAH.","zip":"28018"},{"name":"PAŞALI MAH.","zip":"28018"},{"name":"PINARÇUKURU KÖYÜ","zip":"28018"},{"name":"PİRİLER MAH.","zip":"28018"},{"name":"POSLUOĞLU MAH.","zip":"28018"},{"name":"SAKA MAH.","zip":"28018"},{"name":"SAKALLIDAĞ MAH.","zip":"28018"},{"name":"SAKAOĞLU MAH.","zip":"28018"},{"name":"SARVAN KÖYÜ","zip":"28018"},{"name":"SAYCA KÖYÜ","zip":"28018"},{"name":"SEYDİMAL MAH.","zip":"28018"},{"name":"SEYİTKÖY KÖYÜ","zip":"28018"},{"name":"SIVACI KÖYÜ","zip":"28018"},{"name":"SIVACI MAH.","zip":"28018"},{"name":"SİNDEL MAH.","zip":"28018"},{"name":"SULTANİYE KÖYÜ","zip":"28018"},{"name":"SULTANİYE MAH.","zip":"28018"},{"name":"SÜKÜK NARLI MAH.","zip":"28018"},{"name":"ŞABANLI MAH.","zip":"28018"},{"name":"ŞEHİT ORAL DEMİRAL MAH.","zip":"28018"},{"name":"ŞEHİT ZAFER KONAK MAH.","zip":"28018"},{"name":"ŞIHLI MAH.","zip":"28018"},{"name":"ŞİŞBAŞ MAH.","zip":"28018"},{"name":"TAŞ BAŞI MAH.","zip":"28018"},{"name":"TAŞHAN MAH.","zip":"28018"},{"name":"TEKİROĞLU MAH.","zip":"28018"},{"name":"TEKKE MAH.","zip":"28018"},{"name":"TEPE MAH.","zip":"28018"},{"name":"TOPALOĞLU MAH.","zip":"28018"},{"name":"TOPÇUALİ MAH.","zip":"28018"},{"name":"TOPÇUOĞLU MAH.","zip":"28018"},{"name":"TOZLU MAH.","zip":"28018"},{"name":"TÖMEN TARLA MAH.","zip":"28018"},{"name":"TÜRKMENLİ MAH.","zip":"28018"},{"name":"TÜRKMENOĞLU MAH.","zip":"28018"},{"name":"ULUMEŞE MAH.","zip":"28018"},{"name":"ULUPELİT MAH.","zip":"28018"},{"name":"USTA ALİ OĞLU MAH.","zip":"28018"},{"name":"USTALI MAH.","zip":"28018"},{"name":"USTAOĞLU MAH.","zip":"28018"},{"name":"UZGUR KÖYÜ","zip":"28018"},{"name":"UZKARA KÖYÜ","zip":"28018"},{"name":"UZUNCAKUM MAH.","zip":"28018"},{"name":"UZUNOĞLU MAH.","zip":"28018"},{"name":"ÜLPER KÖYÜ","zip":"28018"},{"name":"ÜST MAH.","zip":"28018"},{"name":"ÜZÜMLÜK MAH.","zip":"28018"},{"name":"VELİOĞLU MAH.","zip":"28018"},{"name":"YAĞMURCA KÖYÜ","zip":"28018"},{"name":"YAĞMURCA MAH.","zip":"28018"},{"name":"YAHYALI MAH.","zip":"28018"},{"name":"YAVŞULUK MAH.","zip":"28018"},{"name":"YAYKINLIK KÖYÜ","zip":"28018"},{"name":"YAYLALI MAH.","zip":"28018"},{"name":"YAZLIK KÖYÜ","zip":"28018"},{"name":"YAZLIK MAH.","zip":"28018"},{"name":"YENİ MAH.","zip":"28018"},{"name":"YENİCEHİSAR KÖYÜ","zip":"28018"},{"name":"YENİÇAĞ MAH.","zip":"28018"},{"name":"YENİYOL MAH.","zip":"28018"},{"name":"YILANCIOĞLU MAH.","zip":"28018"},{"name":"YUKARI ÇAVUŞOĞLU MAH.","zip":"28018"},{"name":"YUKARIALINLI KÖYÜ","zip":"28018"},{"name":"YUMRUTAŞ MAH.","zip":"28018"},{"name":"ZEHİROĞLU MAH.","zip":"28018"},{"name":"ZUVALI MAH.","zip":"28018"},{"name":"AKÇAY KÖYÜ","zip":"28342"},{"name":"AKELMA MAH.","zip":"28342"},{"name":"AKTAŞ MAH.","zip":"28342"},{"name":"ALAMEŞE MAH.","zip":"28342"},{"name":"ALİDEDE KÖYÜ","zip":"28342"},{"name":"ALT MAH.","zip":"28342"},{"name":"ARMUTÇUKURU KÖYÜ","zip":"28342"},{"name":"ARMUTDÜZÜ MAH.","zip":"28342"},{"name":"AŞAĞI MAH.","zip":"28342"},{"name":"BAKACAK MAH.","zip":"28342"},{"name":"BALÇIKLI KÖYÜ","zip":"28342"},{"name":"BAYRAMŞAH MAH.","zip":"28342"},{"name":"BEKTAŞ MAH.","zip":"28342"},{"name":"BİTENE MAH.","zip":"28342"},{"name":"BOZAT KÖYÜ","zip":"28342"},{"name":"BOZAT MAH.","zip":"28342"},{"name":"BÜLBÜLLÜ KÖYÜ","zip":"28342"},{"name":"ÇAĞLANDERE KÖYÜ","zip":"28342"},{"name":"ÇAYIRKÖY KÖYÜ","zip":"28342"},{"name":"DERE MAH.","zip":"28342"},{"name":"DEREGÖZÜ KÖYÜ","zip":"28342"},{"name":"DEREGÖZÜ MAH.","zip":"28342"},{"name":"DEREYANI MAH.","zip":"28342"},{"name":"DUMANTEPE MAH.","zip":"28342"},{"name":"ESENTEPE KÖYÜ","zip":"28342"},{"name":"GÖKÇEALİ KÖYÜ","zip":"28342"},{"name":"GÖKÇEALİ MAH.","zip":"28342"},{"name":"GÖLDÜZÜ MAH.","zip":"28342"},{"name":"GÜNEYKÖY KÖYÜ","zip":"28342"},{"name":"HAPANCA YOLU MAH.","zip":"28342"},{"name":"HASANŞEYH KÖYÜ","zip":"28342"},{"name":"HEKİMOĞLU MAH.","zip":"28342"},{"name":"KALEYANI MAH.","zip":"28342"},{"name":"KAVRAZLI MAH.","zip":"28342"},{"name":"KAYABAŞI MAH.","zip":"28342"},{"name":"KENDİRÇUKURU MAH.","zip":"28342"},{"name":"KILIÇLI KÖYÜ","zip":"28342"},{"name":"KIRAN MAH.","zip":"28342"},{"name":"KUZYAKA MAH.","zip":"28342"},{"name":"MEDRESE KÖYÜ","zip":"28342"},{"name":"MEDRESE MAH.","zip":"28342"},{"name":"MERKEZ MAH.","zip":"28342"},{"name":"NARLIK KÖYÜ","zip":"28342"},{"name":"NEFSİ PİRAZİZ KÖYÜ","zip":"28342"},{"name":"ORTA MAH.","zip":"28342"},{"name":"ÖRNEKKÖY KÖYÜ","zip":"28342"},{"name":"PETBAŞI MAH.","zip":"28342"},{"name":"PINARÇUKURU MAH.","zip":"28342"},{"name":"SEVDANLI MAH.","zip":"28342"},{"name":"ŞAHİNTEPE MAH.","zip":"28342"},{"name":"ŞEREFLİ KÖYÜ","zip":"28342"},{"name":"TAFLANCIK MAH.","zip":"28342"},{"name":"TEPE MAH.","zip":"28342"},{"name":"TEPEKÖY KÖYÜ","zip":"28342"},{"name":"YAVRUTAMI MAH.","zip":"28342"},{"name":"YUKARI MAH.","zip":"28342"},{"name":"YUNUSEMRE KÖYÜ","zip":"28342"}]},{"name":"PİRAZİZ","cityName":null,"quarters":[{"name":"EREN MAH.","zip":"28340"},{"name":"ETLİKKIRAN MAH.","zip":"28340"},{"name":"KALEYANI MAH.","zip":"28340"},{"name":"KARGI MAH.","zip":"28340"},{"name":"MADEN MAH.","zip":"28340"},{"name":"ŞEYHLİ MAH.","zip":"28340"},{"name":"ŞIHKIRAN MAH.","zip":"28340"},{"name":"YENİ MAH.","zip":"28340"}]},{"name":"MERKEZKÖYLER","cityName":null,"quarters":[{"name":"AHURCUK KÖYÜ","zip":"28402"},{"name":"AKVİRAN KÖYÜ","zip":"28402"},{"name":"ALİŞAR KÖYÜ","zip":"28402"},{"name":"ALTINÇEVRE KÖYÜ","zip":"28402"},{"name":"ALUÇ MAH.","zip":"28402"},{"name":"ARSLANŞAH KÖYÜ","zip":"28402"},{"name":"ASARCIK KÖYÜ","zip":"28402"},{"name":"AŞAĞI ARMUTLU MAH.","zip":"28402"},{"name":"AŞAĞI MAH.","zip":"28402"},{"name":"BAĞDERE MAH.","zip":"28402"},{"name":"BALCANA KÖYÜ","zip":"28402"},{"name":"BALTAŞI KÖYÜ","zip":"28402"},{"name":"BATI HACIKÖY MAH.","zip":"28402"},{"name":"BAYHASAN KÖYÜ","zip":"28402"},{"name":"BAYRAMKÖY KÖYÜ","zip":"28402"},{"name":"BULDUKLU MAH.","zip":"28402"},{"name":"BURSEYİT MAH.","zip":"28402"},{"name":"BUSAİT MAH.","zip":"28402"},{"name":"BUZKEÇİ KÖYÜ","zip":"28402"},{"name":"CÜŞ MAH.","zip":"28402"},{"name":"ÇAĞLAYAN KÖYÜ","zip":"28402"},{"name":"ÇAKIR KÖYÜ","zip":"28402"},{"name":"ÇAMLIBEL KÖYÜ","zip":"28402"},{"name":"ÇİLEDER MAH.","zip":"28402"},{"name":"ÇOĞLU MAH.","zip":"28402"},{"name":"DEDELİ MAH.","zip":"28402"},{"name":"DEREKÖY KÖYÜ","zip":"28402"},{"name":"DERVİŞOĞLU MAH.","zip":"28402"},{"name":"DİLER KÖYÜ","zip":"28402"},{"name":"DOĞANYUVA KÖYÜ","zip":"28402"},{"name":"DOĞU HACIKÖY MAH.","zip":"28402"},{"name":"DORUKLU MAH.","zip":"28402"},{"name":"DÖNENÇAY KÖYÜ","zip":"28402"},{"name":"DUMAN KÖYÜ","zip":"28402"},{"name":"EKECEK KÖYÜ","zip":"28402"},{"name":"ELMAAĞAÇ MAH.","zip":"28402"},{"name":"ESENTEPE KÖYÜ","zip":"28402"},{"name":"ETİR MAH.","zip":"28402"},{"name":"EVCİLİ KÖYÜ","zip":"28402"},{"name":"GÖKÇETAŞ KÖYÜ","zip":"28402"},{"name":"GÖRENE MAH.","zip":"28402"},{"name":"GÜNEYGÖREN KÖYÜ","zip":"28402"},{"name":"GÜRPINAR KÖYÜ","zip":"28402"},{"name":"GÜVERCİNLİK KÖYÜ","zip":"28402"},{"name":"GÜZELYURT KÖYÜ","zip":"28402"},{"name":"HACIÖMER KÖYÜ","zip":"28402"},{"name":"HAHAVLA MAH.","zip":"28402"},{"name":"HAMZALI MAH.","zip":"28402"},{"name":"HAN MAH.","zip":"28402"},{"name":"HASANŞEYH KÖYÜ","zip":"28402"},{"name":"HOCAOĞLU KÖYÜ","zip":"28402"},{"name":"HOZANA MAH.","zip":"28402"},{"name":"KAMBERLİ MAH.","zip":"28402"},{"name":"KAPAKLI MAH.","zip":"28402"},{"name":"KARAAĞAÇ KÖYÜ","zip":"28402"},{"name":"KARACAÖREN KÖYÜ","zip":"28402"},{"name":"KARACAÖREN MERKEZ MAH.","zip":"28402"},{"name":"KARAOĞUL MAH.","zip":"28402"},{"name":"KARLI MAH.","zip":"28402"},{"name":"KAVAKLI MAH.","zip":"28402"},{"name":"KAYADİBİ MAH.","zip":"28402"},{"name":"KAYALI KÖYÜ","zip":"28402"},{"name":"KESTANE MAH.","zip":"28402"},{"name":"KINIK KÖYÜ","zip":"28402"},{"name":"KISIK MAH.","zip":"28402"},{"name":"KIZIK MAH.","zip":"28402"},{"name":"KİLLİK MAH.","zip":"28402"},{"name":"KONAK KÖYÜ","zip":"28402"},{"name":"KOZLUCA MAH.","zip":"28402"},{"name":"KULE KÖYÜ","zip":"28402"},{"name":"KÜÇÜK MAH.","zip":"28402"},{"name":"LAPA MAH.","zip":"28402"},{"name":"LAZ MAH.","zip":"28402"},{"name":"LEYLEK MAH.","zip":"28402"},{"name":"LİCESE MAH.","zip":"28402"},{"name":"MERKEZ MAH.","zip":"28402"},{"name":"MEYKEL MAH.","zip":"28402"},{"name":"OCAKTAŞI KÖYÜ","zip":"28402"},{"name":"ORTA MAH.","zip":"28402"},{"name":"OVACIK KÖYÜ","zip":"28402"},{"name":"OZANLI KÖYÜ","zip":"28402"},{"name":"ÖRENCİK KÖYÜ","zip":"28402"},{"name":"PAZARÖNÜ MAH.","zip":"28402"},{"name":"PINARÖNÜ MAH.","zip":"28402"},{"name":"SARAYCIK KÖYÜ","zip":"28402"},{"name":"SARIYER KÖYÜ","zip":"28402"},{"name":"SAYDERESİ MAH.","zip":"28402"},{"name":"SİPAHİ KÖYÜ","zip":"28402"},{"name":"SOĞULCAK MAH.","zip":"28402"},{"name":"SÖĞÜTELİ MAH.","zip":"28402"},{"name":"SUBAK MAH.","zip":"28402"},{"name":"SUBOYU KÖYÜ","zip":"28402"},{"name":"SUCAK MAH.","zip":"28402"},{"name":"SULTANKONAĞI KÖYÜ","zip":"28402"},{"name":"ŞAHİNLER KÖYÜ","zip":"28402"},{"name":"ŞAPLICA KÖYÜ","zip":"28402"},{"name":"TABANLI MAH.","zip":"28402"},{"name":"TAŞ MAH.","zip":"28402"},{"name":"TAŞCILI KÖYÜ","zip":"28402"},{"name":"TEKKAYA KÖYÜ","zip":"28402"},{"name":"TENEMELİ MAH.","zip":"28402"},{"name":"TEPELCE MAH.","zip":"28402"},{"name":"TEPELTEPE KÖYÜ","zip":"28402"},{"name":"TİNGİLLİ MAH.","zip":"28402"},{"name":"TOKLUAĞIL KÖYÜ","zip":"28402"},{"name":"TOPLUKONAK KÖYÜ","zip":"28402"},{"name":"TORAMANLI MAH.","zip":"28402"},{"name":"TORLUK MAH.","zip":"28402"},{"name":"TURPÇU KÖYÜ","zip":"28402"},{"name":"UĞURCA KÖYÜ","zip":"28402"},{"name":"ULUYAZI MAH.","zip":"28402"},{"name":"VELİOĞLU MAH.","zip":"28402"},{"name":"YAKINCA KÖYÜ","zip":"28402"},{"name":"YALNIZTAM MAH.","zip":"28402"},{"name":"YAYCI KÖYÜ","zip":"28402"},{"name":"YEDİKARDEŞ KÖYÜ","zip":"28402"},{"name":"YEDİPINAR MAH.","zip":"28402"},{"name":"YENİCE MAH.","zip":"28402"},{"name":"YENİYOL KÖYÜ","zip":"28402"},{"name":"YEŞİLYAYLA KÖYÜ","zip":"28402"},{"name":"YEŞİLYURT KÖYÜ","zip":"28402"},{"name":"YETEROĞLU MAH.","zip":"28402"},{"name":"YILTARIÇ KÖYÜ","zip":"28402"},{"name":"YUKARI ARMUTLU MAH.","zip":"28402"},{"name":"YUKARI MAH.","zip":"28402"},{"name":"YUMURCAKTAŞ KÖYÜ","zip":"28402"}]},{"name":"ŞEBİNKARAHİSAR","cityName":null,"quarters":[{"name":"AVUTMUŞ MAH.","zip":"28400"},{"name":"BİROĞUL MAH.","zip":"28400"},{"name":"BÜLBÜL MAH.","zip":"28400"},{"name":"ÇİFTLİK MAH.","zip":"28400"},{"name":"FATİH MAH.","zip":"28400"},{"name":"İKİOĞUL MAH.","zip":"28400"},{"name":"KAVAKLAR MAH.","zip":"28400"},{"name":"KIRKGÖZ MAH.","zip":"28400"},{"name":"KIZILCA MAH.","zip":"28400"},{"name":"KÜTKÜT MAH.","zip":"28400"},{"name":"MÜFTÜ MAH.","zip":"28400"},{"name":"TAMZARA MAH.","zip":"28400"},{"name":"TAŞ MAH.","zip":"28400"},{"name":"YAVUZ SELİM MAH.","zip":"28400"}]},{"name":"MERKEZKÖYLER","cityName":null,"quarters":[{"name":"ABDULLU PATTELLASİ MAH.","zip":"28502"},{"name":"ABDULLU YAYCA MAH.","zip":"28502"},{"name":"AĞDARI MAH.","zip":"28502"},{"name":"AHMETÇALI MAH.","zip":"28502"},{"name":"AKÇAKESE MAH.","zip":"28502"},{"name":"AKINCILAR KÖYÜ","zip":"28502"},{"name":"AKKAYA MAH.","zip":"28502"},{"name":"AKYAR MAH.","zip":"28502"},{"name":"ALACO MAH.","zip":"28502"},{"name":"ALAKAŞ MAH.","zip":"28502"},{"name":"ALATLI MAH.","zip":"28502"},{"name":"ALÇAKKIRAN MAH.","zip":"28502"},{"name":"ALİ EVİ MAH.","zip":"28502"},{"name":"ALT MAH.","zip":"28502"},{"name":"ALTIPARMAK MAH.","zip":"28502"},{"name":"ANLAK MAH.","zip":"28502"},{"name":"ARAGERİŞ KÖYÜ","zip":"28502"},{"name":"ARMUTAĞZI MAH.","zip":"28502"},{"name":"ARSLANCIK KÖYÜ","zip":"28502"},{"name":"AŞAĞI ÇINARCIK MAH.","zip":"28502"},{"name":"AŞAĞI MAH.","zip":"28502"},{"name":"AŞAĞIBOYNUYOĞUN KÖYÜ","zip":"28502"},{"name":"AŞAĞIKIRAN MAH.","zip":"28502"},{"name":"AŞAĞIOSMANLI MAH.","zip":"28502"},{"name":"AŞHAPÇUK MAH.","zip":"28502"},{"name":"ATAKÖY KÖYÜ","zip":"28502"},{"name":"AVCILI KÖYÜ","zip":"28502"},{"name":"BALÇIKBELEN KÖYÜ","zip":"28502"},{"name":"BAYRAKTARLI MAH.","zip":"28502"},{"name":"BEDRAMA MAH.","zip":"28502"},{"name":"BEKİRLİ MAH.","zip":"28502"},{"name":"BELEN KÖYÜ","zip":"28502"},{"name":"BERBERLİ MAH.","zip":"28502"},{"name":"BEŞKİSE MAH.","zip":"28502"},{"name":"BİNEKTAŞI MAH.","zip":"28502"},{"name":"BOĞACIKLI İPEK ALİ MAH.","zip":"28502"},{"name":"BOĞACIKLI KARIK MAH.","zip":"28502"},{"name":"BOĞACIKLI KIRAN MAH.","zip":"28502"},{"name":"BOĞACIKLI ORTA MAH.","zip":"28502"},{"name":"BUĞDALIK MAH.","zip":"28502"},{"name":"BÜK MAH.","zip":"28502"},{"name":"BÜKALTI MAH.","zip":"28502"},{"name":"CAFERKUZU MAH.","zip":"28502"},{"name":"CAMİ MAH.","zip":"28502"},{"name":"CAMİ YANI MAH.","zip":"28502"},{"name":"CAMİ YANİ MAH.","zip":"28502"},{"name":"CAMİYANI MAH.","zip":"28502"},{"name":"CARDAK KIRAN MAH.","zip":"28502"},{"name":"CEBECİOĞLU MAH.","zip":"28502"},{"name":"CELLİ MAH.","zip":"28502"},{"name":"CERRAHOĞLU MAH.","zip":"28502"},{"name":"CIRITLI MAH.","zip":"28502"},{"name":"CİVİL KÖYÜ","zip":"28502"},{"name":"ÇAL MAH.","zip":"28502"},{"name":"ÇALIKLI MAH.","zip":"28502"},{"name":"ÇAMLIKÖY KÖYÜ","zip":"28502"},{"name":"ÇAMTAM MAH.","zip":"28502"},{"name":"ÇANDIRLI MAH.","zip":"28502"},{"name":"ÇATAK MAH.","zip":"28502"},{"name":"ÇAVUŞLU MAH.","zip":"28502"},{"name":"ÇEĞEL KÖYÜ","zip":"28502"},{"name":"ÇEKİÇLİ MAH.","zip":"28502"},{"name":"ÇILTIMA MAH.","zip":"28502"},{"name":"ÇIRAKLI MAH.","zip":"28502"},{"name":"ÇİFTLİK MAH.","zip":"28502"},{"name":"ÇİTYERİ MAH.","zip":"28502"},{"name":"ÇUBUK DAĞI MAH.","zip":"28502"},{"name":"ÇUKUR MAH.","zip":"28502"},{"name":"ÇUKURTAM MAH.","zip":"28502"},{"name":"DANIŞMAN KÖYÜ","zip":"28502"},{"name":"DEĞİRMENSUYU MAH.","zip":"28502"},{"name":"DERE MAH.","zip":"28502"},{"name":"DEREAĞZI MAH.","zip":"28502"},{"name":"DEREGÖZÜ MAH.","zip":"28502"},{"name":"DEVECİKBOYNU MAH.","zip":"28502"},{"name":"DİPYATAK MAH.","zip":"28502"},{"name":"DİŞİKARA MAH.","zip":"28502"},{"name":"DOĞANCI KÖYÜ","zip":"28502"},{"name":"DOĞANCI MAH.","zip":"28502"},{"name":"DOKUZKONAK KÖYÜ","zip":"28502"},{"name":"DOMAÇLI MAH.","zip":"28502"},{"name":"DUANCI MAH.","zip":"28502"},{"name":"DÜVER MAH.","zip":"28502"},{"name":"DÜZ KUYUMCU MAH.","zip":"28502"},{"name":"DÜZ MAH.","zip":"28502"},{"name":"DÜZKÖY KÖYÜ","zip":"28502"},{"name":"DÜZKÖY MAH.","zip":"28502"},{"name":"DÜZTARLA KIRAN MEVKİİ MAH.","zip":"28502"},{"name":"DÜZTARLA MAH.","zip":"28502"},{"name":"EDE KÖYÜ","zip":"28502"},{"name":"EKİZLER MAH.","zip":"28502"},{"name":"ELMA MAH.","zip":"28502"},{"name":"ELMADİBİ MAH.","zip":"28502"},{"name":"EMETCE MAH.","zip":"28502"},{"name":"EMİNGİL MAH.","zip":"28502"},{"name":"EMİNOĞLU MAH.","zip":"28502"},{"name":"ESKİ KAHVE YANI MAH.","zip":"28502"},{"name":"ESKİKÖY MAH.","zip":"28502"},{"name":"EYMÜR KÖYÜ","zip":"28502"},{"name":"FATİH KÖYÜ","zip":"28502"},{"name":"FATMABÜKÜ MAH.","zip":"28502"},{"name":"GAZANFERLİ MAH.","zip":"28502"},{"name":"GEBECELİ MAH.","zip":"28502"},{"name":"GEBEŞLER MAH.","zip":"28502"},{"name":"GERDAN MAH.","zip":"28502"},{"name":"GERDEN MAH.","zip":"28502"},{"name":"GÖBELLİ ALT MAH.","zip":"28502"},{"name":"GÖBELLİ ORTA MAH.","zip":"28502"},{"name":"GÖBELLİ YUKARI MAH.","zip":"28502"},{"name":"GÖĞCEBEL MAH.","zip":"28502"},{"name":"GÖKÇELİ MAH.","zip":"28502"},{"name":"GÖKÇEYAZI MAH.","zip":"28502"},{"name":"GÖKSİL MAH.","zip":"28502"},{"name":"GÖLAĞAZI MAH.","zip":"28502"},{"name":"GÖLDÜZÜ MAH.","zip":"28502"},{"name":"GÖRPELİ MAH.","zip":"28502"},{"name":"GÜNEY MAH.","zip":"28502"},{"name":"GÜNEYKÖY ALT MAH.","zip":"28502"},{"name":"GÜNEYKÖY ÜST MAH.","zip":"28502"},{"name":"HACIALİOĞLU ALT MAH.","zip":"28502"},{"name":"HACIALİOĞLU MAH.","zip":"28502"},{"name":"HACIHÜSEYİN KÖYÜ","zip":"28502"},{"name":"HALAÇ MAH.","zip":"28502"},{"name":"HALAÇLI KÖYÜ","zip":"28502"},{"name":"HALİLOĞLU ÇAMİYANI MEVKİ MAH.","zip":"28502"},{"name":"HALİLOĞLU MAH.","zip":"28502"},{"name":"HAMASGİL MAH.","zip":"28502"},{"name":"HARKKÖY KÖYÜ","zip":"28502"},{"name":"HARMANCIK MAH.","zip":"28502"},{"name":"HENKİOĞLU MAH.","zip":"28502"},{"name":"HENKİOĞLU ZAİM YERİ MAH.","zip":"28502"},{"name":"HEREKLİ MAH.","zip":"28502"},{"name":"HIDIRLI MAH.","zip":"28502"},{"name":"HOZANLAR MAH.","zip":"28502"},{"name":"HÜSEYİNOĞLU EVLİYAYANI MEVKİ MAH.","zip":"28502"},{"name":"IŞIKLI KÖYÜ","zip":"28502"},{"name":"İĞNECE KÖYÜ","zip":"28502"},{"name":"İMAMOĞLU MAH.","zip":"28502"},{"name":"İNCEBURUN MAH.","zip":"28502"},{"name":"İNYANI MAH.","zip":"28502"},{"name":"İSMAİLLİ MAH.","zip":"28502"},{"name":"KABACALI MAH.","zip":"28502"},{"name":"KADIOĞLU MAH.","zip":"28502"},{"name":"KAHVEYANI MAH.","zip":"28502"},{"name":"KAHYALI MAH.","zip":"28502"},{"name":"KALLO MAH.","zip":"28502"},{"name":"KALPAKBÜKÜ MAH.","zip":"28502"},{"name":"KAMATLI MAH.","zip":"28502"},{"name":"KANDAZLI MAH.","zip":"28502"},{"name":"KARA ALİ MAH.","zip":"28502"},{"name":"KARAAĞAÇ MAH.","zip":"28502"},{"name":"KARAAHMETLİ KÖYÜ","zip":"28502"},{"name":"KARAARİFGİL MAH.","zip":"28502"},{"name":"KARABIYIK MAH.","zip":"28502"},{"name":"KARAÇUKUR MAH.","zip":"28502"},{"name":"KARADEMİR KÖYÜ","zip":"28502"},{"name":"KARAKÜTÜK MAH.","zip":"28502"},{"name":"KARAMAN MAH.","zip":"28502"},{"name":"KARAMEHMETLİ MAH.","zip":"28502"},{"name":"KARASAKAL MAH.","zip":"28502"},{"name":"KARCANLI MAH.","zip":"28502"},{"name":"KARGALI MAH.","zip":"28502"},{"name":"KARŞI MAH.","zip":"28502"},{"name":"KAVGALI MAH.","zip":"28502"},{"name":"KAYABOĞAZI MAH.","zip":"28502"},{"name":"KAYABOYNU MAH.","zip":"28502"},{"name":"KAYADİBİ MAH.","zip":"28502"},{"name":"KAYALAR KÖYÜ","zip":"28502"},{"name":"KAYNARPAZARI MAH.","zip":"28502"},{"name":"KEDİLLİ MAH.","zip":"28502"},{"name":"KELOĞLU (DANACI) MAH.","zip":"28502"},{"name":"KELOĞLU MAH.","zip":"28502"},{"name":"KERİMLİ MAH.","zip":"28502"},{"name":"KERİMLİK MAH.","zip":"28502"},{"name":"KERPİÇLİ MAH.","zip":"28502"},{"name":"KETENÇUKUR KÖYÜ","zip":"28502"},{"name":"KIRAN CAMİ MAH.","zip":"28502"},{"name":"KIRAN MAH.","zip":"28502"},{"name":"KİLİNLİ MAH.","zip":"28502"},{"name":"KİRAZLIK MAH.","zip":"28502"},{"name":"KOVANCIK KÖYÜ","zip":"28502"},{"name":"KOVANPINAR KÖYÜ","zip":"28502"},{"name":"KOZ MAH.","zip":"28502"},{"name":"KÖMÜRLÜK MAH.","zip":"28502"},{"name":"KÖR OMAR MAH.","zip":"28502"},{"name":"KÖSELER KÖYÜ","zip":"28502"},{"name":"KÖSEMERLİ MAH.","zip":"28502"},{"name":"KÖYALTI MAH.","zip":"28502"},{"name":"KULOĞLU MAH.","zip":"28502"},{"name":"KUSKUNLU KÖYÜ","zip":"28502"},{"name":"KUŞBOYNU MAH.","zip":"28502"},{"name":"KUZ MAH.","zip":"28502"},{"name":"KUZÇUKURU MAH.","zip":"28502"},{"name":"KUZDURAN MAH.","zip":"28502"},{"name":"KUZGUN KÖYÜ","zip":"28502"},{"name":"KUZİZ MAH.","zip":"28502"},{"name":"KÜBÜÇLÜ MAH.","zip":"28502"},{"name":"KÜÇÜKMEHMETLİ MAH.","zip":"28502"},{"name":"LAZLAR MAH.","zip":"28502"},{"name":"MADEN MAH.","zip":"28502"},{"name":"MAHMUTGİL MAH.","zip":"28502"},{"name":"MAHMUTLU MAH.","zip":"28502"},{"name":"MEHDİLİ MAH.","zip":"28502"},{"name":"MELİKLİ MAH.","zip":"28502"},{"name":"MENDERES KÖYÜ","zip":"28502"},{"name":"MERKEZ BÜK MAH.","zip":"28502"},{"name":"MERKEZ KAHVEYANI MAH.","zip":"28502"},{"name":"MERKEZ MAH.","zip":"28502"},{"name":"MEYRECÜK MAH.","zip":"28502"},{"name":"MİRASEKE MAH.","zip":"28502"},{"name":"MOZ MAH.","zip":"28502"},{"name":"MUNAKUZU MAH.","zip":"28502"},{"name":"MURSAL KÖYÜ","zip":"28502"},{"name":"NAİBOĞLU MAH.","zip":"28502"},{"name":"NAİPLİ MAH.","zip":"28502"},{"name":"O YÜZ MAH.","zip":"28502"},{"name":"OKUL YANI MAH.","zip":"28502"},{"name":"OKULYANI MAH.","zip":"28502"},{"name":"ORTA BADA MAH.","zip":"28502"},{"name":"ORTA MAH.","zip":"28502"},{"name":"ORTACAMİ KÖYÜ","zip":"28502"},{"name":"ORTAGÜNEY AŞAĞI MAH.","zip":"28502"},{"name":"ORTAGÜNEY KIRAN MAH.","zip":"28502"},{"name":"ORTAGÜNEY ORTA MAH.","zip":"28502"},{"name":"ORTAGÜNEY ÜST MAH.","zip":"28502"},{"name":"ORTAKÖY KÖYÜ","zip":"28502"},{"name":"ÖKSÜZOĞLU (LAZ) MAH.","zip":"28502"},{"name":"ÖMERLİ MAH.","zip":"28502"},{"name":"ÖRENCİK MAH.","zip":"28502"},{"name":"ÖRENKAYA KÖYÜ","zip":"28502"},{"name":"ÖZLÜ KÖYÜ","zip":"28502"},{"name":"PADARLI MAH.","zip":"28502"},{"name":"PALOĞLU MAH.","zip":"28502"},{"name":"PAZAR YERİ MAH.","zip":"28502"},{"name":"PİROĞLU MAH.","zip":"28502"},{"name":"PULLUK MAH.","zip":"28502"},{"name":"SAHİL MAH.","zip":"28502"},{"name":"SALMAN MAH.","zip":"28502"},{"name":"SARIOSMANOĞLU MAH.","zip":"28502"},{"name":"SAYICA MAH.","zip":"28502"},{"name":"SAZANLIK MAH.","zip":"28502"},{"name":"SEİSOĞLU MAH.","zip":"28502"},{"name":"SEKÜ KÖYÜ","zip":"28502"},{"name":"SIRTIKARA MAH.","zip":"28502"},{"name":"SİYEZLİK MAH.","zip":"28502"},{"name":"SOĞUKSU CEBECİ MAH.","zip":"28502"},{"name":"SOĞUKSU KEDİVELLİ MAH.","zip":"28502"},{"name":"SOĞUKSU MAH.","zip":"28502"},{"name":"SOĞUKSU MUSTAFAOĞLU MAH.","zip":"28502"},{"name":"SULTANKÖY KÖYÜ","zip":"28502"},{"name":"SÜLEYMANGİL MAH.","zip":"28502"},{"name":"SÜMBÜLLÜ MAH.","zip":"28502"},{"name":"ŞEDELLİ MAH.","zip":"28502"},{"name":"ŞENYUVA KÖYÜ","zip":"28502"},{"name":"ŞİMŞİR DİBİ MAH.","zip":"28502"},{"name":"ŞİRİN KÖYÜ","zip":"28502"},{"name":"TAKIRLI MAH.","zip":"28502"},{"name":"TEPE MAH.","zip":"28502"},{"name":"TEPEYATAK MAH.","zip":"28502"},{"name":"TOMAKLI MAH.","zip":"28502"},{"name":"TONGAZLI MAH.","zip":"28502"},{"name":"TOPALOĞLU MAH.","zip":"28502"},{"name":"TOPTAŞ MAH.","zip":"28502"},{"name":"TOPTEPE MAH.","zip":"28502"},{"name":"TÖNGEL MAH.","zip":"28502"},{"name":"TÜTÜNCÜLÜ MAH.","zip":"28502"},{"name":"TÜTÜNLÜK MAH.","zip":"28502"},{"name":"TÜTÜNLÜK-DUTKIRANI MAH.","zip":"28502"},{"name":"UZUNALİ MAH.","zip":"28502"},{"name":"UZUNLU MAH.","zip":"28502"},{"name":"ÜÇDERE MAH.","zip":"28502"},{"name":"ÜST MAH.","zip":"28502"},{"name":"ÜZÜMLÜK MAH.","zip":"28502"},{"name":"VELİBAŞOĞLU MAH.","zip":"28502"},{"name":"VELİOĞLU MAH.","zip":"28502"},{"name":"YAĞLIKUYUMCU KÖYÜ","zip":"28502"},{"name":"YAHYALI MAH.","zip":"28502"},{"name":"YALAK MAH.","zip":"28502"},{"name":"YALÇ KÖYÜ","zip":"28502"},{"name":"YALI MAH.","zip":"28502"},{"name":"YALIKÖY KÖYÜ","zip":"28502"},{"name":"YAMAKLI MAH.","zip":"28502"},{"name":"YAMANLI MAH.","zip":"28502"},{"name":"YANIKLIK MAH.","zip":"28502"},{"name":"YARAŞ KÖYÜ","zip":"28502"},{"name":"YARAŞ MAH.","zip":"28502"},{"name":"YARDERESİ MAH.","zip":"28502"},{"name":"YAVERGİL MAH.","zip":"28502"},{"name":"YAYLALI MAH.","zip":"28502"},{"name":"YEŞİLPINAR KÖYÜ","zip":"28502"},{"name":"YILGIN KÖYÜ","zip":"28502"},{"name":"YOKUŞBAŞI MAH.","zip":"28502"},{"name":"YUKARI ÇINARCIK MAH.","zip":"28502"},{"name":"YUKARI KIRAN MAH.","zip":"28502"},{"name":"YUKARI MAH.","zip":"28502"},{"name":"YUKARI MURSAL MAH.","zip":"28502"},{"name":"YUKARIBOĞALI KÖYÜ","zip":"28502"},{"name":"YUKARIKÖY KIRAN MAH.","zip":"28502"},{"name":"YUKARIORTACAMİ KÖYÜ","zip":"28502"},{"name":"YUKARIOSMANLI MAH.","zip":"28502"},{"name":"YUMURTACI MAH.","zip":"28502"},{"name":"ZAMARI MAH.","zip":"28502"},{"name":"ZEYRET MAH.","zip":"28502"},{"name":"ZIVALI MAH.","zip":"28502"}]},{"name":"TİREBOLU","cityName":null,"quarters":[{"name":"ÇARŞI MAH.","zip":"28500"},{"name":"DEMİRCİ MAH.","zip":"28500"},{"name":"HAMAM MAH.","zip":"28500"},{"name":"İSTİKLAL MAH.","zip":"28500"},{"name":"KÖRLİMAN MAH.","zip":"28500"},{"name":"YENİKÖY MAH.","zip":"28500"}]},{"name":"MERKEZKÖYLER","cityName":null,"quarters":[{"name":"AHALLI MAH.","zip":"28612"},{"name":"AKDARI MAH.","zip":"28612"},{"name":"AKDOĞAN MAH.","zip":"28612"},{"name":"AKKÖY KÖYÜ","zip":"28612"},{"name":"AKPINAR KÖYÜ","zip":"28612"},{"name":"AKTAŞ KARHANLI MAH.","zip":"28612"},{"name":"AKTAŞ MAH.","zip":"28612"},{"name":"ALAYURT MAH.","zip":"28612"},{"name":"ALİ OBUZU MAH.","zip":"28612"},{"name":"AMBARYALAĞI FINDICAK MAH.","zip":"28612"},{"name":"ARALCAK MAH.","zip":"28612"},{"name":"AŞAĞI MAH.","zip":"28612"},{"name":"AVUT MAH.","zip":"28612"},{"name":"AYVACIOĞLU MAH.","zip":"28612"},{"name":"AYVAT MAH.","zip":"28612"},{"name":"BAHÇE GÜNİ MAH.","zip":"28612"},{"name":"BALKAN ÇAYIRI MAH.","zip":"28612"},{"name":"BARUTÇUOĞLU MAH.","zip":"28612"},{"name":"BATMAN MAH.","zip":"28612"},{"name":"BAYBURTLU KIRANI MAH.","zip":"28612"},{"name":"BAYRAMİÇ MAH.","zip":"28612"},{"name":"BAYRAMLI MAH.","zip":"28612"},{"name":"BELEN MAH.","zip":"28612"},{"name":"BELOBA MAH.","zip":"28612"},{"name":"BİROLUK MAH.","zip":"28612"},{"name":"BOĞAZ MAH.","zip":"28612"},{"name":"BOYACI OBASI MAH.","zip":"28612"},{"name":"BOYALANI MAH.","zip":"28612"},{"name":"BOYUNTARLA MAH.","zip":"28612"},{"name":"BULARI MAH.","zip":"28612"},{"name":"BÜK MAH.","zip":"28612"},{"name":"BÜYÜK DÜZ MAH.","zip":"28612"},{"name":"BÜYÜKDÜZ MAH.","zip":"28612"},{"name":"CAMİ YANI MAH.","zip":"28612"},{"name":"CINDIZOĞLU MAH.","zip":"28612"},{"name":"ÇADIRALANI MAH.","zip":"28612"},{"name":"ÇAĞLAYAN MAH.","zip":"28612"},{"name":"ÇAMURLU OBA MAH.","zip":"28612"},{"name":"ÇEĞEL MAH.","zip":"28612"},{"name":"ÇEŞMEARDI ÇELEBİ MAH.","zip":"28612"},{"name":"ÇIKRIKKAPI YAYLASI MAH.","zip":"28612"},{"name":"ÇIKRIKKIRAN MAH.","zip":"28612"},{"name":"ÇINARCIK MAH.","zip":"28612"},{"name":"ÇİLDERESİ MAH.","zip":"28612"},{"name":"ÇÖĞÜRCÜ MAH.","zip":"28612"},{"name":"ÇUKUR MAH.","zip":"28612"},{"name":"DEBECÜK MAH.","zip":"28612"},{"name":"DEĞİRMEN YANI MAH.","zip":"28612"},{"name":"DEĞİRMENAĞZI MAH.","zip":"28612"},{"name":"DELİKTAŞ MAH.","zip":"28612"},{"name":"DELMECE MAH.","zip":"28612"},{"name":"DEMİR GELİSİ OBASI MAH.","zip":"28612"},{"name":"DEREKÖY KÖYÜ","zip":"28612"},{"name":"DERİNDERE KÖYÜ","zip":"28612"},{"name":"DİREKDİBİ MAH.","zip":"28612"},{"name":"DOYMUŞ MAH.","zip":"28612"},{"name":"DÜZ MAH.","zip":"28612"},{"name":"EĞERLİK MAH.","zip":"28612"},{"name":"EKİNDERE MAH.","zip":"28612"},{"name":"ELMABELEN KÖYÜ","zip":"28612"},{"name":"ELMADERESİ MAH.","zip":"28612"},{"name":"EMİDÜZÜ MAH.","zip":"28612"},{"name":"FINDICAK MAH.","zip":"28612"},{"name":"FINDIK ÇUKURU MAH.","zip":"28612"},{"name":"FINDIKÇUKURU MAH.","zip":"28612"},{"name":"FINDIKLI MAH.","zip":"28612"},{"name":"GEVURYATAĞI OBASI MAH.","zip":"28612"},{"name":"GEYİKCİ OBA MAH.","zip":"28612"},{"name":"GEYİKGÖLÜ MAH.","zip":"28612"},{"name":"GORU DÜZÜ MAH.","zip":"28612"},{"name":"GÖKTEPE OBASI MAH.","zip":"28612"},{"name":"GÖLDÜZÜ MAH.","zip":"28612"},{"name":"GÖLÜZAN MAH.","zip":"28612"},{"name":"GÖLYANI MAH.","zip":"28612"},{"name":"GUFÇA MAH.","zip":"28612"},{"name":"GUFÇA MEZRASI MAH.","zip":"28612"},{"name":"GUZYATAK MAH.","zip":"28612"},{"name":"GÜLLÜCE KÖYÜ","zip":"28612"},{"name":"GÜLTEPE MAH.","zip":"28612"},{"name":"GÜNECE MAH.","zip":"28612"},{"name":"GÜNEY MAH.","zip":"28612"},{"name":"GÜNLÜK SIRATAŞ MAH.","zip":"28612"},{"name":"GÜNÜ MAH.","zip":"28612"},{"name":"HACIDERESİ OBASI MAH.","zip":"28612"},{"name":"HACIHÜSEYİN BEY MAH.","zip":"28612"},{"name":"HAMAZ MAH.","zip":"28612"},{"name":"HANYANI MAH.","zip":"28612"},{"name":"HASTAFLAN MAH.","zip":"28612"},{"name":"HATLI DÜZÜ MAH.","zip":"28612"},{"name":"HİSARCIK KÖYÜ","zip":"28612"},{"name":"İLKİLİYATAK MAH.","zip":"28612"},{"name":"İMAMLAR MAH.","zip":"28612"},{"name":"İSAKLI MAH.","zip":"28612"},{"name":"İSMAİLLER MAH.","zip":"28612"},{"name":"KABADÜZ MAH.","zip":"28612"},{"name":"KAĞIŞKIRANI MAH.","zip":"28612"},{"name":"KAMIŞLIK MAH.","zip":"28612"},{"name":"KANDERESİ MEZRASI MAH.","zip":"28612"},{"name":"KANLICA KÖYÜ","zip":"28612"},{"name":"KARABAŞ MAH.","zip":"28612"},{"name":"KARADAĞ MAH.","zip":"28612"},{"name":"KARAKIŞLA MAH.","zip":"28612"},{"name":"KARŞI MAH.","zip":"28612"},{"name":"KAYABAŞI MAH.","zip":"28612"},{"name":"KAYABAŞI YAYLASI MAH.","zip":"28612"},{"name":"KAYALI MAH.","zip":"28612"},{"name":"KELLER MAH.","zip":"28612"},{"name":"KEYMENİ MAH.","zip":"28612"},{"name":"KIRAN MADENİ MAH.","zip":"28612"},{"name":"KIRAN MAH.","zip":"28612"},{"name":"KIRANYATAK MAH.","zip":"28612"},{"name":"KIRHASAN MAH.","zip":"28612"},{"name":"KIRKHARMAN MAH.","zip":"28612"},{"name":"KIZILCA YATAK MAH.","zip":"28612"},{"name":"KIZILELMA MAH.","zip":"28612"},{"name":"KIZILLAR MAH.","zip":"28612"},{"name":"KİRAZKIRAN MAH.","zip":"28612"},{"name":"KİRAZLIK MAH.","zip":"28612"},{"name":"KOCUKOĞLU MAH.","zip":"28612"},{"name":"KOÇLU KÖYÜ","zip":"28612"},{"name":"KOYUN ALANI MAH.","zip":"28612"},{"name":"KOZBÜKÜ MAH.","zip":"28612"},{"name":"KOZYAKA MAH.","zip":"28612"},{"name":"KUMANAĞZI MAH.","zip":"28612"},{"name":"KUMYALI MAH.","zip":"28612"},{"name":"KURAKLIK MAH.","zip":"28612"},{"name":"KURUCALI MAH.","zip":"28612"},{"name":"KUŞKIRAN MAH.","zip":"28612"},{"name":"KUZ MAH.","zip":"28612"},{"name":"KUZUALAN OBASI MAH.","zip":"28612"},{"name":"KÜÇLÜ MAH.","zip":"28612"},{"name":"KÜÇÜKKÖY KÖYÜ","zip":"28612"},{"name":"KÜŞLÜ MAH.","zip":"28612"},{"name":"KÜTÜKOĞULLARI MAH.","zip":"28612"},{"name":"MADEN MAH.","zip":"28612"},{"name":"MANASTIR MAH.","zip":"28612"},{"name":"MANASUR MAH.","zip":"28612"},{"name":"MANDALLI MAH.","zip":"28612"},{"name":"MELAHMET MAH.","zip":"28612"},{"name":"MERKEZ MAH.","zip":"28612"},{"name":"MICIKLI OBASI MAH.","zip":"28612"},{"name":"MİHMATOĞLU MAH.","zip":"28612"},{"name":"MOLLAR MAH.","zip":"28612"},{"name":"MOLLO MAH.","zip":"28612"},{"name":"MOLLOOĞLU MAH.","zip":"28612"},{"name":"OKMEYDANI MAH.","zip":"28612"},{"name":"ORTA MAH.","zip":"28612"},{"name":"ORTAKÖY KÖYÜ","zip":"28612"},{"name":"ORUÇBEY MAH.","zip":"28612"},{"name":"ÖKÜZ ÇUKURU MAH.","zip":"28612"},{"name":"ÖMERLİ KÖYÜ","zip":"28612"},{"name":"ÖMERLİ MERKEZ MAH.","zip":"28612"},{"name":"PORSUK MAH.","zip":"28612"},{"name":"PORTLU MAH.","zip":"28612"},{"name":"SALİM BÜKÜ MAH.","zip":"28612"},{"name":"SANCAR DÜZÜ MAH.","zip":"28612"},{"name":"SARAYDÜZÜ MAH.","zip":"28612"},{"name":"SARIALAN OBASI MAH.","zip":"28612"},{"name":"SARIHASAN MAH.","zip":"28612"},{"name":"SARIPOYRAK MAH.","zip":"28612"},{"name":"SARIYER MAH.","zip":"28612"},{"name":"SAYPOYRAK MAH.","zip":"28612"},{"name":"SEYDİLİ MAH.","zip":"28612"},{"name":"SIĞIREREĞİ MAH.","zip":"28612"},{"name":"SINIRKÖY KÖYÜ","zip":"28612"},{"name":"SIRADAŞ MAH.","zip":"28612"},{"name":"SİNANLI KÖYÜ","zip":"28612"},{"name":"SİPSİLİK MAH.","zip":"28612"},{"name":"SOFU MAH.","zip":"28612"},{"name":"SOĞUKPINAR MAH.","zip":"28612"},{"name":"SOĞUKSU MAH.","zip":"28612"},{"name":"SULAK OBASI MAH.","zip":"28612"},{"name":"SUSUZ MAH.","zip":"28612"},{"name":"SÜĞLÜK MAH.","zip":"28612"},{"name":"ŞAHLI MAH.","zip":"28612"},{"name":"TAHMAZLI MAH.","zip":"28612"},{"name":"TAHTALIYATAK MAH.","zip":"28612"},{"name":"TALİPOĞULLARI MAH.","zip":"28612"},{"name":"TARAKÇI MAH.","zip":"28612"},{"name":"TAŞLIK MAH.","zip":"28612"},{"name":"TEKÇAM MAH.","zip":"28612"},{"name":"TEKERCEK MAH.","zip":"28612"},{"name":"TEKKEKÖY KÖYÜ","zip":"28612"},{"name":"TEPEKÖY MAH.","zip":"28612"},{"name":"TESBİ MAH.","zip":"28612"},{"name":"TİLHAN MAH.","zip":"28612"},{"name":"TOKLUCA MAH.","zip":"28612"},{"name":"TOPLUCA MAH.","zip":"28612"},{"name":"TORUN YANI MAH.","zip":"28612"},{"name":"TORUNUYANI MAH.","zip":"28612"},{"name":"TUĞLACIK MAH.","zip":"28612"},{"name":"TUZLAK KIRAN MAH.","zip":"28612"},{"name":"ULUDÜZ MAH.","zip":"28612"},{"name":"UZUNABDUOĞULLARI MAH.","zip":"28612"},{"name":"ÜÇTEPE KÖYÜ","zip":"28612"},{"name":"ÜMÜTBÜKÜ KÖYÜ","zip":"28612"},{"name":"YALÇA MAH.","zip":"28612"},{"name":"YAMUÇLU MAH.","zip":"28612"},{"name":"YANANEV MAH.","zip":"28612"},{"name":"YAZLIK KÖYÜ","zip":"28612"},{"name":"YENİ OBA MAH.","zip":"28612"},{"name":"YENİAKKÖY KÖYÜ","zip":"28612"},{"name":"YENİCE KÖYÜ","zip":"28612"},{"name":"YENİOBA MAH.","zip":"28612"},{"name":"YENİYAZLIK KÖYÜ","zip":"28612"},{"name":"YEŞİLPINAR KÖYÜ","zip":"28612"},{"name":"YEŞİLYURT KÖYÜ","zip":"28612"},{"name":"YOKUŞBAŞI MAH.","zip":"28612"},{"name":"YONİ KIZILLIĞI MAH.","zip":"28612"},{"name":"YUKARI MAH.","zip":"28612"},{"name":"YUMBAT OBASI MAH.","zip":"28612"},{"name":"YUNUSÖREN MAH.","zip":"28612"}]},{"name":"YAĞLIDERE","cityName":null,"quarters":[{"name":"MERKEZ MAH.","zip":"28610"},{"name":"PALAKLI MAH.","zip":"28610"}]}]}]}