{"id":29,"name":"GÜMÜŞHANE","cities":[{"name":"city","districts":[{"name":"KELKİT","cityName":null,"quarters":[{"name":"CUMHURİYET MAH.","zip":"29600"},{"name":"İNÖNÜ MAH.","zip":"29600"},{"name":"KÜÇÜKCAMİ MAH.","zip":"29600"}]},{"name":"MERKEZKÖYLER","cityName":null,"quarters":[{"name":"AĞLIK KÖYÜ","zip":"29602"},{"name":"AKDAĞ KÖYÜ","zip":"29602"},{"name":"AKSÖĞÜT KÖYÜ","zip":"29602"},{"name":"ALACAT KÖYÜ","zip":"29602"},{"name":"AŞAĞI BEZENDİ MAH.","zip":"29602"},{"name":"AŞAĞIÖZLÜCE KÖYÜ","zip":"29602"},{"name":"AŞUT KÖYÜ","zip":"29602"},{"name":"AYDOĞDU KÖYÜ","zip":"29602"},{"name":"AZİZ KÖYÜ","zip":"29602"},{"name":"BABAKONAĞI KÖYÜ","zip":"29602"},{"name":"BALIKLI KÖYÜ","zip":"29602"},{"name":"BALKAYA KÖYÜ","zip":"29602"},{"name":"BAŞPINAR KÖYÜ","zip":"29602"},{"name":"BELENLİ KÖYÜ","zip":"29602"},{"name":"BEŞDEĞİRMEN KÖYÜ","zip":"29602"},{"name":"BEZENDİ KÖYÜ","zip":"29602"},{"name":"BİNDAL KÖYÜ","zip":"29602"},{"name":"BULAK KÖYÜ","zip":"29602"},{"name":"BÜYÜKCAMİ MAH.","zip":"29602"},{"name":"CEMALLİ KÖYÜ","zip":"29602"},{"name":"CUMHURİYET MAH.","zip":"29602"},{"name":"ÇAĞLAR KÖYÜ","zip":"29602"},{"name":"ÇAKIRLAR KÖYÜ","zip":"29602"},{"name":"ÇAMUR KÖYÜ","zip":"29602"},{"name":"ÇİMENLİ KÖYÜ","zip":"29602"},{"name":"ÇÖMLECİK KÖYÜ","zip":"29602"},{"name":"DAYISI KÖYÜ","zip":"29602"},{"name":"DELİLER KÖYÜ","zip":"29602"},{"name":"DEREDOLU KÖYÜ","zip":"29602"},{"name":"DEREYÜZÜ KÖYÜ","zip":"29602"},{"name":"DEVEKORUSU KÖYÜ","zip":"29602"},{"name":"DOĞANCA KÖYÜ","zip":"29602"},{"name":"DOĞANKAVAK KÖYÜ","zip":"29602"},{"name":"DÖLEK KÖYÜ","zip":"29602"},{"name":"ELMELİK KÖYÜ","zip":"29602"},{"name":"ESENLER MAH.","zip":"29602"},{"name":"ESENTEPE MAH.","zip":"29602"},{"name":"ESKİKADI KÖYÜ","zip":"29602"},{"name":"ESKİYOL KÖYÜ","zip":"29602"},{"name":"EYMÜR KÖYÜ","zip":"29602"},{"name":"FATİH MAH.","zip":"29602"},{"name":"GERDEKHİSAR KÖYÜ","zip":"29602"},{"name":"GEVEZİT MAH.","zip":"29602"},{"name":"GÖDÜL KÖYÜ","zip":"29602"},{"name":"GÖZTEPE MAH.","zip":"29602"},{"name":"GÜLLÜCE KÖYÜ","zip":"29602"},{"name":"GÜLTEPE KÖYÜ","zip":"29602"},{"name":"GÜMÜŞGÖZE KÖYÜ","zip":"29602"},{"name":"GÜNBATUR KÖYÜ","zip":"29602"},{"name":"GÜNEYÇEVİRME KÖYÜ","zip":"29602"},{"name":"GÜRLEYİK KÖYÜ","zip":"29602"},{"name":"GÜRLEYİK MAH.","zip":"29602"},{"name":"GÜZYURDU KÖYÜ","zip":"29602"},{"name":"HALKEVİ MAH.","zip":"29602"},{"name":"HÜRRİYET MAH.","zip":"29602"},{"name":"KARACAÖREN KÖYÜ","zip":"29602"},{"name":"KARAÇAYIR KÖYÜ","zip":"29602"},{"name":"KARŞIYAKA KÖYÜ","zip":"29602"},{"name":"KAŞ KÖYÜ","zip":"29602"},{"name":"KAYACIK MAH.","zip":"29602"},{"name":"KAZANPINAR KÖYÜ","zip":"29602"},{"name":"KILIÇÇI KÖYÜ","zip":"29602"},{"name":"KILIÇTAŞI KÖYÜ","zip":"29602"},{"name":"KINALITAŞ KÖYÜ","zip":"29602"},{"name":"KINDIRALIK MAH.","zip":"29602"},{"name":"KIZILCA KÖYÜ","zip":"29602"},{"name":"KOZOĞLU KÖYÜ","zip":"29602"},{"name":"KÖMÜR KÖYÜ","zip":"29602"},{"name":"KÖYCÜK KÖYÜ","zip":"29602"},{"name":"KUŞLUK KÖYÜ","zip":"29602"},{"name":"MAHMATLI MAH.","zip":"29602"},{"name":"MERKEZ MAH.","zip":"29602"},{"name":"MEYDANLAR MAH.","zip":"29602"},{"name":"MEZRA MAH.","zip":"29602"},{"name":"OBALAR KÖYÜ","zip":"29602"},{"name":"OĞUZ KÖYÜ","zip":"29602"},{"name":"ÖBEKTAŞ KÖYÜ","zip":"29602"},{"name":"ÖĞÜTLÜ KÖYÜ","zip":"29602"},{"name":"ÖRENBEL KÖYÜ","zip":"29602"},{"name":"ÖZEN KÖYÜ","zip":"29602"},{"name":"ÖZYURT MAH.","zip":"29602"},{"name":"SADAK KÖYÜ","zip":"29602"},{"name":"SALÖRDEK KÖYÜ","zip":"29602"},{"name":"SARIŞEYH KÖYÜ","zip":"29602"},{"name":"SAVCI MAH.","zip":"29602"},{"name":"SÖĞÜTLÜ KÖYÜ","zip":"29602"},{"name":"SÖKMEN KÖYÜ","zip":"29602"},{"name":"SULA MAH.","zip":"29602"},{"name":"SÜTVEREN KÖYÜ","zip":"29602"},{"name":"ŞEN KÖYÜ","zip":"29602"},{"name":"TÜTENLİ KÖYÜ","zip":"29602"},{"name":"UYANIK MAH.","zip":"29602"},{"name":"UZUNKOL KÖYÜ","zip":"29602"},{"name":"ÜNLÜPINAR KÖYÜ","zip":"29602"},{"name":"YARBAŞI KÖYÜ","zip":"29602"},{"name":"YAYLA MAH.","zip":"29602"},{"name":"YENİCE KÖYÜ","zip":"29602"},{"name":"YENİKÖY KÖYÜ","zip":"29602"},{"name":"YENİYOL KÖYÜ","zip":"29602"},{"name":"YEŞİLOVA KÖYÜ","zip":"29602"},{"name":"YEŞİLPINAR KÖYÜ","zip":"29602"},{"name":"YEŞİLYURT KÖYÜ","zip":"29602"},{"name":"YOLÇATI KÖYÜ","zip":"29602"},{"name":"YUKARIÖZLÜCE KÖYÜ","zip":"29602"}]},{"name":"KÖSE","cityName":null,"quarters":[{"name":"CUMHURİYET MAH.","zip":"29650"},{"name":"FATİH MAH.","zip":"29650"},{"name":"YAVUZ SELİM MAH.","zip":"29650"},{"name":"YENİ MAH.","zip":"29650"}]},{"name":"MERKEZKÖYLER","cityName":null,"quarters":[{"name":"AKBABA MAH.","zip":"29652"},{"name":"ALTINTAŞ KÖYÜ","zip":"29652"},{"name":"ALTINTAŞ MAH.","zip":"29652"},{"name":"BİZGİLİ KÖYÜ","zip":"29652"},{"name":"BİZGİLİ MAH.","zip":"29652"},{"name":"CUMHURİYET MAH.","zip":"29652"},{"name":"GÖKÇEKÖY KÖYÜ","zip":"29652"},{"name":"GÖKÇEKÖY MAH.","zip":"29652"},{"name":"HÜRRİYET MAH.","zip":"29652"},{"name":"KABAKTEPE KÖYÜ","zip":"29652"},{"name":"KABAKTEPE MAH.","zip":"29652"},{"name":"KAYADİBİ KÖYÜ","zip":"29652"},{"name":"KAYADİBİ MAH.","zip":"29652"},{"name":"OYLUMDERE KÖYÜ","zip":"29652"},{"name":"OYLUMDERE MAH.","zip":"29652"},{"name":"ÖRENŞAR KÖYÜ","zip":"29652"},{"name":"ÖRENŞAR MAH.","zip":"29652"},{"name":"ÖVÜNCE KÖYÜ","zip":"29652"},{"name":"ÖVÜNCE MAH.","zip":"29652"},{"name":"ÖZBEYLİ KÖYÜ","zip":"29652"},{"name":"ÖZBEYLİ MAH.","zip":"29652"},{"name":"SALYAZI KÖYÜ","zip":"29652"},{"name":"SUBAŞI KÖYÜ","zip":"29652"},{"name":"SUBAŞI MAH.","zip":"29652"},{"name":"YAYLIM KÖYÜ","zip":"29652"},{"name":"YAYLIM MAH.","zip":"29652"},{"name":"YUVACIK KÖYÜ","zip":"29652"},{"name":"YUVACIK MAH.","zip":"29652"}]},{"name":"KÜRTÜN","cityName":null,"quarters":[{"name":"CAMİ YANI MAH.","zip":"29830"},{"name":"KÖYİÇİ MAH.","zip":"29830"},{"name":"MELİKLİ MAH.","zip":"29830"},{"name":"ORTAKÖY MAH.","zip":"29830"},{"name":"YUKARI ULUKÖY MAH.","zip":"29830"}]},{"name":"MERKEZKÖYLER","cityName":null,"quarters":[{"name":"AKÇAL KÖYÜ","zip":"29832"},{"name":"AKKÖY MAH.","zip":"29832"},{"name":"AKTAŞ KÖYÜ","zip":"29832"},{"name":"ALACAİNEK MAH.","zip":"29832"},{"name":"ALAN MAH.","zip":"29832"},{"name":"ALAN YAYLA MAH.","zip":"29832"},{"name":"ALANTARLA MAH.","zip":"29832"},{"name":"ALDA DÜZÜ MAH.","zip":"29832"},{"name":"ALINCA MAH.","zip":"29832"},{"name":"ALT MAH.","zip":"29832"},{"name":"ANBARLI MAH.","zip":"29832"},{"name":"APSA MAH.","zip":"29832"},{"name":"ARAKÖY KÖYÜ","zip":"29832"},{"name":"ARALICAK MAH.","zip":"29832"},{"name":"ARMUTALANI MAH.","zip":"29832"},{"name":"ARPACIK KÖYÜ","zip":"29832"},{"name":"AŞAĞI ALAN MAH.","zip":"29832"},{"name":"AŞAĞI MAH.","zip":"29832"},{"name":"AŞAĞIKARADERE KÖYÜ","zip":"29832"},{"name":"ATKOYU MAH.","zip":"29832"},{"name":"AVLEKA MAH.","zip":"29832"},{"name":"AYAZMANE MAH.","zip":"29832"},{"name":"AYDERESİ MAH.","zip":"29832"},{"name":"AYGERİŞ MAH.","zip":"29832"},{"name":"AYKUTLU MAH.","zip":"29832"},{"name":"AYUTLU MAH.","zip":"29832"},{"name":"BAĞLAMA KÖYÜ","zip":"29832"},{"name":"BALIKLI MAH.","zip":"29832"},{"name":"BALİÇUKUR MAH.","zip":"29832"},{"name":"BAŞ MAH.","zip":"29832"},{"name":"BAŞÖVET MAH.","zip":"29832"},{"name":"BAŞYURT MAH.","zip":"29832"},{"name":"BAYRAKALANI MAH.","zip":"29832"},{"name":"BEŞİRALTI MAH.","zip":"29832"},{"name":"BEŞİRKÖY KÖYÜ","zip":"29832"},{"name":"BEYTARLA KÖYÜ","zip":"29832"},{"name":"BÜYÜK ÇEĞEL MAH.","zip":"29832"},{"name":"BÜYÜK KÖYCEĞİZ MAH.","zip":"29832"},{"name":"CAMBAŞI MAH.","zip":"29832"},{"name":"CAMİ MAH.","zip":"29832"},{"name":"CAMİİ MAH.","zip":"29832"},{"name":"CAMİİ YANI MAH.","zip":"29832"},{"name":"CAMÖNÜ MAH.","zip":"29832"},{"name":"CAYRA MAH.","zip":"29832"},{"name":"ÇADIRÇUKURU MAH.","zip":"29832"},{"name":"ÇAKMAKKAYA MAH.","zip":"29832"},{"name":"ÇALALANI MAH.","zip":"29832"},{"name":"ÇAMAT MAH.","zip":"29832"},{"name":"ÇAMBAŞI MAH.","zip":"29832"},{"name":"ÇARDAK ALANI MAH.","zip":"29832"},{"name":"ÇARDAKYANI MAH.","zip":"29832"},{"name":"ÇARŞI MAH.","zip":"29832"},{"name":"ÇATAK MAH.","zip":"29832"},{"name":"ÇATALKAYA MAH.","zip":"29832"},{"name":"ÇAVUŞ KIRAN MAH.","zip":"29832"},{"name":"ÇAYIRÇUKUR KÖYÜ","zip":"29832"},{"name":"ÇETLİCE-CİNKAYASI MAH.","zip":"29832"},{"name":"ÇIKRIKDÜZÜ MAH.","zip":"29832"},{"name":"ÇOKMA MAH.","zip":"29832"},{"name":"ÇORUHLU MAH.","zip":"29832"},{"name":"ÇÖKEK MAH.","zip":"29832"},{"name":"ÇÖPLÜCE MAH.","zip":"29832"},{"name":"DAĞTARLA-KARAAĞAÇ-KÖKBÜKÜ MAH.","zip":"29832"},{"name":"DAMLI KÖYÜ","zip":"29832"},{"name":"DELMECE MAH.","zip":"29832"},{"name":"DEMİRCİLER KÖYÜ","zip":"29832"},{"name":"DERE MAH.","zip":"29832"},{"name":"DERE OBA MAH.","zip":"29832"},{"name":"DEREGÖZÜ MAH.","zip":"29832"},{"name":"DEREYATAĞI MAH.","zip":"29832"},{"name":"DERİNDERE MAH.","zip":"29832"},{"name":"DOĞUBA MAH.","zip":"29832"},{"name":"DÜZ MAH.","zip":"29832"},{"name":"DÜZ YAYLA MAH.","zip":"29832"},{"name":"DÜZLÜCE MAH.","zip":"29832"},{"name":"EĞRİGÜNEY KÖYÜ","zip":"29832"},{"name":"EĞRİKAR MAH.","zip":"29832"},{"name":"EKİNCİLER KÖYÜ","zip":"29832"},{"name":"ELCEĞİZ ALANI MAH.","zip":"29832"},{"name":"ELCİĞEZ KÖYÜ","zip":"29832"},{"name":"ELMALI KÖYÜ","zip":"29832"},{"name":"EMİNLİ MAH.","zip":"29832"},{"name":"ENGÖZÜ MAH.","zip":"29832"},{"name":"ERİCEK MAH.","zip":"29832"},{"name":"ERİK DERESİ MAH.","zip":"29832"},{"name":"ESELÜCE-KURUMADEN-KÖRÜKALANI-GÖNDERE MAH.","zip":"29832"},{"name":"ESKİYURT MAH.","zip":"29832"},{"name":"FINDICAK MAH.","zip":"29832"},{"name":"GEVÜKLÜ MAH.","zip":"29832"},{"name":"GÖCÜ MEREĞİ MAH.","zip":"29832"},{"name":"GÖLCEĞİZ MAH.","zip":"29832"},{"name":"GÖLÖNÜ MAH.","zip":"29832"},{"name":"GÖNDERE KÖYÜ","zip":"29832"},{"name":"GÜLLÜŞAH MAH.","zip":"29832"},{"name":"GÜNDOĞDU KÖYÜ","zip":"29832"},{"name":"GÜNEY MAH.","zip":"29832"},{"name":"GÜNYÜZÜ KÖYÜ","zip":"29832"},{"name":"GÜRGENLİ KÖYÜ","zip":"29832"},{"name":"GÜVENDE MAH.","zip":"29832"},{"name":"HACILI MAH.","zip":"29832"},{"name":"HALİL BEY MAH.","zip":"29832"},{"name":"HAPANDÜZÜ MAH.","zip":"29832"},{"name":"HARMANCIK MAH.","zip":"29832"},{"name":"HAYATDERESİ MAH.","zip":"29832"},{"name":"HAYİN DERE MAH.","zip":"29832"},{"name":"HEREKLİ MAH.","zip":"29832"},{"name":"HOCALİ MAH.","zip":"29832"},{"name":"HOROZ MAH.","zip":"29832"},{"name":"IMUKYURT MAH.","zip":"29832"},{"name":"İBRAHİM ALANI MAH.","zip":"29832"},{"name":"İĞNESİBURNU MAH.","zip":"29832"},{"name":"İKİBACA MAH.","zip":"29832"},{"name":"İMAT KIRANI MAH.","zip":"29832"},{"name":"İNCELİDÜZ MAH.","zip":"29832"},{"name":"İSMİRLİ MAH.","zip":"29832"},{"name":"KABADÜZ MAH.","zip":"29832"},{"name":"KABAYALAK MAH.","zip":"29832"},{"name":"KAKILLI MAH.","zip":"29832"},{"name":"KALEDÜZÜ MAH.","zip":"29832"},{"name":"KANYAŞ MAH.","zip":"29832"},{"name":"KARAAĞAÇ MAH.","zip":"29832"},{"name":"KARABOYA MAH.","zip":"29832"},{"name":"KARAÇUKUR MAH.","zip":"29832"},{"name":"KARAHAMZALI MAH.","zip":"29832"},{"name":"KARALLI MAH.","zip":"29832"},{"name":"KARŞI MAH.","zip":"29832"},{"name":"KARŞIKI MAH.","zip":"29832"},{"name":"KAVASTAMYANI MAH.","zip":"29832"},{"name":"KAVRAZ MAH.","zip":"29832"},{"name":"KAYALGİL MAH.","zip":"29832"},{"name":"KEKRE MAH.","zip":"29832"},{"name":"KELEŞOĞLU MAH.","zip":"29832"},{"name":"KEPEZ MAH.","zip":"29832"},{"name":"KIRAN ÇEĞEL MAH.","zip":"29832"},{"name":"KIRAN MAH.","zip":"29832"},{"name":"KIRGERİŞ KÖYÜ","zip":"29832"},{"name":"KIRICAK MAH.","zip":"29832"},{"name":"KIRIK MAH.","zip":"29832"},{"name":"KIZILALİ ALT MAH.","zip":"29832"},{"name":"KIZILALİ ÜST MAH.","zip":"29832"},{"name":"KIZILCATAM KÖYÜ","zip":"29832"},{"name":"KIZILÇUKUR MAH.","zip":"29832"},{"name":"KIZILLIK MAH.","zip":"29832"},{"name":"KIZILOT KÖYÜ","zip":"29832"},{"name":"KIZILTAŞ MAH.","zip":"29832"},{"name":"KİRAZALANI MAH.","zip":"29832"},{"name":"KİSELİCE MAH.","zip":"29832"},{"name":"KODALI MAH.","zip":"29832"},{"name":"KOMANYURT MAH.","zip":"29832"},{"name":"KONACIK KÖYÜ","zip":"29832"},{"name":"KÖKEÇ MAH.","zip":"29832"},{"name":"KÖPRÜBAŞI MAH.","zip":"29832"},{"name":"KÖRO-DELİKLİTAŞ-YAYLACIK MAH.","zip":"29832"},{"name":"KÖROĞ MAH.","zip":"29832"},{"name":"KURUKIRAN MAH.","zip":"29832"},{"name":"KUŞ ALANI MAH.","zip":"29832"},{"name":"KUŞLAĞANAĞZI MAH.","zip":"29832"},{"name":"KUŞLUK KÖYÜ","zip":"29832"},{"name":"KUTLU MAH.","zip":"29832"},{"name":"KUZ MAH.","zip":"29832"},{"name":"KUZUGÖLÜ MAH.","zip":"29832"},{"name":"KÜÇÜK DERE MAH.","zip":"29832"},{"name":"KÜÇÜK KÖYCEĞİZ MAH.","zip":"29832"},{"name":"KÜÇÜKDERE MAH.","zip":"29832"},{"name":"KÜRÜLLÜK MAH.","zip":"29832"},{"name":"KÜTÜKLÜYURT MAH.","zip":"29832"},{"name":"LANGAS MAH.","zip":"29832"},{"name":"MALLICA MAH.","zip":"29832"},{"name":"MASUL YURDU MAH.","zip":"29832"},{"name":"MELİKLİ MAH.","zip":"29832"},{"name":"MEMİŞLİ MAH.","zip":"29832"},{"name":"MEREK YANI MAH.","zip":"29832"},{"name":"MEREKDERE MAH.","zip":"29832"},{"name":"MERKEZ MAH.","zip":"29832"},{"name":"MİNDİZLİ MAH.","zip":"29832"},{"name":"MURSAL MAH.","zip":"29832"},{"name":"MÜRÜTLÜ MAH.","zip":"29832"},{"name":"NASRETTİN YAYLASI MAH.","zip":"29832"},{"name":"OCAK MAH.","zip":"29832"},{"name":"OKULYANI MAH.","zip":"29832"},{"name":"ORTA MAH.","zip":"29832"},{"name":"ÖKSÜZ MAH.","zip":"29832"},{"name":"ÖKSÜZLÜ MAH.","zip":"29832"},{"name":"ÖZKÜRTÜN KÖYÜ","zip":"29832"},{"name":"PATIRYURDU MAH.","zip":"29832"},{"name":"PINAR GÖZÜ MAH.","zip":"29832"},{"name":"PINARBAŞI MAH.","zip":"29832"},{"name":"PİNTİ MAH.","zip":"29832"},{"name":"RAMAZANYURDU MAH.","zip":"29832"},{"name":"SAPMAZ KÖYÜ","zip":"29832"},{"name":"SARIBABA KÖYÜ","zip":"29832"},{"name":"SARIÇ MAH.","zip":"29832"},{"name":"SARITAŞ MAH.","zip":"29832"},{"name":"SAZLIBÜK MAH.","zip":"29832"},{"name":"SEVİNCEK MAH.","zip":"29832"},{"name":"SIRGANLIK MAH.","zip":"29832"},{"name":"SİCİMLİ MAH.","zip":"29832"},{"name":"SOBATLI MAH.","zip":"29832"},{"name":"SOĞUK OLUK MAH.","zip":"29832"},{"name":"SOĞUKOLUK MAH.","zip":"29832"},{"name":"SÖĞÜTELİ KÖYÜ","zip":"29832"},{"name":"SULUCA MAH.","zip":"29832"},{"name":"SULUÇAYIR MAH.","zip":"29832"},{"name":"SÜME MAH.","zip":"29832"},{"name":"ŞENDERE KÖYÜ","zip":"29832"},{"name":"TANRI VERMİŞ MAH.","zip":"29832"},{"name":"TAŞBAŞI MAH.","zip":"29832"},{"name":"TAŞBOĞAZI MAH.","zip":"29832"},{"name":"TAŞDİBİ MAH.","zip":"29832"},{"name":"TAŞLICA KÖYÜ","zip":"29832"},{"name":"TEKNECÜK MAH.","zip":"29832"},{"name":"TEPEKÖY MAH.","zip":"29832"},{"name":"TİLKİCEK KÖYÜ","zip":"29832"},{"name":"TOHTAMUR MAH.","zip":"29832"},{"name":"TOPRAKLIYURT MAH.","zip":"29832"},{"name":"TUTLUCA MAH.","zip":"29832"},{"name":"TÜFEKÇİLİ MAH.","zip":"29832"},{"name":"TÜRKMEN MAH.","zip":"29832"},{"name":"ÜÇTAŞ KÖYÜ","zip":"29832"},{"name":"ÜST MAH.","zip":"29832"},{"name":"ÜTÜK MAH.","zip":"29832"},{"name":"ÜVEK MAH.","zip":"29832"},{"name":"YANIK MEREK MAH.","zip":"29832"},{"name":"YARAŞ MAH.","zip":"29832"},{"name":"YATAK YERİ MAH.","zip":"29832"},{"name":"YAYLA MAH.","zip":"29832"},{"name":"YAYLALI KÖYÜ","zip":"29832"},{"name":"YAZICI OĞULLARI MAH.","zip":"29832"},{"name":"YEHENCELİ MAH.","zip":"29832"},{"name":"YELBELEĞİ MAH.","zip":"29832"},{"name":"YEMİŞEN MAH.","zip":"29832"},{"name":"YENİ MAH.","zip":"29832"},{"name":"YENİÇERİ MAH.","zip":"29832"},{"name":"YEŞİLKÖY KÖYÜ","zip":"29832"},{"name":"YILANLI MAH.","zip":"29832"},{"name":"YONCALIK MAH.","zip":"29832"},{"name":"YUKARI ALAN MAH.","zip":"29832"},{"name":"YUKARIKARADERE KÖYÜ","zip":"29832"},{"name":"YUKARI-ORTA-KARŞI MAH.","zip":"29832"},{"name":"YÜRÜMEZ MAH.","zip":"29832"}]},{"name":"GÜMÜŞHANE","cityName":null,"quarters":[{"name":"CANCA MAH.","zip":"29010"},{"name":"ÇAMLICA MAH.","zip":"29010"},{"name":"ESKİBAĞLAR MAH.","zip":"29010"},{"name":"HACIEMİN MAH.","zip":"29010"},{"name":"HASANBEY MAH.","zip":"29010"},{"name":"İNÖNÜ MAH.","zip":"29010"},{"name":"KARAER MAH.","zip":"29010"},{"name":"KARŞIYAKA MAH.","zip":"29010"},{"name":"OLTANBEY MAH.","zip":"29010"},{"name":"ÖZCAN MAH.","zip":"29010"},{"name":"SÜLEYMANİYE MAH.","zip":"29010"},{"name":"YENİ MAH.","zip":"29010"}]},{"name":"MERKEZKÖYLER","cityName":null,"quarters":[{"name":"AĞALIK MAH.","zip":"29100"},{"name":"AĞILÖREN MAH.","zip":"29100"},{"name":"AKÇAHİSAR KÖYÜ","zip":"29100"},{"name":"AKÇAKALE KÖYÜ","zip":"29100"},{"name":"AKÇAKALE MAH.","zip":"29100"},{"name":"AKDİKLİ MAH.","zip":"29100"},{"name":"AKGEDİK KÖYÜ","zip":"29100"},{"name":"AKHİSAR KÖYÜ","zip":"29100"},{"name":"AKOCAK KÖYÜ","zip":"29100"},{"name":"AKPINAR KÖYÜ","zip":"29100"},{"name":"AKSU KÖYÜ","zip":"29100"},{"name":"AKTUTAN KÖYÜ","zip":"29100"},{"name":"ALACAÇAYIR MAH.","zip":"29100"},{"name":"ALAMANLI MAH.","zip":"29100"},{"name":"ALÇAKDERE KÖYÜ","zip":"29100"},{"name":"ALÇAKDERE MAH.","zip":"29100"},{"name":"ALÇAKDERE YAYLASI MAH.","zip":"29100"},{"name":"ALEMDAR KÖYÜ","zip":"29100"},{"name":"ALEMDAR MAH.","zip":"29100"},{"name":"ARDUÇ KÖYÜ","zip":"29100"},{"name":"ARPALI MAH.","zip":"29100"},{"name":"ARSLANCA KÖYÜ","zip":"29100"},{"name":"ARSLANCA MAH.","zip":"29100"},{"name":"ARZULARKABAKÖY KÖYÜ","zip":"29100"},{"name":"ASLANKILIÇLAR MAH.","zip":"29100"},{"name":"AŞAĞI ALIÇLI MAH.","zip":"29100"},{"name":"AŞAĞI DIŞBUDAK MAH.","zip":"29100"},{"name":"AŞAĞI HAVRİYA MAH.","zip":"29100"},{"name":"AŞAĞI KURUGÖL MAH.","zip":"29100"},{"name":"AŞAĞI MAH.","zip":"29100"},{"name":"AŞAĞI YUVALI KÖYÜ","zip":"29100"},{"name":"AŞAĞI YUVALI MAH.","zip":"29100"},{"name":"AŞAĞI ZUVAS MAH.","zip":"29100"},{"name":"AŞAĞIALIÇLI KÖYÜ","zip":"29100"},{"name":"AVŞARBEYLİ KÖYÜ","zip":"29100"},{"name":"AVŞARBEYLİ MAH.","zip":"29100"},{"name":"AYENE MAH.","zip":"29100"},{"name":"AYRANLI MAH.","zip":"29100"},{"name":"AYVAZLI MAH.","zip":"29100"},{"name":"BABESE MAH.","zip":"29100"},{"name":"BAĞ MAH.","zip":"29100"},{"name":"BAĞCILAR MAH.","zip":"29100"},{"name":"BAHÇE MAH.","zip":"29100"},{"name":"BAHÇECİK KÖYÜ","zip":"29100"},{"name":"BAHÇELİ EVLER MAH.","zip":"29100"},{"name":"BAHÇELİ MAH.","zip":"29100"},{"name":"BAHÇELİEVLER MAH.","zip":"29100"},{"name":"BALAHOR YAYLASI 2 MAH.","zip":"29100"},{"name":"BALAHOR YAYLASI MAH.","zip":"29100"},{"name":"BALLICA KÖYÜ","zip":"29100"},{"name":"BANDIRLIK KÖYÜ","zip":"29100"},{"name":"BAŞ MAH.","zip":"29100"},{"name":"BAYRAKTARLAR MAH.","zip":"29100"},{"name":"BAYRAMOĞLU MAH.","zip":"29100"},{"name":"BAZMETLİ MAH.","zip":"29100"},{"name":"BEKTAŞLI MAH.","zip":"29100"},{"name":"BEŞOBA KÖYÜ","zip":"29100"},{"name":"BEYÇAM KÖYÜ","zip":"29100"},{"name":"BEYÇAM MAH.","zip":"29100"},{"name":"BEYLER MAH.","zip":"29100"},{"name":"BİNATLI MAH.","zip":"29100"},{"name":"BOĞALI MAH.","zip":"29100"},{"name":"BOĞALI YAYLASI MAH.","zip":"29100"},{"name":"BOYHANE MAH.","zip":"29100"},{"name":"BOYLUCA KÖYÜ","zip":"29100"},{"name":"BÖLÜKLÜ MAH.","zip":"29100"},{"name":"BUĞALI KÖYÜ","zip":"29100"},{"name":"BULUT MAH.","zip":"29100"},{"name":"BULUTLU MAH.","zip":"29100"},{"name":"BULUTLU YAYLASI MAH.","zip":"29100"},{"name":"BÜKLER MAH.","zip":"29100"},{"name":"BÜYÜK ÇİMEN MAH.","zip":"29100"},{"name":"BÜYÜKYAYLA MAH.","zip":"29100"},{"name":"CABAYLI MAH.","zip":"29100"},{"name":"CABRİ MAH.","zip":"29100"},{"name":"CAFERLİ MAH.","zip":"29100"},{"name":"CAMİ BOĞAZI MAH.","zip":"29100"},{"name":"CAMİ MAH.","zip":"29100"},{"name":"CAMİÖNÜ MAH.","zip":"29100"},{"name":"CEVİZLİ MAH.","zip":"29100"},{"name":"CİNGARLI MAH.","zip":"29100"},{"name":"CİRİP MAH.","zip":"29100"},{"name":"CUMHURİYET MAH.","zip":"29100"},{"name":"CÜCÜKLÜ MAH.","zip":"29100"},{"name":"ÇAĞIL GÖL MAH.","zip":"29100"},{"name":"ÇAKALLI MAH.","zip":"29100"},{"name":"ÇAKIRLI MAH.","zip":"29100"},{"name":"ÇAKO MAH.","zip":"29100"},{"name":"ÇALIK KÖYÜ","zip":"29100"},{"name":"ÇALTILI KÖYÜ","zip":"29100"},{"name":"ÇALTILI MAH.","zip":"29100"},{"name":"ÇAMLI KÖYÜ","zip":"29100"},{"name":"ÇAMLICA MAH.","zip":"29100"},{"name":"ÇARDAKLI MAH.","zip":"29100"},{"name":"ÇATALÇAYIR MAH.","zip":"29100"},{"name":"ÇATALPINAR MAH.","zip":"29100"},{"name":"ÇAYIRARDI KÖYÜ","zip":"29100"},{"name":"ÇERKEZLİ MAH.","zip":"29100"},{"name":"ÇİÇEK MAH.","zip":"29100"},{"name":"ÇİÇEKLİ MAH.","zip":"29100"},{"name":"ÇOBANBAŞI MAH.","zip":"29100"},{"name":"ÇOLAKGİL MAH.","zip":"29100"},{"name":"ÇORAK KÖYÜ","zip":"29100"},{"name":"ÇORAK MAH.","zip":"29100"},{"name":"ÇUKUR MAH.","zip":"29100"},{"name":"DAŞLIOVA MAH.","zip":"29100"},{"name":"DEĞİRMEN MAH.","zip":"29100"},{"name":"DEĞİRMENLER MAH.","zip":"29100"},{"name":"DEĞİRMENYURDU MAH.","zip":"29100"},{"name":"DEMİRCİLER MAH.","zip":"29100"},{"name":"DEMİRKAYNAK KÖYÜ","zip":"29100"},{"name":"DEMİRÖREN KÖYÜ","zip":"29100"},{"name":"DEMİRÖREN MAH.","zip":"29100"},{"name":"DERE MAH.","zip":"29100"},{"name":"DERİNDERE MAH.","zip":"29100"},{"name":"DERİNIRMAK MAH.","zip":"29100"},{"name":"DEVEBOYNU MAH.","zip":"29100"},{"name":"DEVRENCİ MAH.","zip":"29100"},{"name":"DİBEKLİ KÖYÜ","zip":"29100"},{"name":"DİVANE MAH.","zip":"29100"},{"name":"DOLANLI MAH.","zip":"29100"},{"name":"DÖLEK KÖYÜ","zip":"29100"},{"name":"DÖRTKONAK KÖYÜ","zip":"29100"},{"name":"DÖRTKONAK MAH.","zip":"29100"},{"name":"DSİ MAH.","zip":"29100"},{"name":"DUMANLI KÖYÜ","zip":"29100"},{"name":"DUYMADIK KÖYÜ","zip":"29100"},{"name":"DÜĞÜNYAZI KÖYÜ","zip":"29100"},{"name":"DÜĞÜNYAZI MAH.","zip":"29100"},{"name":"DÜZCE MAH.","zip":"29100"},{"name":"EFELER MAH.","zip":"29100"},{"name":"EFENDİLER MAH.","zip":"29100"},{"name":"EFTELAN MAH.","zip":"29100"},{"name":"EĞRİSİ MAH.","zip":"29100"},{"name":"EKİNCİLER MAH.","zip":"29100"},{"name":"EKMEKÇİ MAH.","zip":"29100"},{"name":"EMİRLER MAH.","zip":"29100"},{"name":"ERDEMLER KÖYÜ","zip":"29100"},{"name":"ERİKLİ MAH.","zip":"29100"},{"name":"ESENLER KÖYÜ","zip":"29100"},{"name":"ESENLER MAH.","zip":"29100"},{"name":"ESENLER YAYLASI MAH.","zip":"29100"},{"name":"ESENTEPE MAH.","zip":"29100"},{"name":"ESENYURT KÖYÜ","zip":"29100"},{"name":"ESKİ YAYLA MAH.","zip":"29100"},{"name":"ESKİKÖY MAH.","zip":"29100"},{"name":"EVLİCE MAH.","zip":"29100"},{"name":"EVRENİ MAH.","zip":"29100"},{"name":"FATİH MAH.","zip":"29100"},{"name":"FAZLIOĞLU MAH.","zip":"29100"},{"name":"FIÇICILAR MAH.","zip":"29100"},{"name":"FIRTINA MAH.","zip":"29100"},{"name":"GACİLİ MAH.","zip":"29100"},{"name":"GARİPLİ MAH.","zip":"29100"},{"name":"GAZİLER MAH.","zip":"29100"},{"name":"GEÇİT KÖYÜ","zip":"29100"},{"name":"GIRLAVU MAH.","zip":"29100"},{"name":"GİRETLİ MAH.","zip":"29100"},{"name":"GOBAL MAH.","zip":"29100"},{"name":"GOFİ MAH.","zip":"29100"},{"name":"GOLOGOS MAH.","zip":"29100"},{"name":"GÖKÇEPINAR KÖYÜ","zip":"29100"},{"name":"GÖKÇEPINAR MAH.","zip":"29100"},{"name":"GÖKDERE 2 MAH.","zip":"29100"},{"name":"GÖKDERE KÖYÜ","zip":"29100"},{"name":"GÖKDERE MAH.","zip":"29100"},{"name":"GÖZELER KÖYÜ","zip":"29100"},{"name":"GÖZELER MAH.","zip":"29100"},{"name":"GÜMÜŞKAYA KÖYÜ","zip":"29100"},{"name":"GÜMÜŞLÜK MAH.","zip":"29100"},{"name":"GÜNDOĞDU MAH.","zip":"29100"},{"name":"GÜNDÜZOĞLU MAH.","zip":"29100"},{"name":"GÜNEŞLİ MAH.","zip":"29100"},{"name":"GÜNEY MAH.","zip":"29100"},{"name":"GÜNGÖREN KÖYÜ","zip":"29100"},{"name":"GÜNGÖREN MAH.","zip":"29100"},{"name":"GÜVERCİNLİK KÖYÜ","zip":"29100"},{"name":"HACIGİL MAH.","zip":"29100"},{"name":"HACILAR MAH.","zip":"29100"},{"name":"HACILI MAH.","zip":"29100"},{"name":"HALEVERNE MAH.","zip":"29100"},{"name":"HALEZARA MAH.","zip":"29100"},{"name":"HALİLOĞLU MAH.","zip":"29100"},{"name":"HAMİTLER MAH.","zip":"29100"},{"name":"HAMZAAĞA MAH.","zip":"29100"},{"name":"HANEMGİL MAH.","zip":"29100"},{"name":"HANLARINDERE MAH.","zip":"29100"},{"name":"HAPENCİLİ MAH.","zip":"29100"},{"name":"HARABE MAH.","zip":"29100"},{"name":"HARAVA MAH.","zip":"29100"},{"name":"HARMANCIK KÖYÜ","zip":"29100"},{"name":"HARMANCIK MAH.","zip":"29100"},{"name":"HASKÖY KÖYÜ","zip":"29100"},{"name":"HAŞUTLAR MAH.","zip":"29100"},{"name":"HURŞİT AĞAGİL MAH.","zip":"29100"},{"name":"IRMAK MAH.","zip":"29100"},{"name":"IRMAKBAŞI MAH.","zip":"29100"},{"name":"IŞIKDERE MAH.","zip":"29100"},{"name":"IŞIKLI MAH.","zip":"29100"},{"name":"İBRAHİMEFENDİ MAH.","zip":"29100"},{"name":"İKİSU KÖYÜ","zip":"29100"},{"name":"İKİSU MAH.","zip":"29100"},{"name":"İKİZ KÖYÜ","zip":"29100"},{"name":"İKİZ MAH.","zip":"29100"},{"name":"İKİZ YAYLASI MAH.","zip":"29100"},{"name":"İNCESU KÖYÜ","zip":"29100"},{"name":"İNCESU MAH.","zip":"29100"},{"name":"İSKAN MAH.","zip":"29100"},{"name":"İSPATAN MAH.","zip":"29100"},{"name":"İSTAVRAMA MAH.","zip":"29100"},{"name":"İŞBİRLİ MAH.","zip":"29100"},{"name":"İŞHANLI MAH.","zip":"29100"},{"name":"KABAN MAH.","zip":"29100"},{"name":"KADEN MAH.","zip":"29100"},{"name":"KALE KÖYÜ","zip":"29100"},{"name":"KALEÖNÜ MAH.","zip":"29100"},{"name":"KALETAŞ KÖYÜ","zip":"29100"},{"name":"KALKANLI MAH.","zip":"29100"},{"name":"KARAAĞAÇ MAH.","zip":"29100"},{"name":"KARAALİ MAH.","zip":"29100"},{"name":"KARABURUN MAH.","zip":"29100"},{"name":"KARAHAVA MAH.","zip":"29100"},{"name":"KARAKAYA MAH.","zip":"29100"},{"name":"KARAMUSTAFA KÖYÜ","zip":"29100"},{"name":"KARAMUSTAFA MAH.","zip":"29100"},{"name":"KARAYAYLA MAH.","zip":"29100"},{"name":"KARŞI MAH.","zip":"29100"},{"name":"KARŞIYAKA MAH.","zip":"29100"},{"name":"KASAPOĞLU MAH.","zip":"29100"},{"name":"KATMERKAYA MAH.","zip":"29100"},{"name":"KAYABAŞI KÖYÜ","zip":"29100"},{"name":"KAYABAŞI MAH.","zip":"29100"},{"name":"KAYABAŞI YAYLASI 2 MAH.","zip":"29100"},{"name":"KAYABAŞI YAYLASI MAH.","zip":"29100"},{"name":"KAYALÇI MAH.","zip":"29100"},{"name":"KAZANTAŞ KÖYÜ","zip":"29100"},{"name":"KEÇİKAYA KÖYÜ","zip":"29100"},{"name":"KELHASAN MAH.","zip":"29100"},{"name":"KEŞKA MAH.","zip":"29100"},{"name":"KILIÇÖREN KÖYÜ","zip":"29100"},{"name":"KIRAN MAH.","zip":"29100"},{"name":"KIRIKLI KÖYÜ","zip":"29100"},{"name":"KIZILCA KÖYÜ","zip":"29100"},{"name":"KIZILCA MAH.","zip":"29100"},{"name":"KIZILKAYA MAH.","zip":"29100"},{"name":"KIZILTAŞ MAH.","zip":"29100"},{"name":"KİLİSE SIRTI MAH.","zip":"29100"},{"name":"KİRAZLI MAH.","zip":"29100"},{"name":"KOCAPINAR KÖYÜ","zip":"29100"},{"name":"KOCAYOKUŞ KÖYÜ","zip":"29100"},{"name":"KOCAYOKUŞ MAH.","zip":"29100"},{"name":"KOCAYOKUŞ MEZRASI MAH.","zip":"29100"},{"name":"KOLATHANLARI MAH.","zip":"29100"},{"name":"KONACIK MAH.","zip":"29100"},{"name":"KONAKLI MAH.","zip":"29100"},{"name":"KOYUNOĞLU MAH.","zip":"29100"},{"name":"KÖKLÜCE MAH.","zip":"29100"},{"name":"KÖMÜRDERE MAH.","zip":"29100"},{"name":"KROM MAH.","zip":"29100"},{"name":"KUMLAR MAH.","zip":"29100"},{"name":"KURTDERE MAH.","zip":"29100"},{"name":"KURTDERE-DİLAVER MAH.","zip":"29100"},{"name":"KURTGİL MAH.","zip":"29100"},{"name":"KURTOĞLU KÖYÜ","zip":"29100"},{"name":"KURTOĞLU MAH.","zip":"29100"},{"name":"KUŞLU MAH.","zip":"29100"},{"name":"KUZUGÖLÜ MAH.","zip":"29100"},{"name":"KÜÇÜK ÇİMEN MAH.","zip":"29100"},{"name":"KÜÇÜKÇİÇEKLİ MAH.","zip":"29100"},{"name":"KÜÇÜKYURT MAH.","zip":"29100"},{"name":"KÜTÜK MAH.","zip":"29100"},{"name":"LENDA MAH.","zip":"29100"},{"name":"LİMONSUYU MAH.","zip":"29100"},{"name":"LORYA MAH.","zip":"29100"},{"name":"MADEN MAH.","zip":"29100"},{"name":"MAĞALDOS MAH.","zip":"29100"},{"name":"MALAHA MAH.","zip":"29100"},{"name":"MANDAGÖLÜ MAH.","zip":"29100"},{"name":"MARONDU MAH.","zip":"29100"},{"name":"MELİTLİ MAH.","zip":"29100"},{"name":"MEMİŞLİ MAH.","zip":"29100"},{"name":"MERKEZ MAH.","zip":"29100"},{"name":"MESCİTLİ KÖYÜ","zip":"29100"},{"name":"MESCİTLİ MAH.","zip":"29100"},{"name":"MEZİRE MAH.","zip":"29100"},{"name":"MİNCONOS MAH.","zip":"29100"},{"name":"MİZİT YAYLASI MAH.","zip":"29100"},{"name":"MOLLAALİ MAH.","zip":"29100"},{"name":"MOLLAOĞLU MAH.","zip":"29100"},{"name":"MUHARA MAH.","zip":"29100"},{"name":"MURATGİL MAH.","zip":"29100"},{"name":"MURATHANOĞLU MAH.","zip":"29100"},{"name":"MUZGULU MAH.","zip":"29100"},{"name":"NAZLIÇAYIR KÖYÜ","zip":"29100"},{"name":"NAZLIÇAYIR MAH.","zip":"29100"},{"name":"NÖBÜNT MAH.","zip":"29100"},{"name":"OKUL MAH.","zip":"29100"},{"name":"OLUCAK KÖYÜ","zip":"29100"},{"name":"OLUKDERE KÖYÜ","zip":"29100"},{"name":"ORTA MAH.","zip":"29100"},{"name":"ORUÇLU MAH.","zip":"29100"},{"name":"OSMAN GAZİ MAH.","zip":"29100"},{"name":"OSMANGİL MAH.","zip":"29100"},{"name":"ÖRENLER KÖYÜ","zip":"29100"},{"name":"ÖRENLER MAH.","zip":"29100"},{"name":"ÖRENLER YAYLASI MAH.","zip":"29100"},{"name":"ÖTEKİ MAH.","zip":"29100"},{"name":"ÖVÜNDÜ KÖYÜ","zip":"29100"},{"name":"PARTİ MAH.","zip":"29100"},{"name":"PAŞALAR MAH.","zip":"29100"},{"name":"PAZARYERİ MAH.","zip":"29100"},{"name":"PEHLİVANLAR MAH.","zip":"29100"},{"name":"PEHLİVANTAŞI KÖYÜ","zip":"29100"},{"name":"PİKNİK MAH.","zip":"29100"},{"name":"PİRAHMET 2 MAH.","zip":"29100"},{"name":"PİRAHMET KÖYÜ","zip":"29100"},{"name":"PİRAHMET MAH.","zip":"29100"},{"name":"PİŞTOFLİ MAH.","zip":"29100"},{"name":"RECEPLİ MAH.","zip":"29100"},{"name":"SALLAHLI MAH.","zip":"29100"},{"name":"SARGINKAYA KÖYÜ","zip":"29100"},{"name":"SARIÇİÇEK KÖYÜ","zip":"29100"},{"name":"SARIOĞLU MAH.","zip":"29100"},{"name":"SARITAŞ MAH.","zip":"29100"},{"name":"SATIROĞLU MAH.","zip":"29100"},{"name":"SEMERCİLER MAH.","zip":"29100"},{"name":"SEROGOZ MAH.","zip":"29100"},{"name":"SEVİMLİ MAH.","zip":"29100"},{"name":"SIĞIRLI MAH.","zip":"29100"},{"name":"SIRT YAYLA MAH.","zip":"29100"},{"name":"SOĞANLI MAH.","zip":"29100"},{"name":"SOĞUKPINAR MAH.","zip":"29100"},{"name":"SOĞUKSU MAH.","zip":"29100"},{"name":"SÖĞÜTAĞIL KÖYÜ","zip":"29100"},{"name":"SULAKLI MAH.","zip":"29100"},{"name":"SULANMIŞ MAH.","zip":"29100"},{"name":"SUNGURBEYLİ KÖYÜ","zip":"29100"},{"name":"SUNGURBEYLİ MAH.","zip":"29100"},{"name":"SÜLE KÖYÜ","zip":"29100"},{"name":"SÜNGÜBAYIR KÖYÜ","zip":"29100"},{"name":"ŞAKALLI MAH.","zip":"29100"},{"name":"ŞAPHANE MAH.","zip":"29100"},{"name":"ŞAPHANE YAYLASI MAH.","zip":"29100"},{"name":"ŞEKERLİ MAH.","zip":"29100"},{"name":"ŞEPHANE KÖYÜ","zip":"29100"},{"name":"ŞİCAN MAH.","zip":"29100"},{"name":"TAMZI KÖYÜ","zip":"29100"},{"name":"TAMZI MAH.","zip":"29100"},{"name":"TANDIRLIK KÖYÜ","zip":"29100"},{"name":"TARAZALI MAH.","zip":"29100"},{"name":"TAŞALTI MAH.","zip":"29100"},{"name":"TAŞDİBİ MAH.","zip":"29100"},{"name":"TAŞKÖPRÜ MAH.","zip":"29100"},{"name":"TAŞLICA MAH.","zip":"29100"},{"name":"TATAROĞLU MAH.","zip":"29100"},{"name":"TEFİL MAH.","zip":"29100"},{"name":"TEKKE KÖYÜ","zip":"29100"},{"name":"TEKKE MAH.","zip":"29100"},{"name":"TEMELAĞA MAH.","zip":"29100"},{"name":"TEMÜRLÜ MAH.","zip":"29100"},{"name":"TERZİLİ MAH.","zip":"29100"},{"name":"TOKLUCA MAH.","zip":"29100"},{"name":"TOPCULU MAH.","zip":"29100"},{"name":"TORAMANLI MAH.","zip":"29100"},{"name":"TORLAKOĞLU MAH.","zip":"29100"},{"name":"TURHANLI MAH.","zip":"29100"},{"name":"TÜRKMENLER MAH.","zip":"29100"},{"name":"TÜRKMENLİ MAH.","zip":"29100"},{"name":"ULUKALE MAH.","zip":"29100"},{"name":"USLUGUN MAH.","zip":"29100"},{"name":"UZUNSIRT MAH.","zip":"29100"},{"name":"UZUNYOL MAH.","zip":"29100"},{"name":"ÜÇKOL KÖYÜ","zip":"29100"},{"name":"ÜÇKOL MAH.","zip":"29100"},{"name":"ÜSTÜNKÜ ZÜGÜ MAH.","zip":"29100"},{"name":"YAĞLIDERE KÖYÜ","zip":"29100"},{"name":"YAĞMURDERE KÖYÜ","zip":"29100"},{"name":"YAĞMURDERE MAH.","zip":"29100"},{"name":"YAMAÇ MAH.","zip":"29100"},{"name":"YAPRAKLI MAH.","zip":"29100"},{"name":"YAYDEMİR KÖYÜ","zip":"29100"},{"name":"YAYDEMİR MAH.","zip":"29100"},{"name":"YAYLA YOLU MAH.","zip":"29100"},{"name":"YAYLADERE KÖYÜ","zip":"29100"},{"name":"YENİ ÇAMLIK MAH.","zip":"29100"},{"name":"YENİ MAH.","zip":"29100"},{"name":"YENİ YAYLA MAH.","zip":"29100"},{"name":"YENİCE KÖYÜ","zip":"29100"},{"name":"YENİCE MAH.","zip":"29100"},{"name":"YENİKÖY KÖYÜ","zip":"29100"},{"name":"YENİYOL KÖYÜ","zip":"29100"},{"name":"YEŞİLDERE KÖYÜ","zip":"29100"},{"name":"YEŞİLYURT KÖYÜ","zip":"29100"},{"name":"YEŞİLYURT MAH.","zip":"29100"},{"name":"YETİMLİ MAH.","zip":"29100"},{"name":"YILANLI MAH.","zip":"29100"},{"name":"YILMAZLAR MAH.","zip":"29100"},{"name":"YİTİRMEZ KÖYÜ","zip":"29100"},{"name":"YOĞURTLU MAH.","zip":"29100"},{"name":"YONCALI MAH.","zip":"29100"},{"name":"YONCALI OSB MAH.","zip":"29100"},{"name":"YUKARI ALIÇLI KÖYÜ","zip":"29100"},{"name":"YUKARI ALIÇLI MAH.","zip":"29100"},{"name":"YUKARI HAVRIYA MAH.","zip":"29100"},{"name":"YUKARI KURUGÖL MAH.","zip":"29100"},{"name":"YUKARI MAH.","zip":"29100"},{"name":"YUKARI ÖTEKİ DERE MAH.","zip":"29100"},{"name":"YUKARI ÖVÜNDÜ MAH.","zip":"29100"},{"name":"YUKARI PARTİ MAH.","zip":"29100"},{"name":"YUKARI YUVALI KÖYÜ","zip":"29100"},{"name":"YUKARI YUVALI MAH.","zip":"29100"},{"name":"YUKARI ZUVAS MAH.","zip":"29100"},{"name":"ZEYNEPLİ MAH.","zip":"29100"},{"name":"ZIRGANLI HANLARI MAH.","zip":"29100"},{"name":"ZURNACİLİ MAH.","zip":"29100"},{"name":"AKBULAK KÖYÜ","zip":"29702"},{"name":"AKBULAK YAYLASI MAH.","zip":"29702"},{"name":"AKÇALI KÖYÜ","zip":"29702"},{"name":"AKSARAY KÖYÜ","zip":"29702"},{"name":"AKYAYLA MAH.","zip":"29702"},{"name":"ALACAHAN KÖYÜ","zip":"29702"},{"name":"ALIÇ KÖYÜ","zip":"29702"},{"name":"ARAKÖY KÖYÜ","zip":"29702"},{"name":"ARDIÇLI KÖYÜ","zip":"29702"},{"name":"ARGU MAH.","zip":"29702"},{"name":"ARITAŞ KÖYÜ","zip":"29702"},{"name":"AŞAĞI MAH.","zip":"29702"},{"name":"AŞAĞIDURUÇAY KÖYÜ","zip":"29702"},{"name":"BABACAN KÖYÜ","zip":"29702"},{"name":"BABUŞ KÖYÜ","zip":"29702"},{"name":"BAĞ MAH.","zip":"29702"},{"name":"BAHÇELİ KÖYÜ","zip":"29702"},{"name":"BAHÇELİ YAYLASI MAH.","zip":"29702"},{"name":"BALIKHİSAR KÖYÜ","zip":"29702"},{"name":"BAŞKÖY KÖYÜ","zip":"29702"},{"name":"BELEN KÖYÜ","zip":"29702"},{"name":"BEYDERE MAH.","zip":"29702"},{"name":"BİLGİLİ KÖYÜ","zip":"29702"},{"name":"BOĞAZYAYLA KÖYÜ","zip":"29702"},{"name":"BOLLUK KÖYÜ","zip":"29702"},{"name":"ÇAĞIL KÖYÜ","zip":"29702"},{"name":"ÇAKIRKAYA KÖYÜ","zip":"29702"},{"name":"ÇALKÖY KÖYÜ","zip":"29702"},{"name":"ÇAMBAŞI KÖYÜ","zip":"29702"},{"name":"ÇAMLICA MAH.","zip":"29702"},{"name":"ÇANAKÇI KÖYÜ","zip":"29702"},{"name":"ÇANAKÇI YAYLASI MAH.","zip":"29702"},{"name":"ÇATMALAR KÖYÜ","zip":"29702"},{"name":"ÇAVLAN KÖYÜ","zip":"29702"},{"name":"ÇEVREPINAR KÖYÜ","zip":"29702"},{"name":"ÇIRDAK MAH.","zip":"29702"},{"name":"DARIBÜKÜ KÖYÜ","zip":"29702"},{"name":"DİLEKYOLU KÖYÜ","zip":"29702"},{"name":"DUMANOLUĞU KÖYÜ","zip":"29702"},{"name":"ELDİĞİN KÖYÜ","zip":"29702"},{"name":"ELMAÇUKURU KÖYÜ","zip":"29702"},{"name":"ERİCEK KÖYÜ","zip":"29702"},{"name":"EVREN KÖYÜ","zip":"29702"},{"name":"GAVURDAĞI MAH.","zip":"29702"},{"name":"GÖKÇELER KÖYÜ","zip":"29702"},{"name":"GÜNBATUR KÖYÜ","zip":"29702"},{"name":"GÜNYÜZÜ KÖYÜ","zip":"29702"},{"name":"GÜREŞKÖY KÖYÜ","zip":"29702"},{"name":"HAMDÜT YAYLASI MAH.","zip":"29702"},{"name":"İNCEDERE KÖYÜ","zip":"29702"},{"name":"İNCEÖREN MAH.","zip":"29702"},{"name":"İNÖZÜ KÖYÜ","zip":"29702"},{"name":"KADIÇAYIRI KÖYÜ","zip":"29702"},{"name":"KALE MAH.","zip":"29702"},{"name":"KANATLI MAH.","zip":"29702"},{"name":"KARAŞEYH KÖYÜ","zip":"29702"},{"name":"KARŞI MAH.","zip":"29702"},{"name":"KAVAKLIDERE KÖYÜ","zip":"29702"},{"name":"KAVAKPINARI KÖYÜ","zip":"29702"},{"name":"KAYNAKBAŞI KÖYÜ","zip":"29702"},{"name":"KIRINTI KÖYÜ","zip":"29702"},{"name":"KIZILCA SU MAH.","zip":"29702"},{"name":"KOÇİ MAH.","zip":"29702"},{"name":"KONAKLI MAH.","zip":"29702"},{"name":"KOYUNBABA KÖYÜ","zip":"29702"},{"name":"KOZAĞAÇ KÖYÜ","zip":"29702"},{"name":"MERKEZ MAH.","zip":"29702"},{"name":"MUMYA MAH.","zip":"29702"},{"name":"ORTA MAH.","zip":"29702"},{"name":"OZANCA KÖYÜ","zip":"29702"},{"name":"ÖRENKALE KÖYÜ","zip":"29702"},{"name":"PAŞAPINARI KÖYÜ","zip":"29702"},{"name":"PELİTLİ KÖYÜ","zip":"29702"},{"name":"SADIKKÖY KÖYÜ","zip":"29702"},{"name":"SARICA KÖYÜ","zip":"29702"},{"name":"SARITAŞ MAH.","zip":"29702"},{"name":"SARIYER MAH.","zip":"29702"},{"name":"SEKİ (TOMARA) MAH.","zip":"29702"},{"name":"SELİMİYE KÖYÜ","zip":"29702"},{"name":"SELİMİYE YAYLASI MAH.","zip":"29702"},{"name":"SELLİDERE KÖYÜ","zip":"29702"},{"name":"SEYDİBABA KÖYÜ","zip":"29702"},{"name":"SEYDİBABA YAYLASI MAH.","zip":"29702"},{"name":"SİNANLI KÖYÜ","zip":"29702"},{"name":"SİTELER MAH.","zip":"29702"},{"name":"SÖĞÜTALAN KÖYÜ","zip":"29702"},{"name":"SUSUZ KÖYÜ","zip":"29702"},{"name":"TELME KÖYÜ","zip":"29702"},{"name":"TEPEDAM KÖYÜ","zip":"29702"},{"name":"TOYGAR MAH.","zip":"29702"},{"name":"ÜNDÜREN MAH.","zip":"29702"},{"name":"YEDİBÖLÜK KÖYÜ","zip":"29702"},{"name":"YENİKÖY KÖYÜ","zip":"29702"},{"name":"YENİKÖY YAYLASI MAH.","zip":"29702"},{"name":"YEŞİLBÜK KÖYÜ","zip":"29702"},{"name":"YEŞİLKENT MAH.","zip":"29702"},{"name":"YEŞİLYURT MAH.","zip":"29702"},{"name":"YOLBİLEN KÖYÜ","zip":"29702"},{"name":"YUKARI AKÇALI MAH.","zip":"29702"},{"name":"YUKARIDURUÇAY KÖYÜ","zip":"29702"},{"name":"YUKARIKULACA KÖYÜ","zip":"29702"}]},{"name":"ŞİRAN","cityName":null,"quarters":[{"name":"FATİH MAH.","zip":"29700"},{"name":"KARACA MAH.","zip":"29700"},{"name":"MERTEKLİ MAH.","zip":"29700"},{"name":"ŞEHİT HAKAN MAH.","zip":"29700"},{"name":"TEKKE MAH.","zip":"29700"}]},{"name":"MERKEZKÖYLER","cityName":null,"quarters":[{"name":"ACENKİSE MAH.","zip":"29802"},{"name":"ADİSA YAYLASI MAH.","zip":"29802"},{"name":"AFUKA MAH.","zip":"29802"},{"name":"AHMATLI MH. MAH.","zip":"29802"},{"name":"AKSÜT KÖYÜ","zip":"29802"},{"name":"AKSÜT YAYLASI MAH.","zip":"29802"},{"name":"AKTAŞ MH. MAH.","zip":"29802"},{"name":"ALINYAYLA KÖYÜ","zip":"29802"},{"name":"ALLAN MH. MAH.","zip":"29802"},{"name":"ALPULLU MAH.","zip":"29802"},{"name":"ALTINPINAR KÖYÜ","zip":"29802"},{"name":"ALTINTAŞLAR MAH.","zip":"29802"},{"name":"ALTINTAŞLAR MH. MAH.","zip":"29802"},{"name":"ALTIOKKALAR MAH.","zip":"29802"},{"name":"ARILI KÖYÜ","zip":"29802"},{"name":"ARILI YAYLASI MAH.","zip":"29802"},{"name":"ARMULTU VE YUVA MH. MAH.","zip":"29802"},{"name":"ARPALI KÖYÜ","zip":"29802"},{"name":"ASLANOĞLU MAH.","zip":"29802"},{"name":"AŞAĞI MH. MAH.","zip":"29802"},{"name":"ATALAR KÖYÜ","zip":"29802"},{"name":"ATALAR KÖYÜ MERKEZ MAH.","zip":"29802"},{"name":"ATGÜNEY MAH.","zip":"29802"},{"name":"AVCILAR MAH.","zip":"29802"},{"name":"AYAZLI MH. MAH.","zip":"29802"},{"name":"AYDINLAR MAH.","zip":"29802"},{"name":"AYDINLAR YAYLA MAH.","zip":"29802"},{"name":"AYONOS MAH.","zip":"29802"},{"name":"B.YÜCEBELEN MH. MAH.","zip":"29802"},{"name":"BABACIKLI MAH.","zip":"29802"},{"name":"BAHÇELİK KÖYÜ","zip":"29802"},{"name":"BALCILAR MH. MAH.","zip":"29802"},{"name":"BALCILAR MH.DERE MH.MEVKİ MAH.","zip":"29802"},{"name":"BALCILAR MH.KAVRAZ YAYLASI MAH.","zip":"29802"},{"name":"BAŞ GÜVEMLİ MAH.","zip":"29802"},{"name":"BAŞ GÜVEMLİ YAYLASI MAH.","zip":"29802"},{"name":"BAŞ MH. MAH.","zip":"29802"},{"name":"BAŞ MH.(MEZRA) MAH.","zip":"29802"},{"name":"BAŞAKLI MH. MAH.","zip":"29802"},{"name":"BAŞAKLI MH.MEZRASI MAH.","zip":"29802"},{"name":"BAŞPINAR MAH.","zip":"29802"},{"name":"BAYIR MAH.","zip":"29802"},{"name":"BAYIR MH. MAH.","zip":"29802"},{"name":"BEKİROĞULLARI MAH.","zip":"29802"},{"name":"BİNAYDE DERESİ MAH.","zip":"29802"},{"name":"BUDAK KÖYÜ","zip":"29802"},{"name":"BUDAK YAYLASI DAĞ MEVKİ MAH.","zip":"29802"},{"name":"BUDAK YAYLASI MAH.","zip":"29802"},{"name":"BULEMAN DERE MAH.","zip":"29802"},{"name":"BÜLBÜLOĞLU MAH.","zip":"29802"},{"name":"BÜYÜK YÜCEBELEN MH. MAH.","zip":"29802"},{"name":"BÜYÜKÇİT KÖYÜ","zip":"29802"},{"name":"CAMİ MH. MAH.","zip":"29802"},{"name":"CAMİ MH.(MEZRA) MAH.","zip":"29802"},{"name":"CEBELİ KÖYÜ","zip":"29802"},{"name":"ÇALIŞKANLAR MAH.","zip":"29802"},{"name":"ÇAMDİBİ MH. MAH.","zip":"29802"},{"name":"ÇAMDİBİ YAYLASI MAH.","zip":"29802"},{"name":"ÇARŞI MH. MAH.","zip":"29802"},{"name":"ÇAVUŞALİ MAH.","zip":"29802"},{"name":"ÇENGELLİ DERE MH. MAH.","zip":"29802"},{"name":"ÇENGELLİ YUKARI MH. MAH.","zip":"29802"},{"name":"ÇERÇİLER MAH.","zip":"29802"},{"name":"ÇİÇEKLİ MH. MAH.","zip":"29802"},{"name":"ÇİÇEKLİ YAYLASI MAH.","zip":"29802"},{"name":"ÇUBUKLU MH. MAH.","zip":"29802"},{"name":"ÇUBUKLU(ALÖNE) MH. MAH.","zip":"29802"},{"name":"ÇUKURLAR MH. MAH.","zip":"29802"},{"name":"DAĞDİBİ KÖYÜ","zip":"29802"},{"name":"DARIDERE MH. MAH.","zip":"29802"},{"name":"DAVUTLU MAH.","zip":"29802"},{"name":"DEDELİ KÖYÜ","zip":"29802"},{"name":"DEDELİ MERKEZ MAH.","zip":"29802"},{"name":"DEĞİRMEN TAŞ MAH.","zip":"29802"},{"name":"DEMİRCİLER MH. MAH.","zip":"29802"},{"name":"DEMİRKAPI KÖYÜ","zip":"29802"},{"name":"DERE MH. MAH.","zip":"29802"},{"name":"DİKMELER MH. MAH.","zip":"29802"},{"name":"DOKUZGÖZE MAH.","zip":"29802"},{"name":"DOKUZGÖZE YAYLASI MAH.","zip":"29802"},{"name":"DÖRENE MH. MAH.","zip":"29802"},{"name":"DUGLA YAYLASI ORTA MH. MAH.","zip":"29802"},{"name":"DURMUŞLAR MH. MAH.","zip":"29802"},{"name":"DÜZ MH. MAH.","zip":"29802"},{"name":"ELMA MH. MAH.","zip":"29802"},{"name":"ELMA MH.YAYLASI MAH.","zip":"29802"},{"name":"EMİRLER DERE MH. MAH.","zip":"29802"},{"name":"EMİRLER MH. MAH.","zip":"29802"},{"name":"EMİRLER MH.(YAYLA EVLERİ) MAH.","zip":"29802"},{"name":"EMRÜK MAH.","zip":"29802"},{"name":"ERDEMLER MH. MAH.","zip":"29802"},{"name":"ERDEMLER YAYLASI MAH.","zip":"29802"},{"name":"ESENTEPE MAH.","zip":"29802"},{"name":"ESKİ MUHTARLAR MAH.","zip":"29802"},{"name":"ESKİKÖY MH. MAH.","zip":"29802"},{"name":"FALCILI MAH.","zip":"29802"},{"name":"FEHMELER MAH.","zip":"29802"},{"name":"GADOHOR MH. MAH.","zip":"29802"},{"name":"GAMBAT MH. MAH.","zip":"29802"},{"name":"GARDOBA MAH.","zip":"29802"},{"name":"GEBE YURT MAH.","zip":"29802"},{"name":"GELİNKAYA MH. MAH.","zip":"29802"},{"name":"GOROFTA MAH.","zip":"29802"},{"name":"GÖĞÜS MH. MAH.","zip":"29802"},{"name":"GÖMLEKSİZ MH. MAH.","zip":"29802"},{"name":"GÖZGÖREN MH. MAH.","zip":"29802"},{"name":"GRAN YAYLASI MAH.","zip":"29802"},{"name":"GUGULE MAH.","zip":"29802"},{"name":"GÜLAÇAR KÖYÜ","zip":"29802"},{"name":"GÜLLÜ MAH.","zip":"29802"},{"name":"GÜLLÜ MH. MAH.","zip":"29802"},{"name":"GÜLLÜ MH. YAYLASI MAH.","zip":"29802"},{"name":"GÜMÜŞTUĞ KÖYÜ","zip":"29802"},{"name":"GÜNAY KÖYÜ","zip":"29802"},{"name":"GÜNEŞLİ MAH.","zip":"29802"},{"name":"GÜRPINAR MAH.","zip":"29802"},{"name":"GÜVEMLİ KÖYÜ","zip":"29802"},{"name":"GÜVERCİNLİK MAH.","zip":"29802"},{"name":"GÜZELOLUK KÖYÜ","zip":"29802"},{"name":"HALİLLİ MH. MAH.","zip":"29802"},{"name":"HARHARA MH. MAH.","zip":"29802"},{"name":"HARMANCIK KÖYÜ","zip":"29802"},{"name":"HAS MH. MAH.","zip":"29802"},{"name":"HASAN AĞA MAH.","zip":"29802"},{"name":"HAVRİYA MAH.","zip":"29802"},{"name":"HEMDİLER MAH.","zip":"29802"},{"name":"HEREK KÖYÜ","zip":"29802"},{"name":"HITIRILLEZ MH. MAH.","zip":"29802"},{"name":"HOROBOS MH. MAH.","zip":"29802"},{"name":"IŞIK KÖYÜ","zip":"29802"},{"name":"IŞIKLAR MH. MAH.","zip":"29802"},{"name":"İLECİK KÖYÜ","zip":"29802"},{"name":"İLECİK MH. MAH.","zip":"29802"},{"name":"İNKILAP KÖYÜ","zip":"29802"},{"name":"K.YÜCEBELEN MH. MAH.","zip":"29802"},{"name":"K.YÜCEBELEN MİNARLİ YAY. MAH.","zip":"29802"},{"name":"K.YÜCEBELEN ŞEP MEZRASI MAH.","zip":"29802"},{"name":"KADİRLİ MAH.","zip":"29802"},{"name":"KAFLİKAYA MAH.","zip":"29802"},{"name":"KALCI MAH.","zip":"29802"},{"name":"KALECİK KÖYÜ","zip":"29802"},{"name":"KALEMİDE VE MALOBA MAH.","zip":"29802"},{"name":"KAMBOS MAH.","zip":"29802"},{"name":"KAPAKLI YAKUPLAR MAH.","zip":"29802"},{"name":"KARACA MH. MAH.","zip":"29802"},{"name":"KAREL MH. MAH.","zip":"29802"},{"name":"KARŞIYAKA MAH.","zip":"29802"},{"name":"KAVRAZ YAYLASI MAH.","zip":"29802"},{"name":"KAYADİBİ MH. MAH.","zip":"29802"},{"name":"KAYCILAR YAYLASI MAH.","zip":"29802"},{"name":"KEKLİK MAH.","zip":"29802"},{"name":"KILAN MH. MAH.","zip":"29802"},{"name":"KILIÇKAYA MAH.","zip":"29802"},{"name":"KİRAZLI MH. MAH.","zip":"29802"},{"name":"KİRAZLIK KÖYÜ","zip":"29802"},{"name":"KOCADAL KÖYÜ","zip":"29802"},{"name":"KOÇAKLAR MH. MAH.","zip":"29802"},{"name":"KOÇLAR MH. MAH.","zip":"29802"},{"name":"KOMLAR MAH.","zip":"29802"},{"name":"KONAK MAH.","zip":"29802"},{"name":"KONANİ MEZRASI MAH.","zip":"29802"},{"name":"KONEN MAH.","zip":"29802"},{"name":"KOPUZ KÖYÜ","zip":"29802"},{"name":"KOZLUCA MH. MAH.","zip":"29802"},{"name":"KÖHREN MAH.","zip":"29802"},{"name":"KÖKLÜ MAH.","zip":"29802"},{"name":"KÖSTERE KÖYÜ","zip":"29802"},{"name":"KÖYCEĞİZ MH. MAH.","zip":"29802"},{"name":"KRAN MH. MAH.","zip":"29802"},{"name":"KURTDÜZÜ MAH.","zip":"29802"},{"name":"KUŞLU MH. MAH.","zip":"29802"},{"name":"KÜÇÜKÇİT KÖYÜ","zip":"29802"},{"name":"KÜÇÜKDERE MAH.","zip":"29802"},{"name":"KÜPCÜLER MH. MAH.","zip":"29802"},{"name":"KÜRTLÜ MH. MAH.","zip":"29802"},{"name":"LAHLU MH MAH.","zip":"29802"},{"name":"LAMEDER MAH.","zip":"29802"},{"name":"LEHORDU MEZRASI MAH.","zip":"29802"},{"name":"MADEN MH. MAH.","zip":"29802"},{"name":"MANASTIR MAH.","zip":"29802"},{"name":"MANAT MAH.","zip":"29802"},{"name":"MANDİŞKA MAH.","zip":"29802"},{"name":"MARAŞ MAH.","zip":"29802"},{"name":"MAZMANLI MH. MAH.","zip":"29802"},{"name":"MEHMETLİ MAH.","zip":"29802"},{"name":"MEREKLER MAH.","zip":"29802"},{"name":"MERKEZ ALAS MAH.","zip":"29802"},{"name":"MERKEZ MAH.","zip":"29802"},{"name":"MERKEZ MH. MAH.","zip":"29802"},{"name":"MERKEZ MH.2 MAH.","zip":"29802"},{"name":"MESMELE- YUNUZLU MAH.","zip":"29802"},{"name":"MEYRAMANA MH. MAH.","zip":"29802"},{"name":"MEYREMANA MH. MAH.","zip":"29802"},{"name":"MEZİRE MH. MAH.","zip":"29802"},{"name":"MEZRA MAH.","zip":"29802"},{"name":"MEZRE MH. MAH.","zip":"29802"},{"name":"MOLLA MH. MAH.","zip":"29802"},{"name":"MOLLALAR MAH.","zip":"29802"},{"name":"MOLOSKA MEZRASI MAH.","zip":"29802"},{"name":"MÖSİYE VE KURTHARMANI MAH.","zip":"29802"},{"name":"MUSALAR-HAYTALAR MAH.","zip":"29802"},{"name":"MUSLU MAH.","zip":"29802"},{"name":"MUSTAFA MEREĞİ MH. MAH.","zip":"29802"},{"name":"NOHUTLU MAH.","zip":"29802"},{"name":"OCAKLI MH. MAH.","zip":"29802"},{"name":"ORTA MH. MAH.","zip":"29802"},{"name":"ORTOVA MAH.","zip":"29802"},{"name":"OTALAN MH. MAH.","zip":"29802"},{"name":"ÖZLÜCE MH. MAH.","zip":"29802"},{"name":"PASOVA MAH.","zip":"29802"},{"name":"RAMADANLI MH. MAH.","zip":"29802"},{"name":"REBİYELER MAH.","zip":"29802"},{"name":"SAHATLI MH. MAH.","zip":"29802"},{"name":"SARI OSMAN MAH.","zip":"29802"},{"name":"SARIÇ MAH.","zip":"29802"},{"name":"SELEN MAH.","zip":"29802"},{"name":"SOFULAR MAH.","zip":"29802"},{"name":"SOYA MH. MAH.","zip":"29802"},{"name":"SÖĞÜTÖZÜ MAH.","zip":"29802"},{"name":"ŞEP MEZRASI MAH.","zip":"29802"},{"name":"ŞİMONOY MAH.","zip":"29802"},{"name":"TEMELLER MAH.","zip":"29802"},{"name":"TOKÇAM KÖYÜ","zip":"29802"},{"name":"TOKÇAM MAH.","zip":"29802"},{"name":"TOPCULAR MAH.","zip":"29802"},{"name":"TOROMAN MAH.","zip":"29802"},{"name":"UDALİ MAH.","zip":"29802"},{"name":"UĞURTAŞI KÖYÜ","zip":"29802"},{"name":"USLUCA MAH.","zip":"29802"},{"name":"USLUCA YAYLASI MAH.","zip":"29802"},{"name":"VARTLI MH. MAH.","zip":"29802"},{"name":"YALINKAVAK KÖYÜ","zip":"29802"},{"name":"YALINKAVAK YAYLASI MAH.","zip":"29802"},{"name":"YAYCILI MAH.","zip":"29802"},{"name":"YAYIKCILAR MEZERE MEVKİ MAH.","zip":"29802"},{"name":"YAYIKCILAR MH. MAH.","zip":"29802"},{"name":"YAYIKCILAR MH.YAYLASI MAH.","zip":"29802"},{"name":"YAYLA   EVLERİ MAH.","zip":"29802"},{"name":"YAYLA EVLERİ MAH.","zip":"29802"},{"name":"YEDE MAH.","zip":"29802"},{"name":"YEŞİLKÖY KÖYÜ","zip":"29802"},{"name":"YILANLI YAYLASI MAH.","zip":"29802"},{"name":"YILDIZ KÖYÜ","zip":"29802"},{"name":"YUKARI MH. MAH.","zip":"29802"},{"name":"YURT KÖYÜ","zip":"29802"},{"name":"YUSUFLAR MAH.","zip":"29802"},{"name":"YUVA MH. MAH.","zip":"29802"},{"name":"YÜCEBELEN KÖYÜ","zip":"29802"},{"name":"ZABUK MH. MAH.","zip":"29802"},{"name":"ZEVRE MAH.","zip":"29802"},{"name":"ZİGANA DAĞI YAYLASI MAH.","zip":"29802"},{"name":"ZİGANA KÖYÜ","zip":"29802"},{"name":"ZİVİLDİ MH. MAH.","zip":"29802"},{"name":"ZUYSA MAH.","zip":"29802"}]},{"name":"TORUL","cityName":null,"quarters":[{"name":"ÇAMLICA MAH.","zip":"29800"},{"name":"KALEDİBİ MAH.","zip":"29800"},{"name":"KÖPRÜBAŞI MAH.","zip":"29800"},{"name":"MERKEZ MAH.","zip":"29800"},{"name":"SOĞUKSU MAH.","zip":"29800"},{"name":"TUFANİYE MAH.","zip":"29800"},{"name":"TUĞRULBEY MAH.","zip":"29800"}]}]}]}