{"id":3,"name":"AFYONKARAHİSAR","cities":[{"name":"city","districts":[{"name":"BAŞMAKÇI","cityName":null,"quarters":[{"name":"FATİH MAH.","zip":"03450"},{"name":"GÜLİSTAN MAH.","zip":"03450"},{"name":"MİMAR SİNAN MAH.","zip":"03450"},{"name":"YENİ MAH.","zip":"03450"},{"name":"YUKARI HİLAL MAH.","zip":"03450"}]},{"name":"MERKEZKÖYLER","cityName":null,"quarters":[{"name":"AKKOYUNLU KÖYÜ","zip":"03452"},{"name":"AKPINAR KÖYÜ","zip":"03452"},{"name":"AŞAĞI BELTARLA KÖYÜ","zip":"03452"},{"name":"AŞAĞI MAH.","zip":"03452"},{"name":"ÇEVLİK KÖYÜ","zip":"03452"},{"name":"ÇIĞRI KÖYÜ","zip":"03452"},{"name":"EKİNLİK KÖYÜ","zip":"03452"},{"name":"EMMİLER MAH.","zip":"03452"},{"name":"HIRKAKÖY KÖYÜ","zip":"03452"},{"name":"KÜLLÜCE KÖYÜ","zip":"03452"},{"name":"MERKEZ MAH.","zip":"03452"},{"name":"ORTA MAH.","zip":"03452"},{"name":"OVACIK KÖYÜ","zip":"03452"},{"name":"SARIKÖY KÖYÜ","zip":"03452"},{"name":"TINALAR MAH.","zip":"03452"},{"name":"YAKA KÖYÜ","zip":"03452"},{"name":"YASSIÖREN KÖYÜ","zip":"03452"},{"name":"YUKARI MAH.","zip":"03452"},{"name":"YUKARIBELTARLA KÖYÜ","zip":"03452"}]},{"name":"BAYAT","cityName":null,"quarters":[{"name":"CUMHURİYET MAH.","zip":"03780"},{"name":"HÜRRİYET MAH.","zip":"03780"},{"name":"YENİ MAH.","zip":"03780"}]},{"name":"MERKEZKÖYLER","cityName":null,"quarters":[{"name":"AKPINAR KÖYÜ","zip":"03782"},{"name":"AŞAĞIÇAYBELEN KÖYÜ","zip":"03782"},{"name":"CERİTLİ MAH.","zip":"03782"},{"name":"ÇUKURKUYU KÖYÜ","zip":"03782"},{"name":"DERBENT KÖYÜ","zip":"03782"},{"name":"ESKİGÖMÜ KÖYÜ","zip":"03782"},{"name":"İMRALLI KÖYÜ","zip":"03782"},{"name":"İNPINAR KÖYÜ","zip":"03782"},{"name":"KUZÖREN KÖYÜ","zip":"03782"},{"name":"MALLICA KÖYÜ","zip":"03782"},{"name":"MURATKORU KÖYÜ","zip":"03782"},{"name":"ORTA MAH.","zip":"03782"},{"name":"SAĞIRLI KÖYÜ","zip":"03782"},{"name":"YUKARIÇAYBELEN KÖYÜ","zip":"03782"}]},{"name":"BOLVADİN","cityName":null,"quarters":[{"name":"ALACA MAH.","zip":"03300"},{"name":"ALİ EFENDİ MAH.","zip":"03300"},{"name":"AŞAĞI GÖKÇEYAYLA MAH.","zip":"03300"},{"name":"AYDINLAR MAH.","zip":"03300"},{"name":"BADEMLİ MAH.","zip":"03300"},{"name":"BAĞLARBAŞI MAH.","zip":"03300"},{"name":"BAĞLARÜSTÜ MAH.","zip":"03300"},{"name":"BAHÇELİEVLER MAH.","zip":"03300"},{"name":"BEKİR AĞA MAH.","zip":"03300"},{"name":"BOLVADİN OSB MAH.","zip":"03300"},{"name":"BUCAK MAH.","zip":"03300"},{"name":"CİRİT MAH.","zip":"03300"},{"name":"ÇARDAKLI MAH.","zip":"03300"},{"name":"EMRULLAH MAH.","zip":"03300"},{"name":"ERKMEN MAH.","zip":"03300"},{"name":"ETHEM KELEKÇİ MAH.","zip":"03300"},{"name":"GÖLBAŞI MAH.","zip":"03300"},{"name":"HACI ESAT MAH.","zip":"03300"},{"name":"HACI HALİFE MAH.","zip":"03300"},{"name":"HACI ÖMER MAH.","zip":"03300"},{"name":"HACI YUSUF MAH.","zip":"03300"},{"name":"HASTANE MAH.","zip":"03300"},{"name":"HİSAR MAH.","zip":"03300"},{"name":"İHSANİYE MAH.","zip":"03300"},{"name":"İMARET MAH.","zip":"03300"},{"name":"KALE MAH.","zip":"03300"},{"name":"KARABAĞLAR MAH.","zip":"03300"},{"name":"KAYMAZ MAH.","zip":"03300"},{"name":"KESTEMET MAH.","zip":"03300"},{"name":"KIRKGÖZ MAH.","zip":"03300"},{"name":"KIRKLAR MAH.","zip":"03300"},{"name":"KONAK MAH.","zip":"03300"},{"name":"LALA SİNAN PAŞA MAH.","zip":"03300"},{"name":"MESCİT MAH.","zip":"03300"},{"name":"MÜSLÜMANA MAH.","zip":"03300"},{"name":"ÖMEROĞLU MAH.","zip":"03300"},{"name":"SELÇUKLU MAH.","zip":"03300"},{"name":"SÜLEYMANİYE MAH.","zip":"03300"},{"name":"ŞAZİ MAH.","zip":"03300"},{"name":"ŞIHLAR MAH.","zip":"03300"},{"name":"TAŞAĞIL MAH.","zip":"03300"},{"name":"YAKUP ŞEVKİ PAŞA MAH.","zip":"03300"},{"name":"YENİ DOĞAN MAH.","zip":"03300"},{"name":"YENİCE MAH.","zip":"03300"},{"name":"YILDIRIM MAH.","zip":"03300"},{"name":"YUKARI GÖKÇEYAYLA MAH.","zip":"03300"}]},{"name":"MERKEZKÖYLER","cityName":null,"quarters":[{"name":"AVDAN MAH.","zip":"03302"},{"name":"BAHÇELİEVLER MAH.","zip":"03302"},{"name":"BÜYÜKKARABAĞ KÖYÜ","zip":"03302"},{"name":"ÇAYBAŞI MAH.","zip":"03302"},{"name":"DEREKARABAĞ KÖYÜ","zip":"03302"},{"name":"DİPEVLER KÖYÜ","zip":"03302"},{"name":"DİŞLİ KÖYÜ","zip":"03302"},{"name":"FATİH MAH.","zip":"03302"},{"name":"FEVZİÇAKMAK MAH.","zip":"03302"},{"name":"GÜNEY KÖYÜ","zip":"03302"},{"name":"HACIBEKİR MAH.","zip":"03302"},{"name":"HAMİDİYE KÖYÜ","zip":"03302"},{"name":"HÜRRİYET MAH.","zip":"03302"},{"name":"KARAYOKUŞ KÖYÜ","zip":"03302"},{"name":"KARŞIYAKA MAH.","zip":"03302"},{"name":"KEMERKAYA KÖYÜ","zip":"03302"},{"name":"KÖPRÜBAŞI MAH.","zip":"03302"},{"name":"KURUCAOVA KÖYÜ","zip":"03302"},{"name":"KUTLU KÖYÜ","zip":"03302"},{"name":"MALAZGİRT MAH.","zip":"03302"},{"name":"MEVLANA MAH.","zip":"03302"},{"name":"NUSRATLI KÖYÜ","zip":"03302"},{"name":"OKUL MAH.","zip":"03302"},{"name":"ORTAKARABAĞ KÖYÜ","zip":"03302"},{"name":"ÖZBURUN KÖYÜ","zip":"03302"},{"name":"SAVAŞ MAH.","zip":"03302"},{"name":"ŞEHİRÖNÜ MAH.","zip":"03302"},{"name":"ŞEYH ŞAMİL MAH.","zip":"03302"},{"name":"TAŞAĞIL KÖYÜ","zip":"03302"},{"name":"TAŞLIDERE KÖYÜ","zip":"03302"},{"name":"ULUCAMİ MAH.","zip":"03302"},{"name":"ÜSKÜDAR MAH.","zip":"03302"},{"name":"YAKA MAH.","zip":"03302"},{"name":"YAPRAKLI MAH.","zip":"03302"},{"name":"YAVUZ SELİM MAH.","zip":"03302"},{"name":"YENİ MAH.","zip":"03302"},{"name":"YUKARI MAH.","zip":"03302"},{"name":"YUNUS EMRE MAH.","zip":"03302"},{"name":"YÜRÜKKARACAÖREN KÖYÜ","zip":"03302"},{"name":"ZAFER MAH.","zip":"03302"}]},{"name":"ÇAY","cityName":null,"quarters":[{"name":"ALİ İHSAN PAŞA MAH.","zip":"03700"},{"name":"ALİ KALELİ MAH.","zip":"03700"},{"name":"BAHÇELİEVLER MAH.","zip":"03700"},{"name":"CEDİT MAH.","zip":"03700"},{"name":"DEMİRAĞAÇ MAH.","zip":"03700"},{"name":"DUMLUPINAR MAH.","zip":"03700"},{"name":"ELBİZ MAH.","zip":"03700"},{"name":"İSTASYON MAH.","zip":"03700"},{"name":"KÖPRÜBAŞI MAH.","zip":"03700"},{"name":"ORTA MAH.","zip":"03700"},{"name":"ŞİRİNEVLER MAH.","zip":"03700"},{"name":"TEKKE MAH.","zip":"03700"},{"name":"VAKIF MAH.","zip":"03700"},{"name":"YAKA MAH.","zip":"03700"},{"name":"YEŞİLEVLER MAH.","zip":"03700"}]},{"name":"MERKEZKÖYLER","cityName":null,"quarters":[{"name":"AFYON MAH.","zip":"03702"},{"name":"AKHÜRREM MAH.","zip":"03702"},{"name":"AKKONAK KÖYÜ","zip":"03702"},{"name":"ALPASLAN MAH.","zip":"03702"},{"name":"ARMUTLU KÖYÜ","zip":"03702"},{"name":"AŞAĞI MAH.","zip":"03702"},{"name":"AYDOĞMUŞ KÖYÜ","zip":"03702"},{"name":"BAĞLAR MAH.","zip":"03702"},{"name":"BALTACI MAH.","zip":"03702"},{"name":"BEŞEVLER MAH.","zip":"03702"},{"name":"BULANIK KÖYÜ","zip":"03702"},{"name":"CUMHURİYET KÖYÜ","zip":"03702"},{"name":"CUMHURİYET MAH.","zip":"03702"},{"name":"ÇAYIRPINAR KÖYÜ","zip":"03702"},{"name":"ÇAYIRYAZI KÖYÜ","zip":"03702"},{"name":"DERESİNEK KÖYÜ","zip":"03702"},{"name":"DEVEDERESİ KÖYÜ","zip":"03702"},{"name":"EBER KÖYÜ","zip":"03702"},{"name":"EVREN MAH.","zip":"03702"},{"name":"GÖCEN KÖYÜ","zip":"03702"},{"name":"GÖÇMEZLER MAH.","zip":"03702"},{"name":"GÜLBAHARLI MAH.","zip":"03702"},{"name":"GÜNDOĞDU MAH.","zip":"03702"},{"name":"HÜRRİYET MAH.","zip":"03702"},{"name":"İNLİ KÖYÜ","zip":"03702"},{"name":"KADIKÖY KÖYÜ","zip":"03702"},{"name":"KAHRAMAN MAH.","zip":"03702"},{"name":"KARABULUT MAH.","zip":"03702"},{"name":"KARAMIK KÖYÜ","zip":"03702"},{"name":"KARAMIKKARACAÖREN KÖYÜ","zip":"03702"},{"name":"KAVAKLI MAH.","zip":"03702"},{"name":"KILIÇYAKA KÖYÜ","zip":"03702"},{"name":"KOCATEPE MAH.","zip":"03702"},{"name":"KOÇBEYLİ KÖYÜ","zip":"03702"},{"name":"MALTEPE KÖYÜ","zip":"03702"},{"name":"MİLLİ EGEMENLİK MAH.","zip":"03702"},{"name":"ORHANİYE KÖYÜ","zip":"03702"},{"name":"ORTA MAH.","zip":"03702"},{"name":"PAZARAĞAÇ KÖYÜ","zip":"03702"},{"name":"PINARKAYA KÖYÜ","zip":"03702"},{"name":"SEKA MAH.","zip":"03702"},{"name":"TEKKE MAH.","zip":"03702"},{"name":"YAYLA MAH.","zip":"03702"},{"name":"YENİ MAH.","zip":"03702"},{"name":"YEŞİLYURT KÖYÜ","zip":"03702"},{"name":"YUKARI MAH.","zip":"03702"},{"name":"ZAFER MAH.","zip":"03702"}]},{"name":"ÇOBANLAR","cityName":null,"quarters":[{"name":"GÖLCÜK MAH.","zip":"03060"},{"name":"IŞIK MAH.","zip":"03060"},{"name":"KARADEDE MAH.","zip":"03060"},{"name":"SIRAKAPI MAH.","zip":"03060"},{"name":"TERMALKENT MAH.","zip":"03060"},{"name":"YAVUZ SELİM MAH.","zip":"03060"},{"name":"YENİ MAH.","zip":"03060"},{"name":"ZAFER MAH.","zip":"03060"}]},{"name":"MERKEZKÖYLER","cityName":null,"quarters":[{"name":"ATATÜRK MAH.","zip":"03062"},{"name":"CUMHURİYET MAH.","zip":"03062"},{"name":"FATİH MAH.","zip":"03062"},{"name":"GÖYNÜK KÖYÜ","zip":"03062"},{"name":"İSTİKLAL MAH.","zip":"03062"},{"name":"KALE KÖYÜ","zip":"03062"},{"name":"KOCAÖZ KÖYÜ","zip":"03062"}]},{"name":"DAZKIRI","cityName":null,"quarters":[{"name":"ÇAMLIK MAH.","zip":"03950"},{"name":"ESENTEPE MAH.","zip":"03950"},{"name":"KURTULUŞ MAH.","zip":"03950"},{"name":"VEHBİ KOÇ SANAYİ BÖLGESİ MAH.","zip":"03950"},{"name":"YENİYOL MAH.","zip":"03950"},{"name":"YEŞİLYURT MAH.","zip":"03950"}]},{"name":"MERKEZKÖYLER","cityName":null,"quarters":[{"name":"ARIKÖY KÖYÜ","zip":"03952"},{"name":"AŞAĞIYENİCE KÖYÜ","zip":"03952"},{"name":"BOZAN KÖYÜ","zip":"03952"},{"name":"ÇİFTLİK KÖYÜ","zip":"03952"},{"name":"DARICILAR KÖYÜ","zip":"03952"},{"name":"DEMİREL MAH.","zip":"03952"},{"name":"FATİH MAH.","zip":"03952"},{"name":"HASANDEDE KÖYÜ","zip":"03952"},{"name":"HİSARALAN KÖYÜ","zip":"03952"},{"name":"İDRİS KÖYÜ","zip":"03952"},{"name":"KARAAĞAÇKUYUSU KÖYÜ","zip":"03952"},{"name":"KIZILÖREN KÖYÜ","zip":"03952"},{"name":"ÖRTÜLÜ KÖYÜ","zip":"03952"},{"name":"SARIKAVAK KÖYÜ","zip":"03952"},{"name":"YAYLAKÖY KÖYÜ","zip":"03952"},{"name":"YUKARIYENİCE KÖYÜ","zip":"03952"},{"name":"YÜREĞİL KÖYÜ","zip":"03952"}]},{"name":"DİNAR","cityName":null,"quarters":[{"name":"ALTMIŞEVLER MAH.","zip":"03400"},{"name":"ATATÜRK MAH.","zip":"03400"},{"name":"BAĞLAR MAH.","zip":"03400"},{"name":"CAMİKEBİR MAH.","zip":"03400"},{"name":"CUMHURİYET MAH.","zip":"03400"},{"name":"DÖRTYOL MAH.","zip":"03400"},{"name":"EMNİYET MAH.","zip":"03400"},{"name":"FATİH MAH.","zip":"03400"},{"name":"GAZİ MEHMET ÇAVUŞ MAH.","zip":"03400"},{"name":"HÜRRİYET MAH.","zip":"03400"},{"name":"ILICA MAH.","zip":"03400"},{"name":"İNCİRLİ MAH.","zip":"03400"},{"name":"İSTASYON MAH.","zip":"03400"},{"name":"İTFAİYE MAH.","zip":"03400"},{"name":"KONAK MAH.","zip":"03400"},{"name":"KORUBAŞI MAH.","zip":"03400"},{"name":"OTOGAR MAH.","zip":"03400"},{"name":"PANCAR MAH.","zip":"03400"},{"name":"PAZAR MAH.","zip":"03400"},{"name":"PINARBAŞI MAH.","zip":"03400"},{"name":"SANAYİ MAH.","zip":"03400"},{"name":"SANTRAL MAH.","zip":"03400"},{"name":"STADYUM MAH.","zip":"03400"},{"name":"SUÇIKAN MAH.","zip":"03400"},{"name":"TOPTEPE MAH.","zip":"03400"},{"name":"ÜÇLERCE MAH.","zip":"03400"}]},{"name":"MERKEZKÖYLER","cityName":null,"quarters":[{"name":"18 EVLER MAH.","zip":"03402"},{"name":"60 EVLER MAH.","zip":"03402"},{"name":"AFŞAR KÖYÜ","zip":"03402"},{"name":"AKÇA KÖYÜ","zip":"03402"},{"name":"AKÇA MH. MAH.","zip":"03402"},{"name":"AKÇİN KÖYÜ","zip":"03402"},{"name":"AKGÜN KÖYÜ","zip":"03402"},{"name":"AKKANATLI MAH.","zip":"03402"},{"name":"AKPINARLI KÖYÜ","zip":"03402"},{"name":"AKTOPRAK KÖYÜ","zip":"03402"},{"name":"AKTOPRAK MÜCAVİR MAH.","zip":"03402"},{"name":"ALACATLI KÖYÜ","zip":"03402"},{"name":"ALPASLAN KÖYÜ","zip":"03402"},{"name":"ALPASLAN MAH.","zip":"03402"},{"name":"ALTINHİSAR MAH.","zip":"03402"},{"name":"AŞAĞI MH. MAH.","zip":"03402"},{"name":"ATATÜRK MAH.","zip":"03402"},{"name":"AVDAN KÖYÜ","zip":"03402"},{"name":"AYDINLI MAH.","zip":"03402"},{"name":"BADEMLİ KÖYÜ","zip":"03402"},{"name":"BAĞCILAR KÖYÜ","zip":"03402"},{"name":"BAHÇELİEVLER MAH.","zip":"03402"},{"name":"BELENPINAR KÖYÜ","zip":"03402"},{"name":"BİLGİÇ KÖYÜ","zip":"03402"},{"name":"BURUNKAYA KÖYÜ","zip":"03402"},{"name":"BÜLÜCALAN KÖYÜ","zip":"03402"},{"name":"BÜLÜCALAN MÜCAVİR MAH.","zip":"03402"},{"name":"CAMİKEBİR MAH.","zip":"03402"},{"name":"CAMİLİ MAH.","zip":"03402"},{"name":"CERİTYAYLASI KÖYÜ","zip":"03402"},{"name":"CUMHURİYET KÖYÜ","zip":"03402"},{"name":"CUMHURİYET MAH.","zip":"03402"},{"name":"ÇAĞLAYAN KÖYÜ","zip":"03402"},{"name":"ÇAĞLAYAN MAH.","zip":"03402"},{"name":"ÇAKICI KÖYÜ","zip":"03402"},{"name":"ÇAMLI KÖYÜ","zip":"03402"},{"name":"ÇAMLICA MAH.","zip":"03402"},{"name":"ÇAPALI KÖYÜ","zip":"03402"},{"name":"ÇAYÜSTÜ KÖYÜ","zip":"03402"},{"name":"ÇİÇEKTEPE KÖYÜ","zip":"03402"},{"name":"ÇOBANSARAY KÖYÜ","zip":"03402"},{"name":"ÇÜRÜKLÜ KÖYÜ","zip":"03402"},{"name":"DERE MH. MAH.","zip":"03402"},{"name":"DİKİCİ KÖYÜ","zip":"03402"},{"name":"DİKİCİ MÜCAVİR MAH.","zip":"03402"},{"name":"DOĞANLI KÖYÜ","zip":"03402"},{"name":"DOMBAY KÖYÜ","zip":"03402"},{"name":"DUMAN KÖYÜ","zip":"03402"},{"name":"ELDERE KÖYÜ","zip":"03402"},{"name":"ERDOĞAN ULUSAN MAH.","zip":"03402"},{"name":"ERGENLİ KÖYÜ","zip":"03402"},{"name":"ESENTEPE MAH.","zip":"03402"},{"name":"FATİH MAH.","zip":"03402"},{"name":"GAZİ MAH.","zip":"03402"},{"name":"GEDİK ALTI MEVKİ MH. MAH.","zip":"03402"},{"name":"GEDİK BAŞI MH. MAH.","zip":"03402"},{"name":"GENCELİ KÖYÜ","zip":"03402"},{"name":"GENCELİ MÜCAVİR MAH.","zip":"03402"},{"name":"GENÇALİOSB MAH.","zip":"03402"},{"name":"GÖÇERLİ KÖYÜ","zip":"03402"},{"name":"GÖKÇELİ KÖYÜ","zip":"03402"},{"name":"HACIMAHMUT MAH.","zip":"03402"},{"name":"HARMAN YERİ MH. MAH.","zip":"03402"},{"name":"HASAN HÜSEYİN ÇİMEN MAH.","zip":"03402"},{"name":"HAYDARLI KÖYÜ","zip":"03402"},{"name":"HİSAR MAH.","zip":"03402"},{"name":"HÜRRİYET MAH.","zip":"03402"},{"name":"İNÖNÜ MAH.","zip":"03402"},{"name":"İSTASYON MAH.","zip":"03402"},{"name":"İSTİKLAL MAH.","zip":"03402"},{"name":"KABAKLI KÖYÜ","zip":"03402"},{"name":"KADILAR KÖYÜ","zip":"03402"},{"name":"KARABEDİR KÖYÜ","zip":"03402"},{"name":"KARAHACILI KÖYÜ","zip":"03402"},{"name":"KARAKUYU KÖYÜ","zip":"03402"},{"name":"KARATAŞ KÖYÜ","zip":"03402"},{"name":"KAZANPINAR KÖYÜ","zip":"03402"},{"name":"KEKLİCEK KÖYÜ","zip":"03402"},{"name":"KINIK KÖYÜ","zip":"03402"},{"name":"KIZILLI KÖYÜ","zip":"03402"},{"name":"KÖRPELİ KÖYÜ","zip":"03402"},{"name":"KÖY İÇİ MAH.","zip":"03402"},{"name":"KÖY KONAĞI MAH.","zip":"03402"},{"name":"KÜÇÜK KALE ÖNÜ MH. MAH.","zip":"03402"},{"name":"MEHMET TUNCAY MAH.","zip":"03402"},{"name":"MERKEZ MAH.","zip":"03402"},{"name":"MUSTAFA ACAR MAH.","zip":"03402"},{"name":"OCAKLI MAH.","zip":"03402"},{"name":"OKÇULAR KÖYÜ","zip":"03402"},{"name":"ORTA MAH.","zip":"03402"},{"name":"ÖMERLİ MH. MAH.","zip":"03402"},{"name":"ÖRNEK MAH.","zip":"03402"},{"name":"ÖZTÜRK MAH.","zip":"03402"},{"name":"PALAZ KÖYÜ","zip":"03402"},{"name":"PEYNİR YEMEZ MAH.","zip":"03402"},{"name":"PINARLI KÖYÜ","zip":"03402"},{"name":"SAĞBAŞLI MAH.","zip":"03402"},{"name":"SEYDİLLİ MH. MAH.","zip":"03402"},{"name":"SIRATAŞ MH. MAH.","zip":"03402"},{"name":"SÜTLAÇ KÖYÜ","zip":"03402"},{"name":"TATARLI KÖYÜ","zip":"03402"},{"name":"TEKİN KÖYÜ","zip":"03402"},{"name":"TUGAYLI KÖYÜ","zip":"03402"},{"name":"ULUKÖY KÖYÜ","zip":"03402"},{"name":"YAKA KÖYÜ","zip":"03402"},{"name":"YAKA MÜCAVİR MAH.","zip":"03402"},{"name":"YAPAĞLI KÖYÜ","zip":"03402"},{"name":"YELALAN KÖYÜ","zip":"03402"},{"name":"YENİ MAH.","zip":"03402"},{"name":"YEŞİLÇAT KÖYÜ","zip":"03402"},{"name":"YEŞİLHÜYÜK KÖYÜ","zip":"03402"},{"name":"YEŞİLYURT KÖYÜ","zip":"03402"},{"name":"YEŞİLYURT MAH.","zip":"03402"},{"name":"YIPRAK KÖYÜ","zip":"03402"},{"name":"YUKARI MH. MAH.","zip":"03402"},{"name":"YÜCEL YALÇIN MAH.","zip":"03402"},{"name":"YÜKSEL KÖYÜ","zip":"03402"},{"name":"ZAFER MAH.","zip":"03402"}]},{"name":"EMİRDAĞ","cityName":null,"quarters":[{"name":"ÇİLLİ MAH.","zip":"03600"},{"name":"ESKİ KACERLİ MAH.","zip":"03600"},{"name":"İNCİLİ MAH.","zip":"03600"},{"name":"İNKİLAP MAH.","zip":"03600"},{"name":"KARŞIYAKA MAH.","zip":"03600"},{"name":"MENDERES MAH.","zip":"03600"},{"name":"YENİ KACERLİ MAH.","zip":"03600"},{"name":"YENİ MAH.","zip":"03600"},{"name":"YENİDOĞAN MAH.","zip":"03600"}]},{"name":"MERKEZKÖYLER","cityName":null,"quarters":[{"name":"ADALET MAH.","zip":"03602"},{"name":"ADAYAZI KÖYÜ","zip":"03602"},{"name":"AĞILCIK KÖYÜ","zip":"03602"},{"name":"ALİBEYCE KÖYÜ","zip":"03602"},{"name":"ARZILI MAH.","zip":"03602"},{"name":"AŞAĞIALİÇOMAK KÖYÜ","zip":"03602"},{"name":"AŞAĞIKURUDERE KÖYÜ","zip":"03602"},{"name":"AŞAĞIPİRİBEYLİ KÖYÜ","zip":"03602"},{"name":"AVDAN KÖYÜ","zip":"03602"},{"name":"AYDINYAKA KÖYÜ","zip":"03602"},{"name":"AYNILI MAH.","zip":"03602"},{"name":"BADEMLİ KÖYÜ","zip":"03602"},{"name":"BAĞLARBAŞI MAH.","zip":"03602"},{"name":"BAĞLICA KÖYÜ","zip":"03602"},{"name":"BALCAM KÖYÜ","zip":"03602"},{"name":"BAŞALİ MAH.","zip":"03602"},{"name":"BAŞKONAK KÖYÜ","zip":"03602"},{"name":"BEYKÖY KÖYÜ","zip":"03602"},{"name":"BEYÖREN KÖYÜ","zip":"03602"},{"name":"BURUNARKAÇ KÖYÜ","zip":"03602"},{"name":"BÜYÜKTUĞLUK KÖYÜ","zip":"03602"},{"name":"CAMİLİ KÖYÜ","zip":"03602"},{"name":"CİVİKLİ MAH.","zip":"03602"},{"name":"CUMHURİYET MAH.","zip":"03602"},{"name":"ÇATALLI KÖYÜ","zip":"03602"},{"name":"ÇAYKIŞLA KÖYÜ","zip":"03602"},{"name":"ÇİFTLİKKÖY KÖYÜ","zip":"03602"},{"name":"DAĞILGAN KÖYÜ","zip":"03602"},{"name":"DAĞINIK KÖYÜ","zip":"03602"},{"name":"DAVULGA KÖYÜ","zip":"03602"},{"name":"DAYDALI KÖYÜ","zip":"03602"},{"name":"DEMİRCİLİ KÖYÜ","zip":"03602"},{"name":"DERE MAH.","zip":"03602"},{"name":"DEREKÖY KÖYÜ","zip":"03602"},{"name":"DÖNELİ MAH.","zip":"03602"},{"name":"DÖRTYOL MAH.","zip":"03602"},{"name":"EKİZCE KÖYÜ","zip":"03602"},{"name":"ELHAN KÖYÜ","zip":"03602"},{"name":"EMİRİNKÖYÜ KÖYÜ","zip":"03602"},{"name":"ESKİAKÖREN KÖYÜ","zip":"03602"},{"name":"EŞREFLİ KÖYÜ","zip":"03602"},{"name":"FAKILI MAH.","zip":"03602"},{"name":"FATİH MAH.","zip":"03602"},{"name":"GEDİKEVİ KÖYÜ","zip":"03602"},{"name":"GELİNCİK KÖYÜ","zip":"03602"},{"name":"GÖKÇEYAKA MAH.","zip":"03602"},{"name":"GÖMÜ KÖYÜ","zip":"03602"},{"name":"GÖZELİ KÖYÜ","zip":"03602"},{"name":"GÜNEY KÖYÜ","zip":"03602"},{"name":"GÜNEYSARAY KÖYÜ","zip":"03602"},{"name":"GÜVEÇÇİ KÖYÜ","zip":"03602"},{"name":"GÜZLE MAH.","zip":"03602"},{"name":"HACI HÜSEYİNLİ MAH.","zip":"03602"},{"name":"HACI İSALI MAH.","zip":"03602"},{"name":"HACI MUSTAFALI MAH.","zip":"03602"},{"name":"HAMZAHACILI KÖYÜ","zip":"03602"},{"name":"HİSARKÖY MAH.","zip":"03602"},{"name":"İNCELİ MAH.","zip":"03602"},{"name":"İNCİK MAH.","zip":"03602"},{"name":"KARAAĞAÇ KÖYÜ","zip":"03602"},{"name":"KARACALAR KÖYÜ","zip":"03602"},{"name":"KARAKUYU MAH.","zip":"03602"},{"name":"KARAYATAK KÖYÜ","zip":"03602"},{"name":"KARŞIYAKA MAH.","zip":"03602"},{"name":"KAVLAKLI MAH.","zip":"03602"},{"name":"KILIÇLAR KÖYÜ","zip":"03602"},{"name":"KILIÇLI KAVLAKLI KÖYÜ","zip":"03602"},{"name":"KILIÇLI MAH.","zip":"03602"},{"name":"KIRKPINAR KÖYÜ","zip":"03602"},{"name":"KOYUNLU MAH.","zip":"03602"},{"name":"KÖSELİ MAH.","zip":"03602"},{"name":"KURUCA KÖYÜ","zip":"03602"},{"name":"KURUCAOSB MAH.","zip":"03602"},{"name":"LEYLEKLİ KÖYÜ","zip":"03602"},{"name":"MAHRUMLU MAH.","zip":"03602"},{"name":"MAZI MAH.","zip":"03602"},{"name":"ÖRENKÖY KÖYÜ","zip":"03602"},{"name":"ÖZKAN KÖYÜ","zip":"03602"},{"name":"PALITLI MAH.","zip":"03602"},{"name":"RAHİMLİ MAH.","zip":"03602"},{"name":"SALİHLER KÖYÜ","zip":"03602"},{"name":"SIĞRACIK KÖYÜ","zip":"03602"},{"name":"SOĞUKKUYU KÖYÜ","zip":"03602"},{"name":"SUVERMEZ KÖYÜ","zip":"03602"},{"name":"TABAKLAR KÖYÜ","zip":"03602"},{"name":"TEPEKÖY KÖYÜ","zip":"03602"},{"name":"TEZKÖY KÖYÜ","zip":"03602"},{"name":"TEZKÖY MERKEZ MAH.","zip":"03602"},{"name":"TOKLUCAK KÖYÜ","zip":"03602"},{"name":"TOPÇULAR MAH.","zip":"03602"},{"name":"TOPDERE KÖYÜ","zip":"03602"},{"name":"TÜRKMENAKÖREN KÖYÜ","zip":"03602"},{"name":"TÜRKMENKÖY KÖYÜ","zip":"03602"},{"name":"ÜMRANİYE KÖYÜ","zip":"03602"},{"name":"VEYSEL KÖYÜ","zip":"03602"},{"name":"YARIKKAYA KÖYÜ","zip":"03602"},{"name":"YARIMCA KÖYÜ","zip":"03602"},{"name":"YAVUZ KÖYÜ","zip":"03602"},{"name":"YENİ MAH.","zip":"03602"},{"name":"YENİDOĞAN MAH.","zip":"03602"},{"name":"YENİKAPI KÖYÜ","zip":"03602"},{"name":"YENİKÖY KÖYÜ","zip":"03602"},{"name":"YILDIZ MAH.","zip":"03602"},{"name":"YUKARIKURUDERE KÖYÜ","zip":"03602"},{"name":"YUSUFAĞA KÖYÜ","zip":"03602"},{"name":"YÜREĞİL KÖYÜ","zip":"03602"},{"name":"ZAFER MAH.","zip":"03602"}]},{"name":"EVCİLER","cityName":null,"quarters":[{"name":"FATİH MAH.","zip":"03960"},{"name":"KAYALIK MAH.","zip":"03960"},{"name":"MEHMET AKİF MAH.","zip":"03960"},{"name":"YAVUZ SELİM MAH.","zip":"03960"},{"name":"YUNUS EMRE MAH.","zip":"03960"}]},{"name":"MERKEZKÖYLER","cityName":null,"quarters":[{"name":"ALTINOVA KÖYÜ","zip":"03962"},{"name":"BADEMLİ MAH.","zip":"03962"},{"name":"BARAKLI KÖYÜ","zip":"03962"},{"name":"BARBAROS MAH.","zip":"03962"},{"name":"BOSTANCI KÖYÜ","zip":"03962"},{"name":"ÇAYÖNÜ MAH.","zip":"03962"},{"name":"DEPREM EVLERİ MAH.","zip":"03962"},{"name":"DERE MAH.","zip":"03962"},{"name":"FATİH MAH.","zip":"03962"},{"name":"GÖKÇEK KÖYÜ","zip":"03962"},{"name":"GÜNDOĞDU DEPREM EVLERİ MAH.","zip":"03962"},{"name":"KÖRKUYU KÖYÜ","zip":"03962"},{"name":"KÜME EVLERİ MAH.","zip":"03962"},{"name":"MADENLER KÖYÜ","zip":"03962"},{"name":"MEVLANA MAH.","zip":"03962"},{"name":"YUNUS EMRE MAH.","zip":"03962"}]},{"name":"HOCALAR","cityName":null,"quarters":[{"name":"ŞAFAK MAH.","zip":"03530"},{"name":"YENİ MAH.","zip":"03530"}]},{"name":"MERKEZKÖYLER","cityName":null,"quarters":[{"name":"AŞAĞI MAH.","zip":"03532"},{"name":"AVGANCIK KÖYÜ","zip":"03532"},{"name":"CUMHURİYET MAH.","zip":"03532"},{"name":"ÇALÇA KÖYÜ","zip":"03532"},{"name":"ÇEPNİ KÖYÜ","zip":"03532"},{"name":"DAVULGA KÖYÜ","zip":"03532"},{"name":"DEVLETHAN KÖYÜ","zip":"03532"},{"name":"DEVRANT MAH.","zip":"03532"},{"name":"ELDİZAN MAH.","zip":"03532"},{"name":"FATİH MAH.","zip":"03532"},{"name":"GÜRE KÖYÜ","zip":"03532"},{"name":"HİSAR MAH.","zip":"03532"},{"name":"İHSANİYE KÖYÜ","zip":"03532"},{"name":"KOCAGÖL KÖYÜ","zip":"03532"},{"name":"KOZLUCA KÖYÜ","zip":"03532"},{"name":"ÖRENCİK KÖYÜ","zip":"03532"},{"name":"ÖRTÜLÜ KÖYÜ","zip":"03532"},{"name":"ULUKÖY KÖYÜ","zip":"03532"},{"name":"YAĞCI KÖYÜ","zip":"03532"},{"name":"YENİ MAH.","zip":"03532"},{"name":"YEŞİLHİSAR KÖYÜ","zip":"03532"},{"name":"YUKARI MAH.","zip":"03532"}]},{"name":"İHSANİYE","cityName":null,"quarters":[{"name":"CUMHURİYET MAH.","zip":"03370"},{"name":"HÜRRİYET MAH.","zip":"03370"},{"name":"ŞAHİNLER MAH.","zip":"03370"},{"name":"ZAFER MAH.","zip":"03370"}]},{"name":"MERKEZKÖYLER","cityName":null,"quarters":[{"name":"AŞAĞITANDIR KÖYÜ","zip":"03372"},{"name":"ATATÜRK MAH.","zip":"03372"},{"name":"AYAZİNİ KÖYÜ","zip":"03372"},{"name":"BAHÇELİEVLER MAH.","zip":"03372"},{"name":"BASIRLAR KÖYÜ","zip":"03372"},{"name":"BAYRAMALİLER KÖYÜ","zip":"03372"},{"name":"BELCE MAH.","zip":"03372"},{"name":"BEYKÖY KÖYÜ","zip":"03372"},{"name":"BOZHÜYÜK KÖYÜ","zip":"03372"},{"name":"CUMALI KÖYÜ","zip":"03372"},{"name":"CUMHURİYET MAH.","zip":"03372"},{"name":"DEMİRLİ KÖYÜ","zip":"03372"},{"name":"DEREKÖY MAH.","zip":"03372"},{"name":"DÖĞER KÖYÜ","zip":"03372"},{"name":"ESENTEPE MAH.","zip":"03372"},{"name":"ESKİEYMİR KÖYÜ","zip":"03372"},{"name":"ESKİEYMİR MAH.","zip":"03372"},{"name":"EYNEHANKUZVİRAN KÖYÜ","zip":"03372"},{"name":"FATİH MAH.","zip":"03372"},{"name":"GAZLIGÖL KÖYÜ","zip":"03372"},{"name":"HACIBEYLİ KÖYÜ","zip":"03372"},{"name":"İĞDEMİR KÖYÜ","zip":"03372"},{"name":"KADIMÜRSEL KÖYÜ","zip":"03372"},{"name":"KARACAAHMET KÖYÜ","zip":"03372"},{"name":"KAYIHAN KÖYÜ","zip":"03372"},{"name":"KERVANSARAY MAH.","zip":"03372"},{"name":"KILDİRLER MAH.","zip":"03372"},{"name":"KIYIR KÖYÜ","zip":"03372"},{"name":"KUNDUZLU MAH.","zip":"03372"},{"name":"KUZVİRAN MAH.","zip":"03372"},{"name":"MURATLAR KÖYÜ","zip":"03372"},{"name":"OĞULBEYLİ KÖYÜ","zip":"03372"},{"name":"ORHANLI KÖYÜ","zip":"03372"},{"name":"OSMANKÖY KÖYÜ","zip":"03372"},{"name":"ÖKSÜZLER MAH.","zip":"03372"},{"name":"PINAR MAH.","zip":"03372"},{"name":"SARICAOVA KÖYÜ","zip":"03372"},{"name":"SUSUZOSMANİYE KÖYÜ","zip":"03372"},{"name":"ŞEHİTLER MAH.","zip":"03372"},{"name":"TAŞPINAR MAH.","zip":"03372"},{"name":"TÜRBE MAH.","zip":"03372"},{"name":"ÜÇLERKAYASI KÖYÜ","zip":"03372"},{"name":"YAYLABAĞI KÖYÜ","zip":"03372"},{"name":"YENİ MAH.","zip":"03372"},{"name":"YENİCE KÖYÜ","zip":"03372"},{"name":"YEŞİLYAYLA KÖYÜ","zip":"03372"},{"name":"YİĞİTPINARI KÖYÜ","zip":"03372"},{"name":"YUKARITANDIR KÖYÜ","zip":"03372"},{"name":"YUNUS EMRE MAH.","zip":"03372"}]},{"name":"İSCEHİSAR","cityName":null,"quarters":[{"name":"ÇUKUR MAH.","zip":"03750"},{"name":"ESENTEPE MAH.","zip":"03750"},{"name":"ESKİ HAMAM MAH.","zip":"03750"},{"name":"FATİH MAH.","zip":"03750"},{"name":"KAVAK MAH.","zip":"03750"},{"name":"MEDRESE MAH.","zip":"03750"},{"name":"MERMER OSB MAH.","zip":"03750"},{"name":"SELÇUKLU MAH.","zip":"03750"},{"name":"ŞİRİNEVLER MAH.","zip":"03750"},{"name":"TEPECİK MAH.","zip":"03750"},{"name":"ZEYBEK MAH.","zip":"03750"}]},{"name":"MERKEZKÖYLER","cityName":null,"quarters":[{"name":"ALANYURT KÖYÜ","zip":"03752"},{"name":"ATATÜRK MAH.","zip":"03752"},{"name":"BAHÇECİK KÖYÜ","zip":"03752"},{"name":"CEVİZLİ KÖYÜ","zip":"03752"},{"name":"CUMHURİYET MAH.","zip":"03752"},{"name":"ÇAKMAK MAH.","zip":"03752"},{"name":"ÇALIŞLAR KÖYÜ","zip":"03752"},{"name":"ÇATAĞIL KÖYÜ","zip":"03752"},{"name":"DOĞANLAR KÖYÜ","zip":"03752"},{"name":"DOĞLAT KÖYÜ","zip":"03752"},{"name":"DURAKLAR MAH.","zip":"03752"},{"name":"HASAN BASRİ MAH.","zip":"03752"},{"name":"HÜRRİYET MAH.","zip":"03752"},{"name":"KARAAĞAÇ KÖYÜ","zip":"03752"},{"name":"KARAKAYA KÖYÜ","zip":"03752"},{"name":"KARAKAYA MAH.","zip":"03752"},{"name":"KAVRUKLAR MAH.","zip":"03752"},{"name":"KESERLER MAH.","zip":"03752"},{"name":"KONARI KÖYÜ","zip":"03752"},{"name":"KÜRTYURDU MAH.","zip":"03752"},{"name":"MERKEZ MAH.","zip":"03752"},{"name":"OLUKPINAR KÖYÜ","zip":"03752"},{"name":"ÖLDÜMLER MAH.","zip":"03752"},{"name":"SELİMİYE MAH.","zip":"03752"},{"name":"SEYDİLER KÖYÜ","zip":"03752"},{"name":"VELİLER MAH.","zip":"03752"},{"name":"YANIKLAR MAH.","zip":"03752"}]},{"name":"KIZILÖREN","cityName":null,"quarters":[{"name":"YENİ MAH.","zip":"03560"}]},{"name":"MERKEZKÖYLER","cityName":null,"quarters":[{"name":"GÜLYAZI KÖYÜ","zip":"03562"},{"name":"TÜRKBELKAVAK KÖYÜ","zip":"03562"},{"name":"YENİBELKAVAK KÖYÜ","zip":"03562"}]},{"name":"BEYYAZI","cityName":null,"quarters":[{"name":"BEYYAZI KÖYÜ","zip":"03217"},{"name":"CUMHURİYET MAH.","zip":"03217"},{"name":"ÖRNEK MAH.","zip":"03217"}]},{"name":"ÇARŞI","cityName":null,"quarters":[{"name":"AKMESCİT MAH.","zip":"03100"},{"name":"ALİ ÇETİNKAYA MAH.","zip":"03100"},{"name":"ATAKÖY MAH.","zip":"03100"},{"name":"BAYATCIK MAH.","zip":"03100"},{"name":"BURMALI MAH.","zip":"03100"},{"name":"ÇAKIR MAH.","zip":"03100"},{"name":"DAİRECEP MAH.","zip":"03100"},{"name":"DEMİRÇEVRE MAH.","zip":"03100"},{"name":"DÖRTYOL MAH.","zip":"03100"},{"name":"ERENLER MAH.","zip":"03100"},{"name":"FAKIPAŞA MAH.","zip":"03100"},{"name":"HAMİDİYE MAH.","zip":"03100"},{"name":"HASAN KARAAĞAÇ MAH.","zip":"03100"},{"name":"HATTAT KARAHİSAR MAH.","zip":"03100"},{"name":"İSMAİL MAH.","zip":"03100"},{"name":"KARAMAN MAH.","zip":"03100"},{"name":"KAYADİBİ MAH.","zip":"03100"},{"name":"KIŞLACIK MAH.","zip":"03100"},{"name":"KÜÇÜKÇOBANLI MAH.","zip":"03100"},{"name":"OLUCAK MAH.","zip":"03100"},{"name":"SADIKBEY MAH.","zip":"03100"},{"name":"SÜMER MAH.","zip":"03100"},{"name":"TACI AHMET MAH.","zip":"03100"},{"name":"TAŞPINAR MAH.","zip":"03100"},{"name":"YARENLER MAH.","zip":"03100"},{"name":"YUNUS EMRE MAH.","zip":"03100"}]},{"name":"DUMLUPINAR","cityName":null,"quarters":[{"name":"DUMLUPINAR MAH.","zip":"03200"},{"name":"KASIMPAŞA MAH.","zip":"03200"},{"name":"MARULCU MAH.","zip":"03200"},{"name":"MECİDİYE MAH.","zip":"03200"}]},{"name":"ERKMEN","cityName":null,"quarters":[{"name":"ERKMEN KÖYÜ","zip":"03211"},{"name":"FEVZİ ÇAKMAK MAH.","zip":"03211"},{"name":"HÜRRİYET MAH.","zip":"03211"}]},{"name":"HARBİŞ","cityName":null,"quarters":[{"name":"ESENTEPE MAH.","zip":"03040"},{"name":"İSTİKLAL MAH.","zip":"03040"},{"name":"KANLICA MAH.","zip":"03040"},{"name":"MAREŞAL FEVZİ ÇAKMAK MAH.","zip":"03040"},{"name":"NAZMİ SAATÇİ MAH.","zip":"03040"},{"name":"ZAFER MAH.","zip":"03040"}]},{"name":"IŞIKLAR","cityName":null,"quarters":[{"name":"CUMHURİYET MAH.","zip":"03080"},{"name":"HÜRRİYET MAH.","zip":"03080"},{"name":"IŞIKLAR KÖYÜ","zip":"03080"},{"name":"İSTİKLAL MAH.","zip":"03080"},{"name":"YAKA MAH.","zip":"03080"},{"name":"YENİ MAH.","zip":"03080"}]},{"name":"MERKEZKÖYLER","cityName":null,"quarters":[{"name":"ALİ ÇETİNKAYA MAH.","zip":"03032"},{"name":"ALİ İHSAN PAŞA MAH.","zip":"03032"},{"name":"ANITKAYA KÖYÜ","zip":"03032"},{"name":"BARBAROS MAH.","zip":"03032"},{"name":"BAYRAMGAZİ KÖYÜ","zip":"03032"},{"name":"BELKARACAÖREN KÖYÜ","zip":"03032"},{"name":"BOSTANLI KÖYÜ","zip":"03032"},{"name":"BURHANİYE KÖYÜ","zip":"03032"},{"name":"BÜYÜKKALECİK KÖYÜ","zip":"03032"},{"name":"CUMHURİYET MAH.","zip":"03032"},{"name":"ÇATALÇEŞME MAH.","zip":"03032"},{"name":"ÇAVDARLI KÖYÜ","zip":"03032"},{"name":"ÇAYIRBAĞ KÖYÜ","zip":"03032"},{"name":"ÇIKRIK KÖYÜ","zip":"03032"},{"name":"DEĞİRMENAYVALI KÖYÜ","zip":"03032"},{"name":"DEĞİRMENDERE KÖYÜ","zip":"03032"},{"name":"DEVREN MAH.","zip":"03032"},{"name":"ERENLER MAH.","zip":"03032"},{"name":"FATİH MAH.","zip":"03032"},{"name":"FETHİBEY KÖYÜ","zip":"03032"},{"name":"GEBECELER KÖYÜ","zip":"03032"},{"name":"GÖKHAN MAH.","zip":"03032"},{"name":"GÖZSÜZLÜ KÖYÜ","zip":"03032"},{"name":"GÜLTEPE MAH.","zip":"03032"},{"name":"GÜMÜŞ TEPE MAH.","zip":"03032"},{"name":"HALIMORU KÖYÜ","zip":"03032"},{"name":"HALİL İBRAHİM SULTAN MAH.","zip":"03032"},{"name":"HİSAR MAH.","zip":"03032"},{"name":"HUZUR MAH.","zip":"03032"},{"name":"İSTİKLAL MAH.","zip":"03032"},{"name":"KAPLANLI KÖYÜ","zip":"03032"},{"name":"KARAARSLAN ÇAYIRI MAH.","zip":"03032"},{"name":"KARAARSLAN KÖYÜ","zip":"03032"},{"name":"KIZILDAĞ KÖYÜ","zip":"03032"},{"name":"KOCATEPE MAH.","zip":"03032"},{"name":"KOÇAKTEPESİ MAH.","zip":"03032"},{"name":"KOZLUCA KÖYÜ","zip":"03032"},{"name":"KÖPRÜLÜ KÖYÜ","zip":"03032"},{"name":"KURTULUŞ MAH.","zip":"03032"},{"name":"KÜÇÜKKALECİK KÖYÜ","zip":"03032"},{"name":"MAREŞAL FEVZİ ÇAKMAK MAH.","zip":"03032"},{"name":"MEHMET AKİF ERSOY MAH.","zip":"03032"},{"name":"NURİBEY KÖYÜ","zip":"03032"},{"name":"OLUCAK KÖYÜ","zip":"03032"},{"name":"OMUZCA KÖYÜ","zip":"03032"},{"name":"OSMANLI MAH.","zip":"03032"},{"name":"SAADET KÖYÜ","zip":"03032"},{"name":"SAKARYA MAH.","zip":"03032"},{"name":"SALAR KÖYÜ","zip":"03032"},{"name":"SARAYDÜZÜ ÇAYIRI MAH.","zip":"03032"},{"name":"SARAYDÜZÜ KÖYÜ","zip":"03032"},{"name":"SARIK KÖYÜ","zip":"03032"},{"name":"SELÇUKLU MAH.","zip":"03032"},{"name":"SUSUZ KÖYÜ","zip":"03032"},{"name":"SÜLÜN KÖYÜ","zip":"03032"},{"name":"ŞEHİT AHMET MAH.","zip":"03032"},{"name":"ŞUHUT OSB MAH.","zip":"03032"},{"name":"UĞUR MAH.","zip":"03032"},{"name":"YARIMCA KÖYÜ","zip":"03032"},{"name":"YAVUZ SELİM MAH.","zip":"03032"},{"name":"YENİ MAH.","zip":"03032"},{"name":"YUNUS EMRE MAH.","zip":"03032"},{"name":"YUNUSLAR MAH.","zip":"03032"},{"name":"ZAFER MAH.","zip":"03032"}]},{"name":"SAHİPATA","cityName":null,"quarters":[{"name":"BATTALGAZİ MAH.","zip":"03030"},{"name":"BEYAZIT MAH.","zip":"03030"},{"name":"ERTUĞRUL GAZİ MAH.","zip":"03030"},{"name":"EŞREFPAŞA MAH.","zip":"03030"},{"name":"FATİH MAH.","zip":"03030"},{"name":"GAZİ MAH.","zip":"03030"},{"name":"GÜVENEVLER MAH.","zip":"03030"},{"name":"HOCA AHMET YESEVİ MAH.","zip":"03030"},{"name":"KARŞIYAKA MAH.","zip":"03030"},{"name":"KOCATEPE MAH.","zip":"03030"},{"name":"ORHANGAZİ MAH.","zip":"03030"},{"name":"OSMAN GAZİ MAH.","zip":"03030"},{"name":"ÖRNEKEVLER MAH.","zip":"03030"},{"name":"SAHİPATA MAH.","zip":"03030"},{"name":"SELÇUKLU MAH.","zip":"03030"},{"name":"VEYSEL KARANİ MAH.","zip":"03030"},{"name":"YENİCE MAH.","zip":"03030"},{"name":"YEŞİLYURT MAH.","zip":"03030"}]},{"name":"SÜLÜMENLİ","cityName":null,"quarters":[{"name":"CUMHURİYET MAH.","zip":"03140"},{"name":"İSTİKLAL MAH.","zip":"03140"},{"name":"SÜLÜMENLİ KÖYÜ","zip":"03140"},{"name":"ŞEKER MAH.","zip":"03140"},{"name":"ULUCAMİ MAH.","zip":"03140"},{"name":"ZAFER MAH.","zip":"03140"}]},{"name":"MERKEZKÖYLER","cityName":null,"quarters":[{"name":"AKİN KÖYÜ","zip":"03502"},{"name":"ALACAMİ KÖYÜ","zip":"03502"},{"name":"ALAGÖZ KÖYÜ","zip":"03502"},{"name":"ALAMESCİT KÖYÜ","zip":"03502"},{"name":"ARIZLAR KÖYÜ","zip":"03502"},{"name":"ASMACIK KÖYÜ","zip":"03502"},{"name":"BAHÇELİ MAH.","zip":"03502"},{"name":"BALLIK KÖYÜ","zip":"03502"},{"name":"BAŞAĞAÇ KÖYÜ","zip":"03502"},{"name":"BAŞKUYUCAK KÖYÜ","zip":"03502"},{"name":"BAŞTEPE KÖYÜ","zip":"03502"},{"name":"BEKTEŞ KÖYÜ","zip":"03502"},{"name":"CELİLOĞLU KÖYÜ","zip":"03502"},{"name":"CUMHURİYET MAH.","zip":"03502"},{"name":"ÇAMBEYLİ KÖYÜ","zip":"03502"},{"name":"ÇAMOĞLU KÖYÜ","zip":"03502"},{"name":"ÇEVREPINAR KÖYÜ","zip":"03502"},{"name":"ÇİĞİLTEPE KÖYÜ","zip":"03502"},{"name":"ÇİĞİLTEPE MAH.","zip":"03502"},{"name":"ÇUKURCA KÖYÜ","zip":"03502"},{"name":"DAYLIK KÖYÜ","zip":"03502"},{"name":"DİKMEN MAH.","zip":"03502"},{"name":"DODURGA KÖYÜ","zip":"03502"},{"name":"DUTAĞAÇ KÖYÜ","zip":"03502"},{"name":"EKİNHİSAR KÖYÜ","zip":"03502"},{"name":"EMEK MAH.","zip":"03502"},{"name":"EMİRHİSAR KÖYÜ","zip":"03502"},{"name":"ESENTEPE MAH.","zip":"03502"},{"name":"FATİH MAH.","zip":"03502"},{"name":"GÖKÇEALAN KÖYÜ","zip":"03502"},{"name":"GÜNEY MAH.","zip":"03502"},{"name":"GÜRSU KÖYÜ","zip":"03502"},{"name":"HIRKA KÖYÜ","zip":"03502"},{"name":"HİSAR MAH.","zip":"03502"},{"name":"HÜRRİYET MAH.","zip":"03502"},{"name":"İSTİKLAL MAH.","zip":"03502"},{"name":"KARACAÖREN KÖYÜ","zip":"03502"},{"name":"KARADİREK KÖYÜ","zip":"03502"},{"name":"KARASANDIKLI KÖYÜ","zip":"03502"},{"name":"KARKIN KÖYÜ","zip":"03502"},{"name":"KESTEL MAH.","zip":"03502"},{"name":"KINIK KÖYÜ","zip":"03502"},{"name":"KIZIK KÖYÜ","zip":"03502"},{"name":"KIZILCA KÖYÜ","zip":"03502"},{"name":"KOÇGAZİ KÖYÜ","zip":"03502"},{"name":"KOÇHİSAR KÖYÜ","zip":"03502"},{"name":"KOZVAN KÖYÜ","zip":"03502"},{"name":"KURTULUŞ MAH.","zip":"03502"},{"name":"KUSURA KÖYÜ","zip":"03502"},{"name":"KUZEY MAH.","zip":"03502"},{"name":"MENTEŞ KÖYÜ","zip":"03502"},{"name":"NASUHOĞLU KÖYÜ","zip":"03502"},{"name":"NUR MAH.","zip":"03502"},{"name":"ODA KÖYÜ","zip":"03502"},{"name":"ORTA MAH.","zip":"03502"},{"name":"OTLUK KÖYÜ","zip":"03502"},{"name":"ÖRENKAYA KÖYÜ","zip":"03502"},{"name":"ÖRMEKUYU KÖYÜ","zip":"03502"},{"name":"REŞADİYE KÖYÜ","zip":"03502"},{"name":"SALTIK KÖYÜ","zip":"03502"},{"name":"SELÇİK KÖYÜ","zip":"03502"},{"name":"SOĞUCAK KÖYÜ","zip":"03502"},{"name":"SORKUN KÖYÜ","zip":"03502"},{"name":"SUSUZ KÖYÜ","zip":"03502"},{"name":"ŞAFAK MAH.","zip":"03502"},{"name":"ŞEYHYAHŞİ KÖYÜ","zip":"03502"},{"name":"ÜLFECİLER KÖYÜ","zip":"03502"},{"name":"ÜRKÜT KÖYÜ","zip":"03502"},{"name":"YANIKÖREN KÖYÜ","zip":"03502"},{"name":"YAVAŞLAR KÖYÜ","zip":"03502"},{"name":"YAYMAN KÖYÜ","zip":"03502"},{"name":"YOLKONAK KÖYÜ","zip":"03502"},{"name":"YUMRUCA KÖYÜ","zip":"03502"},{"name":"YÜKSELİŞ MAH.","zip":"03502"},{"name":"ZAFER MAH.","zip":"03502"}]},{"name":"SANDIKLI","cityName":null,"quarters":[{"name":"ÇAKIR MAH.","zip":"03500"},{"name":"ÇAY MAH.","zip":"03500"},{"name":"ECE MAH.","zip":"03500"},{"name":"FATİH MAH.","zip":"03500"},{"name":"HİSAR MAH.","zip":"03500"},{"name":"İSTASYON MAH.","zip":"03500"},{"name":"KEVSER MAH.","zip":"03500"},{"name":"SANDIKLI OSB MAH.","zip":"03500"},{"name":"ŞİRİNEVLER MAH.","zip":"03500"},{"name":"YUNUS EMRE MAH.","zip":"03500"},{"name":"ZAFER MAH.","zip":"03500"}]},{"name":"MERKEZKÖYLER","cityName":null,"quarters":[{"name":"AKÇAŞAR KÖYÜ","zip":"03852"},{"name":"AKDEĞİRMEN KÖYÜ","zip":"03852"},{"name":"AKÖREN KÖYÜ","zip":"03852"},{"name":"AŞAĞI MAH.","zip":"03852"},{"name":"ATATÜRK MAH.","zip":"03852"},{"name":"AYVALI KÖYÜ","zip":"03852"},{"name":"BAĞDAT MAH.","zip":"03852"},{"name":"BAHÇELİEVLER MAH.","zip":"03852"},{"name":"BALMAHMUT KÖYÜ","zip":"03852"},{"name":"BALTEPE MAH.","zip":"03852"},{"name":"BAŞKİMSE KÖYÜ","zip":"03852"},{"name":"BAYRAK MAH.","zip":"03852"},{"name":"BOYALI KÖYÜ","zip":"03852"},{"name":"BULCA KÖYÜ","zip":"03852"},{"name":"CAMİ MAH.","zip":"03852"},{"name":"CUMHURİYET MAH.","zip":"03852"},{"name":"ÇALIŞLAR KÖYÜ","zip":"03852"},{"name":"ÇAMTEPE MAH.","zip":"03852"},{"name":"ÇATKUYU KÖYÜ","zip":"03852"},{"name":"ÇAYHİSAR KÖYÜ","zip":"03852"},{"name":"ÇAYIR MAH.","zip":"03852"},{"name":"ÇİĞİLTEPE MAH.","zip":"03852"},{"name":"ÇOBANÖZÜ KÖYÜ","zip":"03852"},{"name":"DEDE MAH.","zip":"03852"},{"name":"DİBEKBAŞI MAH.","zip":"03852"},{"name":"DÜZAĞAÇ KÖYÜ","zip":"03852"},{"name":"ELVANPAŞA KÖYÜ","zip":"03852"},{"name":"EYİCE KÖYÜ","zip":"03852"},{"name":"FATİH MAH.","zip":"03852"},{"name":"FEVZİ ÇAKMAK MAH.","zip":"03852"},{"name":"GARİPCE KÖYÜ","zip":"03852"},{"name":"GEZLER KÖYÜ","zip":"03852"},{"name":"GÖLCÜK MAH.","zip":"03852"},{"name":"GÜNEY KÖYÜ","zip":"03852"},{"name":"HALKALI MAH.","zip":"03852"},{"name":"HİSAR MAH.","zip":"03852"},{"name":"HOZMAN MAH.","zip":"03852"},{"name":"HÜRRİYET MAH.","zip":"03852"},{"name":"IŞIK MAH.","zip":"03852"},{"name":"İĞDELİ KÖYÜ","zip":"03852"},{"name":"İSTİKLAL MAH.","zip":"03852"},{"name":"KARACA ÖREN KÖYÜ","zip":"03852"},{"name":"KAYADİBİ KÖYÜ","zip":"03852"},{"name":"KILIÇARSLAN KÖYÜ","zip":"03852"},{"name":"KINIK KÖYÜ","zip":"03852"},{"name":"KIRKA KÖYÜ","zip":"03852"},{"name":"KOCATEPE MAH.","zip":"03852"},{"name":"KÖPRÜBAŞI MAH.","zip":"03852"},{"name":"KURTULUŞ MAH.","zip":"03852"},{"name":"KÜÇÜKHÜYÜK KÖYÜ","zip":"03852"},{"name":"KÜÇÜKTEPE MAH.","zip":"03852"},{"name":"KÜMBET MAH.","zip":"03852"},{"name":"NUH KÖYÜ","zip":"03852"},{"name":"ORTA MAH.","zip":"03852"},{"name":"SARAYCIK KÖYÜ","zip":"03852"},{"name":"SERBAN KÖYÜ","zip":"03852"},{"name":"TAZLAR KÖYÜ","zip":"03852"},{"name":"TOKUŞLAR KÖYÜ","zip":"03852"},{"name":"YAVUZ SULTAN SELİM MAH.","zip":"03852"},{"name":"YENİ MAH.","zip":"03852"},{"name":"YILDIRIM BEYAZIT MAH.","zip":"03852"},{"name":"YILDIRIM KEMAL KÖYÜ","zip":"03852"},{"name":"YÖRÜK MEZARI KÖYÜ","zip":"03852"},{"name":"YUKARI MAH.","zip":"03852"},{"name":"ZAFER MAH.","zip":"03852"}]},{"name":"SİNANPAŞA","cityName":null,"quarters":[{"name":"ALİ ÇETİNKAYA MAH.","zip":"03850"},{"name":"BAHÇELİEVLER MAH.","zip":"03850"},{"name":"CUMHURİYET MAH.","zip":"03850"},{"name":"ÇİĞİLTEPE MAH.","zip":"03850"},{"name":"FATİH MAH.","zip":"03850"},{"name":"ÖĞRETMENLER MAH.","zip":"03850"},{"name":"YUKARI MAH.","zip":"03850"}]},{"name":"TAŞOLUK","cityName":null,"quarters":[{"name":"CUMHURİYET MAH.","zip":"03121"},{"name":"ÇANKAYA MAH.","zip":"03121"},{"name":"ÇINARLI MAH.","zip":"03121"},{"name":"HÜRRİYET MAH.","zip":"03121"},{"name":"TAŞOLUK KÖYÜ","zip":"03121"},{"name":"YENİ MAH.","zip":"03121"}]},{"name":"TINAZTEPE","cityName":null,"quarters":[{"name":"BAHÇELİEVLER MAH.","zip":"03110"},{"name":"FATİH MAH.","zip":"03110"},{"name":"SARAY MAH.","zip":"03110"},{"name":"TINAZTEPE KÖYÜ","zip":"03110"},{"name":"YENİ MAH.","zip":"03110"},{"name":"ZAFER MAH.","zip":"03110"}]},{"name":"MERKEZKÖYLER","cityName":null,"quarters":[{"name":"AKPINAR MAH.","zip":"03911"},{"name":"AŞAĞI MAH.","zip":"03911"},{"name":"ATATÜRK MAH.","zip":"03911"},{"name":"BAHÇELİEVLER MAH.","zip":"03911"},{"name":"BALABAN MAH.","zip":"03911"},{"name":"CAMİKEBİR MAH.","zip":"03911"},{"name":"CUMHURİYET MAH.","zip":"03911"},{"name":"ÇAĞLAYAN MAH.","zip":"03911"},{"name":"ÇAMÖZÜ KÖYÜ","zip":"03911"},{"name":"ÇINARLI MAH.","zip":"03911"},{"name":"ÇUKURCAK KÖYÜ","zip":"03911"},{"name":"DEREÇİNE KÖYÜ","zip":"03911"},{"name":"DOĞANCIK KÖYÜ","zip":"03911"},{"name":"HİSAR MAH.","zip":"03911"},{"name":"İMAM AZİZ MAH.","zip":"03911"},{"name":"İNÖNÜ MAH.","zip":"03911"},{"name":"KARAKIŞLA KÖYÜ","zip":"03911"},{"name":"KARAMAN MAH.","zip":"03911"},{"name":"KARAPINAR KÖYÜ","zip":"03911"},{"name":"KAVAKLI MAH.","zip":"03911"},{"name":"KIRCA KÖYÜ","zip":"03911"},{"name":"ORTA MAH.","zip":"03911"},{"name":"PINARLI MAH.","zip":"03911"},{"name":"SELÇUK MAH.","zip":"03911"},{"name":"SIRA MAH.","zip":"03911"},{"name":"TAŞKÖPRÜ KÖYÜ","zip":"03911"},{"name":"TEPEBAŞI MAH.","zip":"03911"},{"name":"ULUPINAR MAH.","zip":"03911"},{"name":"ÜÇKUYU KÖYÜ","zip":"03911"},{"name":"YAKASİNEK KÖYÜ","zip":"03911"},{"name":"YENİ MAH.","zip":"03911"},{"name":"YENİKARABAĞ KÖYÜ","zip":"03911"},{"name":"YENİKENT MAH.","zip":"03911"},{"name":"YEŞİLÇİFTLİK KÖYÜ","zip":"03911"},{"name":"YEŞİLYURT MAH.","zip":"03911"},{"name":"YILDIZ MAH.","zip":"03911"},{"name":"YUKARI MAH.","zip":"03911"}]},{"name":"SULTANDAĞI","cityName":null,"quarters":[{"name":"KAYRAN MAH.","zip":"03900"},{"name":"PAZARALTI MAH.","zip":"03900"},{"name":"YENİ MAH.","zip":"03900"},{"name":"YILDIRIM MAH.","zip":"03900"}]},{"name":"MERKEZKÖYLER","cityName":null,"quarters":[{"name":"AHAROLUK MAH.","zip":"03810"},{"name":"AKKAYA MAH.","zip":"03810"},{"name":"AKYATAK MAH.","zip":"03810"},{"name":"AKYUVA KÖYÜ","zip":"03810"},{"name":"ANAYURT KÖYÜ","zip":"03810"},{"name":"ARAPOĞLU MAH.","zip":"03810"},{"name":"ARIZLI KÖYÜ","zip":"03810"},{"name":"ATATÜRK MAH.","zip":"03810"},{"name":"ATLIHİSAR KÖYÜ","zip":"03810"},{"name":"AYDIN KÖYÜ","zip":"03810"},{"name":"BADEMLİ KÖYÜ","zip":"03810"},{"name":"BALÇIKHİSAR KÖYÜ","zip":"03810"},{"name":"BALLIK MAH.","zip":"03810"},{"name":"BAŞARAP MAH.","zip":"03810"},{"name":"BAŞÖREN KÖYÜ","zip":"03810"},{"name":"BAŞYER MAH.","zip":"03810"},{"name":"BOZAN KÖYÜ","zip":"03810"},{"name":"BÜRÇEK MAH.","zip":"03810"},{"name":"CUMHURİYET MAH.","zip":"03810"},{"name":"ÇAĞLAYAN MAH.","zip":"03810"},{"name":"ÇAKIRÖZÜ KÖYÜ","zip":"03810"},{"name":"ÇALLIOĞLU MAH.","zip":"03810"},{"name":"ÇANAKPINARI MAH.","zip":"03810"},{"name":"ÇOBANKAYA KÖYÜ","zip":"03810"},{"name":"DADAK KÖYÜ","zip":"03810"},{"name":"DEMİRBEL KÖYÜ","zip":"03810"},{"name":"DEVELİ MAH.","zip":"03810"},{"name":"DOLAPDERESİ MAH.","zip":"03810"},{"name":"EFE KÖYÜ","zip":"03810"},{"name":"EFE SULTAN MAH.","zip":"03810"},{"name":"ERENLER MAH.","zip":"03810"},{"name":"FATİH MAH.","zip":"03810"},{"name":"GAVURÖRENİ MAH.","zip":"03810"},{"name":"GÜLDEDE MAH.","zip":"03810"},{"name":"GÜNEYTEPE KÖYÜ","zip":"03810"},{"name":"HALLAÇ KÖYÜ","zip":"03810"},{"name":"HİSAR MAH.","zip":"03810"},{"name":"HÜRRİYET MAH.","zip":"03810"},{"name":"İCİKLİ KÖYÜ","zip":"03810"},{"name":"İLYASLI KÖYÜ","zip":"03810"},{"name":"İSALI KÖYÜ","zip":"03810"},{"name":"İSMET İNÖNÜ MAH.","zip":"03810"},{"name":"İSTİKLAL MAH.","zip":"03810"},{"name":"KARAADİLLİ KÖYÜ","zip":"03810"},{"name":"KARACAÖREN KÖYÜ","zip":"03810"},{"name":"KARAHALLI KÖYÜ","zip":"03810"},{"name":"KARLIK KÖYÜ","zip":"03810"},{"name":"KAVAKLI KÖYÜ","zip":"03810"},{"name":"KAYABELEN KÖYÜ","zip":"03810"},{"name":"KAYAPINAR MAH.","zip":"03810"},{"name":"KILINÇKAYA KÖYÜ","zip":"03810"},{"name":"KOÇYATAĞI KÖYÜ","zip":"03810"},{"name":"KULAK KÖYÜ","zip":"03810"},{"name":"MAHMUT KÖYÜ","zip":"03810"},{"name":"MAUŞAN MAH.","zip":"03810"},{"name":"ORTAPINAR KÖYÜ","zip":"03810"},{"name":"OYNAĞAN KÖYÜ","zip":"03810"},{"name":"ÖRENCİK MAH.","zip":"03810"},{"name":"PAŞACIK KÖYÜ","zip":"03810"},{"name":"SARIYAR MAH.","zip":"03810"},{"name":"SATILMIŞ MAH.","zip":"03810"},{"name":"SENİR KÖYÜ","zip":"03810"},{"name":"SİYEK MAH.","zip":"03810"},{"name":"SULUDERE MAH.","zip":"03810"},{"name":"ŞAHBENDİ MAH.","zip":"03810"},{"name":"TAŞOLUK MAH.","zip":"03810"},{"name":"TEKKE KÖYÜ","zip":"03810"},{"name":"TİLKİDERESİ MAH.","zip":"03810"},{"name":"TOPRAKPINAR MAH.","zip":"03810"},{"name":"UZUNPINAR KÖYÜ","zip":"03810"},{"name":"ÜÇİN MAH.","zip":"03810"},{"name":"YARIŞLI KÖYÜ","zip":"03810"},{"name":"YAYLA MAH.","zip":"03810"},{"name":"YENİ MAH.","zip":"03810"},{"name":"ZAFER MAH.","zip":"03810"}]},{"name":"ŞUHUT","cityName":null,"quarters":[{"name":"BAŞ MAH.","zip":"03800"},{"name":"GAZİPAŞA MAH.","zip":"03800"},{"name":"HACI MUSA MAH.","zip":"03800"},{"name":"HİSAR MAH.","zip":"03800"},{"name":"İPLİK MAH.","zip":"03800"},{"name":"İSTİKLAL MAH.","zip":"03800"},{"name":"KURTULUŞ MAH.","zip":"03800"},{"name":"MEHMET AKİF ERSOY MAH.","zip":"03800"},{"name":"PAZAR MAH.","zip":"03800"},{"name":"TAŞLICA MAH.","zip":"03800"},{"name":"YALI MAH.","zip":"03800"},{"name":"ZAFER MAH.","zip":"03800"}]}]}]}