{"id":30,"name":"HAKKARİ","cities":[{"name":"city","districts":[{"name":"ÇIĞLI","cityName":null,"quarters":[{"name":"SARİYER MAH.","zip":"30720"},{"name":"YUKARIAKKAYA MAH.","zip":"30720"}]},{"name":"ÇUKURCA","cityName":null,"quarters":[{"name":"EMİRŞABAN MAH.","zip":"30700"},{"name":"YEŞİL ÇEŞME MAH.","zip":"30700"}]},{"name":"MERKEZKÖYLER","cityName":null,"quarters":[{"name":"ÇELTİK MAH.","zip":"30702"},{"name":"ÇİMENLİ MAH.","zip":"30702"},{"name":"GUZELDERE MAH.","zip":"30702"},{"name":"GÜNDEŞ KÖYÜ","zip":"30702"},{"name":"KAYALIK KÖYÜ","zip":"30702"},{"name":"KAYNAK MAH.","zip":"30702"},{"name":"KAZAN KÖYÜ","zip":"30702"},{"name":"KÖPRÜLÜ MAH.","zip":"30702"},{"name":"MEŞELİ MAH.","zip":"30702"},{"name":"NARLI KÖYÜ","zip":"30702"},{"name":"ORMANLI MAH.","zip":"30702"},{"name":"ÜZÜMLÜ KÖYÜ","zip":"30702"}]},{"name":"HAKKARİ","cityName":null,"quarters":[{"name":"BERÇELAN MAH.","zip":"30100"},{"name":"BİÇER MAH.","zip":"30100"},{"name":"BULAK MAH.","zip":"30100"},{"name":"DAĞGÖL MAH.","zip":"30100"},{"name":"GAZİ MAH.","zip":"30100"},{"name":"HALİFE DERVİŞ MAH.","zip":"30100"},{"name":"KARŞIYAKA MAH.","zip":"30100"},{"name":"KEKLİKPINAR MAH.","zip":"30100"},{"name":"KIRAN MAH.","zip":"30100"},{"name":"MEDRESE MAH.","zip":"30100"},{"name":"MERZAN MAH.","zip":"30100"},{"name":"PEHLİVAN MAH.","zip":"30100"},{"name":"SÜMBÜL MAH.","zip":"30100"},{"name":"YENİ MAH.","zip":"30100"}]},{"name":"MERKEZKÖYLER","cityName":null,"quarters":[{"name":"2.HARPUT MAH.","zip":"30110"},{"name":"AĞAÇDİBİ KÖYÜ","zip":"30110"},{"name":"AĞAÇSIZ MAH.","zip":"30110"},{"name":"AKBULUT KÖYÜ","zip":"30110"},{"name":"AKÇALI KÖYÜ","zip":"30110"},{"name":"AKKUŞ KÖYÜ","zip":"30110"},{"name":"AKSU KÖYÜ","zip":"30110"},{"name":"ARMUTLU MEZRASI MAH.","zip":"30110"},{"name":"AŞAĞI DERECİK KÖYÜ","zip":"30110"},{"name":"AŞAĞI KAYACIK MAH.","zip":"30110"},{"name":"AŞAĞI OTLUCA MAH.","zip":"30110"},{"name":"AŞAĞIKIRBAŞI MAH.","zip":"30110"},{"name":"AYRANLI MAH.","zip":"30110"},{"name":"BAĞIŞLI KÖYÜ","zip":"30110"},{"name":"BAĞLAR MAH.","zip":"30110"},{"name":"BAĞLARBAŞI MAH.","zip":"30110"},{"name":"BAHÇELİ MAH.","zip":"30110"},{"name":"BAHİ MAH.","zip":"30110"},{"name":"BAYKÖY KÖYÜ","zip":"30110"},{"name":"BİÇENEK MAH.","zip":"30110"},{"name":"BOĞAZLI MAH.","zip":"30110"},{"name":"BOYBEYİ KÖYÜ","zip":"30110"},{"name":"BOYBEYİ MAH.","zip":"30110"},{"name":"BUDAKLI MAH.","zip":"30110"},{"name":"CEVİZDİBİ KÖYÜ","zip":"30110"},{"name":"CEYLANLI KÖYÜ","zip":"30110"},{"name":"CUMHURİYET MAH.","zip":"30110"},{"name":"ÇALTIKORU KÖYÜ","zip":"30110"},{"name":"ÇANAKLI KÖYÜ","zip":"30110"},{"name":"ÇAVUŞLU MAH.","zip":"30110"},{"name":"ÇAYLICA MAH.","zip":"30110"},{"name":"ÇELTİK MEZRASI MAH.","zip":"30110"},{"name":"ÇETİNTAŞ MAH.","zip":"30110"},{"name":"ÇİMENLİ KÖYÜ","zip":"30110"},{"name":"DAĞ KOMANDO TOGAYI MAH.","zip":"30110"},{"name":"DEMİRLİMEZ MAH.","zip":"30110"},{"name":"DEMİRTAŞ KÖYÜ","zip":"30110"},{"name":"DEREBOYU MAH.","zip":"30110"},{"name":"DEREN MAH.","zip":"30110"},{"name":"DEREŞABAN MAH.","zip":"30110"},{"name":"DEREÜSTÜ MAH.","zip":"30110"},{"name":"DEZ MAH.","zip":"30110"},{"name":"DİKİLİTAŞ MAH.","zip":"30110"},{"name":"DİKMEN MAH.","zip":"30110"},{"name":"DİLEK MAH.","zip":"30110"},{"name":"DOĞANLI MAH.","zip":"30110"},{"name":"DOĞANYURT KÖYÜ","zip":"30110"},{"name":"DURANKAYA KÖYÜ","zip":"30110"},{"name":"EĞERCİK MAH.","zip":"30110"},{"name":"ELMACIK KÖYÜ","zip":"30110"},{"name":"ESKİ ÖRDEKLİ MAH.","zip":"30110"},{"name":"GEÇİMLİ KÖYÜ","zip":"30110"},{"name":"GEÇİTLİ KÖYÜ","zip":"30110"},{"name":"GELİNLİ MAH.","zip":"30110"},{"name":"GİPE MAH.","zip":"30110"},{"name":"GÖZE MAH.","zip":"30110"},{"name":"GÜZEL MAH.","zip":"30110"},{"name":"HENDEK MAH.","zip":"30110"},{"name":"ILICA MAH.","zip":"30110"},{"name":"IŞIK KÖYÜ","zip":"30110"},{"name":"IŞIKLAR KÖYÜ","zip":"30110"},{"name":"İNCİR MAH.","zip":"30110"},{"name":"KAMIŞLI KÖYÜ","zip":"30110"},{"name":"KANATLI MAH.","zip":"30110"},{"name":"KAVAKLI KÖYÜ","zip":"30110"},{"name":"KAVALKÖY KÖYÜ","zip":"30110"},{"name":"KAYMAKLI KÖYÜ","zip":"30110"},{"name":"KIRIKDAĞ KÖYÜ","zip":"30110"},{"name":"KOÇLU MAH.","zip":"30110"},{"name":"KONAK KÖYÜ","zip":"30110"},{"name":"KÖPRÜCÜK MAH.","zip":"30110"},{"name":"KÖYCEYİZ MAH.","zip":"30110"},{"name":"KÖYİÇİ MAH.","zip":"30110"},{"name":"KÜÇÜKKÖŞK MAH.","zip":"30110"},{"name":"KÜRÜM MAH.","zip":"30110"},{"name":"MERKEZ MAH.","zip":"30110"},{"name":"MUSAHAN MAH.","zip":"30110"},{"name":"OĞUL KÖYÜ","zip":"30110"},{"name":"OĞULCUL MAH.","zip":"30110"},{"name":"OĞURLU MAH.","zip":"30110"},{"name":"OLGUNLAR KÖYÜ","zip":"30110"},{"name":"OLUKLU MAH.","zip":"30110"},{"name":"OTLUBEL MAH.","zip":"30110"},{"name":"OTLUCA DAĞ KOMANDO TOGAYI MAH.","zip":"30110"},{"name":"OTLUCA DAĞ KOMKANDO TUGAYI MAH.","zip":"30110"},{"name":"OTLUCA KÖYÜ","zip":"30110"},{"name":"OTLUCAOSB MAH.","zip":"30110"},{"name":"ÖĞRENCİK MAH.","zip":"30110"},{"name":"ÖRDEKLİ KÖYÜ","zip":"30110"},{"name":"PINARBAŞI MAH.","zip":"30110"},{"name":"PINARCA KÖYÜ","zip":"30110"},{"name":"REZ MAH.","zip":"30110"},{"name":"SARIGÜL MAH.","zip":"30110"},{"name":"SARIKAYA MAH.","zip":"30110"},{"name":"SARITAŞ BAĞLISI MAH.","zip":"30110"},{"name":"SARITAŞ KÖYÜ","zip":"30110"},{"name":"SERANÜS MAH.","zip":"30110"},{"name":"STOKA MAH.","zip":"30110"},{"name":"SU OCAĞI MAH.","zip":"30110"},{"name":"SULAK MAH.","zip":"30110"},{"name":"SÜTÇÜLER MAH.","zip":"30110"},{"name":"SÜTLÜCE MAH.","zip":"30110"},{"name":"TAŞBAŞI KÖYÜ","zip":"30110"},{"name":"TAŞLICA IŞIK MAH.","zip":"30110"},{"name":"TEPECİK MAH.","zip":"30110"},{"name":"TRAFİK MAH.","zip":"30110"},{"name":"TÜMSEK MAH.","zip":"30110"},{"name":"UYANIK MAH.","zip":"30110"},{"name":"ÜZÜMCÜ KÖYÜ","zip":"30110"},{"name":"YAĞMURLU MAH.","zip":"30110"},{"name":"YAPRAKLI MAH.","zip":"30110"},{"name":"YENİ MAH.","zip":"30110"},{"name":"YENİ OĞUL MAH.","zip":"30110"},{"name":"YENİYOL MAH.","zip":"30110"},{"name":"YEŞİLBULAK MAH.","zip":"30110"},{"name":"YIĞINLI MAH.","zip":"30110"},{"name":"YONCALI KÖYÜ","zip":"30110"},{"name":"YUKARI ÇALTIKORU MAH.","zip":"30110"},{"name":"YUKARI DERECİK MAH.","zip":"30110"},{"name":"YUKARI DERELİ MAH.","zip":"30110"},{"name":"YUKARI KAYACIK MAH.","zip":"30110"},{"name":"YUKARI OTLUCA MAH.","zip":"30110"},{"name":"YUMRUKAYA MAH.","zip":"30110"},{"name":"YÜCE MAH.","zip":"30110"},{"name":"ZAVİTE MAH.","zip":"30110"},{"name":"ZAVİTE MEZRASI MAH.","zip":"30110"},{"name":"AKBAL MAH.","zip":"30802"},{"name":"AKKAVAK MAH.","zip":"30802"},{"name":"AKÖREN MAH.","zip":"30802"},{"name":"AKTÜTÜN MAH.","zip":"30802"},{"name":"ALAN KÖYÜ","zip":"30802"},{"name":"ALKAVA MAH.","zip":"30802"},{"name":"ALTINSU KÖYÜ","zip":"30802"},{"name":"ANADAĞ KÖYÜ","zip":"30802"},{"name":"ARALIK MAH.","zip":"30802"},{"name":"AŞAĞI KAYACIK MAH.","zip":"30802"},{"name":"AŞAĞI KORGAN MAH.","zip":"30802"},{"name":"AŞAĞI TUĞLU MAH.","zip":"30802"},{"name":"BAĞLAR KÖYÜ","zip":"30802"},{"name":"BALKAYA MAH.","zip":"30802"},{"name":"BALOVA MAH.","zip":"30802"},{"name":"BEŞİKAĞAÇ MAH.","zip":"30802"},{"name":"BEYTERA MAH.","zip":"30802"},{"name":"BEYYURDU KÖYÜ","zip":"30802"},{"name":"BİNAHERE MAH.","zip":"30802"},{"name":"BOĞAZKÖY KÖYÜ","zip":"30802"},{"name":"BOZYAMAÇ KÖYÜ","zip":"30802"},{"name":"BÖLEK MAH.","zip":"30802"},{"name":"ÇALIŞKANLAR MAH.","zip":"30802"},{"name":"ÇAMLICA MAH.","zip":"30802"},{"name":"ÇATALCA KÖYÜ","zip":"30802"},{"name":"ÇEM MAH.","zip":"30802"},{"name":"ÇEVRE MAH.","zip":"30802"},{"name":"ÇUBUKLU KÖYÜ","zip":"30802"},{"name":"DERAVİ MAH.","zip":"30802"},{"name":"DEREBOYU MAH.","zip":"30802"},{"name":"DERECİK KÖYÜ","zip":"30802"},{"name":"DEREYANI MAH.","zip":"30802"},{"name":"DİNARTE MAH.","zip":"30802"},{"name":"DURAK MAH.","zip":"30802"},{"name":"ELDE MAH.","zip":"30802"},{"name":"ELMALI MAH.","zip":"30802"},{"name":"ERDEMLİ MAH.","zip":"30802"},{"name":"ERİKLİ MAH.","zip":"30802"},{"name":"GELİŞEN KÖYÜ","zip":"30802"},{"name":"GÖKÇETAŞ MAH.","zip":"30802"},{"name":"GÜLEÇ MAH.","zip":"30802"},{"name":"GÜNEY MAH.","zip":"30802"},{"name":"GÜNYAZI KÖYÜ","zip":"30802"},{"name":"GÜVENLİ MAH.","zip":"30802"},{"name":"GÜZELKAYA MAH.","zip":"30802"},{"name":"GÜZELKONAK MAH.","zip":"30802"},{"name":"HACIBEY MAH.","zip":"30802"},{"name":"HARMANLI MAH.","zip":"30802"},{"name":"HAZNE MAH.","zip":"30802"},{"name":"HUSROVA MAH.","zip":"30802"},{"name":"İNCESU MAH.","zip":"30802"},{"name":"KARAAĞAÇ MAH.","zip":"30802"},{"name":"KARAKOÇ MAH.","zip":"30802"},{"name":"KAYALAR KÖYÜ","zip":"30802"},{"name":"KEPENEK MAH.","zip":"30802"},{"name":"KOÇBAŞI MAH.","zip":"30802"},{"name":"KOLİTA MAH.","zip":"30802"},{"name":"KONUR KÖYÜ","zip":"30802"},{"name":"KORGAN KÖYÜ","zip":"30802"},{"name":"KORYÜREK MAH.","zip":"30802"},{"name":"KULA MAH.","zip":"30802"},{"name":"KULE MAH.","zip":"30802"},{"name":"KÜTÜKLÜ MAH.","zip":"30802"},{"name":"MAĞARAÖNÜ MAH.","zip":"30802"},{"name":"MERKEZ MAH.","zip":"30802"},{"name":"MEŞELİ MAH.","zip":"30802"},{"name":"MEYDAN MAH.","zip":"30802"},{"name":"MORDAĞ MAH.","zip":"30802"},{"name":"MUŞİ MAH.","zip":"30802"},{"name":"OLGUNLAR MAH.","zip":"30802"},{"name":"ORTA MAH.","zip":"30802"},{"name":"ORTAKLAR KÖYÜ","zip":"30802"},{"name":"ÖRENCİK MAH.","zip":"30802"},{"name":"ÖVEÇ KÖYÜ","zip":"30802"},{"name":"RÜZGARLI MAH.","zip":"30802"},{"name":"SAMANLI MAH.","zip":"30802"},{"name":"SARICA MAH.","zip":"30802"},{"name":"SEÇKİN MAH.","zip":"30802"},{"name":"SERHATKALE MAH.","zip":"30802"},{"name":"SOĞUKSU MAH.","zip":"30802"},{"name":"SU ÇIKTI MAH.","zip":"30802"},{"name":"TAŞLIÇAY MAH.","zip":"30802"},{"name":"TATLICA MAH.","zip":"30802"},{"name":"TEKELİ KÖYÜ","zip":"30802"},{"name":"TOKLU MAH.","zip":"30802"},{"name":"TUĞLU MAH.","zip":"30802"},{"name":"TUVA MAH.","zip":"30802"},{"name":"TÜRE MAH.","zip":"30802"},{"name":"TÜTÜNLÜ KÖYÜ","zip":"30802"},{"name":"UĞURAÇAN KÖYÜ","zip":"30802"},{"name":"ULAŞAN MAH.","zip":"30802"},{"name":"USLU KÖYÜ","zip":"30802"},{"name":"ÜÇGÖZE MAH.","zip":"30802"},{"name":"ÜZÜMKIRAN KAMPI MAH.","zip":"30802"},{"name":"VAPURTEPE MAH.","zip":"30802"},{"name":"VELİKÖY MAH.","zip":"30802"},{"name":"YAYLAPINAR KÖYÜ","zip":"30802"},{"name":"YENİCELİ MAH.","zip":"30802"},{"name":"YEŞİLBAYIR MAH.","zip":"30802"},{"name":"YEŞİLOVA MAH.","zip":"30802"},{"name":"YEŞİLÖZ MAH.","zip":"30802"},{"name":"YİĞİTLER MAH.","zip":"30802"},{"name":"YUFKALI KÖYÜ","zip":"30802"},{"name":"YUKARI KAYACIK MAH.","zip":"30802"},{"name":"YUKARI KAYALAR MAH.","zip":"30802"},{"name":"YUKARI KORGAN MAH.","zip":"30802"},{"name":"ZORGEÇİT MAH.","zip":"30802"}]},{"name":"ŞEMDİNLİ","cityName":null,"quarters":[{"name":"KARŞIYAKA MAH.","zip":"30800"},{"name":"MODA MAH.","zip":"30800"},{"name":"YAYLA MAH.","zip":"30800"},{"name":"YENİ MAH.","zip":"30800"}]},{"name":"ESENDERE","cityName":null,"quarters":[{"name":"ALTINBAŞAK MAH.","zip":"30400"},{"name":"BEŞEVLER MAH.","zip":"30400"},{"name":"DEREİÇİ (BİRDİK) MAH.","zip":"30400"},{"name":"DURANLAR MAH.","zip":"30400"},{"name":"ESENDERE KÖYÜ","zip":"30400"},{"name":"GÜLDALI KÖYÜ","zip":"30400"},{"name":"GÜVENLİ MAH.","zip":"30400"},{"name":"MERKEZ MAH.","zip":"30400"},{"name":"OVAİÇİ MAH.","zip":"30400"},{"name":"SARIYILDIZ MAH.","zip":"30400"},{"name":"YILMAZ MAH.","zip":"30400"}]},{"name":"MERKEZKÖYLER","cityName":null,"quarters":[{"name":"A.OLUKBAŞI MAH.","zip":"30302"},{"name":"A.ÖLÇEK MAH.","zip":"30302"},{"name":"ADAKLI KÖYÜ","zip":"30302"},{"name":"AĞAÇLIK MAH.","zip":"30302"},{"name":"AĞILCIK MAH.","zip":"30302"},{"name":"AKALIN KÖYÜ","zip":"30302"},{"name":"AKAR MAH.","zip":"30302"},{"name":"AKÇALI KÖYÜ","zip":"30302"},{"name":"AKOCAK KÖYÜ","zip":"30302"},{"name":"AKSU KÖYÜ","zip":"30302"},{"name":"AKTOPRAK MAH.","zip":"30302"},{"name":"ALACIK MAH.","zip":"30302"},{"name":"ALTINOLUK KÖYÜ","zip":"30302"},{"name":"ARMUTDÜZÜ KÖYÜ","zip":"30302"},{"name":"ARMUTLU MAH.","zip":"30302"},{"name":"ARPALI MAH.","zip":"30302"},{"name":"AŞAĞIULUYOL KÖYÜ","zip":"30302"},{"name":"BAĞDAŞ KÖYÜ","zip":"30302"},{"name":"BASAMAK MAH.","zip":"30302"},{"name":"BATAKLIK KÖYÜ","zip":"30302"},{"name":"BEŞATLI KÖYÜ","zip":"30302"},{"name":"BEŞBULAK KÖYÜ","zip":"30302"},{"name":"BEŞPINAR MAH.","zip":"30302"},{"name":"BOSTANCIK KÖYÜ","zip":"30302"},{"name":"BÖLÜK KÖYÜ","zip":"30302"},{"name":"BULAKLI KÖYÜ","zip":"30302"},{"name":"BULGURLU MAH.","zip":"30302"},{"name":"BÜYÜKÇİFTLİK KÖYÜ","zip":"30302"},{"name":"CEVİZLİK MAH.","zip":"30302"},{"name":"ÇAKIRKAY MAH.","zip":"30302"},{"name":"ÇAKIRKAYA MAH.","zip":"30302"},{"name":"ÇAKMAK MAH.","zip":"30302"},{"name":"ÇALIMLI MAH.","zip":"30302"},{"name":"ÇAMDALI MAH.","zip":"30302"},{"name":"ÇATALKAYA MAH.","zip":"30302"},{"name":"ÇATMA KÖYÜ","zip":"30302"},{"name":"ÇAYIR MAH.","zip":"30302"},{"name":"ÇEVRELİ MAH.","zip":"30302"},{"name":"ÇİÇEKÖZÜ MAH.","zip":"30302"},{"name":"ÇİMENLİ MAH.","zip":"30302"},{"name":"ÇOBANPINAR MAH.","zip":"30302"},{"name":"ÇUKURCA KÖYÜ","zip":"30302"},{"name":"DAGLICA MAH.","zip":"30302"},{"name":"DAĞDİBİ MAH.","zip":"30302"},{"name":"DAĞLICA KÖYÜ","zip":"30302"},{"name":"DALİCE MAH.","zip":"30302"},{"name":"DAMLACIK MAH.","zip":"30302"},{"name":"DARAİÇİ MAH.","zip":"30302"},{"name":"DEDELER KÖYÜ","zip":"30302"},{"name":"DEĞERLİ KÖYÜ","zip":"30302"},{"name":"DEMİRKONAK KÖYÜ","zip":"30302"},{"name":"DEREİÇİ MAH.","zip":"30302"},{"name":"DİBEKLİ KÖYÜ","zip":"30302"},{"name":"DİLEKLİ KAMPI MAH.","zip":"30302"},{"name":"DİLEKLİ KÖYÜ","zip":"30302"},{"name":"DİLEKTAŞI KÖYÜ","zip":"30302"},{"name":"DİLİMLİ MAH.","zip":"30302"},{"name":"DİŞLİ MAH.","zip":"30302"},{"name":"DOĞANLI KÖYÜ","zip":"30302"},{"name":"DURAKLI MAH.","zip":"30302"},{"name":"ERBAŞ MAH.","zip":"30302"},{"name":"ERİCİK MAH.","zip":"30302"},{"name":"GEDİKLİ MAH.","zip":"30302"},{"name":"GOVE MAH.","zip":"30302"},{"name":"GÖKYURT KÖYÜ","zip":"30302"},{"name":"GÜÇLÜ KÖYÜ","zip":"30302"},{"name":"GÜLLÜCE KÖYÜ","zip":"30302"},{"name":"GÜMÜŞLÜ MAH.","zip":"30302"},{"name":"GÜRDERE KÖYÜ","zip":"30302"},{"name":"GÜRKAVAK KÖYÜ","zip":"30302"},{"name":"GÜRKAYNAK MAH.","zip":"30302"},{"name":"İKİZLER MAH.","zip":"30302"},{"name":"İNANLI KÖYÜ","zip":"30302"},{"name":"İNCEYOL MAH.","zip":"30302"},{"name":"İNCİRLİK MAH.","zip":"30302"},{"name":"KADIKÖY KÖYÜ","zip":"30302"},{"name":"KALAKONAK MAH.","zip":"30302"},{"name":"KALEMLİ MAH.","zip":"30302"},{"name":"KAMIŞLI KÖYÜ","zip":"30302"},{"name":"KAPILI MAH.","zip":"30302"},{"name":"KARABAĞ MAH.","zip":"30302"},{"name":"KARABEY KÖYÜ","zip":"30302"},{"name":"KARATAŞ MAH.","zip":"30302"},{"name":"KARGILI MAH.","zip":"30302"},{"name":"KARLI KÖYÜ","zip":"30302"},{"name":"KAŞYAZI MAH.","zip":"30302"},{"name":"KAYAKONAK MAH.","zip":"30302"},{"name":"KAZAN KÖYÜ","zip":"30302"},{"name":"KEÇİLİ KÖYÜ","zip":"30302"},{"name":"KEREM ZEYDAN MAH.","zip":"30302"},{"name":"KISIKLI KÖYÜ","zip":"30302"},{"name":"KIŞLACIK MAH.","zip":"30302"},{"name":"KİLİMLİ MAH.","zip":"30302"},{"name":"KOLBAŞI KÖYÜ","zip":"30302"},{"name":"KONAK MAH.","zip":"30302"},{"name":"KORNAK MAH.","zip":"30302"},{"name":"KÖPRÜBAŞI MAH.","zip":"30302"},{"name":"KÖPRÜCEK KÖYÜ","zip":"30302"},{"name":"KÖŞK MAH.","zip":"30302"},{"name":"KÖŞKÖNÜ KÖYÜ","zip":"30302"},{"name":"KÖYCÜK MAH.","zip":"30302"},{"name":"KURUCAK MAH.","zip":"30302"},{"name":"MAMAK MAH.","zip":"30302"},{"name":"MERKEZ MAH.","zip":"30302"},{"name":"MEZRA MAH.","zip":"30302"},{"name":"MİRANAVA MAH.","zip":"30302"},{"name":"ODABAŞI MAH.","zip":"30302"},{"name":"ONBAŞILAR KÖYÜ","zip":"30302"},{"name":"ORMANARASI MAH.","zip":"30302"},{"name":"ORTAÇ KÖYÜ","zip":"30302"},{"name":"ÖRNEKKÖY KÖYÜ","zip":"30302"},{"name":"PINARGÖZÜ KÖYÜ","zip":"30302"},{"name":"PİRBILAN MAH.","zip":"30302"},{"name":"PİRİNCEYİN MAH.","zip":"30302"},{"name":"REŞADİYE MAH.","zip":"30302"},{"name":"SALKIMLI KÖYÜ","zip":"30302"},{"name":"SARIKAYA MAH.","zip":"30302"},{"name":"SARITAŞ KÖYÜ","zip":"30302"},{"name":"SERİNDERE KÖYÜ","zip":"30302"},{"name":"SUALTI MAH.","zip":"30302"},{"name":"SUÜSTÜ KÖYÜ","zip":"30302"},{"name":"SÜLÜK MAH.","zip":"30302"},{"name":"SÜREKLİ KÖYÜ","zip":"30302"},{"name":"ŞAHİNCE MAH.","zip":"30302"},{"name":"ŞİMTE MAH.","zip":"30302"},{"name":"TARLACIK MAH.","zip":"30302"},{"name":"TAŞYAZI MAH.","zip":"30302"},{"name":"TATLI KÖYÜ","zip":"30302"},{"name":"TATLICAK MAH.","zip":"30302"},{"name":"TEPEBAŞI MAH.","zip":"30302"},{"name":"TOKAĞAÇ MAH.","zip":"30302"},{"name":"TUĞLU KÖYÜ","zip":"30302"},{"name":"VEZİRLİ KÖYÜ","zip":"30302"},{"name":"Y.GÜVEÇ MAH.","zip":"30302"},{"name":"Y.ÖLÇEK MAH.","zip":"30302"},{"name":"Y.ULUYOL MAH.","zip":"30302"},{"name":"YAZILI KÖYÜ","zip":"30302"},{"name":"YAZILI MAH.","zip":"30302"},{"name":"YEMİŞLİ MAH.","zip":"30302"},{"name":"YENİIŞIK KÖYÜ","zip":"30302"},{"name":"YENİKÖY MAH.","zip":"30302"},{"name":"YEŞİLCE MAH.","zip":"30302"},{"name":"YEŞİLDERE MAH.","zip":"30302"},{"name":"YEŞİLOVA MAH.","zip":"30302"},{"name":"YEŞİLTAŞ KÖYÜ","zip":"30302"},{"name":"YONCALIK KÖYÜ","zip":"30302"},{"name":"YUKARI ULUKBAŞI MAH.","zip":"30302"},{"name":"YUMRUTAŞ MAH.","zip":"30302"},{"name":"YUVALI MAH.","zip":"30302"},{"name":"YÜREKLİ KÖYÜ","zip":"30302"}]},{"name":"YÜKSEKOVA","cityName":null,"quarters":[{"name":"DİZE MAH.","zip":"30300"},{"name":"ESEN YURT MAH.","zip":"30300"},{"name":"ESENTEPE MAH.","zip":"30300"},{"name":"ESKİ KIŞLA MAH.","zip":"30300"},{"name":"GÜNGÖR MAH.","zip":"30300"},{"name":"İPEK MAH.","zip":"30300"},{"name":"MEZARLIK MAH.","zip":"30300"},{"name":"YENİ MAH.","zip":"30300"},{"name":"YEŞİLDERE MAH.","zip":"30300"}]}]}]}