{"id":31,"name":"HATAY","cities":[{"name":"city","districts":[{"name":"ALTINÖZÜ","cityName":null,"quarters":[{"name":"ALTINKAYA MAH.","zip":"31750"},{"name":"ATAYURDU MAH.","zip":"31750"},{"name":"AVUTTEPE MAH.","zip":"31750"},{"name":"BABATORUN MAH.","zip":"31750"},{"name":"BOYNUYOĞUN MAH.","zip":"31750"},{"name":"BÜYÜKBURÇ MAH.","zip":"31750"},{"name":"ÇETENLİ MAH.","zip":"31750"},{"name":"DOKUZDAL MAH.","zip":"31750"},{"name":"ENEK MAH.","zip":"31750"},{"name":"ERBAŞI MAH.","zip":"31750"},{"name":"FATİKLİ MAH.","zip":"31750"},{"name":"GÖZECİK MAH.","zip":"31750"},{"name":"GÜNVURAN MAH.","zip":"31750"},{"name":"HACIPAŞA MAH.","zip":"31750"},{"name":"HANYOLU MAH.","zip":"31750"},{"name":"KAMBERLİ MAH.","zip":"31750"},{"name":"KANSU MAH.","zip":"31750"},{"name":"KARBEYAZ MAH.","zip":"31750"},{"name":"KARSU MAH.","zip":"31750"},{"name":"KAZANCIK MAH.","zip":"31750"},{"name":"KESKİNCİK MAH.","zip":"31750"},{"name":"KILIÇTUTAN MAH.","zip":"31750"},{"name":"KIYIGÖREN MAH.","zip":"31750"},{"name":"KOLCULAR MAH.","zip":"31750"},{"name":"KOZKALESİ MAH.","zip":"31750"},{"name":"KURTMEZRAASI MAH.","zip":"31750"},{"name":"MAYADALI MAH.","zip":"31750"},{"name":"OYMAKLI MAH.","zip":"31750"},{"name":"SARIBÜK MAH.","zip":"31750"},{"name":"SARILAR MAH.","zip":"31750"},{"name":"SEFERLİ MAH.","zip":"31750"},{"name":"SİVRİKAVAK MAH.","zip":"31750"},{"name":"SOFULAR MAH.","zip":"31750"},{"name":"TEPEHAN MAH.","zip":"31750"},{"name":"TOKAÇLI MAH.","zip":"31750"},{"name":"TOKDEMİR MAH.","zip":"31750"},{"name":"TOPRAKHİSAR MAH.","zip":"31750"},{"name":"TÜRKMENMEZRAASI MAH.","zip":"31750"},{"name":"YANIKPINAR MAH.","zip":"31750"},{"name":"YARSELİ MAH.","zip":"31750"},{"name":"YENİHİSAR MAH.","zip":"31750"},{"name":"YENİŞEHİR MAH.","zip":"31750"},{"name":"YOLAĞZI MAH.","zip":"31750"},{"name":"YUNUSHANI MAH.","zip":"31750"},{"name":"ZİYARET MAH.","zip":"31750"}]},{"name":"ESENTEPE","cityName":null,"quarters":[{"name":"CUMHURİYET MAH.","zip":"31040"},{"name":"ESENLİK MAH.","zip":"31040"},{"name":"ESENTEPE MAH.","zip":"31040"},{"name":"GAZİ MAH.","zip":"31040"}]},{"name":"HARAPARASI","cityName":null,"quarters":[{"name":"AKCURUN MAH.","zip":"31060"},{"name":"AKÇAOVA MAH.","zip":"31060"},{"name":"AKHİSAR MAH.","zip":"31060"},{"name":"ALAATTİN MAH.","zip":"31060"},{"name":"ALAHAN MAH.","zip":"31060"},{"name":"ALAZI MAH.","zip":"31060"},{"name":"ANAYAZI MAH.","zip":"31060"},{"name":"APAYDIN MAH.","zip":"31060"},{"name":"ARPAHAN MAH.","zip":"31060"},{"name":"AŞAĞIOBA MAH.","zip":"31060"},{"name":"AVSUYU MAH.","zip":"31060"},{"name":"AYDINLIKEVLER MAH.","zip":"31060"},{"name":"BARBAROS MAH.","zip":"31060"},{"name":"BİNİCİLER MAH.","zip":"31060"},{"name":"BİTİREN MAH.","zip":"31060"},{"name":"BOHŞİN MAH.","zip":"31060"},{"name":"BOZHÖYÜK MAH.","zip":"31060"},{"name":"BÜYÜKDALYAN MAH.","zip":"31060"},{"name":"DEMİRKÖPRÜ MAH.","zip":"31060"},{"name":"DERİNCE MAH.","zip":"31060"},{"name":"DİKMECE MAH.","zip":"31060"},{"name":"DOĞANKÖY MAH.","zip":"31060"},{"name":"DUTDİBİ MAH.","zip":"31060"},{"name":"EKİNCİ MAH.","zip":"31060"},{"name":"GÖKÇEGÖZ MAH.","zip":"31060"},{"name":"GÜLDEREN MAH.","zip":"31060"},{"name":"GÜNYAZI MAH.","zip":"31060"},{"name":"GÜZELBURÇ MAH.","zip":"31060"},{"name":"HABİB-İ NECCAR MAH.","zip":"31060"},{"name":"HACI ÖMER ALPAGOT MAH.","zip":"31060"},{"name":"HARAPARASI MAH.","zip":"31060"},{"name":"HASANLI MAH.","zip":"31060"},{"name":"İPLİK PAZARI MAH.","zip":"31060"},{"name":"KANTARA MAH.","zip":"31060"},{"name":"KARAALİ BÖLÜĞÜ MAH.","zip":"31060"},{"name":"KARAALİ MAH.","zip":"31060"},{"name":"KARDEŞLER MAH.","zip":"31060"},{"name":"KARLISU MAH.","zip":"31060"},{"name":"KİSECİK MAH.","zip":"31060"},{"name":"KOCAABDİ MAH.","zip":"31060"},{"name":"KURUYER MAH.","zip":"31060"},{"name":"KUZEYTEPE MAH.","zip":"31060"},{"name":"KÜÇÜKDALYAN MAH.","zip":"31060"},{"name":"MADENBOYU MAH.","zip":"31060"},{"name":"MANSURLU MAH.","zip":"31060"},{"name":"MARAŞBOĞAZI MAH.","zip":"31060"},{"name":"MAŞUKLU MAH.","zip":"31060"},{"name":"MELEKLİ MAH.","zip":"31060"},{"name":"MEYDAN MAH.","zip":"31060"},{"name":"NARLICA MAH.","zip":"31060"},{"name":"ODABAŞI MAH.","zip":"31060"},{"name":"OĞLAKÖREN MAH.","zip":"31060"},{"name":"ORHANLI MAH.","zip":"31060"},{"name":"OVAKENT MAH.","zip":"31060"},{"name":"PAŞAKÖY MAH.","zip":"31060"},{"name":"SAÇAKLI MAH.","zip":"31060"},{"name":"SARAYCIK MAH.","zip":"31060"},{"name":"SERİNYOL MAH.","zip":"31060"},{"name":"SOFULAR MAH.","zip":"31060"},{"name":"SUVATLI MAH.","zip":"31060"},{"name":"ŞEHİTLER MAH.","zip":"31060"},{"name":"ŞEYHALİ MAH.","zip":"31060"},{"name":"ŞİRİNCE MAH.","zip":"31060"},{"name":"TAHTAKÖPRÜ MAH.","zip":"31060"},{"name":"TANIŞMA MAH.","zip":"31060"},{"name":"ULUCAMİİ MAH.","zip":"31060"},{"name":"UZUNALİÇ MAH.","zip":"31060"},{"name":"ÜÇGEDİK MAH.","zip":"31060"},{"name":"ÜZÜMDALI MAH.","zip":"31060"},{"name":"YAYLACIK MAH.","zip":"31060"},{"name":"YENİ CAMİİ MAH.","zip":"31060"},{"name":"YEŞİLOVA MAH.","zip":"31060"},{"name":"ZÜLÜFLÜHAN MAH.","zip":"31060"}]},{"name":"KANATLI","cityName":null,"quarters":[{"name":"AKEVLER MAH.","zip":"31030"},{"name":"AKSARAY MAH.","zip":"31030"},{"name":"CEBRAİL MAH.","zip":"31030"},{"name":"EMEK MAH.","zip":"31030"},{"name":"GENERAL ŞÜKRÜ KANATLI MAH.","zip":"31030"},{"name":"SARAYKENT MAH.","zip":"31030"},{"name":"ÜRGEN PAŞA MAH.","zip":"31030"}]},{"name":"KIŞLASARAY","cityName":null,"quarters":[{"name":"FEVZİ ÇAKMAK MAH.","zip":"31070"},{"name":"GAZİ PAŞA MAH.","zip":"31070"},{"name":"GÜLLÜ BAHÇE MAH.","zip":"31070"},{"name":"HAVUZLAR MAH.","zip":"31070"},{"name":"KIŞLA SARAY MAH.","zip":"31070"},{"name":"KUYULU MAH.","zip":"31070"},{"name":"ZENGİNLER MAH.","zip":"31070"}]},{"name":"ARSUZ","cityName":null,"quarters":[{"name":"ARPAÇİFTLİK MAH.","zip":"31225"},{"name":"ARPADERESİ MAH.","zip":"31225"},{"name":"ARPAGEDİK MAH.","zip":"31225"},{"name":"AŞAĞI KEPİRCE MAH.","zip":"31225"},{"name":"AVCILARSUYU MAH.","zip":"31225"},{"name":"BEYKÖYÜ MAH.","zip":"31225"},{"name":"ÇETİLLİK MAH.","zip":"31225"},{"name":"DEREKUYU MAH.","zip":"31225"},{"name":"GÖKMEYDAN MAH.","zip":"31225"},{"name":"GÖZCÜLER MAH.","zip":"31225"},{"name":"GÜLCİHAN MAH.","zip":"31225"},{"name":"HACIAHMETLİ MAH.","zip":"31225"},{"name":"HARLISU MAH.","zip":"31225"},{"name":"HAYMASEKİ MAH.","zip":"31225"},{"name":"HELVALI MAH.","zip":"31225"},{"name":"HÜYÜK MAH.","zip":"31225"},{"name":"IŞIKLI MAH.","zip":"31225"},{"name":"KALE MAH.","zip":"31225"},{"name":"KARAAĞAÇ MAH.","zip":"31225"},{"name":"KARAGÖZ MAH.","zip":"31225"},{"name":"KARAHÜSEYİNLİ MAH.","zip":"31225"},{"name":"KIŞLA MAH.","zip":"31225"},{"name":"KONACIK MAH.","zip":"31225"},{"name":"KOZAKLI MAH.","zip":"31225"},{"name":"KURTBAĞI MAH.","zip":"31225"},{"name":"MADENLİ MAH.","zip":"31225"},{"name":"NARDÜZÜ MAH.","zip":"31225"},{"name":"NERGİZLİK MAH.","zip":"31225"},{"name":"PİRİNÇLİK MAH.","zip":"31225"},{"name":"TATARLI MAH.","zip":"31225"},{"name":"TÜLEK MAH.","zip":"31225"},{"name":"ULUÇINAR MAH.","zip":"31225"},{"name":"ÜÇGÜLLÜK MAH.","zip":"31225"},{"name":"YUKARIKEPİRCE MAH.","zip":"31225"}]},{"name":"BELEN","cityName":null,"quarters":[{"name":"BAKRAS MAH.","zip":"31350"},{"name":"BENLİDERE MAH.","zip":"31350"},{"name":"CUMHURİYET MAH.","zip":"31350"},{"name":"ÇAKALLI MAH.","zip":"31350"},{"name":"ÇERÇİKAYA MAH.","zip":"31350"},{"name":"DEREBAHÇE MAH.","zip":"31350"},{"name":"FATİH MAH.","zip":"31350"},{"name":"GÜZELYAYLA MAH.","zip":"31350"},{"name":"HALİLBEY MAH.","zip":"31350"},{"name":"İSSUME MAH.","zip":"31350"},{"name":"KARAPELİT MAH.","zip":"31350"},{"name":"KICI MAH.","zip":"31350"},{"name":"KÖMÜRÇUKURU MAH.","zip":"31350"},{"name":"MUHLİSALİ MAH.","zip":"31350"},{"name":"MÜFTÜLER MAH.","zip":"31350"},{"name":"ÖTENÇAY MAH.","zip":"31350"},{"name":"SARIMAZI MAH.","zip":"31350"},{"name":"ŞENBÜK MAH.","zip":"31350"}]},{"name":"DEFNE","cityName":null,"quarters":[{"name":"AKNEHİR MAH.","zip":"31160"},{"name":"ARMUTLU MAH.","zip":"31160"},{"name":"AŞAĞIOKÇULAR MAH.","zip":"31160"},{"name":"BAHÇEKÖY MAH.","zip":"31160"},{"name":"BALIKLIDERE MAH.","zip":"31160"},{"name":"BALLIÖZ MAH.","zip":"31160"},{"name":"BOSTANCIK MAH.","zip":"31160"},{"name":"BÜYÜKÇAT MAH.","zip":"31160"},{"name":"ÇARDAKLI MAH.","zip":"31160"},{"name":"ÇEKMECE MAH.","zip":"31160"},{"name":"ÇINARLI MAH.","zip":"31160"},{"name":"ÇÖKEK MAH.","zip":"31160"},{"name":"DEĞİRMENYOLU MAH.","zip":"31160"},{"name":"DÖVER MAH.","zip":"31160"},{"name":"DURSUNLU MAH.","zip":"31160"},{"name":"ELEKTRİK MAH.","zip":"31160"},{"name":"GÜMÜŞGÖZE MAH.","zip":"31160"},{"name":"GÜNEYSÖĞÜT MAH.","zip":"31160"},{"name":"HANCAĞIZ MAH.","zip":"31160"},{"name":"HARBİYE MAH.","zip":"31160"},{"name":"HÜSEYİNLİ MAH.","zip":"31160"},{"name":"KARŞIYAKA MAH.","zip":"31160"},{"name":"KOÇÖREN MAH.","zip":"31160"},{"name":"MEYDANCIK MAH.","zip":"31160"},{"name":"ORHANLI MAH.","zip":"31160"},{"name":"ÖZBEK MAH.","zip":"31160"},{"name":"SAMANKAYA MAH.","zip":"31160"},{"name":"SİNANLI MAH.","zip":"31160"},{"name":"SUBAŞI MAH.","zip":"31160"},{"name":"SÜMERLER MAH.","zip":"31160"},{"name":"TAVLA MAH.","zip":"31160"},{"name":"TOYGARLI MAH.","zip":"31160"},{"name":"TURUNÇLU MAH.","zip":"31160"},{"name":"ÜZENGİLİ MAH.","zip":"31160"},{"name":"YENİÇAĞ MAH.","zip":"31160"},{"name":"YEŞİLPINAR MAH.","zip":"31160"}]},{"name":"DÖRTYOL","cityName":null,"quarters":[{"name":"ÇATKÖY MAH.","zip":"31600"},{"name":"ÇAYLI MAH.","zip":"31600"},{"name":"KAPILI MAH.","zip":"31600"},{"name":"KARAKESE MAH.","zip":"31600"},{"name":"KIŞLALAR MAH.","zip":"31600"},{"name":"KONAKLI MAH.","zip":"31600"},{"name":"KUZUCULU MAH.","zip":"31600"},{"name":"NUMUNE EVLER MAH.","zip":"31600"},{"name":"OCAKLI MAH.","zip":"31600"},{"name":"ÖZERLİ MAH.","zip":"31600"},{"name":"SANAYİ MAH.","zip":"31600"},{"name":"YENİYURT MAH.","zip":"31600"},{"name":"YEŞİL MAH.","zip":"31600"},{"name":"YEŞİLKÖY MAH.","zip":"31600"}]},{"name":"ERZİN","cityName":null,"quarters":[{"name":"BAHÇELİEVLER MAH.","zip":"31960"},{"name":"BAŞLAMIŞ MAH.","zip":"31960"},{"name":"CUMHURİYET MAH.","zip":"31960"},{"name":"GÖKDERE MAH.","zip":"31960"},{"name":"GÖKGÖL MAH.","zip":"31960"},{"name":"HÜRRİYET MAH.","zip":"31960"},{"name":"İSALİ MAH.","zip":"31960"},{"name":"İSTİKLAL MAH.","zip":"31960"},{"name":"KARAMUSTAFALI MAH.","zip":"31960"},{"name":"KIZLARÇAYI MAH.","zip":"31960"},{"name":"KUYULUK MAH.","zip":"31960"},{"name":"MAHMUTLU MAH.","zip":"31960"},{"name":"MUSTAFALI MAH.","zip":"31960"},{"name":"ŞÜKRÜ PAŞA MAH.","zip":"31960"},{"name":"TURUNÇLU MAH.","zip":"31960"},{"name":"YENİ MAH.","zip":"31960"},{"name":"YEŞİLTEPE MAH.","zip":"31960"},{"name":"YONCADÜZÜ MAH.","zip":"31960"},{"name":"YUKARIBURNAZ MAH.","zip":"31960"}]},{"name":"HASSA","cityName":null,"quarters":[{"name":"AKBEZ MAH.","zip":"31700"},{"name":"AKKÜLEK MAH.","zip":"31700"},{"name":"AKTEPE MAH.","zip":"31700"},{"name":"ARDIÇLI MAH.","zip":"31700"},{"name":"ARPALIUŞAĞI MAH.","zip":"31700"},{"name":"AŞAĞIKARAFAKILI MAH.","zip":"31700"},{"name":"BADEMLİ MAH.","zip":"31700"},{"name":"BİNTAŞ MAH.","zip":"31700"},{"name":"BUHARA MAH.","zip":"31700"},{"name":"ÇAY MAH.","zip":"31700"},{"name":"ÇINARBAŞI MAH.","zip":"31700"},{"name":"DEDEMLİ MAH.","zip":"31700"},{"name":"DEMREK MAH.","zip":"31700"},{"name":"DERVİŞ PAŞA MAH.","zip":"31700"},{"name":"EĞRİBUCAK MAH.","zip":"31700"},{"name":"GAZELUŞAĞI MAH.","zip":"31700"},{"name":"GİRNE MAH.","zip":"31700"},{"name":"GÜLKENT MAH.","zip":"31700"},{"name":"GÜLPINAR MAH.","zip":"31700"},{"name":"GÜVENÇ MAH.","zip":"31700"},{"name":"HACILAR MAH.","zip":"31700"},{"name":"HAYDARLAR MAH.","zip":"31700"},{"name":"KATRANLIK MAH.","zip":"31700"},{"name":"KORUHÜYÜK MAH.","zip":"31700"},{"name":"KÜRECİ MAH.","zip":"31700"},{"name":"MAZMANLI MAH.","zip":"31700"},{"name":"SAPANÖZÜ MAH.","zip":"31700"},{"name":"SÖĞÜT MAH.","zip":"31700"},{"name":"SUGEDİĞİ MAH.","zip":"31700"},{"name":"TEPEBAŞI MAH.","zip":"31700"},{"name":"TİYEK MAH.","zip":"31700"},{"name":"YENİ MAH.","zip":"31700"},{"name":"YENİYAPAN MAH.","zip":"31700"},{"name":"YOLUKLAR MAH.","zip":"31700"},{"name":"YUKARIBUCAK MAH.","zip":"31700"},{"name":"YUKARIKARAFAKILI MAH.","zip":"31700"},{"name":"YUVALI MAH.","zip":"31700"},{"name":"ZEYTİNOBA MAH.","zip":"31700"}]},{"name":"AZGANLIK","cityName":null,"quarters":null},{"name":"CUMHURİYET","cityName":null,"quarters":[{"name":"AKÇAY MAH.","zip":"31200"},{"name":"AŞKARBEYLİ MAH.","zip":"31200"},{"name":"AZGANLIK MAH.","zip":"31200"},{"name":"BARBAROS MAH.","zip":"31200"},{"name":"BEKBELE MAH.","zip":"31200"},{"name":"BİTİŞİK MAH.","zip":"31200"},{"name":"BÜYÜKDERE MAH.","zip":"31200"},{"name":"CIRTIMAN MAH.","zip":"31200"},{"name":"CUMHURİYET MAH.","zip":"31200"},{"name":"ÇINARLI MAH.","zip":"31200"},{"name":"DENİZCİLER MAH.","zip":"31200"},{"name":"DÜĞÜNYURDU MAH.","zip":"31200"},{"name":"HÜRRİYET MAH.","zip":"31200"},{"name":"KALEDİBİ MAH.","zip":"31200"},{"name":"KARAYILAN MAH.","zip":"31200"},{"name":"KAVAKLIOLUK MAH.","zip":"31200"},{"name":"KURTULUŞ MAH.","zip":"31200"},{"name":"ORHANGAZİ MAH.","zip":"31200"},{"name":"PİRİREİS MAH.","zip":"31200"},{"name":"SARISEKİ MAH.","zip":"31200"},{"name":"SAVAŞ MAH.","zip":"31200"},{"name":"SUÇIKAĞI MAH.","zip":"31200"},{"name":"SÜLEYMANİYE MAH.","zip":"31200"},{"name":"YENİŞEHİR MAH.","zip":"31200"}]},{"name":"MEYDAN","cityName":null,"quarters":[{"name":"İSMET İNÖNÜ MAH.","zip":"31230"},{"name":"MEYDAN MAH.","zip":"31230"},{"name":"MUSTAFA KEMAL MAH.","zip":"31230"},{"name":"NUMUNE MAH.","zip":"31230"},{"name":"PINARBAŞI MAH.","zip":"31230"}]},{"name":"SANAYİ","cityName":null,"quarters":[{"name":"DUMLUPINAR MAH.","zip":"31300"},{"name":"FATİH SULTAN MEHMET MAH.","zip":"31300"},{"name":"GÜZELÇAY MAH.","zip":"31300"},{"name":"MODERNEVLER MAH.","zip":"31300"},{"name":"MURADİYE MAH.","zip":"31300"},{"name":"SAKARYA MAH.","zip":"31300"},{"name":"YUNUS EMRE MAH.","zip":"31300"}]},{"name":"TEPELER","cityName":null,"quarters":[{"name":"BULUTTEPE MAH.","zip":"31240"},{"name":"ESENTEPE MAH.","zip":"31240"},{"name":"GÜLTEPE MAH.","zip":"31240"},{"name":"KOCATEPE MAH.","zip":"31240"},{"name":"YILDIRIMTEPE MAH.","zip":"31240"}]},{"name":"KIRIKHAN","cityName":null,"quarters":[{"name":"ABALAKLI MAH.","zip":"31440"},{"name":"ADALAR MAH.","zip":"31440"},{"name":"ALAYBEYLİ MAH.","zip":"31440"},{"name":"ALİBEYÇAĞILLI MAH.","zip":"31440"},{"name":"ALPARSLAN MAH.","zip":"31440"},{"name":"ALSANCAK MAH.","zip":"31440"},{"name":"ARKITÇA MAH.","zip":"31440"},{"name":"ATTUTAN MAH.","zip":"31440"},{"name":"AYDINLI MAH.","zip":"31440"},{"name":"AYGIRGÖLÜ MAH.","zip":"31440"},{"name":"BAHÇELİEVLER MAH.","zip":"31440"},{"name":"BALARMUDU MAH.","zip":"31440"},{"name":"BALDIRAN MAH.","zip":"31440"},{"name":"BARBAROS MAH.","zip":"31440"},{"name":"BAŞPINAR MAH.","zip":"31440"},{"name":"BEKTAŞLI MAH.","zip":"31440"},{"name":"CAMUZKIŞLASI MAH.","zip":"31440"},{"name":"CEYLANLI MAH.","zip":"31440"},{"name":"CUMHURİYET MAH.","zip":"31440"},{"name":"ÇAMSARI MAH.","zip":"31440"},{"name":"ÇAMSEKİ MAH.","zip":"31440"},{"name":"ÇANKAYA MAH.","zip":"31440"},{"name":"ÇATALTEPE MAH.","zip":"31440"},{"name":"ÇİLOĞLANHÜYÜĞÜ MAH.","zip":"31440"},{"name":"DANAAHMETLİ MAH.","zip":"31440"},{"name":"DEDEÇINAR MAH.","zip":"31440"},{"name":"DELİBEKİRLİ MAH.","zip":"31440"},{"name":"DEMİRKONAK MAH.","zip":"31440"},{"name":"FATİH MAH.","zip":"31440"},{"name":"GAZİ MAH.","zip":"31440"},{"name":"GÖLBAŞI MAH.","zip":"31440"},{"name":"GÜLTEPE MAH.","zip":"31440"},{"name":"GÜNDÜZ MAH.","zip":"31440"},{"name":"GÜVENTAŞI MAH.","zip":"31440"},{"name":"GÜZELCE MAH.","zip":"31440"},{"name":"ILIKPINAR MAH.","zip":"31440"},{"name":"İÇADA MAH.","zip":"31440"},{"name":"İNCİRLİ MAH.","zip":"31440"},{"name":"KALETEPE MAH.","zip":"31440"},{"name":"KAMBERLİKAYA MAH.","zip":"31440"},{"name":"KAMIŞLAR MAH.","zip":"31440"},{"name":"KANGALLAR MAH.","zip":"31440"},{"name":"KARAÇAĞIL MAH.","zip":"31440"},{"name":"KARADURMUŞLU MAH.","zip":"31440"},{"name":"KARAELMASLI MAH.","zip":"31440"},{"name":"KARAMAĞARA MAH.","zip":"31440"},{"name":"KARAMANKAŞI MAH.","zip":"31440"},{"name":"KARATAŞ MAH.","zip":"31440"},{"name":"KAZKELİ MAH.","zip":"31440"},{"name":"KIZILKAYA MAH.","zip":"31440"},{"name":"KODALLI MAH.","zip":"31440"},{"name":"KURTLUSARIMAZI MAH.","zip":"31440"},{"name":"KURTLUSOĞUKSU MAH.","zip":"31440"},{"name":"KURTULUŞ MAH.","zip":"31440"},{"name":"MAHMUTLU MAH.","zip":"31440"},{"name":"MENDERES MAH.","zip":"31440"},{"name":"MİMAR SİNAN MAH.","zip":"31440"},{"name":"MURATPAŞA MAH.","zip":"31440"},{"name":"NARLIHOPUR MAH.","zip":"31440"},{"name":"ÖZKIZILKAYA MAH.","zip":"31440"},{"name":"ÖZSOĞUKSU MAH.","zip":"31440"},{"name":"ÖZYÖRÜK MAH.","zip":"31440"},{"name":"REŞATLI MAH.","zip":"31440"},{"name":"SAYLAK MAH.","zip":"31440"},{"name":"SÖĞÜTLÜÖZ MAH.","zip":"31440"},{"name":"SUCUKÖY MAH.","zip":"31440"},{"name":"TAŞOLUK MAH.","zip":"31440"},{"name":"TOPBOĞAZI MAH.","zip":"31440"},{"name":"TORUN MAH.","zip":"31440"},{"name":"YALANGOZ MAH.","zip":"31440"},{"name":"YENİ MAH.","zip":"31440"},{"name":"YILANLI MAH.","zip":"31440"}]},{"name":"KUMLU","cityName":null,"quarters":[{"name":"AKKUYU MAH.","zip":"31520"},{"name":"AKPINAR MAH.","zip":"31520"},{"name":"AKTAŞ MAH.","zip":"31520"},{"name":"BATIAYRANCI MAH.","zip":"31520"},{"name":"CUMHURİYET MAH.","zip":"31520"},{"name":"DOĞUAYRANCI MAH.","zip":"31520"},{"name":"FEVZİ ÇAKMAK MAH.","zip":"31520"},{"name":"GÖKÇEOĞLU MAH.","zip":"31520"},{"name":"GÜLOVA MAH.","zip":"31520"},{"name":"HAMAM MAH.","zip":"31520"},{"name":"HATAYHAMAMI MAH.","zip":"31520"},{"name":"KALETEPE MAH.","zip":"31520"},{"name":"KELİ MAH.","zip":"31520"},{"name":"KIRCAOĞLU MAH.","zip":"31520"},{"name":"MUHARREM MAH.","zip":"31520"}]},{"name":"PAYAS","cityName":null,"quarters":[{"name":"ÇAĞLALIK MAH.","zip":"31900"},{"name":"FATİH MAH.","zip":"31900"},{"name":"İSTİKLAL MAH.","zip":"31900"},{"name":"KARACAMİ MAH.","zip":"31900"},{"name":"KARBEYAZ MAH.","zip":"31900"},{"name":"KARŞI MAH.","zip":"31900"},{"name":"KARŞIOSB MAH.","zip":"31900"},{"name":"KOZLUDERE MAH.","zip":"31900"},{"name":"KÜRTÜL MAH.","zip":"31900"},{"name":"SİNCAN MAH.","zip":"31900"},{"name":"YENİŞEHİR MAH.","zip":"31900"},{"name":"YILDIRIM BEYAZIT MAH.","zip":"31900"}]},{"name":"REYHANLI","cityName":null,"quarters":[{"name":"AHMETBEYLİ MAH.","zip":"31500"},{"name":"AKYAYLA MAH.","zip":"31500"},{"name":"ALAKUZU MAH.","zip":"31500"},{"name":"BAĞLAR MAH.","zip":"31500"},{"name":"BAHÇELİEVLER MAH.","zip":"31500"},{"name":"BAYIR MAH.","zip":"31500"},{"name":"BEŞASLAN MAH.","zip":"31500"},{"name":"BÜKÜLMEZ MAH.","zip":"31500"},{"name":"CİLVEGÖZÜ MAH.","zip":"31500"},{"name":"CUMHURİYET MAH.","zip":"31500"},{"name":"CÜDEYDE MAH.","zip":"31500"},{"name":"ÇAKIRYİĞİT MAH.","zip":"31500"},{"name":"DAVUTPAŞA MAH.","zip":"31500"},{"name":"DEĞİRMENKAŞI MAH.","zip":"31500"},{"name":"ESENTEPE MAH.","zip":"31500"},{"name":"FEVZİPAŞA MAH.","zip":"31500"},{"name":"FİDANLIK MAH.","zip":"31500"},{"name":"GAZİMÜRSELTEPESİ MAH.","zip":"31500"},{"name":"GÖKTEPE MAH.","zip":"31500"},{"name":"GÜLTEPE MAH.","zip":"31500"},{"name":"HARRAN MAH.","zip":"31500"},{"name":"KARACANLIK MAH.","zip":"31500"},{"name":"KARAHÜYÜK MAH.","zip":"31500"},{"name":"KARASÜLEYMANLI MAH.","zip":"31500"},{"name":"KONUK MAH.","zip":"31500"},{"name":"KULETEPE MAH.","zip":"31500"},{"name":"KUMTEPE MAH.","zip":"31500"},{"name":"KURTULUŞ MAH.","zip":"31500"},{"name":"KUŞAKLI MAH.","zip":"31500"},{"name":"MEHMETBEYLİ MAH.","zip":"31500"},{"name":"MUSTAFA KEMAL MAH.","zip":"31500"},{"name":"NERGİZLİ MAH.","zip":"31500"},{"name":"OĞULPINAR MAH.","zip":"31500"},{"name":"ÖZ KURTULUŞ MAH.","zip":"31500"},{"name":"PAŞAHÜYÜK MAH.","zip":"31500"},{"name":"PAŞAKÖY MAH.","zip":"31500"},{"name":"PINARBAŞI MAH.","zip":"31500"},{"name":"SULUKÖY MAH.","zip":"31500"},{"name":"TAYFURSÖKMEN MAH.","zip":"31500"},{"name":"TERZİHÜYÜK MAH.","zip":"31500"},{"name":"UZUNKAVAK MAH.","zip":"31500"},{"name":"ÜÇTEPE MAH.","zip":"31500"},{"name":"VARIŞLI MAH.","zip":"31500"},{"name":"YENİ MAH.","zip":"31500"},{"name":"YENİŞEHİR MAH.","zip":"31500"},{"name":"YEŞİLOVA MAH.","zip":"31500"}]},{"name":"SAMANDAĞ","cityName":null,"quarters":[{"name":"ATATÜRK MAH.","zip":"31800"},{"name":"AVCILAR MAH.","zip":"31800"},{"name":"BATIAYAZ MAH.","zip":"31800"},{"name":"BÜYÜKOBA MAH.","zip":"31800"},{"name":"CEMAL GÜRSEL MAH.","zip":"31800"},{"name":"CEYLANDERE MAH.","zip":"31800"},{"name":"CUMHURİYET MAH.","zip":"31800"},{"name":"ÇAMLIYAYLA MAH.","zip":"31800"},{"name":"ÇANAKOLUK MAH.","zip":"31800"},{"name":"ÇİĞDEDE MAH.","zip":"31800"},{"name":"ÇÖĞÜRLÜ MAH.","zip":"31800"},{"name":"ÇUBUKLU MAH.","zip":"31800"},{"name":"DEĞİRMENBAŞI MAH.","zip":"31800"},{"name":"DENİZ MAH.","zip":"31800"},{"name":"ERİKLİKUYU MAH.","zip":"31800"},{"name":"FİDANLI MAH.","zip":"31800"},{"name":"GENERAL ŞÜKRÜ KANADLI MAH.","zip":"31800"},{"name":"GÖZENE MAH.","zip":"31800"},{"name":"HIDIRBEY MAH.","zip":"31800"},{"name":"HUZURLU MAH.","zip":"31800"},{"name":"KAPISUYU MAH.","zip":"31800"},{"name":"KARAÇAY MAH.","zip":"31800"},{"name":"KOYUNOĞLU MAH.","zip":"31800"},{"name":"KURTDERESİ MAH.","zip":"31800"},{"name":"KUŞALANI MAH.","zip":"31800"},{"name":"MAĞARACIK MAH.","zip":"31800"},{"name":"MEYDAN MAH.","zip":"31800"},{"name":"MIZRAKLI MAH.","zip":"31800"},{"name":"SELDİREN MAH.","zip":"31800"},{"name":"SUTAŞI MAH.","zip":"31800"},{"name":"TEKEBAŞI MAH.","zip":"31800"},{"name":"TOMRUKSUYU MAH.","zip":"31800"},{"name":"UZUNBAĞ MAH.","zip":"31800"},{"name":"VAKIFLI MAH.","zip":"31800"},{"name":"YAYLICA MAH.","zip":"31800"},{"name":"YENİ MAH.","zip":"31800"},{"name":"YENİKÖY MAH.","zip":"31800"},{"name":"YEŞİLADA MAH.","zip":"31800"},{"name":"YEŞİLKÖY MAH.","zip":"31800"},{"name":"YEŞİLYAZI MAH.","zip":"31800"},{"name":"YOĞUNOLUK MAH.","zip":"31800"}]},{"name":"YAYLADAĞI","cityName":null,"quarters":[{"name":"AŞAĞIPULLUYAZI MAH.","zip":"31550"},{"name":"AYDINBAHÇE MAH.","zip":"31550"},{"name":"AYIŞIĞI MAH.","zip":"31550"},{"name":"BEZGE MAH.","zip":"31550"},{"name":"BOZLU MAH.","zip":"31550"},{"name":"ÇABALA MAH.","zip":"31550"},{"name":"ÇAKI MAH.","zip":"31550"},{"name":"ÇAKSINA MAH.","zip":"31550"},{"name":"ÇAMALTI MAH.","zip":"31550"},{"name":"ÇANDIR MAH.","zip":"31550"},{"name":"ÇATBAŞI MAH.","zip":"31550"},{"name":"ÇAYIR MAH.","zip":"31550"},{"name":"DENİZGÖREN MAH.","zip":"31550"},{"name":"DUSDURU MAH.","zip":"31550"},{"name":"EĞERCİ MAH.","zip":"31550"},{"name":"GÖRENTAŞ MAH.","zip":"31550"},{"name":"GÖZLÜCE MAH.","zip":"31550"},{"name":"GÜRIŞIK MAH.","zip":"31550"},{"name":"GÜVEÇÇİ MAH.","zip":"31550"},{"name":"GÜZELYURT MAH.","zip":"31550"},{"name":"HİSARCIK MAH.","zip":"31550"},{"name":"KARACURUN MAH.","zip":"31550"},{"name":"KARAKÖSE MAH.","zip":"31550"},{"name":"KIŞLAK MAH.","zip":"31550"},{"name":"KIZILÇAT MAH.","zip":"31550"},{"name":"KÖSRELİK MAH.","zip":"31550"},{"name":"KULAÇ MAH.","zip":"31550"},{"name":"KURTULUŞ MAH.","zip":"31550"},{"name":"LEYLEKLİ MAH.","zip":"31550"},{"name":"OLGUNLAR MAH.","zip":"31550"},{"name":"SEBENOBA MAH.","zip":"31550"},{"name":"SUNGUR MAH.","zip":"31550"},{"name":"SÜRÜTME MAH.","zip":"31550"},{"name":"ŞAKŞAK MAH.","zip":"31550"},{"name":"ŞENKÖY MAH.","zip":"31550"},{"name":"TURFANDA MAH.","zip":"31550"},{"name":"TUTLUBAHÇE MAH.","zip":"31550"},{"name":"ULUYOL MAH.","zip":"31550"},{"name":"ÜÇIRMAK MAH.","zip":"31550"},{"name":"YALAZ MAH.","zip":"31550"},{"name":"YAYIKDAMLAR MAH.","zip":"31550"},{"name":"YENİCE MAH.","zip":"31550"},{"name":"YEŞİLTEPE MAH.","zip":"31550"},{"name":"YONCAKAYA MAH.","zip":"31550"},{"name":"YUKARIOKÇULAR MAH.","zip":"31550"},{"name":"YUKARIPULLUYAZI MAH.","zip":"31550"}]}]}]}