{"id":32,"name":"ISPARTA","cities":[{"name":"city","districts":[{"name":"AKSU","cityName":null,"quarters":[{"name":"HÜRRİYET MAH.","zip":"32510"},{"name":"İSTİKLAL MAH.","zip":"32510"},{"name":"KURTULUŞ MAH.","zip":"32510"},{"name":"ORTA MAH.","zip":"32510"},{"name":"PAZARCIK MAH.","zip":"32510"},{"name":"TEPE MAH.","zip":"32510"}]},{"name":"MERKEZKÖYLER","cityName":null,"quarters":[{"name":"ELECİK KÖYÜ","zip":"32512"},{"name":"İMAMLAR MAH.","zip":"32512"},{"name":"KARACAHİSAR KÖYÜ","zip":"32512"},{"name":"KARAĞI KÖYÜ","zip":"32512"},{"name":"KATİP KÖYÜ","zip":"32512"},{"name":"KOÇULAR KÖYÜ","zip":"32512"},{"name":"KÖSRE KÖYÜ","zip":"32512"},{"name":"MANTAKLAR MAH.","zip":"32512"},{"name":"SOFULAR KÖYÜ","zip":"32512"},{"name":"TERZİLER KÖYÜ","zip":"32512"},{"name":"YAKA KÖYÜ","zip":"32512"},{"name":"YAKAAFŞAR KÖYÜ","zip":"32512"},{"name":"YILANLI KÖYÜ","zip":"32512"},{"name":"YUKARI MAH.","zip":"32512"},{"name":"YUKARIYAYLABEL KÖYÜ","zip":"32512"}]},{"name":"ATABEY","cityName":null,"quarters":[{"name":"ÇEŞME MAH.","zip":"32670"},{"name":"GEZİRLER MAH.","zip":"32670"},{"name":"MÜFTÜ MAH.","zip":"32670"},{"name":"ONAÇ MAH.","zip":"32670"},{"name":"PAZAR MAH.","zip":"32670"},{"name":"SİNAN MAH.","zip":"32670"},{"name":"SÖKMEN MAH.","zip":"32670"},{"name":"YENİ MAH.","zip":"32670"}]},{"name":"MERKEZKÖYLER","cityName":null,"quarters":[{"name":"HARMANÖREN KÖYÜ","zip":"32672"},{"name":"HIDIR MAH.","zip":"32672"},{"name":"İSLAMKÖY KÖYÜ","zip":"32672"},{"name":"KAPICAK KÖYÜ","zip":"32672"},{"name":"MÜFTÜ MAH.","zip":"32672"},{"name":"ORTA MAH.","zip":"32672"},{"name":"PEMBELİ KÖYÜ","zip":"32672"},{"name":"YENİ MAH.","zip":"32672"}]},{"name":"EĞİRDİR","cityName":null,"quarters":[{"name":"ALTINKUM MAH.","zip":"32500"},{"name":"BAĞBUYAN MAH.","zip":"32500"},{"name":"BAĞLAR MAH.","zip":"32500"},{"name":"CAMİİ MAH.","zip":"32500"},{"name":"DEMİRKAPI MAH.","zip":"32500"},{"name":"GÖKTAŞ MAH.","zip":"32500"},{"name":"HACIŞEYH MAH.","zip":"32500"},{"name":"HAMAM MAH.","zip":"32500"},{"name":"İMARET MAH.","zip":"32500"},{"name":"İSTASYON MAH.","zip":"32500"},{"name":"KALE MAH.","zip":"32500"},{"name":"KATİP MAH.","zip":"32500"},{"name":"KIZILÇUBUK MAH.","zip":"32500"},{"name":"KONYA BUCAĞI MAH.","zip":"32500"},{"name":"KUBBELİ MAH.","zip":"32500"},{"name":"MENDERES MAH.","zip":"32500"},{"name":"PINAR PAZARI MAH.","zip":"32500"},{"name":"POYRAZ MAH.","zip":"32500"},{"name":"SANAYİ MAH.","zip":"32500"},{"name":"SEKİBAĞ MAH.","zip":"32500"},{"name":"SEYDİM MAH.","zip":"32500"},{"name":"YAZLA MAH.","zip":"32500"},{"name":"YENİ MAH.","zip":"32500"},{"name":"YEŞİLADA MAH.","zip":"32500"}]},{"name":"MERKEZKÖYLER","cityName":null,"quarters":[{"name":"AĞILKÖY KÖYÜ","zip":"32502"},{"name":"AKDOĞAN KÖYÜ","zip":"32502"},{"name":"AKMESCİT MAH.","zip":"32502"},{"name":"AKPINAR KÖYÜ","zip":"32502"},{"name":"AŞAĞI GÖKDERE KÖYÜ","zip":"32502"},{"name":"AŞAĞI MAH.","zip":"32502"},{"name":"BADEMLİ KÖYÜ","zip":"32502"},{"name":"BAĞICIK KÖYÜ","zip":"32502"},{"name":"BAĞILLI KÖYÜ","zip":"32502"},{"name":"BAĞÖREN KÖYÜ","zip":"32502"},{"name":"BAHÇIVAN MAH.","zip":"32502"},{"name":"BAKLAN KÖYÜ","zip":"32502"},{"name":"BALKIRI KÖYÜ","zip":"32502"},{"name":"BARLA KÖYÜ","zip":"32502"},{"name":"BAŞ MAH.","zip":"32502"},{"name":"BEŞEVLER MAH.","zip":"32502"},{"name":"BEYDERE KÖYÜ","zip":"32502"},{"name":"BOYALI MAH.","zip":"32502"},{"name":"CAMİKEBİR MAH.","zip":"32502"},{"name":"CİRBELİ MAH.","zip":"32502"},{"name":"CUMHURİYET MAH.","zip":"32502"},{"name":"ÇALTI ARASI MAH.","zip":"32502"},{"name":"ÇAY KÖYÜ","zip":"32502"},{"name":"ÇİFTLİK MAH.","zip":"32502"},{"name":"DENİZ ALTI MAH.","zip":"32502"},{"name":"DERE MAH.","zip":"32502"},{"name":"ERENLER MAH.","zip":"32502"},{"name":"EYÜPLER KÖYÜ","zip":"32502"},{"name":"GÖKÇEHÖYÜK KÖYÜ","zip":"32502"},{"name":"HACIRAMAZANLAR MAH.","zip":"32502"},{"name":"HARMANYERİ MAH.","zip":"32502"},{"name":"HAVUTLU KÖYÜ","zip":"32502"},{"name":"HAYMANA KÖYÜ","zip":"32502"},{"name":"HÜRRİYET MAH.","zip":"32502"},{"name":"İSTİKLAL MAH.","zip":"32502"},{"name":"KARŞIYAKA MAH.","zip":"32502"},{"name":"KIRINTI KÖYÜ","zip":"32502"},{"name":"KOCA CESME MAH.","zip":"32502"},{"name":"MAHMATLAR KÖYÜ","zip":"32502"},{"name":"MERKEZ MAH.","zip":"32502"},{"name":"PAZAR MAH.","zip":"32502"},{"name":"PAZARKÖY KÖYÜ","zip":"32502"},{"name":"SAHİL MAH.","zip":"32502"},{"name":"SARIİDRİS KÖYÜ","zip":"32502"},{"name":"SERPİL KÖYÜ","zip":"32502"},{"name":"SEVİNÇBEY KÖYÜ","zip":"32502"},{"name":"SİPAHİLER KÖYÜ","zip":"32502"},{"name":"SORKUNCAK KÖYÜ","zip":"32502"},{"name":"TEPELİ KÖYÜ","zip":"32502"},{"name":"YELLİLER MAH.","zip":"32502"},{"name":"YENİ MAH.","zip":"32502"},{"name":"YILGINCAK KÖYÜ","zip":"32502"},{"name":"YOKUŞBAŞI MAH.","zip":"32502"},{"name":"YUKARI GÖKDERE KÖYÜ","zip":"32502"},{"name":"YUKARI MAH.","zip":"32502"},{"name":"YUVALI KÖYÜ","zip":"32502"},{"name":"ZAFER MAH.","zip":"32502"}]},{"name":"GELENDOST","cityName":null,"quarters":[{"name":"AŞAĞI MAH.","zip":"32900"},{"name":"BAHÇELİEVLER MAH.","zip":"32900"},{"name":"HAYDARPAŞA MAH.","zip":"32900"},{"name":"HÜSEYİN AVNİ PAŞA MAH.","zip":"32900"},{"name":"KIREVLER MAH.","zip":"32900"},{"name":"MUHARREM MAH.","zip":"32900"},{"name":"ORTA MAH.","zip":"32900"},{"name":"SELÇUK MAH.","zip":"32900"},{"name":"YENİ MAH.","zip":"32900"}]},{"name":"MERKEZKÖYLER","cityName":null,"quarters":[{"name":"AKDAĞ KÖYÜ","zip":"32902"},{"name":"AŞAĞI MAH.","zip":"32902"},{"name":"BAĞILLI KÖYÜ","zip":"32902"},{"name":"BAHÇELİ EVLER MAH.","zip":"32902"},{"name":"BALCI KÖYÜ","zip":"32902"},{"name":"CUMHURİYET MAH.","zip":"32902"},{"name":"ÇALTI KÖYÜ","zip":"32902"},{"name":"ÇAY MAH.","zip":"32902"},{"name":"ESİNYURT KÖYÜ","zip":"32902"},{"name":"HACILAR KÖYÜ","zip":"32902"},{"name":"HANÖNÜ MAH.","zip":"32902"},{"name":"KEÇİLİ KÖYÜ","zip":"32902"},{"name":"KEMER MAH.","zip":"32902"},{"name":"KIZDAŞI MAH.","zip":"32902"},{"name":"KÖKE KÖYÜ","zip":"32902"},{"name":"MADENLİ KÖYÜ","zip":"32902"},{"name":"ORTA MAH.","zip":"32902"},{"name":"ŞEHİTLER MAH.","zip":"32902"},{"name":"YAKA KÖYÜ","zip":"32902"},{"name":"YAKADİBİ MAH.","zip":"32902"},{"name":"YENİ MAH.","zip":"32902"},{"name":"YENİCE KÖYÜ","zip":"32902"},{"name":"YEŞİLKÖY KÖYÜ","zip":"32902"},{"name":"YUKARI MAH.","zip":"32902"}]},{"name":"GÖNEN","cityName":null,"quarters":[{"name":"CAMİ MAH.","zip":"32090"},{"name":"GÖLETEVLERİ MAH.","zip":"32090"},{"name":"KASAP MAH.","zip":"32090"},{"name":"MUSALLA MAH.","zip":"32090"},{"name":"PAZAR MAH.","zip":"32090"}]},{"name":"MERKEZKÖYLER","cityName":null,"quarters":[{"name":"GÖLBAŞI KÖYÜ","zip":"32092"},{"name":"GÜNEYKENT KÖYÜ","zip":"32092"},{"name":"İĞDECİK KÖYÜ","zip":"32092"},{"name":"İĞDECİK MAH.","zip":"32092"},{"name":"KIZILCIK KÖYÜ","zip":"32092"},{"name":"KOÇTEPE KÖYÜ","zip":"32092"},{"name":"ORTA MAH.","zip":"32092"},{"name":"SENİRCE KÖYÜ","zip":"32092"},{"name":"SENİRCE MAH.","zip":"32092"},{"name":"SENİRCE MÜCAVİR MAH.","zip":"32092"},{"name":"TEKKE MAH.","zip":"32092"},{"name":"YENİCE MAH.","zip":"32092"}]},{"name":"KEÇİBORLU","cityName":null,"quarters":[{"name":"CUMHURİYET MAH.","zip":"32700"},{"name":"HACI KÖYÜ MAH.","zip":"32700"},{"name":"HASANBEY MAH.","zip":"32700"},{"name":"KAYA MAH.","zip":"32700"},{"name":"KILIÇ KÖYÜ","zip":"32700"},{"name":"KÜKÜRT MAH.","zip":"32700"},{"name":"ORTA MAH.","zip":"32700"},{"name":"TUZLA MAH.","zip":"32700"},{"name":"YENİCE MAH.","zip":"32700"},{"name":"YUKARI MAH.","zip":"32700"}]},{"name":"MERKEZKÖYLER","cityName":null,"quarters":[{"name":"AYDOĞMUŞ KÖYÜ","zip":"32702"},{"name":"CAMİİ KEBİR MAH.","zip":"32702"},{"name":"CUMHURİYET MAH.","zip":"32702"},{"name":"ÇUKURÖREN KÖYÜ","zip":"32702"},{"name":"GÜLKÖY KÖYÜ","zip":"32702"},{"name":"GÜLTEPE MAH.","zip":"32702"},{"name":"HÜRRİYET MAH.","zip":"32702"},{"name":"İNCESU KÖYÜ","zip":"32702"},{"name":"İSTİKLAL MAH.","zip":"32702"},{"name":"KAPLANLI KÖYÜ","zip":"32702"},{"name":"KAVAK KÖYÜ","zip":"32702"},{"name":"KOZLUCA KÖYÜ","zip":"32702"},{"name":"KURTULUŞ MAH.","zip":"32702"},{"name":"KUŞÇULAR MAH.","zip":"32702"},{"name":"KUYUCAK KÖYÜ","zip":"32702"},{"name":"ORTA MAH.","zip":"32702"},{"name":"ÖZBAHÇE KÖYÜ","zip":"32702"},{"name":"SARACIK KÖYÜ","zip":"32702"},{"name":"SENİR KÖYÜ","zip":"32702"},{"name":"TEPECİK MAH.","zip":"32702"},{"name":"YENİ MAH.","zip":"32702"},{"name":"YENİTEPE KÖYÜ","zip":"32702"},{"name":"YEŞİLYURT KÖYÜ","zip":"32702"}]},{"name":"ÇELEBILER","cityName":null,"quarters":[{"name":"ÇELEBİLER MAH.","zip":"32040"},{"name":"DERE MAH.","zip":"32040"},{"name":"DOĞANCI MAH.","zip":"32040"},{"name":"EMRE MAH.","zip":"32040"},{"name":"GAZİ KEMAL MAH.","zip":"32040"},{"name":"GÜLCÜ MAH.","zip":"32040"},{"name":"GÜLEVLER MAH.","zip":"32040"},{"name":"HALIKENT MAH.","zip":"32040"},{"name":"HALİFE SULTAN MAH.","zip":"32040"},{"name":"HİSAR MAH.","zip":"32040"},{"name":"İSKENDER MAH.","zip":"32040"},{"name":"KEÇECİ MAH.","zip":"32040"},{"name":"KURTULUŞ MAH.","zip":"32040"},{"name":"SİDRE MAH.","zip":"32040"},{"name":"SÜLÜBEY MAH.","zip":"32040"},{"name":"TURAN MAH.","zip":"32040"},{"name":"VATAN MAH.","zip":"32040"},{"name":"VATANOSB MAH.","zip":"32040"},{"name":"YENİCE MAH.","zip":"32040"}]},{"name":"KEPECİ","cityName":null,"quarters":[{"name":"İSTİKLAL MAH.","zip":"32300"},{"name":"KARAAĞAÇ MAH.","zip":"32300"},{"name":"KEPECİ MAH.","zip":"32300"},{"name":"SERMET MAH.","zip":"32300"}]},{"name":"KUTLUBEY","cityName":null,"quarters":[{"name":"BATIKENT MAH.","zip":"32100"},{"name":"BİNBİREVLER MAH.","zip":"32100"},{"name":"GÜLİSTAN MAH.","zip":"32100"},{"name":"HIZIRBEY MAH.","zip":"32100"},{"name":"IŞIKKENT MAH.","zip":"32100"},{"name":"KUTLUBEY MAH.","zip":"32100"},{"name":"PİRİMEHMET MAH.","zip":"32100"},{"name":"YAYLA MAH.","zip":"32100"}]},{"name":"MERKEZKÖYLER","cityName":null,"quarters":[{"name":"AĞIL MAH.","zip":"32005"},{"name":"ALİKÖY KÖYÜ","zip":"32005"},{"name":"AŞAĞI MAH.","zip":"32005"},{"name":"BAHÇELİEVLER MAH.","zip":"32005"},{"name":"BOZANÖNÜ KÖYÜ","zip":"32005"},{"name":"BÖGÜRTLENLİ MAH.","zip":"32005"},{"name":"BUCAKDERE MAH.","zip":"32005"},{"name":"BÜYÜKGÖKÇELİ KÖYÜ","zip":"32005"},{"name":"BÜYÜKHACILAR KÖYÜ","zip":"32005"},{"name":"ÇATAL MAH.","zip":"32005"},{"name":"ÇIKRIKLI MAH.","zip":"32005"},{"name":"ÇOBANİSA KÖYÜ","zip":"32005"},{"name":"ÇUKURKÖY KÖYÜ","zip":"32005"},{"name":"DARIDERESİ KÖYÜ","zip":"32005"},{"name":"DARIÖREN KÖYÜ","zip":"32005"},{"name":"DEREBOGAZI (KARAHAFIZ) MAH.","zip":"32005"},{"name":"DEREBOĞAZI MAH.","zip":"32005"},{"name":"DEREGÜMÜ KÖYÜ","zip":"32005"},{"name":"DİREKLİ KÖYÜ","zip":"32005"},{"name":"FATİH MAH.","zip":"32005"},{"name":"GELİNCİK KÖYÜ","zip":"32005"},{"name":"GÜNEY BAHÇE EVLERİ MAH.","zip":"32005"},{"name":"GÜNEYCE KÖYÜ","zip":"32005"},{"name":"HOCANTI MAH.","zip":"32005"},{"name":"İMREZİ MAH.","zip":"32005"},{"name":"KADILAR KÖYÜ","zip":"32005"},{"name":"KAVAK MAH.","zip":"32005"},{"name":"KAVAKLI ÇEŞME MAH.","zip":"32005"},{"name":"KAYIKÖY KÖYÜ","zip":"32005"},{"name":"KAYNARPINAR MAH.","zip":"32005"},{"name":"KEMAL MAH.","zip":"32005"},{"name":"KIRKAYAK MAH.","zip":"32005"},{"name":"KIŞLAKÖY KÖYÜ","zip":"32005"},{"name":"KOLCUBELİ MAH.","zip":"32005"},{"name":"KÖY İÇİ MERKEZ MAH.","zip":"32005"},{"name":"KÖYİÇİ MAH.","zip":"32005"},{"name":"KULEÖNÜ KÖYÜ","zip":"32005"},{"name":"KUZEY BAHÇEEVLERİ MAH.","zip":"32005"},{"name":"KÜÇÜKGÖKÇELİ KÖYÜ","zip":"32005"},{"name":"KÜÇÜKHACILAR KÖYÜ","zip":"32005"},{"name":"KÜÇÜKKIŞLA KÖYÜ","zip":"32005"},{"name":"MERKEZ MAH.","zip":"32005"},{"name":"OKUL MAH.","zip":"32005"},{"name":"SARIYER MAH.","zip":"32005"},{"name":"SAVKÖY KÖYÜ","zip":"32005"},{"name":"ŞEKERLER MAH.","zip":"32005"},{"name":"TİLKİLİK MAH.","zip":"32005"},{"name":"YAĞCIOĞLU MAH.","zip":"32005"},{"name":"YAKAÖREN KÖYÜ","zip":"32005"},{"name":"YAYLA MAH.","zip":"32005"},{"name":"YAZISÖĞÜT KÖYÜ","zip":"32005"},{"name":"YENİCAMİ MAH.","zip":"32005"},{"name":"YUKARI MAH.","zip":"32005"}]},{"name":"SANAYİ","cityName":null,"quarters":[{"name":"ANADOLU MAH.","zip":"32200"},{"name":"BAHÇELİEVLER MAH.","zip":"32200"},{"name":"ÇÜNÜR MAH.","zip":"32200"},{"name":"FATİH MAH.","zip":"32200"},{"name":"MEHMET TÖNGE MAH.","zip":"32200"},{"name":"MODERN EVLER MAH.","zip":"32200"},{"name":"MUZAFFER TÜRKEŞ MAH.","zip":"32200"},{"name":"SANAYİ MAH.","zip":"32200"},{"name":"YEDİŞEHİTLER MAH.","zip":"32200"},{"name":"ZAFER MAH.","zip":"32200"}]},{"name":"MERKEZKÖYLER","cityName":null,"quarters":[{"name":"AŞAĞI MAH.","zip":"32602"},{"name":"BAŞKÖY KÖYÜ","zip":"32602"},{"name":"BOZDURMUŞ MAH.","zip":"32602"},{"name":"BÜLBÜL MAH.","zip":"32602"},{"name":"BÜYÜKÇEŞME MAH.","zip":"32602"},{"name":"BÜYÜKKABACA KÖYÜ","zip":"32602"},{"name":"CAMİİ MAH.","zip":"32602"},{"name":"ÇANLAR MAH.","zip":"32602"},{"name":"DERE MAH.","zip":"32602"},{"name":"ESKİ KÖY MAH.","zip":"32602"},{"name":"GENÇALİ KÖYÜ","zip":"32602"},{"name":"KARABABA MAH.","zip":"32602"},{"name":"KARİP KÖYÜ","zip":"32602"},{"name":"KARŞI MAH.","zip":"32602"},{"name":"KAYAAĞZI MAH.","zip":"32602"},{"name":"KUZYAKA MAH.","zip":"32602"},{"name":"MERKEZ MAH.","zip":"32602"},{"name":"ONKUYU MAH.","zip":"32602"},{"name":"ORTA MAH.","zip":"32602"},{"name":"ORTAYAZI KÖYÜ","zip":"32602"},{"name":"SULTAN SÜLEYMAN MAH.","zip":"32602"},{"name":"TÜRBE MAH.","zip":"32602"},{"name":"ULUĞBEY KÖYÜ","zip":"32602"},{"name":"YASSIÖREN KÖYÜ","zip":"32602"},{"name":"YAYLA MAH.","zip":"32602"},{"name":"YUKARI MAH.","zip":"32602"},{"name":"ZAFER MAH.","zip":"32602"}]},{"name":"SENİRKENT","cityName":null,"quarters":[{"name":"CUMHURİYET MAH.","zip":"32600"},{"name":"HAMİDİYE MAH.","zip":"32600"},{"name":"İSTİKLAL MAH.","zip":"32600"},{"name":"KIBRIS MAH.","zip":"32600"},{"name":"SÜLEYMAN DEMİREL MAH.","zip":"32600"},{"name":"ŞEHLER MAH.","zip":"32600"},{"name":"TAŞMESCİT MAH.","zip":"32600"},{"name":"TURGUTLAR MAH.","zip":"32600"}]},{"name":"MERKEZKÖYLER","cityName":null,"quarters":[{"name":"AYVALIPINAR KÖYÜ","zip":"32952"},{"name":"AYVAPINARI MAH.","zip":"32952"},{"name":"BEKİRAĞALAR KÖYÜ","zip":"32952"},{"name":"BELENCE KÖYÜ","zip":"32952"},{"name":"BEYDİLİ KÖYÜ","zip":"32952"},{"name":"BOĞAZKÖY KÖYÜ","zip":"32952"},{"name":"BUCAKDERE KÖYÜ","zip":"32952"},{"name":"CAMİ MAH.","zip":"32952"},{"name":"CAMİİ MAH.","zip":"32952"},{"name":"ÇANDIR KÖYÜ","zip":"32952"},{"name":"ÇIRAKLAR MAH.","zip":"32952"},{"name":"ÇOBANİSA KÖYÜ","zip":"32952"},{"name":"ÇÖKEK MAH.","zip":"32952"},{"name":"ÇUKURCA KÖYÜ","zip":"32952"},{"name":"ÇÜRÜK BELEN MAH.","zip":"32952"},{"name":"DARIBÜKÜ KÖYÜ","zip":"32952"},{"name":"DERİNDERE MAH.","zip":"32952"},{"name":"GÜLDALLI KÖYÜ","zip":"32952"},{"name":"GÜMÜ KÖYÜ","zip":"32952"},{"name":"GÜNEY MAH.","zip":"32952"},{"name":"HACIAHMETLER KÖYÜ","zip":"32952"},{"name":"HACIALİLER KÖYÜ","zip":"32952"},{"name":"İBİŞLER KÖYÜ","zip":"32952"},{"name":"İNCEDERE KÖYÜ","zip":"32952"},{"name":"KARADİKEN KÖYÜ","zip":"32952"},{"name":"KASIMLAR KÖYÜ","zip":"32952"},{"name":"KESME KÖYÜ","zip":"32952"},{"name":"KIZILBELEN MAH.","zip":"32952"},{"name":"KÖPRÜBAŞI MAH.","zip":"32952"},{"name":"KUZ MAH.","zip":"32952"},{"name":"KUZCA KÖYÜ","zip":"32952"},{"name":"MELİKLER KÖYÜ","zip":"32952"},{"name":"MÜEZZİNLER KÖYÜ","zip":"32952"},{"name":"ÖBEKTAŞ MAH.","zip":"32952"},{"name":"PINARKÖY KÖYÜ","zip":"32952"},{"name":"SAĞRAK KÖYÜ","zip":"32952"},{"name":"SARAY KÖYÜ","zip":"32952"},{"name":"SARIMEHMETLER KÖYÜ","zip":"32952"},{"name":"ŞEHLER KÖYÜ","zip":"32952"},{"name":"YENİKÖY KÖYÜ","zip":"32952"},{"name":"YEŞİLYURT KÖYÜ","zip":"32952"}]},{"name":"SÜTÇÜLER","cityName":null,"quarters":[{"name":"BELEN MAH.","zip":"32950"},{"name":"BİRLİK MAH.","zip":"32950"},{"name":"CAMİ MAH.","zip":"32950"},{"name":"ERENLER MAH.","zip":"32950"},{"name":"YEŞİLDERE MAH.","zip":"32950"},{"name":"YUKARI MAH.","zip":"32950"}]},{"name":"MERKEZKÖYLER","cityName":null,"quarters":[{"name":"ARMUTLU KÖYÜ","zip":"32802"},{"name":"ASLANDOĞMUŞ KÖYÜ","zip":"32802"},{"name":"AŞAĞI MAH.","zip":"32802"},{"name":"AŞAĞIDİNEK KÖYÜ","zip":"32802"},{"name":"BAŞDEĞİRMEN KÖYÜ","zip":"32802"},{"name":"BELCEĞİZ KÖYÜ","zip":"32802"},{"name":"BEYKÖY KÖYÜ","zip":"32802"},{"name":"BÖLÜKLER MAH.","zip":"32802"},{"name":"CUMHURİYET MAH.","zip":"32802"},{"name":"ÇALTI KÖYÜ","zip":"32802"},{"name":"ÇARIKSARAYLAR KÖYÜ","zip":"32802"},{"name":"ÇAVUNDUR KÖYÜ","zip":"32802"},{"name":"ÇELTEK KÖYÜ","zip":"32802"},{"name":"ÇİÇEKPINAR KÖYÜ","zip":"32802"},{"name":"ÇÖRDÜK MAH.","zip":"32802"},{"name":"ÇUKUR MAH.","zip":"32802"},{"name":"FAKILAR KÖYÜ","zip":"32802"},{"name":"GEDİKLİ KÖYÜ","zip":"32802"},{"name":"GÖKSÖĞÜT KÖYÜ","zip":"32802"},{"name":"KARAYAKA KÖYÜ","zip":"32802"},{"name":"KIYAKDEDE KÖYÜ","zip":"32802"},{"name":"KÖPRÜ KÖYÜ","zip":"32802"},{"name":"MURATBAĞI KÖYÜ","zip":"32802"},{"name":"ORTA MAH.","zip":"32802"},{"name":"ÖRDEKCİ KÖYÜ","zip":"32802"},{"name":"ÖRENKÖY KÖYÜ","zip":"32802"},{"name":"SALUR KÖYÜ","zip":"32802"},{"name":"SARIKAYA KÖYÜ","zip":"32802"},{"name":"SUVAR MAH.","zip":"32802"},{"name":"ULU MAH.","zip":"32802"},{"name":"YAKAEMİR KÖYÜ","zip":"32802"},{"name":"YASSIBEL KÖYÜ","zip":"32802"},{"name":"YENİ MAH.","zip":"32802"},{"name":"YENİCEKALE KÖYÜ","zip":"32802"},{"name":"YENİKÖY KÖYÜ","zip":"32802"},{"name":"YUKARI MAH.","zip":"32802"},{"name":"YUKARIDİNEK KÖYÜ","zip":"32802"}]},{"name":"ŞARKİKARAAĞAÇ","cityName":null,"quarters":[{"name":"ASILKALE MAH.","zip":"32800"},{"name":"AŞAĞIKALE MAH.","zip":"32800"},{"name":"CAMİKEBİR MAH.","zip":"32800"},{"name":"FATİH MAH.","zip":"32800"},{"name":"KERKÜK MAH.","zip":"32800"},{"name":"ORTA MAH.","zip":"32800"},{"name":"ULVİKALE MAH.","zip":"32800"}]},{"name":"MERKEZKÖYLER","cityName":null,"quarters":[{"name":"İLEYDAĞI KÖYÜ","zip":"32652"},{"name":"İNHİSAR KÖYÜ","zip":"32652"},{"name":"KÜÇÜKKABACA KÖYÜ","zip":"32652"}]},{"name":"ULUBORLU","cityName":null,"quarters":[{"name":"HAMİDELİ MAH.","zip":"32650"},{"name":"KABAAĞAÇ MAH.","zip":"32650"},{"name":"KÖSEHASAN MAH.","zip":"32650"},{"name":"NAMAZGAH MAH.","zip":"32650"},{"name":"PAZAR MAH.","zip":"32650"},{"name":"SELÇUKLU MAH.","zip":"32650"},{"name":"SERENLER MAH.","zip":"32650"},{"name":"TAŞKÖPRÜ MAH.","zip":"32650"},{"name":"TOPRAKLIK MAH.","zip":"32650"},{"name":"ZİNCİRLİ MAH.","zip":"32650"}]},{"name":"MERKEZKÖYLER","cityName":null,"quarters":[{"name":"ALTIKAPI KÖYÜ","zip":"32402"},{"name":"ARDIÇLI MAH.","zip":"32402"},{"name":"AŞAĞI MAH.","zip":"32402"},{"name":"AŞAĞI YUKARI MAH.","zip":"32402"},{"name":"AŞAĞIKAŞIKARA KÖYÜ","zip":"32402"},{"name":"AŞAĞITIRTAR KÖYÜ","zip":"32402"},{"name":"AYVALI KÖYÜ","zip":"32402"},{"name":"BAĞKONAK KÖYÜ","zip":"32402"},{"name":"BAĞLARBAŞI KÖYÜ","zip":"32402"},{"name":"BAHÇELİEVLER MAH.","zip":"32402"},{"name":"BAHTİYAR KÖYÜ","zip":"32402"},{"name":"BOLATLIK MAH.","zip":"32402"},{"name":"CELEPTAŞ KÖYÜ","zip":"32402"},{"name":"CUMHURİYET MAH.","zip":"32402"},{"name":"ÇAKIRÇAL KÖYÜ","zip":"32402"},{"name":"ÇAMHARMAN KÖYÜ","zip":"32402"},{"name":"ÇAYIR MAH.","zip":"32402"},{"name":"ÇETİNCE KÖYÜ","zip":"32402"},{"name":"DEDEÇAM KÖYÜ","zip":"32402"},{"name":"DELİKTAŞ MAH.","zip":"32402"},{"name":"DERE GÜLTEPE MAH.","zip":"32402"},{"name":"DERE MAH.","zip":"32402"},{"name":"EĞİRLER KÖYÜ","zip":"32402"},{"name":"ESENTEPE MAH.","zip":"32402"},{"name":"ESKİ MAH.","zip":"32402"},{"name":"ESKİGEÇİT MAH.","zip":"32402"},{"name":"EYÜPLER KÖYÜ","zip":"32402"},{"name":"FATİH MAH.","zip":"32402"},{"name":"GÖKÇAY MAH.","zip":"32402"},{"name":"GÖKÇEALİ KÖYÜ","zip":"32402"},{"name":"GÜLKENT MAH.","zip":"32402"},{"name":"GÜMÜŞLÜ MAH.","zip":"32402"},{"name":"HARMAN MAH.","zip":"32402"},{"name":"HİSARARDI KÖYÜ","zip":"32402"},{"name":"HURŞİTLER MAH.","zip":"32402"},{"name":"HÜYÜKLÜ KÖYÜ","zip":"32402"},{"name":"İLEĞİ KÖYÜ","zip":"32402"},{"name":"İSLİBUCAĞI MAH.","zip":"32402"},{"name":"KALE MAH.","zip":"32402"},{"name":"KARŞIYAKA MAH.","zip":"32402"},{"name":"KIRKBAŞ KÖYÜ","zip":"32402"},{"name":"KORUYAKA KÖYÜ","zip":"32402"},{"name":"KOZLUÇAY KÖYÜ","zip":"32402"},{"name":"KÖRKÜLER KÖYÜ","zip":"32402"},{"name":"KUMDANLI KÖYÜ","zip":"32402"},{"name":"KURUSARI KÖYÜ","zip":"32402"},{"name":"KUYUCAK KÖYÜ","zip":"32402"},{"name":"KUZYAKA MAH.","zip":"32402"},{"name":"KÜÇÜKTEPE MAH.","zip":"32402"},{"name":"MESCİT MAH.","zip":"32402"},{"name":"MEZARLIK MAH.","zip":"32402"},{"name":"MISIRLI KÖYÜ","zip":"32402"},{"name":"MİTHATPAŞA MAH.","zip":"32402"},{"name":"NALBANT MAH.","zip":"32402"},{"name":"ORTA MAH.","zip":"32402"},{"name":"ÖZBAYAT KÖYÜ","zip":"32402"},{"name":"ÖZGÜNEY KÖYÜ","zip":"32402"},{"name":"PAZAR MAH.","zip":"32402"},{"name":"SAĞIRKÖY KÖYÜ","zip":"32402"},{"name":"SELÇUKLU MAH.","zip":"32402"},{"name":"SÜCÜLLÜ KÖYÜ","zip":"32402"},{"name":"TAŞEVİ KÖYÜ","zip":"32402"},{"name":"TEPECİK MAH.","zip":"32402"},{"name":"TERZİLER KÖYÜ","zip":"32402"},{"name":"TOKMACIK KÖYÜ","zip":"32402"},{"name":"TOLYÜZÜ MAH.","zip":"32402"},{"name":"ULUCAMİİ MAH.","zip":"32402"},{"name":"YAĞCILAR KÖYÜ","zip":"32402"},{"name":"YANARIK MAH.","zip":"32402"},{"name":"YARIKKAYA KÖYÜ","zip":"32402"},{"name":"YAYLA MAH.","zip":"32402"},{"name":"YENİ MAH.","zip":"32402"},{"name":"YUKARI MAH.","zip":"32402"},{"name":"YUKARIKAŞIKARA KÖYÜ","zip":"32402"},{"name":"YUKARITIRTAR KÖYÜ","zip":"32402"},{"name":"YUSUFLAR MAH.","zip":"32402"}]},{"name":"YALVAÇ","cityName":null,"quarters":[{"name":"AKKÖPRÜ MAH.","zip":"32400"},{"name":"BAĞLAR MAH.","zip":"32400"},{"name":"BAHÇELİEVLER MAH.","zip":"32400"},{"name":"CUMHURİYET MAH.","zip":"32400"},{"name":"ÇARŞI MAH.","zip":"32400"},{"name":"DEBBAĞLAR MAH.","zip":"32400"},{"name":"ESKİ MAH.","zip":"32400"},{"name":"FATİH MAH.","zip":"32400"},{"name":"GÖRGÜ BAYRAM MAH.","zip":"32400"},{"name":"GÖRGÜ CAMİİ MAH.","zip":"32400"},{"name":"GÖRGÜORTA MAH.","zip":"32400"},{"name":"KAŞAŞAĞI MAH.","zip":"32400"},{"name":"KAŞCAMİ MAH.","zip":"32400"},{"name":"KAŞHACIBEY MAH.","zip":"32400"},{"name":"KAŞYUKARI MAH.","zip":"32400"},{"name":"KIZILCA MAH.","zip":"32400"},{"name":"KUŞKU MAH.","zip":"32400"},{"name":"LEBLEBİCİLER MAH.","zip":"32400"},{"name":"MÜDERRİS MAH.","zip":"32400"},{"name":"PAZAR AŞAĞI MAH.","zip":"32400"},{"name":"PAZAR YUKARI MAH.","zip":"32400"},{"name":"SALUR MAH.","zip":"32400"},{"name":"SANAYİ MAH.","zip":"32400"},{"name":"SARAY MAH.","zip":"32400"},{"name":"SOFULAR MAH.","zip":"32400"},{"name":"ZAFER MAH.","zip":"32400"}]},{"name":"MERKEZKÖYLER","cityName":null,"quarters":null},{"name":"YENİŞARBADEMLİ","cityName":null,"quarters":[{"name":"PINARBAŞI MAH.","zip":"32850"},{"name":"YENİCAMİ MAH.","zip":"32850"},{"name":"YENİCE MAH.","zip":"32850"}]}]}]}