{"id":33,"name":"MERSİN","cities":[{"name":"city","districts":[{"name":"BARIŞ","cityName":null,"quarters":[{"name":"KİREMİTHANE MAH.","zip":"33010"},{"name":"KÜLTÜR MAH.","zip":"33010"},{"name":"TURGUTREİS MAH.","zip":"33010"}]},{"name":"CAMİİŞERİF","cityName":null,"quarters":[{"name":"MESUDİYE MAH.","zip":"33060"}]},{"name":"ÇANKAYA","cityName":null,"quarters":[{"name":"İHSANİYE MAH.","zip":"33070"},{"name":"MAHMUDİYE MAH.","zip":"33070"}]},{"name":"HAL","cityName":null,"quarters":[{"name":"ÇİLEK MAH.","zip":"33020"},{"name":"HAL MAH.","zip":"33020"},{"name":"KARADUVAR MAH.","zip":"33020"},{"name":"ÖZGÜRLÜK MAH.","zip":"33020"},{"name":"ŞEVKETSÜMER MAH.","zip":"33020"}]},{"name":"HUZURKENT","cityName":null,"quarters":null},{"name":"KARACAİLYAS","cityName":null,"quarters":[{"name":"AKDAM MAH.","zip":"33100"},{"name":"ANADOLU MAH.","zip":"33100"},{"name":"BAĞLARBAŞI MAH.","zip":"33100"},{"name":"BAHŞİŞ MAH.","zip":"33100"},{"name":"BEKİRDE MAH.","zip":"33100"},{"name":"CİVANYAYLAĞI MAH.","zip":"33100"},{"name":"CUMHURİYET MAH.","zip":"33100"},{"name":"DEMİRHİSAR MAH.","zip":"33100"},{"name":"EVCİ MAH.","zip":"33100"},{"name":"GAZİ MAH.","zip":"33100"},{"name":"HÜRRİYET MAH.","zip":"33100"},{"name":"KAZANLI MAH.","zip":"33100"},{"name":"KULAK MAH.","zip":"33100"},{"name":"NACARLI MAH.","zip":"33100"},{"name":"SARIİBRAHİMLİ MAH.","zip":"33100"},{"name":"ŞAKİRGÜLMEN MAH.","zip":"33100"},{"name":"TOROSLAR MAH.","zip":"33100"}]},{"name":"MİTHATPAŞA","cityName":null,"quarters":[{"name":"ADANALIOĞLU LİMONLU MAH.","zip":"33040"},{"name":"ADNAN MENDERES MAH.","zip":"33040"},{"name":"AKDENİZ MAH.","zip":"33040"},{"name":"BAĞCILAR-İHSANİYE MAH.","zip":"33040"},{"name":"BAHÇELİ AŞAĞIBURHAN MAH.","zip":"33040"},{"name":"BAHÇELİ KÜRKÇÜ MAH.","zip":"33040"},{"name":"BAHÇELİ YUKARIBURHAN MAH.","zip":"33040"},{"name":"BURHANOSB MAH.","zip":"33040"},{"name":"CAMİLİ MAH.","zip":"33040"},{"name":"DİKİLİTAŞ MAH.","zip":"33040"},{"name":"ESENLİ MAH.","zip":"33040"},{"name":"EVCİOSB MAH.","zip":"33040"},{"name":"GÜNDOĞDU MAH.","zip":"33040"},{"name":"GÜNEŞ MAH.","zip":"33040"},{"name":"HEBİLLİ MAH.","zip":"33040"},{"name":"IĞDIR MAH.","zip":"33040"},{"name":"KARACAİLYAS EMEK MAH.","zip":"33040"},{"name":"KARACAİLYAS EVREN MAH.","zip":"33040"},{"name":"KARACAİLYAS MAH.","zip":"33040"},{"name":"KARADUVAR SB MAH.","zip":"33040"},{"name":"KÖSELERLİ MAH.","zip":"33040"},{"name":"MİTHATPAŞA MAH.","zip":"33040"},{"name":"MÜFİDE İLHAN MAH.","zip":"33040"},{"name":"PARMAKKURDU MAH.","zip":"33040"},{"name":"PUĞKARACADAĞ MAH.","zip":"33040"},{"name":"SİTELER MAH.","zip":"33040"},{"name":"YANPAR MAH.","zip":"33040"},{"name":"YEŞİLÇİMEN MAH.","zip":"33040"},{"name":"YEŞİLOVA MAH.","zip":"33040"}]},{"name":"NUSRATİYE","cityName":null,"quarters":[{"name":"ÜÇOCAK MAH.","zip":"33050"},{"name":"YENİ MAH.","zip":"33050"}]},{"name":"ANAMUR","cityName":null,"quarters":[{"name":"AKİNE MAH.","zip":"33630"},{"name":"ALATAŞ MAH.","zip":"33630"},{"name":"ANITLI MAH.","zip":"33630"},{"name":"AŞAĞIKÜKÜR MAH.","zip":"33630"},{"name":"BOĞUNTU MAH.","zip":"33630"},{"name":"BOZDOĞAN MAH.","zip":"33630"},{"name":"ÇALTIBÜKÜ MAH.","zip":"33630"},{"name":"ÇAMLIPINAR MAH.","zip":"33630"},{"name":"ÇAMLIPINARALANI MAH.","zip":"33630"},{"name":"ÇARIKLAR MAH.","zip":"33630"},{"name":"ÇATALOLUK MAH.","zip":"33630"},{"name":"ÇELTİKÇİ MAH.","zip":"33630"},{"name":"ÇUKURABANOZ MAH.","zip":"33630"},{"name":"DEMİRÖREN MAH.","zip":"33630"},{"name":"EMİRŞAH MAH.","zip":"33630"},{"name":"ESENTEPE MAH.","zip":"33630"},{"name":"EVCİLER MAH.","zip":"33630"},{"name":"GERCEBAHŞİŞ MAH.","zip":"33630"},{"name":"GÜLEÇ MAH.","zip":"33630"},{"name":"GÜNEYBAHŞİŞ MAH.","zip":"33630"},{"name":"GÜNGÖREN MAH.","zip":"33630"},{"name":"KALINÖREN MAH.","zip":"33630"},{"name":"KARAAĞA MAH.","zip":"33630"},{"name":"KARAÇUKUR MAH.","zip":"33630"},{"name":"KARADERE MAH.","zip":"33630"},{"name":"KARALARBAHŞİŞ MAH.","zip":"33630"},{"name":"KAŞDİŞLEN MAH.","zip":"33630"},{"name":"KILIÇ MAH.","zip":"33630"},{"name":"KIZILALİLER MAH.","zip":"33630"},{"name":"KORUCUK MAH.","zip":"33630"},{"name":"KÖPRÜBAŞI MAH.","zip":"33630"},{"name":"KÜKÜR MAH.","zip":"33630"},{"name":"LALE MAH.","zip":"33630"},{"name":"MALAKLAR MAH.","zip":"33630"},{"name":"ORMANCIK MAH.","zip":"33630"},{"name":"OVABAŞI MAH.","zip":"33630"},{"name":"ÖREN MAH.","zip":"33630"},{"name":"SARIAĞAÇ MAH.","zip":"33630"},{"name":"SARIDANA MAH.","zip":"33630"},{"name":"SUGÖZÜ MAH.","zip":"33630"},{"name":"SULTAN ALAADDİN MAH.","zip":"33630"},{"name":"UÇARI MAH.","zip":"33630"},{"name":"YILDIRIM BEYAZIT MAH.","zip":"33630"}]},{"name":"GÖKTAŞ","cityName":null,"quarters":[{"name":"GÖKTAŞ MAH.","zip":"33640"},{"name":"SAĞLIK MAH.","zip":"33640"},{"name":"SARAY MAH.","zip":"33640"},{"name":"TOROSLAR MAH.","zip":"33640"},{"name":"YEŞİLYURT MAH.","zip":"33640"}]},{"name":"İSKELE","cityName":null,"quarters":[{"name":"BAHÇELİEVLER MAH.","zip":"33650"},{"name":"FATİH MAH.","zip":"33650"},{"name":"GÜZELYURT MAH.","zip":"33650"},{"name":"İSKELE MAH.","zip":"33650"},{"name":"YALIEVLERİ MAH.","zip":"33650"}]},{"name":"AYDINCIK","cityName":null,"quarters":[{"name":"CUMHURİYET MAH.","zip":"33840"},{"name":"DURUHAN MAH.","zip":"33840"},{"name":"ESKİYÜRÜK MAH.","zip":"33840"},{"name":"HACIBAHATTİN MAH.","zip":"33840"},{"name":"HÜRRİYET MAH.","zip":"33840"},{"name":"KARADERE MAH.","zip":"33840"},{"name":"KARASEKİ MAH.","zip":"33840"},{"name":"MERKEZ MAH.","zip":"33840"},{"name":"PEMBECİK MAH.","zip":"33840"},{"name":"TEKNECİK MAH.","zip":"33840"},{"name":"YENİ MAH.","zip":"33840"},{"name":"YENİKAŞ MAH.","zip":"33840"},{"name":"YENİYÜRÜK MAH.","zip":"33840"},{"name":"YENİYÜRÜKKAŞ MAH.","zip":"33840"}]},{"name":"BOZYAZI","cityName":null,"quarters":[{"name":"ARDIÇLITAŞ MAH.","zip":"33830"},{"name":"BAHÇEKOYAĞI MAH.","zip":"33830"},{"name":"BEYRELİ MAH.","zip":"33830"},{"name":"ÇOPURLU MAH.","zip":"33830"},{"name":"ÇUBUKKOYAĞI MAH.","zip":"33830"},{"name":"DENİZCİLER MAH.","zip":"33830"},{"name":"DEREBAŞI MAH.","zip":"33830"},{"name":"DEREKÖY MAH.","zip":"33830"},{"name":"ELMAKUZU MAH.","zip":"33830"},{"name":"GÖZCE MAH.","zip":"33830"},{"name":"GÖZSÜZCE MAH.","zip":"33830"},{"name":"GÜRLEVİK MAH.","zip":"33830"},{"name":"KALEDİBİ MAH.","zip":"33830"},{"name":"KARAİSALI MAH.","zip":"33830"},{"name":"KIZILCA MAH.","zip":"33830"},{"name":"KÖMÜRLÜ MAH.","zip":"33830"},{"name":"KÖTEKLER MAH.","zip":"33830"},{"name":"LENGER MAH.","zip":"33830"},{"name":"MERKEZ MAH.","zip":"33830"},{"name":"NARİNCE MAH.","zip":"33830"},{"name":"SICAKYURT MAH.","zip":"33830"},{"name":"TEKEDÜZÜ MAH.","zip":"33830"},{"name":"TEKELİ MAH.","zip":"33830"},{"name":"TEKMEN MAH.","zip":"33830"},{"name":"USTALAR MAH.","zip":"33830"}]},{"name":"ÇAMLIYAYLA","cityName":null,"quarters":[{"name":"BELÇINAR MAH.","zip":"33580"},{"name":"CUMAYAKASI MAH.","zip":"33580"},{"name":"ÇAYIREKİNLİĞİ MAH.","zip":"33580"},{"name":"DARIPINARI MAH.","zip":"33580"},{"name":"FAKILAR MAH.","zip":"33580"},{"name":"GİDEN MAH.","zip":"33580"},{"name":"KALE MAH.","zip":"33580"},{"name":"KESECİK MAH.","zip":"33580"},{"name":"KORUCAK MAH.","zip":"33580"},{"name":"KÖRMENLİK MAH.","zip":"33580"},{"name":"SARIKAVAK MAH.","zip":"33580"},{"name":"SARIKOYAK MAH.","zip":"33580"},{"name":"SEBİL MAH.","zip":"33580"}]},{"name":"ERDEMLİ","cityName":null,"quarters":[{"name":"AKDENİZ MAH.","zip":"33730"},{"name":"AKPINAR MAH.","zip":"33730"},{"name":"ALATA MAH.","zip":"33730"},{"name":"ALİBEYLİ MAH.","zip":"33730"},{"name":"ARPAÇBAHŞİŞ MAH.","zip":"33730"},{"name":"ARSLANLI MAH.","zip":"33730"},{"name":"AYAŞ MAH.","zip":"33730"},{"name":"AYDINLAR MAH.","zip":"33730"},{"name":"BARBAROS MAH.","zip":"33730"},{"name":"BATISANDAL MAH.","zip":"33730"},{"name":"ÇAMLI MAH.","zip":"33730"},{"name":"ÇERÇİLİ MAH.","zip":"33730"},{"name":"ÇEŞMELİ MAH.","zip":"33730"},{"name":"ÇİFTEPINAR MAH.","zip":"33730"},{"name":"ÇİRİŞ MAH.","zip":"33730"},{"name":"DAĞLI MAH.","zip":"33730"},{"name":"DOĞUSANDAL MAH.","zip":"33730"},{"name":"ELBEYLİ MAH.","zip":"33730"},{"name":"ELVANLI MAH.","zip":"33730"},{"name":"ESENPINAR MAH.","zip":"33730"},{"name":"EVDİLEK MAH.","zip":"33730"},{"name":"FAKILI MAH.","zip":"33730"},{"name":"FATİH MAH.","zip":"33730"},{"name":"GÜCÜŞ MAH.","zip":"33730"},{"name":"GÜNEYLİ MAH.","zip":"33730"},{"name":"GÜZELOLUK MAH.","zip":"33730"},{"name":"HACIALANI MAH.","zip":"33730"},{"name":"HACIHALİLARPAÇ MAH.","zip":"33730"},{"name":"HARFİLLİ MAH.","zip":"33730"},{"name":"HÜSAMETLİ MAH.","zip":"33730"},{"name":"İLEMİN MAH.","zip":"33730"},{"name":"KARAAHMETLİ MAH.","zip":"33730"},{"name":"KARAHIDIRLI MAH.","zip":"33730"},{"name":"KARAKEŞLİ MAH.","zip":"33730"},{"name":"KARAYAKUP MAH.","zip":"33730"},{"name":"KARGICAK MAH.","zip":"33730"},{"name":"KARGIPINARI MAH.","zip":"33730"},{"name":"KAYACI MAH.","zip":"33730"},{"name":"KIZILEN MAH.","zip":"33730"},{"name":"KIZKALESİ MAH.","zip":"33730"},{"name":"KOCAHASANLI MAH.","zip":"33730"},{"name":"KORAMŞALI MAH.","zip":"33730"},{"name":"KOYUNCU MAH.","zip":"33730"},{"name":"KÖSBUCAĞI MAH.","zip":"33730"},{"name":"KÖSERELİ MAH.","zip":"33730"},{"name":"KUMKUYU MAH.","zip":"33730"},{"name":"KUŞLUCA MAH.","zip":"33730"},{"name":"KÜSTÜLÜ MAH.","zip":"33730"},{"name":"LİMONLU MAH.","zip":"33730"},{"name":"MERKEZ MAH.","zip":"33730"},{"name":"PINARBAŞI MAH.","zip":"33730"},{"name":"SARIKAYA MAH.","zip":"33730"},{"name":"SARIYER MAH.","zip":"33730"},{"name":"SIRAÇ MAH.","zip":"33730"},{"name":"SİNAP MAH.","zip":"33730"},{"name":"SORGUN MAH.","zip":"33730"},{"name":"ŞAHNA MAH.","zip":"33730"},{"name":"TABİYE MAH.","zip":"33730"},{"name":"TAPURELİ MAH.","zip":"33730"},{"name":"TOROS MAH.","zip":"33730"},{"name":"TOZLU MAH.","zip":"33730"},{"name":"TÖMÜK MAH.","zip":"33730"},{"name":"TÜRBE MAH.","zip":"33730"},{"name":"ÜÇTEPE MAH.","zip":"33730"},{"name":"ÜZÜMLÜ MAH.","zip":"33730"},{"name":"VEYSELLİ MAH.","zip":"33730"},{"name":"YAĞDA MAH.","zip":"33730"},{"name":"YARENLER MAH.","zip":"33730"},{"name":"YENİYURT MAH.","zip":"33730"},{"name":"YÜKSEK MAH.","zip":"33730"}]},{"name":"GÜLNAR","cityName":null,"quarters":[{"name":"AKOVA MAH.","zip":"33700"},{"name":"ARDIÇPINARI MAH.","zip":"33700"},{"name":"ARIKUYUSU MAH.","zip":"33700"},{"name":"AYVALI MAH.","zip":"33700"},{"name":"BEREKET MAH.","zip":"33700"},{"name":"BEYDİLİ MAH.","zip":"33700"},{"name":"BOLYARAN MAH.","zip":"33700"},{"name":"BOZAĞAÇ MAH.","zip":"33700"},{"name":"BÜYÜKECELİ MAH.","zip":"33700"},{"name":"ÇAVUŞLAR MAH.","zip":"33700"},{"name":"ÇUKURASMA MAH.","zip":"33700"},{"name":"ÇUKURKONAK MAH.","zip":"33700"},{"name":"DAYICIK MAH.","zip":"33700"},{"name":"DEDELER MAH.","zip":"33700"},{"name":"DELİKKAYA MAH.","zip":"33700"},{"name":"DEMİRÖZÜ MAH.","zip":"33700"},{"name":"EMİRHACI MAH.","zip":"33700"},{"name":"GEZENDE MAH.","zip":"33700"},{"name":"GÖKTÜRK MAH.","zip":"33700"},{"name":"HACIPINAR MAH.","zip":"33700"},{"name":"HALİFELER MAH.","zip":"33700"},{"name":"ILISU MAH.","zip":"33700"},{"name":"İSHAKLAR MAH.","zip":"33700"},{"name":"KAVAKOLUĞU MAH.","zip":"33700"},{"name":"KAYRAK MAH.","zip":"33700"},{"name":"KOÇAŞLI MAH.","zip":"33700"},{"name":"KONUR MAH.","zip":"33700"},{"name":"KORUCUK MAH.","zip":"33700"},{"name":"KÖSEÇOBANLI MAH.","zip":"33700"},{"name":"KURBAĞA MAH.","zip":"33700"},{"name":"KUSKAN MAH.","zip":"33700"},{"name":"MOLLAÖMERLİ MAH.","zip":"33700"},{"name":"ÖRENPINAR MAH.","zip":"33700"},{"name":"ÖRTÜLÜ MAH.","zip":"33700"},{"name":"SARAY MAH.","zip":"33700"},{"name":"SARIKAVAK MAH.","zip":"33700"},{"name":"SİPAHİLİ MAH.","zip":"33700"},{"name":"ŞEYHÖMER MAH.","zip":"33700"},{"name":"TAŞOLUK MAH.","zip":"33700"},{"name":"TEPE MAH.","zip":"33700"},{"name":"TIRNAK MAH.","zip":"33700"},{"name":"TOZKOVAN MAH.","zip":"33700"},{"name":"ULUPINAR MAH.","zip":"33700"},{"name":"ÜÇOLUK MAH.","zip":"33700"},{"name":"YANIŞLI MAH.","zip":"33700"},{"name":"YARMASU MAH.","zip":"33700"},{"name":"YASSIBAĞ MAH.","zip":"33700"},{"name":"YENİCE MAH.","zip":"33700"},{"name":"ZEYNE MAH.","zip":"33700"}]},{"name":"DAVULTEPE","cityName":null,"quarters":[{"name":"ATATÜRK MAH.","zip":"33340"},{"name":"DAVULTEPE MAH.","zip":"33340"},{"name":"MENDERES MAH.","zip":"33340"},{"name":"VİRANŞEHİR MAH.","zip":"33340"}]},{"name":"MEZİTLİ","cityName":null,"quarters":[{"name":"AKDENİZ MAH.","zip":"33200"},{"name":"ANAYURT MAH.","zip":"33200"},{"name":"BOZÖN MAH.","zip":"33200"},{"name":"CEMİLLİ MAH.","zip":"33200"},{"name":"CUMHURİYET MAH.","zip":"33200"},{"name":"ÇAMLICA MAH.","zip":"33200"},{"name":"ÇANKAYA MAH.","zip":"33200"},{"name":"ÇEVLİK MAH.","zip":"33200"},{"name":"DEMİRIŞIK MAH.","zip":"33200"},{"name":"DENİZ MAH.","zip":"33200"},{"name":"DOĞANÇAY MAH.","zip":"33200"},{"name":"DOĞLU MAH.","zip":"33200"},{"name":"ESENBAĞLAR MAH.","zip":"33200"},{"name":"ESKİ MEZİTLİ MAH.","zip":"33200"},{"name":"FATİH MAH.","zip":"33200"},{"name":"FINDIKPINARI MAH.","zip":"33200"},{"name":"HÜRRİYET MAH.","zip":"33200"},{"name":"İSTİKLAL MAH.","zip":"33200"},{"name":"KALEKÖY MAH.","zip":"33200"},{"name":"KOCAYER MAH.","zip":"33200"},{"name":"KUYULUK MAH.","zip":"33200"},{"name":"KUZUCU MAH.","zip":"33200"},{"name":"KUZUCUBELEN MAH.","zip":"33200"},{"name":"MERKEZ MAH.","zip":"33200"},{"name":"PELİTKOYAĞI MAH.","zip":"33200"},{"name":"SARILAR MAH.","zip":"33200"},{"name":"SEYMENLİ MAH.","zip":"33200"},{"name":"ŞAHİN TEPESİ MAH.","zip":"33200"},{"name":"TAKANLI MAH.","zip":"33200"},{"name":"TECE MAH.","zip":"33200"},{"name":"TEPEKÖY MAH.","zip":"33200"},{"name":"TOL MAH.","zip":"33200"},{"name":"YENİ MAH.","zip":"33200"},{"name":"ZEYBEKLER MAH.","zip":"33200"}]},{"name":"MUT","cityName":null,"quarters":[{"name":"AŞAĞIKÖSELERLİ MAH.","zip":"33600"},{"name":"AYDINOĞLU MAH.","zip":"33600"},{"name":"BAĞCAĞIZ MAH.","zip":"33600"},{"name":"BALLI MAH.","zip":"33600"},{"name":"BARABANLI MAH.","zip":"33600"},{"name":"BOZDOĞAN MAH.","zip":"33600"},{"name":"BURUNKÖY MAH.","zip":"33600"},{"name":"CERİTLER MAH.","zip":"33600"},{"name":"CUMHURİYET MAH.","zip":"33600"},{"name":"ÇAĞLAYANGEDİK MAH.","zip":"33600"},{"name":"ÇALTILI MAH.","zip":"33600"},{"name":"ÇAMLICA MAH.","zip":"33600"},{"name":"ÇAMPINAR MAH.","zip":"33600"},{"name":"ÇATAKBAĞ MAH.","zip":"33600"},{"name":"ÇATALHARMAN MAH.","zip":"33600"},{"name":"ÇINARLI MAH.","zip":"33600"},{"name":"ÇİVİ MAH.","zip":"33600"},{"name":"ÇORTAK MAH.","zip":"33600"},{"name":"ÇÖMELEK MAH.","zip":"33600"},{"name":"ÇUKURBAĞ MAH.","zip":"33600"},{"name":"DAĞPAZARI MAH.","zip":"33600"},{"name":"DEMİRKAPI MAH.","zip":"33600"},{"name":"DEREKÖY MAH.","zip":"33600"},{"name":"DERİNÇAY MAH.","zip":"33600"},{"name":"DEVECİ MAH.","zip":"33600"},{"name":"DİŞTAŞ MAH.","zip":"33600"},{"name":"DOĞANCI MAH.","zip":"33600"},{"name":"ELBEYLİ MAH.","zip":"33600"},{"name":"ELMAPINAR MAH.","zip":"33600"},{"name":"ESENÇAY MAH.","zip":"33600"},{"name":"EVREN MAH.","zip":"33600"},{"name":"FAKIRCA MAH.","zip":"33600"},{"name":"GEÇİMLİ MAH.","zip":"33600"},{"name":"GENÇALİ MAH.","zip":"33600"},{"name":"GÖCEKLER MAH.","zip":"33600"},{"name":"GÖKÇETAŞ MAH.","zip":"33600"},{"name":"GÖKSU MAH.","zip":"33600"},{"name":"GÜLLÜK MAH.","zip":"33600"},{"name":"GÜME MAH.","zip":"33600"},{"name":"GÜZELKÖY MAH.","zip":"33600"},{"name":"GÜZELYURT MAH.","zip":"33600"},{"name":"HACIAHMETLİ MAH.","zip":"33600"},{"name":"HACIİLYASLI MAH.","zip":"33600"},{"name":"HACINUHLU MAH.","zip":"33600"},{"name":"HACISAİT MAH.","zip":"33600"},{"name":"HAMAM MAH.","zip":"33600"},{"name":"HAYDARKÖY MAH.","zip":"33600"},{"name":"HİSARKÖY MAH.","zip":"33600"},{"name":"HOCALI MAH.","zip":"33600"},{"name":"ILICA MAH.","zip":"33600"},{"name":"IRMAKLI MAH.","zip":"33600"},{"name":"IŞIKLAR MAH.","zip":"33600"},{"name":"İBRAHİMLİ MAH.","zip":"33600"},{"name":"KADIKÖY MAH.","zip":"33600"},{"name":"KALE MAH.","zip":"33600"},{"name":"KARACAOĞLAN MAH.","zip":"33600"},{"name":"KARADİKEN MAH.","zip":"33600"},{"name":"KARŞIYAKA MAH.","zip":"33600"},{"name":"KAVAKLI MAH.","zip":"33600"},{"name":"KAVAKÖZÜ MAH.","zip":"33600"},{"name":"KAYABAŞI MAH.","zip":"33600"},{"name":"KAYAÖNÜ MAH.","zip":"33600"},{"name":"KELCEKÖY MAH.","zip":"33600"},{"name":"KEMENLİ MAH.","zip":"33600"},{"name":"KIRKKAVAK MAH.","zip":"33600"},{"name":"KIŞLAKÖY MAH.","zip":"33600"},{"name":"KIZILALAN MAH.","zip":"33600"},{"name":"KÖSELERLİ MAH.","zip":"33600"},{"name":"KUMAÇUKURU MAH.","zip":"33600"},{"name":"KURTSUYU MAH.","zip":"33600"},{"name":"KURTULUŞ MAH.","zip":"33600"},{"name":"KÜLTÜR MAH.","zip":"33600"},{"name":"KÜRKÇÜ MAH.","zip":"33600"},{"name":"MEYDAN MAH.","zip":"33600"},{"name":"MİRAHOR MAH.","zip":"33600"},{"name":"MUCUK MAH.","zip":"33600"},{"name":"NARLI MAH.","zip":"33600"},{"name":"NARLIDERE MAH.","zip":"33600"},{"name":"ORTAKÖY MAH.","zip":"33600"},{"name":"ÖZKÖY MAH.","zip":"33600"},{"name":"ÖZLÜ MAH.","zip":"33600"},{"name":"PALANTEPE MAH.","zip":"33600"},{"name":"PAMUKLU MAH.","zip":"33600"},{"name":"PINARBAŞI MAH.","zip":"33600"},{"name":"SAKIZ MAH.","zip":"33600"},{"name":"SARIVELİLER MAH.","zip":"33600"},{"name":"SELAMLI MAH.","zip":"33600"},{"name":"SUÇATI MAH.","zip":"33600"},{"name":"TEKELİ MAH.","zip":"33600"},{"name":"TOPKAYA MAH.","zip":"33600"},{"name":"TOPLUCA MAH.","zip":"33600"},{"name":"TUĞRUL MAH.","zip":"33600"},{"name":"YALNIZCABAĞ MAH.","zip":"33600"},{"name":"YAPINTI MAH.","zip":"33600"},{"name":"YATIRTAŞ MAH.","zip":"33600"},{"name":"YAZALANI MAH.","zip":"33600"},{"name":"YEŞİLKÖY MAH.","zip":"33600"},{"name":"YEŞİLYURT MAH.","zip":"33600"},{"name":"YILDIZKÖY MAH.","zip":"33600"},{"name":"YUKARIKÖSELERLİ MAH.","zip":"33600"},{"name":"ZEYTİNÇUKURU MAH.","zip":"33600"}]},{"name":"GAZİ","cityName":null,"quarters":[{"name":"GÖKSU MAH.","zip":"33960"},{"name":"SARICALAR MAH.","zip":"33960"},{"name":"SAYAĞZI MAH.","zip":"33960"}]},{"name":"PAZARKAŞI","cityName":null,"quarters":[{"name":"CAMİİKEBİR MAH.","zip":"33950"},{"name":"PAZARKAŞI MAH.","zip":"33950"},{"name":"SARAY MAH.","zip":"33950"}]},{"name":"SİLİFKE","cityName":null,"quarters":[{"name":"ARKUM MAH.","zip":"33940"},{"name":"ATAKENT MAH.","zip":"33940"},{"name":"ATAYURT MAH.","zip":"33940"},{"name":"ATİK MAH.","zip":"33940"},{"name":"AYAŞTÜRKMENLİ MAH.","zip":"33940"},{"name":"BAHÇE MAH.","zip":"33940"},{"name":"BAHÇEDERESİ MAH.","zip":"33940"},{"name":"BALANDIZ MAH.","zip":"33940"},{"name":"BAYINDIR MAH.","zip":"33940"},{"name":"BOLACALIKOYUNCU MAH.","zip":"33940"},{"name":"BURUNUCU MAH.","zip":"33940"},{"name":"BÜKDEĞİRMENİ MAH.","zip":"33940"},{"name":"CANBAZLI MAH.","zip":"33940"},{"name":"CILBAYIR MAH.","zip":"33940"},{"name":"ÇADIRLI MAH.","zip":"33940"},{"name":"ÇALTIBOZKIR MAH.","zip":"33940"},{"name":"ÇAMLIBEL MAH.","zip":"33940"},{"name":"ÇAMLICA MAH.","zip":"33940"},{"name":"ÇATAK MAH.","zip":"33940"},{"name":"ÇELTİKÇİ MAH.","zip":"33940"},{"name":"DEMİRCİLİ MAH.","zip":"33940"},{"name":"EKŞİLER MAH.","zip":"33940"},{"name":"EVKAFÇİFTLİĞİ MAH.","zip":"33940"},{"name":"GEDİKPINARI MAH.","zip":"33940"},{"name":"GÖKBELEN MAH.","zip":"33940"},{"name":"GÜLÜMPAŞALI MAH.","zip":"33940"},{"name":"GÜNDÜZLER MAH.","zip":"33940"},{"name":"HIRMANLI MAH.","zip":"33940"},{"name":"HÜSEYİNLER MAH.","zip":"33940"},{"name":"IŞIKLI MAH.","zip":"33940"},{"name":"İMAMBEKİRLİ MAH.","zip":"33940"},{"name":"İMAMLI MAH.","zip":"33940"},{"name":"İMAMUŞAĞI MAH.","zip":"33940"},{"name":"KABASAKALLI MAH.","zip":"33940"},{"name":"KARAHACILI MAH.","zip":"33940"},{"name":"KARAKAYA MAH.","zip":"33940"},{"name":"KARGICAK MAH.","zip":"33940"},{"name":"KAVAK MAH.","zip":"33940"},{"name":"KEBEN MAH.","zip":"33940"},{"name":"KEPEZ MAH.","zip":"33940"},{"name":"KEŞLİTÜRKMENLİ MAH.","zip":"33940"},{"name":"KICA MAH.","zip":"33940"},{"name":"KIRTIL MAH.","zip":"33940"},{"name":"KIZILGEÇİT MAH.","zip":"33940"},{"name":"KOCAOLUK MAH.","zip":"33940"},{"name":"KOCAPINAR MAH.","zip":"33940"},{"name":"KURTULUŞ MAH.","zip":"33940"},{"name":"MAĞARA MAH.","zip":"33940"},{"name":"MUKADDEM MAH.","zip":"33940"},{"name":"NARLIKUYU MAH.","zip":"33940"},{"name":"NASRULLAH MAH.","zip":"33940"},{"name":"NURU MAH.","zip":"33940"},{"name":"ORTAÖREN MAH.","zip":"33940"},{"name":"OVACIK MAH.","zip":"33940"},{"name":"ÖREN MAH.","zip":"33940"},{"name":"ÖZBOYNUİNCELİ MAH.","zip":"33940"},{"name":"ÖZTÜRKMENLİ MAH.","zip":"33940"},{"name":"PELİTPINARI MAH.","zip":"33940"},{"name":"SABAK MAH.","zip":"33940"},{"name":"SARIAYDIN MAH.","zip":"33940"},{"name":"SAY MAH.","zip":"33940"},{"name":"SENİR MAH.","zip":"33940"},{"name":"SEYDİLİ MAH.","zip":"33940"},{"name":"SEYRANLIK MAH.","zip":"33940"},{"name":"SÖKÜN MAH.","zip":"33940"},{"name":"SÖMEK MAH.","zip":"33940"},{"name":"ŞAHMURLU MAH.","zip":"33940"},{"name":"TAŞUCU MAH.","zip":"33940"},{"name":"TOROS MAH.","zip":"33940"},{"name":"TOSMURLU MAH.","zip":"33940"},{"name":"TOSMURLU OSB MAH.","zip":"33940"},{"name":"TÜRKMENUŞAĞI MAH.","zip":"33940"},{"name":"ULUGÖZ MAH.","zip":"33940"},{"name":"UŞAKPINARI MAH.","zip":"33940"},{"name":"UZUNCABURÇ MAH.","zip":"33940"},{"name":"YEĞENLİ MAH.","zip":"33940"},{"name":"YENİ MAH.","zip":"33940"},{"name":"YENİBAHÇE MAH.","zip":"33940"},{"name":"YENİSU MAH.","zip":"33940"},{"name":"YEŞİLOVACIK MAH.","zip":"33940"}]},{"name":"82EVLER","cityName":null,"quarters":[{"name":"ÇAĞLAYAN MAH.","zip":"33460"},{"name":"FAHRETTİN PAŞA MAH.","zip":"33460"},{"name":"FATİH MAH.","zip":"33460"},{"name":"FEVZİ ÇAKMAK MAH.","zip":"33460"},{"name":"TEKKE MAH.","zip":"33460"}]},{"name":"AKŞEMSETTİN","cityName":null,"quarters":[{"name":"KIRKLARSIRTI MAH.","zip":"33480"},{"name":"ŞEHİTLER TEPESİ MAH.","zip":"33480"},{"name":"YENİ MAH.","zip":"33480"}]},{"name":"ALTAYLILAR","cityName":null,"quarters":[{"name":"BAĞLAR MAH.","zip":"33420"},{"name":"ERGENEKON MAH.","zip":"33420"},{"name":"GAZİLER MAH.","zip":"33420"}]},{"name":"ANIT","cityName":null,"quarters":[{"name":"GAZİPAŞA MAH.","zip":"33430"},{"name":"MİTHATPAŞA MAH.","zip":"33430"}]},{"name":"aşagımah.","cityName":null,"quarters":[{"name":"ALİFAKI MAH.","zip":"33405"},{"name":"ARIKLI MAH.","zip":"33405"},{"name":"AVADAN MAH.","zip":"33405"},{"name":"BALLICA MAH.","zip":"33405"},{"name":"BALTALI MAH.","zip":"33405"},{"name":"CAMİLİMANDA MAH.","zip":"33405"},{"name":"CIRBIKLAR MAH.","zip":"33405"},{"name":"ÇAĞBAŞI MAH.","zip":"33405"},{"name":"ÇİÇEKLİ MAH.","zip":"33405"},{"name":"ESENLER MAH.","zip":"33405"},{"name":"ESKİŞEHİR MAH.","zip":"33405"},{"name":"GÜNYURDU MAH.","zip":"33405"},{"name":"HACIBOZAN MAH.","zip":"33405"},{"name":"HELEKE MAH.","zip":"33405"},{"name":"KARAYAYLA MAH.","zip":"33405"},{"name":"KARGILI MAH.","zip":"33405"},{"name":"KARSAVRAN MAH.","zip":"33405"},{"name":"KÖSELERLİ MAH.","zip":"33405"},{"name":"KULAK MAH.","zip":"33405"},{"name":"MURATLI MAH.","zip":"33405"},{"name":"NEMİROĞLU MAH.","zip":"33405"},{"name":"ÖZBEK MAH.","zip":"33405"},{"name":"SAĞLIKLI MAH.","zip":"33405"},{"name":"SİMİTHACILI MAH.","zip":"33405"},{"name":"TEKELİÖREN MAH.","zip":"33405"},{"name":"TOPÇU MAH.","zip":"33405"},{"name":"VERİMLİ MAH.","zip":"33405"},{"name":"YUNUSOĞLU MAH.","zip":"33405"}]},{"name":"BAHÇE","cityName":null,"quarters":[{"name":"BARBAROS MAH.","zip":"33450"},{"name":"GİRNE MAH.","zip":"33450"},{"name":"ŞAHİN MAH.","zip":"33450"},{"name":"YEŞİL MAH.","zip":"33450"},{"name":"YEŞİLEVLER MAH.","zip":"33450"},{"name":"YUNUS EMRE MAH.","zip":"33450"}]},{"name":"BEYDEĞİRMENİ","cityName":null,"quarters":[{"name":"FERAHİMŞALVUZ MAH.","zip":"33470"},{"name":"KEMALPAŞA MAH.","zip":"33470"},{"name":"TOZKOPARAN ZAHİT MAH.","zip":"33470"},{"name":"YARBAY ŞEMSETTİN MAH.","zip":"33470"}]},{"name":"CAMİNUR","cityName":null,"quarters":[{"name":"CUMHURİYET MAH.","zip":"33440"},{"name":"DUATEPE MAH.","zip":"33440"},{"name":"ESKİ ÖMERLİ MAH.","zip":"33440"},{"name":"GÖZLÜKULE MAH.","zip":"33440"},{"name":"HÜRRİYET MAH.","zip":"33440"},{"name":"ÖĞRETMENLER MAH.","zip":"33440"},{"name":"REŞADİYE MAH.","zip":"33440"},{"name":"ŞEHİTKERİM MAH.","zip":"33440"},{"name":"YENİ ÖMERLİ MAH.","zip":"33440"},{"name":"YEŞİLYURT MAH.","zip":"33440"}]},{"name":"çamlıyaylamah.","cityName":null,"quarters":[{"name":"BEYLİCE MAH.","zip":"33403"},{"name":"BOZTEPE MAH.","zip":"33403"},{"name":"BÖĞRÜEĞRİ MAH.","zip":"33403"},{"name":"BÜYÜKKÖSEBALCI MAH.","zip":"33403"},{"name":"CİN MAH.","zip":"33403"},{"name":"ÇAKIRLI MAH.","zip":"33403"},{"name":"ÇAVDARLI MAH.","zip":"33403"},{"name":"ÇİRİŞTEPE MAH.","zip":"33403"},{"name":"DEDELER MAH.","zip":"33403"},{"name":"DORAK MAH.","zip":"33403"},{"name":"İBRİŞİM MAH.","zip":"33403"},{"name":"KAKLIKTAŞI MAH.","zip":"33403"},{"name":"KALEBURCU MAH.","zip":"33403"},{"name":"KARADİKEN MAH.","zip":"33403"},{"name":"KARADİRLİK MAH.","zip":"33403"},{"name":"KERİMLER MAH.","zip":"33403"},{"name":"MEŞELİK MAH.","zip":"33403"},{"name":"PİRÖMERLİ MAH.","zip":"33403"},{"name":"SARIVELİ MAH.","zip":"33403"},{"name":"SAYKÖY MAH.","zip":"33403"},{"name":"SUCULAR MAH.","zip":"33403"},{"name":"TAKBAŞ MAH.","zip":"33403"},{"name":"TAŞÇILI MAH.","zip":"33403"},{"name":"TAŞKUYU MAH.","zip":"33403"},{"name":"TEPETAŞPINAR MAH.","zip":"33403"},{"name":"TOPAKLI MAH.","zip":"33403"},{"name":"ULAŞ MAH.","zip":"33403"},{"name":"YALAMIK MAH.","zip":"33403"}]},{"name":"KAVAKLI","cityName":null,"quarters":[{"name":"ŞEHİTİSHAK MAH.","zip":"33410"}]},{"name":"KIZILMURAT","cityName":null,"quarters":[{"name":"KIZILMURAT MAH.","zip":"33400"},{"name":"ŞEHİTMUSTAFA MAH.","zip":"33400"}]},{"name":"TARSUS","cityName":null,"quarters":[{"name":"KARAÇERÇİLİ MAH.","zip":"33402"},{"name":"KEFELİ MAH.","zip":"33402"},{"name":"KELAHMET MAH.","zip":"33402"},{"name":"KONAKLAR MAH.","zip":"33402"},{"name":"KÖRLÜ BEYİ MAH.","zip":"33402"},{"name":"KÖSEBALCI MAH.","zip":"33402"},{"name":"KUMDERE MAH.","zip":"33402"},{"name":"KURBANLI MAH.","zip":"33402"},{"name":"KÜTÜKLÜ MAH.","zip":"33402"},{"name":"MAHMUTAĞA MAH.","zip":"33402"},{"name":"MANTAŞ MAH.","zip":"33402"},{"name":"TEPEKÖY MAH.","zip":"33402"},{"name":"YENİCE MAH.","zip":"33402"},{"name":"YÜKSEK MAH.","zip":"33402"}]},{"name":"yolboyumah.","cityName":null,"quarters":[{"name":"AKARSU MAH.","zip":"33401"},{"name":"ALİAĞA MAH.","zip":"33401"},{"name":"ALİEFENDİOĞLU MAH.","zip":"33401"},{"name":"ATALAR MAH.","zip":"33401"},{"name":"BAHARLI MAH.","zip":"33401"},{"name":"BAHŞİŞ MAH.","zip":"33401"},{"name":"ÇAMTEPE MAH.","zip":"33401"},{"name":"ÇATALCA MAH.","zip":"33401"},{"name":"ÇÖPLÜ MAH.","zip":"33401"},{"name":"EGEMEN MAH.","zip":"33401"},{"name":"HALİTAĞA MAH.","zip":"33401"},{"name":"HASANAĞA MAH.","zip":"33401"},{"name":"ÖZLÜCE MAH.","zip":"33401"},{"name":"SANLICA MAH.","zip":"33401"},{"name":"TEPEÇAYLAK MAH.","zip":"33401"},{"name":"YARAMIŞ MAH.","zip":"33401"},{"name":"YAZLIK MAH.","zip":"33401"},{"name":"YENİÇAY MAH.","zip":"33401"},{"name":"YEŞİLTEPE MAH.","zip":"33401"}]},{"name":"Yukarımah.","cityName":null,"quarters":[{"name":"AKGEDİK MAH.","zip":"33404"},{"name":"ALİBEYLİ MAH.","zip":"33404"},{"name":"ARDIÇLI MAH.","zip":"33404"},{"name":"BOĞAZPINAR MAH.","zip":"33404"},{"name":"BOLATLI MAH.","zip":"33404"},{"name":"ÇAMALAN B.M MAH.","zip":"33404"},{"name":"ÇAVUŞLU MAH.","zip":"33404"},{"name":"ÇEVRELİ MAH.","zip":"33404"},{"name":"ÇİFTLİK MAH.","zip":"33404"},{"name":"ÇOKAK MAH.","zip":"33404"},{"name":"ÇUKURBAĞ MAH.","zip":"33404"},{"name":"DADALI MAH.","zip":"33404"},{"name":"DAMLAMA MAH.","zip":"33404"},{"name":"EMİNLİK MAH.","zip":"33404"},{"name":"EMİRLER MAH.","zip":"33404"},{"name":"GÖÇÜK MAH.","zip":"33404"},{"name":"GÖMMECE MAH.","zip":"33404"},{"name":"GÜLEK MAH.","zip":"33404"},{"name":"HACIHAMZALI MAH.","zip":"33404"},{"name":"İNCİRLİKUYU MAH.","zip":"33404"},{"name":"İNKÖY MAH.","zip":"33404"},{"name":"KABURGEDİĞİ MAH.","zip":"33404"},{"name":"KADELLİ MAH.","zip":"33404"},{"name":"KANBERHÜYÜĞÜ MAH.","zip":"33404"},{"name":"KARAKÜTÜK MAH.","zip":"33404"},{"name":"KAYADİBİ MAH.","zip":"33404"},{"name":"KEŞLİ MAH.","zip":"33404"},{"name":"KIRIT MAH.","zip":"33404"},{"name":"KIZILÇUKUR MAH.","zip":"33404"},{"name":"KOCAKÖY MAH.","zip":"33404"},{"name":"KOÇMARLI MAH.","zip":"33404"},{"name":"KOZOLUK MAH.","zip":"33404"},{"name":"KURTÇUKURU MAH.","zip":"33404"},{"name":"KUŞÇULAR MAH.","zip":"33404"},{"name":"OLUKKOYAĞI MAH.","zip":"33404"},{"name":"SANDAL MAH.","zip":"33404"},{"name":"SIRAKÖY MAH.","zip":"33404"},{"name":"TAŞOBASI MAH.","zip":"33404"},{"name":"YANIKKIŞLA MAH.","zip":"33404"},{"name":"YENİKÖY MAH.","zip":"33404"}]},{"name":"AKBELEN","cityName":null,"quarters":[{"name":"OSMANİYE MAH.","zip":"33220"}]},{"name":"ALSANCAK","cityName":null,"quarters":[{"name":"DEMİRTAŞ MAH.","zip":"33090"},{"name":"PORTAKAL MAH.","zip":"33090"},{"name":"TURUNÇLU MAH.","zip":"33090"}]},{"name":"ÇAVUŞLU","cityName":null,"quarters":[{"name":"ÇAVUŞLU MAH.","zip":"33230"},{"name":"ÇUKUROVA MAH.","zip":"33230"},{"name":"KORUKENT MAH.","zip":"33230"}]},{"name":"HALKKENT","cityName":null,"quarters":[{"name":"HALKKENT MAH.","zip":"33240"}]},{"name":"SAĞLIK","cityName":null,"quarters":[{"name":"DÜĞDÜÖREN MAH.","zip":"33080"},{"name":"KAŞLI MAH.","zip":"33080"},{"name":"MEVLANA MAH.","zip":"33080"},{"name":"SAĞLIK MAH.","zip":"33080"},{"name":"TOZKOPARAN MAH.","zip":"33080"}]},{"name":"TOROSLAR","cityName":null,"quarters":[{"name":"ALANYALI MAH.","zip":"33250"},{"name":"ARPAÇSAKARLAR MAH.","zip":"33250"},{"name":"ARSLANKÖY MAH.","zip":"33250"},{"name":"ATLILAR MAH.","zip":"33250"},{"name":"AYVAGEDİĞİ MAH.","zip":"33250"},{"name":"BEKİRALANI MAH.","zip":"33250"},{"name":"ÇAĞLARCA MAH.","zip":"33250"},{"name":"ÇAMLIDERE MAH.","zip":"33250"},{"name":"ÇANDIR MAH.","zip":"33250"},{"name":"ÇELEBİLİ MAH.","zip":"33250"},{"name":"ÇOPURLU MAH.","zip":"33250"},{"name":"DALAKDERE MAH.","zip":"33250"},{"name":"DARISEKİSİ MAH.","zip":"33250"},{"name":"DEĞİRMENDERE MAH.","zip":"33250"},{"name":"DEĞNEK MAH.","zip":"33250"},{"name":"DORUKLU MAH.","zip":"33250"},{"name":"EVRENLİ MAH.","zip":"33250"},{"name":"GÖZNE MAH.","zip":"33250"},{"name":"GÜZELYAYLA MAH.","zip":"33250"},{"name":"HAMZABEYLİ MAH.","zip":"33250"},{"name":"HOROZLU MAH.","zip":"33250"},{"name":"HÜSEYİN OKAN MERZECİ MAH.","zip":"33250"},{"name":"IŞIKTEPE MAH.","zip":"33250"},{"name":"KARAİSALI MAH.","zip":"33250"},{"name":"KAVAKLIPINAR MAH.","zip":"33250"},{"name":"KAYRAKKEŞLİ MAH.","zip":"33250"},{"name":"KEPİRLİ MAH.","zip":"33250"},{"name":"KERİMLER MAH.","zip":"33250"},{"name":"KIZILKAYA MAH.","zip":"33250"},{"name":"KORUCULAR MAH.","zip":"33250"},{"name":"KURDALİ MAH.","zip":"33250"},{"name":"KURUDERE MAH.","zip":"33250"},{"name":"MİTHAT TOROĞLU MAH.","zip":"33250"},{"name":"MUSALI MAH.","zip":"33250"},{"name":"MUSTAFA KEMAL MAH.","zip":"33250"},{"name":"RESULKÖY MAH.","zip":"33250"},{"name":"SELÇUKLAR MAH.","zip":"33250"},{"name":"SOĞUCAK MAH.","zip":"33250"},{"name":"ŞAHİNPINARI MAH.","zip":"33250"},{"name":"TIRTAR MAH.","zip":"33250"},{"name":"TOROSLAR MAH.","zip":"33250"},{"name":"TURGUT TÜRKALP MAH.","zip":"33250"},{"name":"YALINAYAK MAH.","zip":"33250"},{"name":"YAVCA MAH.","zip":"33250"},{"name":"YENİKÖY MAH.","zip":"33250"},{"name":"YUSUF KILIÇ MAH.","zip":"33250"},{"name":"YÜKSEKOLUK MAH.","zip":"33250"},{"name":"ZEKİ AYAN MAH.","zip":"33250"}]},{"name":"BAHÇELİEVLER","cityName":null,"quarters":[{"name":"BAHÇELİEVLER MAH.","zip":"33140"},{"name":"GÜVENEVLER MAH.","zip":"33140"}]},{"name":"BARBAROS","cityName":null,"quarters":[{"name":"DENİZ MAH.","zip":"33150"},{"name":"MENTEŞ MAH.","zip":"33150"}]},{"name":"CUMHURİYET","cityName":null,"quarters":[{"name":"CUMHURİYET MAH.","zip":"33110"},{"name":"ÇİFTLİKKÖY MAH.","zip":"33110"},{"name":"KOCAVİLAYET MAH.","zip":"33110"},{"name":"PALMİYE MAH.","zip":"33110"},{"name":"PİRİREİS MAH.","zip":"33110"}]},{"name":"EGRİÇAM","cityName":null,"quarters":[{"name":"BATIKENT MAH.","zip":"33160"},{"name":"EĞRİÇAM MAH.","zip":"33160"}]},{"name":"GAZİ","cityName":null,"quarters":[{"name":"GAZİ MAH.","zip":"33130"},{"name":"İNÖNÜ MAH.","zip":"33130"}]},{"name":"HÜRRİYET","cityName":null,"quarters":[{"name":"FUATMOREL MAH.","zip":"33120"},{"name":"HÜRRİYET MAH.","zip":"33120"},{"name":"LİMONLUK MAH.","zip":"33120"}]},{"name":"YENİŞEHİR","cityName":null,"quarters":[{"name":"ÇUKURKEŞLİ MAH.","zip":"33112"},{"name":"DEĞİRMENÇAY MAH.","zip":"33112"},{"name":"EMİRLER MAH.","zip":"33112"},{"name":"GÖKÇEBELEN MAH.","zip":"33112"},{"name":"İNSU MAH.","zip":"33112"},{"name":"KARAHACILI MAH.","zip":"33112"},{"name":"KOCAHAMZALI MAH.","zip":"33112"},{"name":"TURUNÇLU MAH.","zip":"33112"},{"name":"UZUNKAŞ MAH.","zip":"33112"}]}]}]}