{"id":34,"name":"İSTANBUL","cities":[{"name":"city","districts":[{"name":"BÜYÜKADA","cityName":null,"quarters":null},{"name":"HEYBELİADA","cityName":null,"quarters":null},{"name":"KINALIADA","cityName":null,"quarters":null},{"name":"ARNAVUTKÖY","cityName":null,"quarters":[{"name":"ARNAVUTKÖY MERKEZ MAH.","zip":"34275"},{"name":"İMRAHOR MAH.","zip":"34275"},{"name":"İSLAMBEY MAH.","zip":"34275"},{"name":"MUSTAFA KEMAL PAŞA MAH.","zip":"34275"},{"name":"NENEHATUN MAH.","zip":"34275"},{"name":"YAVUZ SELİM MAH.","zip":"34275"}]},{"name":"BAKLALI","cityName":null,"quarters":[{"name":"BAKLALI MAH.","zip":"34277"},{"name":"BALABAN MAH.","zip":"34277"},{"name":"BOYALIK MAH.","zip":"34277"},{"name":"ÇİLİNGİR MAH.","zip":"34277"},{"name":"DURSUNKÖY MAH.","zip":"34277"},{"name":"DURUSU MAH.","zip":"34277"},{"name":"FATİH MAH.","zip":"34277"},{"name":"HACIMAŞLI MAH.","zip":"34277"},{"name":"KARABURUN MAH.","zip":"34277"},{"name":"SAZLIBOSNA MAH.","zip":"34277"},{"name":"TAYAKADIN MAH.","zip":"34277"},{"name":"TERKOS MAH.","zip":"34277"},{"name":"YASSIÖREN MAH.","zip":"34277"},{"name":"YENİKÖY MAH.","zip":"34277"}]},{"name":"BOĞAZKÖY","cityName":null,"quarters":[{"name":"BOĞAZKÖY İSTİKLAL MAH.","zip":"34285"},{"name":"YUNUS EMRE MAH.","zip":"34285"}]},{"name":"BOLLUCA","cityName":null,"quarters":[{"name":"HİCRET MAH.","zip":"34287"},{"name":"MAVİGÖL MAH.","zip":"34287"}]},{"name":"HADIMKÖY","cityName":null,"quarters":[{"name":"HADIMKÖY MAH.","zip":"34555"},{"name":"HASTANE MAH.","zip":"34555"},{"name":"ÖMERLİ MAH.","zip":"34555"},{"name":"YEŞİLBAYIR MAH.","zip":"34555"}]},{"name":"HARAÇÇI","cityName":null,"quarters":[{"name":"KARLIBAYIR MAH.","zip":"34281"}]},{"name":"TAŞOLUK","cityName":null,"quarters":[{"name":"MEHMET AKİF ERSOY MAH.","zip":"34283"},{"name":"TAŞOLUK MAH.","zip":"34283"}]},{"name":"ATATÜRK","cityName":null,"quarters":null},{"name":"FERHATPAŞA","cityName":null,"quarters":null},{"name":"İÇERENKÖY","cityName":null,"quarters":null},{"name":"KAYIŞDAĞI","cityName":null,"quarters":[{"name":"KAYIŞDAĞI MAH.","zip":"34755"}]},{"name":"KÜÇÜKBAKKALKÖY","cityName":null,"quarters":null},{"name":"MUSTAFAKEMAL","cityName":null,"quarters":[{"name":"MUSTAFA KEMAL MAH.","zip":"34707"}]},{"name":"ÖRNEK","cityName":null,"quarters":[{"name":"FETIH MAH.","zip":"34704"},{"name":"ÖRNEK MAH.","zip":"34704"}]},{"name":"YENİÇAMLICA","cityName":null,"quarters":[{"name":"MİMAR SİNAN MAH.","zip":"34779"},{"name":"YENİ ÇAMLICA MAH.","zip":"34779"},{"name":"YENİŞEHİR MAH.","zip":"34779"}]},{"name":"YENİSAHRA","cityName":null,"quarters":[{"name":"YENİSAHRA MAH.","zip":"34746"}]},{"name":"AMBARLI","cityName":null,"quarters":[{"name":"DENİZKÖŞKLER MAH.","zip":"34315"}]},{"name":"AVCILAR","cityName":null,"quarters":[{"name":"MERKEZ MAH.","zip":"34310"}]},{"name":"FİRUZKÖY","cityName":null,"quarters":[{"name":"YEŞİLKENT MAH.","zip":"34325"}]},{"name":"GÜMÜŞPALA","cityName":null,"quarters":[{"name":"MUSTAFA KEMALPAŞA MAH.","zip":"34320"},{"name":"TAHTAKALE MAH.","zip":"34320"},{"name":"ÜNİVERSİTE MAH.","zip":"34320"}]},{"name":"BAĞCILAR","cityName":null,"quarters":[{"name":"ÇINAR MAH.","zip":"34200"},{"name":"FEVZİ ÇAKMAK MAH.","zip":"34200"},{"name":"İNÖNÜ MAH.","zip":"34200"},{"name":"KAZIM KARABEKİR MAH.","zip":"34200"},{"name":"MERKEZ MAH.","zip":"34200"},{"name":"SANCAKTEPE MAH.","zip":"34200"},{"name":"YAVUZ SELİM MAH.","zip":"34200"},{"name":"YENİGÜN MAH.","zip":"34200"},{"name":"YILDIZTEPE MAH.","zip":"34200"}]},{"name":"GÜNEŞLİ","cityName":null,"quarters":[{"name":"BAĞLAR MAH.","zip":"34212"},{"name":"GÜNEŞLİ MAH.","zip":"34212"},{"name":"HÜRRİYET MAH.","zip":"34212"},{"name":"KİRAZLI MAH.","zip":"34212"},{"name":"YENİMAHALLE MAH.","zip":"34212"}]},{"name":"MAHMUTBEY","cityName":null,"quarters":[{"name":"DEMİRKAPI MAH.","zip":"34218"},{"name":"FATİH MAH.","zip":"34218"},{"name":"GÖZTEPE MAH.","zip":"34218"},{"name":"KEMALPAŞA MAH.","zip":"34218"},{"name":"MAHMUTBEY MAH.","zip":"34218"}]},{"name":"BAHÇELİEVLER","cityName":null,"quarters":[{"name":"CUMHURİYET MAH.","zip":"34180"},{"name":"SİYAVUŞPAŞA MAH.","zip":"34180"},{"name":"SOĞANLI MAH.","zip":"34180"}]},{"name":"ŞİRİNEVLER","cityName":null,"quarters":[{"name":"KOCASİNAN MERKEZ MAH.","zip":"34188"},{"name":"ŞİRİNEVLER MAH.","zip":"34188"}]},{"name":"YENİBOSNA","cityName":null,"quarters":[{"name":"FEVZİ ÇAKMAK MAH.","zip":"34197"},{"name":"YENİBOSNA MERKEZ MAH.","zip":"34197"},{"name":"ZAFER MAH.","zip":"34197"}]},{"name":"ATAKÖY","cityName":null,"quarters":[{"name":"ATAKÖY 2-5-6. KISIM MAH.","zip":"34158"},{"name":"ATAKÖY 3-4-11. KISIM MAH.","zip":"34158"},{"name":"ATAKÖY 7-8-9-10. KISIM MAH.","zip":"34158"}]},{"name":"CEVİZLİK","cityName":null,"quarters":[{"name":"SAKIZAĞACI MAH.","zip":"34142"},{"name":"YENİMAHALLE MAH.","zip":"34142"}]},{"name":"FLORYA","cityName":null,"quarters":[{"name":"ŞENLİKKÖY MAH.","zip":"34153"}]},{"name":"KARTALTEPE","cityName":null,"quarters":null},{"name":"OSMANİYE","cityName":null,"quarters":null},{"name":"YEŞİLKÖY","cityName":null,"quarters":[{"name":"YEŞİLKÖY SB MAH.","zip":"34149"},{"name":"YEŞİLYURT MAH.","zip":"34149"}]},{"name":"ZEYTİNLİK","cityName":null,"quarters":null},{"name":"ZUHURATBABA","cityName":null,"quarters":null},{"name":"ALTINŞEHİR","cityName":null,"quarters":[{"name":"GÜVERCİNTEPE MAH.","zip":"34494"},{"name":"KAYABAŞI MAH.","zip":"34494"},{"name":"ŞAHİNTEPE MAH.","zip":"34494"}]},{"name":"BAHÇEŞEHİR","cityName":null,"quarters":[{"name":"BAHÇEŞEHİR 2. KISIM MAH.","zip":"34488"}]},{"name":"BAŞAKŞEHİR","cityName":null,"quarters":[{"name":"BAŞAKŞEHİR MAH.","zip":"34480"}]},{"name":"İKİTELLİ","cityName":null,"quarters":[{"name":"ZİYA GÖKALP MAH.","zip":"34490"}]},{"name":"ŞAMLAR","cityName":null,"quarters":null},{"name":"ALTINTEPSİ","cityName":null,"quarters":[{"name":"TERAZİDERE MAH.","zip":"34035"},{"name":"VATAN MAH.","zip":"34035"}]},{"name":"MURATPAŞA","cityName":null,"quarters":[{"name":"KARTALTEPE MAH.","zip":"34040"},{"name":"MURATPAŞA MAH.","zip":"34040"}]},{"name":"NUMUNEBAĞ","cityName":null,"quarters":[{"name":"YENİDOĞAN MAH.","zip":"34030"}]},{"name":"YILDIRIM","cityName":null,"quarters":[{"name":"KOCATEPE MAH.","zip":"34045"},{"name":"YILDIRIM MAH.","zip":"34045"}]},{"name":"ABBASAĞA","cityName":null,"quarters":[{"name":"CİHANNÜMA MAH.","zip":"34022"},{"name":"SİNANPAŞA MAH.","zip":"34022"}]},{"name":"AKATLAR","cityName":null,"quarters":null},{"name":"ARNAVUTKÖY","cityName":null,"quarters":[{"name":"KURUÇEŞME MAH.","zip":"34345"}]},{"name":"BEBEK","cityName":null,"quarters":null},{"name":"ETİLER","cityName":null,"quarters":null},{"name":"GAYRETTEPE","cityName":null,"quarters":[{"name":"DİKİLİTAŞ MAH.","zip":"34349"},{"name":"GAYRETTEPE MAH.","zip":"34349"},{"name":"YILDIZ MAH.","zip":"34349"}]},{"name":"LEVAZIM","cityName":null,"quarters":[{"name":"LEVAZIM MAH.","zip":"34340"},{"name":"NİSBETİYE MAH.","zip":"34340"},{"name":"ULUS MAH.","zip":"34340"}]},{"name":"LEVENT","cityName":null,"quarters":[{"name":"LEVENT MAH.","zip":"34330"}]},{"name":"ORTAKÖY","cityName":null,"quarters":[{"name":"ORTAKÖY MAH.","zip":"34347"}]},{"name":"TÜRKALİ","cityName":null,"quarters":[{"name":"TÜRKALİ MAH.","zip":"34357"},{"name":"VİŞNEZADE MAH.","zip":"34357"}]},{"name":"ANADOLUHİSARI","cityName":null,"quarters":[{"name":"KANLICA MAH.","zip":"34810"},{"name":"KAVACIK MAH.","zip":"34810"}]},{"name":"BEYKOZ","cityName":null,"quarters":[{"name":"MERKEZ MAH.","zip":"34820"},{"name":"YALIKÖY MAH.","zip":"34820"}]},{"name":"ÇAVUŞBAŞI","cityName":null,"quarters":[{"name":"ÇENGELDERE MAH.","zip":"34830"},{"name":"ÇİFTLİK MAH.","zip":"34830"},{"name":"FATİH MAH.","zip":"34830"},{"name":"YAVUZ SELİM MAH.","zip":"34830"}]},{"name":"ÇUBUKLU","cityName":null,"quarters":[{"name":"RÜZGARLIBAHÇE MAH.","zip":"34805"}]},{"name":"GÖKSU","cityName":null,"quarters":[{"name":"GÖZTEPE MAH.","zip":"34815"},{"name":"YENİ MAHALLE MAH.","zip":"34815"}]},{"name":"PAŞABAHÇE","cityName":null,"quarters":[{"name":"ÇİĞDEM MAH.","zip":"34800"},{"name":"İNCİRKÖY MAH.","zip":"34800"},{"name":"PAŞABAHÇE MAH.","zip":"34800"},{"name":"SOĞUKSU MAH.","zip":"34800"}]},{"name":"POLONEZKÖY","cityName":null,"quarters":[{"name":"ANADOLUFENERİ MAH.","zip":"34829"},{"name":"BOZHANE MAH.","zip":"34829"},{"name":"CUMHURİYET MAH.","zip":"34829"},{"name":"GÖLLÜ MAH.","zip":"34829"},{"name":"İSHAKLI MAH.","zip":"34829"},{"name":"KAYNARCA MAH.","zip":"34829"},{"name":"KILIÇLI MAH.","zip":"34829"},{"name":"MAHMUTŞEVKETPAŞA MAH.","zip":"34829"},{"name":"ÖĞÜMCE MAH.","zip":"34829"},{"name":"PAŞAMANDIRA MAH.","zip":"34829"},{"name":"POLONEZKÖY MAH.","zip":"34829"},{"name":"POYRAZKÖY MAH.","zip":"34829"},{"name":"RİVA MAH.","zip":"34829"},{"name":"ZERZAVATÇI MAH.","zip":"34829"}]},{"name":"TOKATKÖY","cityName":null,"quarters":[{"name":"ANADOLU KAVAĞI MAH.","zip":"34825"},{"name":"ÇAMLIBAHÇE MAH.","zip":"34825"},{"name":"DERESEKİ MAH.","zip":"34825"},{"name":"ELMALI MAH.","zip":"34825"},{"name":"GÖRELE MAH.","zip":"34825"},{"name":"ORTAÇEŞME MAH.","zip":"34825"},{"name":"ÖRNEKKÖY MAH.","zip":"34825"},{"name":"TOKATKÖY MAH.","zip":"34825"}]},{"name":"BEYLİKDÜZÜ","cityName":null,"quarters":[{"name":"BÜYÜKŞEHİR MAH.","zip":"34520"},{"name":"CUMHURİYET MAH.","zip":"34520"},{"name":"KAVAKLI MAH.","zip":"34520"}]},{"name":"GÜRPINAR","cityName":null,"quarters":[{"name":"DEREAĞZI MAH.","zip":"34528"},{"name":"GÜRPINAR MAH.","zip":"34528"}]},{"name":"YAKUPLU","cityName":null,"quarters":[{"name":"MARMARA MAH.","zip":"34524"},{"name":"SAHİL MAH.","zip":"34524"},{"name":"YAKUPLU MAH.","zip":"34524"}]},{"name":"ARAPCAMİ","cityName":null,"quarters":[{"name":"BEREKETZADE MAH.","zip":"34421"},{"name":"EMEKYEMEZ MAH.","zip":"34421"},{"name":"ŞAHKULU MAH.","zip":"34421"}]},{"name":"CİHANGİR","cityName":null,"quarters":[{"name":"KATİPMUSTAFA ÇELEBİ MAH.","zip":"34433"},{"name":"KILIÇALİ PAŞA MAH.","zip":"34433"},{"name":"KULOĞLU MAH.","zip":"34433"},{"name":"TOMTOM MAH.","zip":"34433"}]},{"name":"HALICIOĞLU","cityName":null,"quarters":[{"name":"HALICIOĞLU MAH.","zip":"34445"},{"name":"KEÇECİ PİRİ MAH.","zip":"34445"},{"name":"ÖRNEKTEPE MAH.","zip":"34445"},{"name":"PİRİPAŞA MAH.","zip":"34445"},{"name":"SÜTLÜCE MAH.","zip":"34445"}]},{"name":"İSTİKLAL","cityName":null,"quarters":[{"name":"ÇATMA MESCİT MAH.","zip":"34430"},{"name":"EVLİYA ÇELEBİ MAH.","zip":"34430"}]},{"name":"KASIMPAŞA","cityName":null,"quarters":[{"name":"CAMİİKEBİR MAH.","zip":"34440"},{"name":"HACIAHMET MAH.","zip":"34440"},{"name":"İSTİKLAL MAH.","zip":"34440"},{"name":"KADIMEHMET EFENDİ MAH.","zip":"34440"},{"name":"KAPTANPAŞA MAH.","zip":"34440"},{"name":"KULAKSIZ MAH.","zip":"34440"},{"name":"KÜÇÜK PİYALE MAH.","zip":"34440"},{"name":"PİYALEPAŞA MAH.","zip":"34440"},{"name":"YAHYA KAHYA MAH.","zip":"34440"}]},{"name":"KEMANKEŞ","cityName":null,"quarters":[{"name":"HACIMİMİ MAH.","zip":"34425"},{"name":"KEMANKEŞ KARAMUSTAFAPAŞA MAH.","zip":"34425"},{"name":"MÜEYYETZADE MAH.","zip":"34425"}]},{"name":"PÜRTELAŞ","cityName":null,"quarters":[{"name":"PÜRTELAŞ HASAN EFENDİ MAH.","zip":"34427"}]},{"name":"TAKSİM","cityName":null,"quarters":[{"name":"KOCATEPE MAH.","zip":"34437"}]},{"name":"TARLABAŞI","cityName":null,"quarters":[{"name":"BÜLBÜL MAH.","zip":"34435"},{"name":"ÇUKUR MAH.","zip":"34435"},{"name":"HÜSEYİNAĞA MAH.","zip":"34435"},{"name":"KALYONCU KULLUĞU MAH.","zip":"34435"},{"name":"KAMER HATUN MAH.","zip":"34435"},{"name":"SURURİ MEHMET EFENDİ MAH.","zip":"34435"},{"name":"ŞEHİT MUHTAR MAH.","zip":"34435"},{"name":"YENİŞEHİR MAH.","zip":"34435"}]},{"name":"BÜYÜKÇEKMECE","cityName":null,"quarters":[{"name":"ALKENT 2000 MAH.","zip":"34500"},{"name":"ATATÜRK MAH.","zip":"34500"},{"name":"CUMHURİYET MAH.","zip":"34500"},{"name":"ÇAKMAKLI MAH.","zip":"34500"},{"name":"DİZDARİYE MAH.","zip":"34500"},{"name":"FATİH MAH.","zip":"34500"},{"name":"KARAAĞAÇ MAH.","zip":"34500"},{"name":"PINARTEPE MAH.","zip":"34500"}]},{"name":"CELALİYE(KAMİLOBA)","cityName":null,"quarters":[{"name":"KAMİLOBA MAH.","zip":"34584"}]},{"name":"KUMBURGAZ","cityName":null,"quarters":[{"name":"GÜZELCE MAH.","zip":"34530"},{"name":"KUMBURGAZ MAH.","zip":"34530"},{"name":"YENİMAHALLE MAH.","zip":"34530"}]},{"name":"MİMARSİNAN","cityName":null,"quarters":[{"name":"MİMAR SİNAN MERKEZ MAH.","zip":"34535"},{"name":"MİMAROBA MAH.","zip":"34535"},{"name":"MURAT ÇESME MAH.","zip":"34535"},{"name":"SİNANOBA MAH.","zip":"34535"}]},{"name":"TEPECİK","cityName":null,"quarters":[{"name":"HÜRRİYET MAH.","zip":"34537"},{"name":"TÜRKOBA MAH.","zip":"34537"},{"name":"ULUS MAH.","zip":"34537"}]},{"name":"ÇATALCA","cityName":null,"quarters":[{"name":"ATATÜRK MAH.","zip":"34540"},{"name":"AYDINLAR MAH.","zip":"34540"},{"name":"BAHŞAYİŞ MAH.","zip":"34540"},{"name":"BAŞAK MAH.","zip":"34540"},{"name":"BELGRAT MAH.","zip":"34540"},{"name":"CELEPKÖY MAH.","zip":"34540"},{"name":"ÇAKIL MAH.","zip":"34540"},{"name":"ÇANAKÇA MAH.","zip":"34540"},{"name":"ÇİFTLİKKÖY MAH.","zip":"34540"},{"name":"DAĞYENİCE MAH.","zip":"34540"},{"name":"ELBASAN MAH.","zip":"34540"},{"name":"FATİH MAH.","zip":"34540"},{"name":"FERHATPAŞA MAH.","zip":"34540"},{"name":"FERHATPAŞA SB MAH.","zip":"34540"},{"name":"GÖKÇEALİ MAH.","zip":"34540"},{"name":"GÜMÜŞPINAR MAH.","zip":"34540"},{"name":"HALLAÇLI MAH.","zip":"34540"},{"name":"HİSARBEYLİ MAH.","zip":"34540"},{"name":"İHSANİYE MAH.","zip":"34540"},{"name":"İNCEĞİZ MAH.","zip":"34540"},{"name":"İZZETTİN MAH.","zip":"34540"},{"name":"KABAKÇA MAH.","zip":"34540"},{"name":"KALEİÇİ MAH.","zip":"34540"},{"name":"KALFA MAH.","zip":"34540"},{"name":"KARACAKÖY MERKEZ MAH.","zip":"34540"},{"name":"KARAMANDERE MAH.","zip":"34540"},{"name":"KESTANELİK MAH.","zip":"34540"},{"name":"KIZILCAALİ MAH.","zip":"34540"},{"name":"MURATBEY MERKEZ MAH.","zip":"34540"},{"name":"NAKKAŞ MAH.","zip":"34540"},{"name":"OKLALI MAH.","zip":"34540"},{"name":"ORMANLI MAH.","zip":"34540"},{"name":"OVAYENİCE MAH.","zip":"34540"},{"name":"ÖRCÜNLÜ MAH.","zip":"34540"},{"name":"ÖRENCİK MAH.","zip":"34540"},{"name":"SUBAŞI MAH.","zip":"34540"},{"name":"YALIKÖY MAH.","zip":"34540"},{"name":"YAYLACIK MAH.","zip":"34540"},{"name":"YAZLIK MAH.","zip":"34540"}]},{"name":"ALEMDAĞ","cityName":null,"quarters":[{"name":"ÇATALMEŞE MAH.","zip":"34794"},{"name":"EKŞİOĞLU MAH.","zip":"34794"},{"name":"NİŞANTEPE MAH.","zip":"34794"}]},{"name":"ÇEKMEKÖY","cityName":null,"quarters":[{"name":"HAMİDİYE MAH.","zip":"34782"},{"name":"MEHMET AKİF MAH.","zip":"34782"},{"name":"MERKEZ MAH.","zip":"34782"},{"name":"MİMAR SİNAN MAH.","zip":"34782"}]},{"name":"ÖMERLİ","cityName":null,"quarters":[{"name":"KOÇULLU MAH.","zip":"34799"},{"name":"ÖMERLİ MAH.","zip":"34799"},{"name":"REŞADİYE MAH.","zip":"34799"},{"name":"SIRAPINAR MAH.","zip":"34799"}]},{"name":"TAŞDELEN","cityName":null,"quarters":[{"name":"CUMHURİYET MAH.","zip":"34788"},{"name":"GÜNGÖREN MAH.","zip":"34788"},{"name":"KİRAZLIDERE MAH.","zip":"34788"},{"name":"SOĞUKPINAR MAH.","zip":"34788"},{"name":"SULTANÇİFTLİĞİ MAH.","zip":"34788"},{"name":"TAŞDELEN MAH.","zip":"34788"}]},{"name":"ATIŞALANI","cityName":null,"quarters":[{"name":"HAVAALANI MAH.","zip":"34230"},{"name":"KEMER MAH.","zip":"34230"}]},{"name":"ESENLER","cityName":null,"quarters":[{"name":"DAVUTPAŞA MAH.","zip":"34220"},{"name":"FEVZİ ÇAKMAK MAH.","zip":"34220"},{"name":"MİMAR SİNAN MAH.","zip":"34220"},{"name":"NAMIK KEMAL MAH.","zip":"34220"},{"name":"NİNE HATUN MAH.","zip":"34220"},{"name":"YAVUZ SELİM MAH.","zip":"34220"}]},{"name":"KARABAYIR","cityName":null,"quarters":[{"name":"KAZIM KARABEKİR MAH.","zip":"34225"},{"name":"MENDERES MAH.","zip":"34225"},{"name":"TUNA MAH.","zip":"34225"}]},{"name":"SANAYİ","cityName":null,"quarters":[{"name":"TURGUT REİS MAH.","zip":"34235"}]},{"name":"ESENYURT","cityName":null,"quarters":[{"name":"ÇINAR MAH.","zip":"34517"},{"name":"ÖRNEK MAH.","zip":"34517"},{"name":"PINAR MAH.","zip":"34517"},{"name":"SELAHADDİN EYYUBİ MAH.","zip":"34517"}]},{"name":"İNCİRTEPE","cityName":null,"quarters":[{"name":"ARDIÇLI MAH.","zip":"34510"},{"name":"AŞIK VEYSEL MAH.","zip":"34510"},{"name":"BALIKYOLU MAH.","zip":"34510"},{"name":"ESENKENT MAH.","zip":"34510"},{"name":"İNCİRTEPE MAH.","zip":"34510"},{"name":"İNÖNÜ MAH.","zip":"34510"},{"name":"SULTANİYE MAH.","zip":"34510"},{"name":"SÜLEYMANİYE MAH.","zip":"34510"},{"name":"YENİKENT MAH.","zip":"34510"},{"name":"YUNUS EMRE MAH.","zip":"34510"}]},{"name":"KIRAÇ","cityName":null,"quarters":[{"name":"ATATÜRK MAH.","zip":"34522"},{"name":"BARBAROS HAYRETTİN PAŞA MAH.","zip":"34522"},{"name":"BATTALGAZİ MAH.","zip":"34522"},{"name":"GÖKEVLER MAH.","zip":"34522"},{"name":"HÜRRİYET MAH.","zip":"34522"},{"name":"İSTİKLAL MAH.","zip":"34522"},{"name":"NECİP FAZIL KISAKÜREK MAH.","zip":"34522"},{"name":"OSMANGAZİ MAH.","zip":"34522"},{"name":"ŞEHİTLER MAH.","zip":"34522"}]},{"name":"MEHTERÇEŞME","cityName":null,"quarters":[{"name":"GÜZELYURT MAH.","zip":"34515"},{"name":"MEHMET AKİF ERSOY MAH.","zip":"34515"},{"name":"MEHTERÇEŞME MAH.","zip":"34515"},{"name":"MEVLANA MAH.","zip":"34515"},{"name":"PİRİ REİS MAH.","zip":"34515"},{"name":"YEŞİLKENT MAH.","zip":"34515"}]},{"name":"SAADETDERE","cityName":null,"quarters":[{"name":"FATİH MAH.","zip":"34513"},{"name":"NAMIK KEMAL MAH.","zip":"34513"},{"name":"SAADETDERE MAH.","zip":"34513"},{"name":"TALATPAŞA MAH.","zip":"34513"},{"name":"TURGUT ÖZAL MAH.","zip":"34513"},{"name":"ÜÇEVLER MAH.","zip":"34513"},{"name":"ZAFER MAH.","zip":"34513"}]},{"name":"SANAYİ","cityName":null,"quarters":[{"name":"ORHAN GAZİ MAH.","zip":"34538"}]},{"name":"ALİBEYKÖY","cityName":null,"quarters":[{"name":"EMNiYETTEPE MAH.","zip":"34060"},{"name":"GÜZELTEPE MAH.","zip":"34060"}]},{"name":"ÇIRÇIR","cityName":null,"quarters":[{"name":"ÇIRÇIR MAH.","zip":"34070"}]},{"name":"EYÜP","cityName":null,"quarters":[{"name":"İSLAMBEY MAH.","zip":"34050"},{"name":"MERKEZ MAH.","zip":"34050"},{"name":"NİŞANCI MAH.","zip":"34050"},{"name":"SAKARYA MAH.","zip":"34050"},{"name":"SİLAHTARAĞA MAH.","zip":"34050"}]},{"name":"GÖKTÜRK","cityName":null,"quarters":null},{"name":"IŞIKLAR","cityName":null,"quarters":[{"name":"AKPINAR MAH.","zip":"34076"},{"name":"ÇİFTALAN MAH.","zip":"34076"},{"name":"IŞIKLAR MAH.","zip":"34076"},{"name":"İHSANİYE MAH.","zip":"34076"},{"name":"ODAYERİ MAH.","zip":"34076"},{"name":"PİRİNÇÇİ MAH.","zip":"34076"}]},{"name":"KEMERBURGAZ","cityName":null,"quarters":[{"name":"MİTHATPAŞA MAH.","zip":"34075"}]},{"name":"RAMİ","cityName":null,"quarters":[{"name":"RAMİ CUMA MAH.","zip":"34055"},{"name":"RAMİ YENİ MAH.","zip":"34055"},{"name":"TOPÇULAR MAH.","zip":"34055"}]},{"name":"YEŞİLPINAR","cityName":null,"quarters":[{"name":"KARADOLAP MAH.","zip":"34065"},{"name":"YEŞİLPINAR MAH.","zip":"34065"}]},{"name":"AKSARAY","cityName":null,"quarters":[{"name":"HASEKİ SULTAN MAH.","zip":"34096"}]},{"name":"BALAT","cityName":null,"quarters":[{"name":"AYVANSARAY MAH.","zip":"34087"},{"name":"BALAT MAH.","zip":"34087"},{"name":"DERVİŞ ALİ MAH.","zip":"34087"}]},{"name":"BAYAZIT","cityName":null,"quarters":[{"name":"EMİN SİNAN MAH.","zip":"34126"},{"name":"MİMAR HAYRETTİN MAH.","zip":"34126"},{"name":"ŞEHSUVAR BEY MAH.","zip":"34126"}]},{"name":"EMİNÖNÜ","cityName":null,"quarters":[{"name":"HOCAPAŞA MAH.","zip":"34110"}]},{"name":"İSKENDERPAŞA","cityName":null,"quarters":[{"name":"İSKENDERPAŞA MAH.","zip":"34080"}]},{"name":"KARAGÜMRÜK","cityName":null,"quarters":[{"name":"KARAGÜMRÜK MAH.","zip":"34091"}]},{"name":"KOCAMUSTAFAPAŞA","cityName":null,"quarters":[{"name":"KOCA MUSTAFAPAŞA MAH.","zip":"34098"},{"name":"SEYYİD ÖMER MAH.","zip":"34098"}]},{"name":"KUMKAPI","cityName":null,"quarters":[{"name":"MESİHPAŞA MAH.","zip":"34130"},{"name":"MİMAR KEMALETTİN MAH.","zip":"34130"},{"name":"MUHSİNE HATUN MAH.","zip":"34130"},{"name":"NİŞANCA MAH.","zip":"34130"},{"name":"SARAÇ İSHAK MAH.","zip":"34130"}]},{"name":"MAHMUTPAŞA","cityName":null,"quarters":[{"name":"SURURİ MAH.","zip":"34120"},{"name":"TAYA HATUN MAH.","zip":"34120"}]},{"name":"SİRKECİ","cityName":null,"quarters":null},{"name":"SULTANAHMET","cityName":null,"quarters":[{"name":"CANKURTARAN MAH.","zip":"34122"},{"name":"KÜÇÜK AYASOFYA MAH.","zip":"34122"},{"name":"SULTAN AHMET MAH.","zip":"34122"}]},{"name":"ŞEHREMİNİ","cityName":null,"quarters":[{"name":"ŞEHREMİNİ MAH.","zip":"34104"}]},{"name":"TAHTAKALE","cityName":null,"quarters":[{"name":"RÜSTEMPAŞA MAH.","zip":"34116"},{"name":"SÜLEYMANİYE MAH.","zip":"34116"},{"name":"TAHTAKALE MAH.","zip":"34116"}]},{"name":"TOPKAPI","cityName":null,"quarters":[{"name":"TOPKAPI MAH.","zip":"34093"}]},{"name":"VEFA","cityName":null,"quarters":[{"name":"DEMİRTAŞ MAH.","zip":"34134"},{"name":"HACI KADIN MAH.","zip":"34134"},{"name":"HOCA GIYASETTİN MAH.","zip":"34134"},{"name":"KALENDERHANE MAH.","zip":"34134"},{"name":"KEMALPAŞA MAH.","zip":"34134"},{"name":"MOLLA HÜSREV MAH.","zip":"34134"},{"name":"SARIDEMİR MAH.","zip":"34134"},{"name":"YAVUZ SİNAN MAH.","zip":"34134"}]},{"name":"YEDİKULE","cityName":null,"quarters":[{"name":"SÜMBÜL EFENDİ MAH.","zip":"34107"},{"name":"YEDİKULE MAH.","zip":"34107"}]},{"name":"ZEYREK","cityName":null,"quarters":[{"name":"CİBALİ MAH.","zip":"34083"},{"name":"YAVUZ SULTAN SELİM MAH.","zip":"34083"},{"name":"ZEYREK MAH.","zip":"34083"}]},{"name":"GAZİOSMANPAŞA","cityName":null,"quarters":[{"name":"MERKEZ MAH.","zip":"34245"},{"name":"SARIGÖL MAH.","zip":"34245"}]},{"name":"KÜÇÜKKÖY","cityName":null,"quarters":[{"name":"HÜRRİYET MAH.","zip":"34250"},{"name":"KARADENİZ MAH.","zip":"34250"},{"name":"ŞEMSİPAŞA MAH.","zip":"34250"},{"name":"YENİ MAHALLE MAH.","zip":"34250"}]},{"name":"MEVLANA","cityName":null,"quarters":[{"name":"KARAYOLLARI MAH.","zip":"34255"},{"name":"KAZIM KARABEKİR MAH.","zip":"34255"},{"name":"MEVLANA MAH.","zip":"34255"}]},{"name":"YILDIZTABYA","cityName":null,"quarters":[{"name":"PAZARİÇİ MAH.","zip":"34240"},{"name":"YENİDOĞAN MAH.","zip":"34240"},{"name":"YILDIZTABYA MAH.","zip":"34240"}]},{"name":"AKINCILAR","cityName":null,"quarters":[{"name":"GÜVEN MAH.","zip":"34160"},{"name":"HAZNEDAR MAH.","zip":"34160"},{"name":"MAREŞAL ÇAKMAK MAH.","zip":"34160"}]},{"name":"GÜNGÖREN","cityName":null,"quarters":[{"name":"MERKEZ MAH.","zip":"34164"}]},{"name":"SANAYİ","cityName":null,"quarters":[{"name":"SANAYİ MAH.","zip":"34165"}]},{"name":"TOZKOPARAN","cityName":null,"quarters":[{"name":"MEHMET NESİH ÖZMEN MAH.","zip":"34173"},{"name":"TOZKOPARAN MAH.","zip":"34173"}]},{"name":"BOSTANCI","cityName":null,"quarters":null},{"name":"CADDEBOSTAN","cityName":null,"quarters":null},{"name":"CAFERAĞA","cityName":null,"quarters":null},{"name":"EĞİTİM","cityName":null,"quarters":[{"name":"HASANPAŞA MAH.","zip":"34722"}]},{"name":"ERENKÖY","cityName":null,"quarters":null},{"name":"FENERBAHÇE","cityName":null,"quarters":null},{"name":"FENERYOLU","cityName":null,"quarters":[{"name":"ZÜHTÜPAŞA MAH.","zip":"34724"}]},{"name":"FİKİRTEPE","cityName":null,"quarters":[{"name":"FİKİRTEPE MAH.","zip":"34720"}]},{"name":"GÖZTEPE","cityName":null,"quarters":null},{"name":"KOŞUYOLU","cityName":null,"quarters":[{"name":"KOŞUYOLU MAH.","zip":"34718"}]},{"name":"KOZYATAĞI","cityName":null,"quarters":null},{"name":"MERDİVENKÖY","cityName":null,"quarters":null},{"name":"ONDOKUZMAYIS","cityName":null,"quarters":null},{"name":"OSMANAĞA","cityName":null,"quarters":null},{"name":"RASİMPAŞA","cityName":null,"quarters":null},{"name":"SAHRAYICEDİT","cityName":null,"quarters":null},{"name":"SUADİYE","cityName":null,"quarters":null},{"name":"ÇAĞLAYAN","cityName":null,"quarters":[{"name":"HÜRRİYET MAH.","zip":"34403"}]},{"name":"ÇELİKTEPE","cityName":null,"quarters":[{"name":"ORTABAYIR MAH.","zip":"34413"}]},{"name":"GÜLTEPE","cityName":null,"quarters":[{"name":"HARMANTEPE MAH.","zip":"34410"},{"name":"TELSİZLER MAH.","zip":"34410"},{"name":"YAHYA KEMAL MAH.","zip":"34410"}]},{"name":"GÜRSEL","cityName":null,"quarters":[{"name":"MEHMET AKİF ERSOY MAH.","zip":"34400"},{"name":"TALATPAŞA MAH.","zip":"34400"}]},{"name":"HAMİDİYE","cityName":null,"quarters":null},{"name":"KAĞITHANE MERKEZ","cityName":null,"quarters":[{"name":"NURTEPE MAH.","zip":"34406"}]},{"name":"SEYRANTEPE","cityName":null,"quarters":[{"name":"YEŞİLCE MAH.","zip":"34418"}]},{"name":"ŞİRİNTEPE","cityName":null,"quarters":[{"name":"SULTAN SELİM MAH.","zip":"34415"},{"name":"ŞİRİNTEPE MAH.","zip":"34415"}]},{"name":"ATALAR","cityName":null,"quarters":[{"name":"PETROL İŞ MAH.","zip":"34862"}]},{"name":"ESENTEPE","cityName":null,"quarters":[{"name":"KARLIKTEPE MAH.","zip":"34870"}]},{"name":"KARTAL","cityName":null,"quarters":[{"name":"YUKARI MAH.","zip":"34860"}]},{"name":"ORHANTEPE","cityName":null,"quarters":[{"name":"ORHANTEPE MAH.","zip":"34865"}]},{"name":"SOĞANLIK","cityName":null,"quarters":[{"name":"ORTA MAH.","zip":"34880"},{"name":"SOĞANLIK YENİ MAH.","zip":"34880"}]},{"name":"TOPSELVİ","cityName":null,"quarters":[{"name":"TOPSELVİ MAH.","zip":"34873"},{"name":"YALI MAH.","zip":"34873"},{"name":"YUNUS MAH.","zip":"34873"}]},{"name":"UĞUR MUMCU","cityName":null,"quarters":[{"name":"YAKACIK YENİ MAH.","zip":"34882"}]},{"name":"YAKACIK","cityName":null,"quarters":[{"name":"HÜRRİYET MAH.","zip":"34876"},{"name":"YAKACIK ÇARŞI MAH.","zip":"34876"}]},{"name":"ATAKENT","cityName":null,"quarters":[{"name":"ATATÜRK MAH.","zip":"34307"},{"name":"KÜÇÜKÇEKMECE İKİTELLİOSB MAH.","zip":"34307"},{"name":"MEHMET AKİF MAH.","zip":"34307"}]},{"name":"HALKALI","cityName":null,"quarters":[{"name":"İSTASYON MAH.","zip":"34303"},{"name":"YARIMBURGAZ MAH.","zip":"34303"}]},{"name":"KÜÇÜKÇEKMECE","cityName":null,"quarters":[{"name":"CUMHURİYET MAH.","zip":"34290"},{"name":"FATİH MAH.","zip":"34290"},{"name":"KANARYA MAH.","zip":"34290"},{"name":"YENİ MAHALLE MAH.","zip":"34290"}]},{"name":"SEFAKÖY","cityName":null,"quarters":[{"name":"FEVZİ ÇAKMAK MAH.","zip":"34295"},{"name":"GÜLTEPE MAH.","zip":"34295"},{"name":"İNÖNÜ MAH.","zip":"34295"},{"name":"KARTALTEPE MAH.","zip":"34295"},{"name":"KEMALPAŞA MAH.","zip":"34295"},{"name":"SÖĞÜTLÜ ÇEŞME MAH.","zip":"34295"},{"name":"SULTAN MURAT MAH.","zip":"34295"},{"name":"TEVFİKBEY MAH.","zip":"34295"},{"name":"YEŞİLOVA MAH.","zip":"34295"}]},{"name":"AYDINEVLER","cityName":null,"quarters":[{"name":"BAŞIBÜYÜK MAH.","zip":"34854"},{"name":"FINDIKLI MAH.","zip":"34854"}]},{"name":"BÜYÜKBAKKALKÖY","cityName":null,"quarters":null},{"name":"CEVİZLİ","cityName":null,"quarters":null},{"name":"FEYZULLAH","cityName":null,"quarters":[{"name":"FEYZULLAH MAH.","zip":"34843"}]},{"name":"GÜLSUYU","cityName":null,"quarters":[{"name":"GÜLENSU MAH.","zip":"34848"},{"name":"GÜLSUYU MAH.","zip":"34848"}]},{"name":"İDEALTEPE","cityName":null,"quarters":[{"name":"İDEALTEPE MAH.","zip":"34841"}]},{"name":"KÜÇÜKYALI","cityName":null,"quarters":[{"name":"KÜÇÜKYALI MERKEZ MAH.","zip":"34840"}]},{"name":"YALI","cityName":null,"quarters":[{"name":"YALI MAH.","zip":"34844"}]},{"name":"ZÜMRÜTEVLER","cityName":null,"quarters":[{"name":"ZÜMRÜTEVLER MAH.","zip":"34852"}]},{"name":"BAHÇELİEVLER","cityName":null,"quarters":[{"name":"SAPAN BAĞLARI MAH.","zip":"34893"},{"name":"YENİ MAH.","zip":"34893"},{"name":"YEŞİLBAĞLAR MAH.","zip":"34893"}]},{"name":"ÇAMÇEŞME","cityName":null,"quarters":[{"name":"ESENLER MAH.","zip":"34899"},{"name":"FEVZİ ÇAKMAK MAH.","zip":"34899"},{"name":"KAVAKPINAR MAH.","zip":"34899"}]},{"name":"ÇARŞI","cityName":null,"quarters":[{"name":"DOĞU MAH.","zip":"34890"},{"name":"KAYNARCA MAH.","zip":"34890"}]},{"name":"ÇINARDERE","cityName":null,"quarters":[{"name":"DUMLUPINAR MAH.","zip":"34896"},{"name":"ORTA MAH.","zip":"34896"},{"name":"VELİBABA MAH.","zip":"34896"}]},{"name":"ESENYALI","cityName":null,"quarters":[{"name":"ESENYALI MAH.","zip":"34903"},{"name":"FATİH MAH.","zip":"34903"},{"name":"GÜZELYALI MAH.","zip":"34903"},{"name":"ORHANGAZİ MAH.","zip":"34903"}]},{"name":"KURNA","cityName":null,"quarters":[{"name":"EMİRLİ MAH.","zip":"34916"},{"name":"GÖÇBEYLİ MAH.","zip":"34916"},{"name":"KURNA MAH.","zip":"34916"},{"name":"KURTDOĞMUŞ MAH.","zip":"34916"}]},{"name":"ŞEYHLİ","cityName":null,"quarters":[{"name":"RAMAZANOĞLU MAH.","zip":"34906"},{"name":"SANAYİ MAH.","zip":"34906"},{"name":"ŞEYHLİ MAH.","zip":"34906"}]},{"name":"YAYALAR","cityName":null,"quarters":[{"name":"SÜLÜNTEPE MAH.","zip":"34909"},{"name":"YAYALAR MAH.","zip":"34909"}]},{"name":"YENİŞEHİR","cityName":null,"quarters":[{"name":"HARMANDERE MAH.","zip":"34912"},{"name":"KURTKÖY MAH.","zip":"34912"},{"name":"YENİŞEHİR MAH.","zip":"34912"}]},{"name":"EYÜPSULTAN","cityName":null,"quarters":[{"name":"EYÜP SULTAN MAH.","zip":"34885"},{"name":"FATİH MAH.","zip":"34885"},{"name":"VEYSEL KARANİ MAH.","zip":"34885"}]},{"name":"OSMANGAZİ","cityName":null,"quarters":[{"name":"OSMANGAZİ MAH.","zip":"34887"}]},{"name":"SARIGAZİ","cityName":null,"quarters":[{"name":"EMEK MAH.","zip":"34785"},{"name":"İNÖNÜ MAH.","zip":"34785"},{"name":"KEMAL TÜRKLER MAH.","zip":"34785"},{"name":"MECLİS MAH.","zip":"34785"},{"name":"SARIGAZİ MAH.","zip":"34785"}]},{"name":"YENİDOĞAN","cityName":null,"quarters":[{"name":"MERVE MAH.","zip":"34791"},{"name":"MEVLANA MAH.","zip":"34791"},{"name":"PAŞAKÖY MAH.","zip":"34791"},{"name":"SAFA MAH.","zip":"34791"},{"name":"YENİDOĞAN MAH.","zip":"34791"},{"name":"YUNUS EMRE MAH.","zip":"34791"}]},{"name":"BAHÇEKÖY","cityName":null,"quarters":[{"name":"BAHÇEKÖY YENİ MAH.","zip":"34473"},{"name":"KEMER MAH.","zip":"34473"}]},{"name":"BÜYÜKDERE","cityName":null,"quarters":[{"name":"ÇAYIRBAŞI MAH.","zip":"34453"},{"name":"KOCATAŞ MAH.","zip":"34453"},{"name":"PTT EVLERİ MAH.","zip":"34453"}]},{"name":"EMİRGAN","cityName":null,"quarters":[{"name":"REŞİTPAŞA MAH.","zip":"34467"}]},{"name":"İSTİNYE","cityName":null,"quarters":[{"name":"PINAR MAH.","zip":"34460"},{"name":"POLİGON MAH.","zip":"34460"}]},{"name":"MASLAK","cityName":null,"quarters":[{"name":"HUZUR MAH.","zip":"34485"},{"name":"MASLAK MAH.","zip":"34485"}]},{"name":"RUMELİHİSARI","cityName":null,"quarters":[{"name":"FATİH SULTAN MEHMET MAH.","zip":"34470"},{"name":"RUMELİ HİSARI MAH.","zip":"34470"}]},{"name":"SARIYER","cityName":null,"quarters":[{"name":"GARİPÇE MAH.","zip":"34450"},{"name":"GÜMÜŞDERE MAH.","zip":"34450"},{"name":"KAZIM KARABEKİR PAŞA MAH.","zip":"34450"},{"name":"KISIRKAYA MAH.","zip":"34450"},{"name":"KUMKÖY MAH.","zip":"34450"},{"name":"MADEN MAH.","zip":"34450"},{"name":"MERKEZ MAH.","zip":"34450"},{"name":"RUMELİ KAVAĞI MAH.","zip":"34450"},{"name":"RUMELİFENERİ MAH.","zip":"34450"},{"name":"USKUMRUKÖY MAH.","zip":"34450"},{"name":"YENİ MAH.","zip":"34450"},{"name":"ZEKERİYAKÖY MAH.","zip":"34450"}]},{"name":"TARABYA","cityName":null,"quarters":[{"name":"ÇAMLITEPE MAH.","zip":"34457"},{"name":"DARÜŞŞAFAKA MAH.","zip":"34457"},{"name":"FERAHEVLER MAH.","zip":"34457"},{"name":"KİREÇBURNU MAH.","zip":"34457"},{"name":"TARABYA MAH.","zip":"34457"}]},{"name":"YENİKÖY","cityName":null,"quarters":null},{"name":"BÜYÜKÇAVUŞLU","cityName":null,"quarters":[{"name":"BÜYÜK ÇAVUŞLU MAH.","zip":"34594"},{"name":"ÇAYIRDERE MAH.","zip":"34594"}]},{"name":"ÇANTA","cityName":null,"quarters":[{"name":"SANCAKTEPE MAH.","zip":"34580"}]},{"name":"DEĞİRMENKÖY","cityName":null,"quarters":[{"name":"İSMETPAŞA MAH.","zip":"34586"}]},{"name":"GÜMÜŞYAKA","cityName":null,"quarters":null},{"name":"KAVAKLI","cityName":null,"quarters":[{"name":"KAVAKLI MAH.","zip":"34596"}]},{"name":"KÖYLER","cityName":null,"quarters":[{"name":"BEKİRLİ MAH.","zip":"34582"},{"name":"BÜYÜK KILIÇLI MAH.","zip":"34582"},{"name":"BÜYÜK SİNEKLİ MAH.","zip":"34582"},{"name":"ÇELTİK MAH.","zip":"34582"},{"name":"DANAMANDIRA MAH.","zip":"34582"},{"name":"FENER MAH.","zip":"34582"},{"name":"GAZİTEPE MAH.","zip":"34582"},{"name":"KADIKÖY MAH.","zip":"34582"},{"name":"KURFALLI MAH.","zip":"34582"},{"name":"KÜÇÜK KILIÇLI MAH.","zip":"34582"},{"name":"KÜÇÜK SİNEKLİ MAH.","zip":"34582"},{"name":"SAYALAR MAH.","zip":"34582"},{"name":"SEYMEN MAH.","zip":"34582"},{"name":"YOLÇATI MAH.","zip":"34582"}]},{"name":"ORTAKÖY","cityName":null,"quarters":null},{"name":"SELİMPAŞA","cityName":null,"quarters":null},{"name":"SİLİVRİ","cityName":null,"quarters":[{"name":"ALİPAŞA MAH.","zip":"34570"},{"name":"CUMHURİYET MAH.","zip":"34570"},{"name":"FATİH MAH.","zip":"34570"},{"name":"MİMAR SİNAN MAH.","zip":"34570"},{"name":"PİRİ MEHMET PAŞA MAH.","zip":"34570"},{"name":"SEMİZKUMLAR MAH.","zip":"34570"},{"name":"YENİ MAH.","zip":"34570"}]},{"name":"MEHMETAKİF","cityName":null,"quarters":[{"name":"FATİH MAH.","zip":"34920"},{"name":"HASANPAŞA MAH.","zip":"34920"},{"name":"MEHMET AKİF MAH.","zip":"34920"}]},{"name":"MİMARSİNAN","cityName":null,"quarters":[{"name":"BATTALGAZİ MAH.","zip":"34935"},{"name":"MİMAR SİNAN MAH.","zip":"34935"}]},{"name":"NECİPFAZIL","cityName":null,"quarters":[{"name":"HAMİDİYE MAH.","zip":"34925"},{"name":"NECİP FAZIL MAH.","zip":"34925"},{"name":"ORHANGAZİ MAH.","zip":"34925"},{"name":"YAVUZ SELİM MAH.","zip":"34925"}]},{"name":"TURGUTREİS","cityName":null,"quarters":[{"name":"MECİDİYE MAH.","zip":"34930"},{"name":"TURGUT REİS MAH.","zip":"34930"}]},{"name":"SULTANÇİFTLİĞİ","cityName":null,"quarters":[{"name":"CUMHURİYET MAH.","zip":"34265"},{"name":"ESENTEPE MAH.","zip":"34265"},{"name":"SULTANÇİFTLİĞİ MAH.","zip":"34265"},{"name":"UĞUR MUMCU MAH.","zip":"34265"}]},{"name":"SULTANGAZİ","cityName":null,"quarters":[{"name":"ESKİ HABİPLER MAH.","zip":"34270"},{"name":"HABİBLER MAH.","zip":"34270"},{"name":"İSMETPAŞA MAH.","zip":"34270"},{"name":"MALKOÇOĞLU MAH.","zip":"34270"},{"name":"YAYLA MAH.","zip":"34270"}]},{"name":"ZÜBEYDEHANIM","cityName":null,"quarters":[{"name":"GAZİ MAH.","zip":"34260"},{"name":"YUNUS EMRE MAH.","zip":"34260"},{"name":"ZÜBEYDE HANIM MAH.","zip":"34260"}]},{"name":"AĞVA","cityName":null,"quarters":[{"name":"BUCAKLI MAH.","zip":"34990"},{"name":"ÇATAKLI MAH.","zip":"34990"},{"name":"ÇELEBİ MAH.","zip":"34990"},{"name":"GEREDELİ MAH.","zip":"34990"},{"name":"GÖÇE MAH.","zip":"34990"},{"name":"GÖKMAŞLI MAH.","zip":"34990"},{"name":"GÖKSU MAH.","zip":"34990"},{"name":"HACILLI MAH.","zip":"34990"},{"name":"İSAKÖY MAH.","zip":"34990"},{"name":"KADIKÖY MAH.","zip":"34990"},{"name":"KALEM MAH.","zip":"34990"},{"name":"KURFALLI MAH.","zip":"34990"},{"name":"SOĞULLU MAH.","zip":"34990"},{"name":"ŞUAYİPLİ MAH.","zip":"34990"}]},{"name":"AHMETLİ","cityName":null,"quarters":[{"name":"AHMETLİ MAH.","zip":"34983"},{"name":"AKÇAKESE MAH.","zip":"34983"},{"name":"ALACALI MAH.","zip":"34983"},{"name":"AVCIKORU MAH.","zip":"34983"},{"name":"BIÇKIDERE MAH.","zip":"34983"},{"name":"BOZGOCA MAH.","zip":"34983"},{"name":"ÇAYIRBAŞI MAH.","zip":"34983"},{"name":"ÇENGİLLİ MAH.","zip":"34983"},{"name":"DARLIK MAH.","zip":"34983"},{"name":"DEĞİRMENÇAYIRI MAH.","zip":"34983"},{"name":"DOĞANCILI MAH.","zip":"34983"},{"name":"ERENLER MAH.","zip":"34983"},{"name":"ESENCELİ MAH.","zip":"34983"},{"name":"HASANLI MAH.","zip":"34983"},{"name":"İMRENDERE MAH.","zip":"34983"},{"name":"İMRENLİ MAH.","zip":"34983"},{"name":"KABAKOZ MAH.","zip":"34983"},{"name":"KARABEYLİ MAH.","zip":"34983"},{"name":"KARACAKÖY MAH.","zip":"34983"},{"name":"KARAKİRAZ MAH.","zip":"34983"},{"name":"KARAMANDERE MAH.","zip":"34983"},{"name":"KERVANSARAY MAH.","zip":"34983"},{"name":"KIZILCA MAH.","zip":"34983"},{"name":"KORUCU MAH.","zip":"34983"},{"name":"KÖMÜRLÜK MAH.","zip":"34983"},{"name":"KURNA MAH.","zip":"34983"},{"name":"MEŞRUTİYET MAH.","zip":"34983"},{"name":"ORUÇOĞLU MAH.","zip":"34983"},{"name":"OSMANKÖY MAH.","zip":"34983"},{"name":"OVACIK MAH.","zip":"34983"},{"name":"SAHİLKÖY MAH.","zip":"34983"},{"name":"SATMAZLI MAH.","zip":"34983"},{"name":"SOFULAR MAH.","zip":"34983"},{"name":"SORTULLU MAH.","zip":"34983"},{"name":"TEKE MAH.","zip":"34983"},{"name":"ULUPELİT MAH.","zip":"34983"},{"name":"ÜVEZLİ MAH.","zip":"34983"},{"name":"YAKA MAH.","zip":"34983"},{"name":"YAYLALI MAH.","zip":"34983"},{"name":"YAZIMANAYIR MAH.","zip":"34983"},{"name":"YENİKÖY MAH.","zip":"34983"},{"name":"YEŞİLVADİ MAH.","zip":"34983"}]},{"name":"ŞİLE","cityName":null,"quarters":[{"name":"ÇAVUŞ MAH.","zip":"34980"},{"name":"HACI KASIM MAH.","zip":"34980"},{"name":"KUMBABA MAH.","zip":"34980"}]},{"name":"BOZKURT","cityName":null,"quarters":[{"name":"ESKİŞEHİR MAH.","zip":"34375"}]},{"name":"CUMHURİYET","cityName":null,"quarters":null},{"name":"DUATEPE","cityName":null,"quarters":[{"name":"PAŞA MAH.","zip":"34379"}]},{"name":"ESENTEPE","cityName":null,"quarters":[{"name":"FULYA MAH.","zip":"34394"},{"name":"GÜLBAHAR MAH.","zip":"34394"}]},{"name":"FERİKÖY","cityName":null,"quarters":[{"name":"YAYLA MAH.","zip":"34377"}]},{"name":"HALASKARGAZİ","cityName":null,"quarters":null},{"name":"HARBİYE","cityName":null,"quarters":null},{"name":"MECİDİYEKÖY","cityName":null,"quarters":[{"name":"KUŞTEPE MAH.","zip":"34381"},{"name":"MECİDİYEKÖY MAH.","zip":"34381"}]},{"name":"MEŞRUTİYET","cityName":null,"quarters":[{"name":"MEŞRUTİYET MAH.","zip":"34363"}]},{"name":"OKMEYDANI","cityName":null,"quarters":[{"name":"HALİL RIFAT PAŞA MAH.","zip":"34384"},{"name":"KAPTANPAŞA MAH.","zip":"34384"},{"name":"MAHMUT ŞEVKET PAŞA MAH.","zip":"34384"},{"name":"MERKEZ MAH.","zip":"34384"}]},{"name":"PANGALTI","cityName":null,"quarters":[{"name":"İNÖNÜ MAH.","zip":"34373"}]},{"name":"TEŞVİKİYE","cityName":null,"quarters":null},{"name":"AKFIRAT","cityName":null,"quarters":[{"name":"TEPEOREN İTOSB MAH.","zip":"34959"},{"name":"TEPEÖREN MAH.","zip":"34959"}]},{"name":"AYDINLI","cityName":null,"quarters":[{"name":"AYDINLI - İSTANBUL AYOSB MAH.","zip":"34953"},{"name":"AYDINLI MAH.","zip":"34953"},{"name":"AYDINLI SB MAH.","zip":"34953"},{"name":"AYDINLI-KOSB MAH.","zip":"34953"}]},{"name":"ÇARŞI","cityName":null,"quarters":[{"name":"İSTASYON MAH.","zip":"34940"},{"name":"POSTANE MAH.","zip":"34940"}]},{"name":"İÇMELER","cityName":null,"quarters":[{"name":"İÇMELER MAH.","zip":"34947"}]},{"name":"MİMARSİNAN","cityName":null,"quarters":[{"name":"ŞİFA MAH.","zip":"34950"}]},{"name":"ORHANLI","cityName":null,"quarters":[{"name":"DERİ OSB MAH.","zip":"34956"},{"name":"FATİH MAH.","zip":"34956"},{"name":"MESCİT MAH.","zip":"34956"},{"name":"ORHANLI MAH.","zip":"34956"},{"name":"ORTA MAH.","zip":"34956"}]},{"name":"TERSANELER","cityName":null,"quarters":[{"name":"YAYLA MAH.","zip":"34944"}]},{"name":"AŞAĞIDUDULLU","cityName":null,"quarters":[{"name":"AŞAĞI DUDULLU MAH.","zip":"34773"},{"name":"HUZUR MAH.","zip":"34773"},{"name":"NECİP FAZIL MAH.","zip":"34773"},{"name":"PARSELLER MAH.","zip":"34773"}]},{"name":"ATAKENT","cityName":null,"quarters":[{"name":"ATAKENT MAH.","zip":"34760"},{"name":"SİTE MAH.","zip":"34760"}]},{"name":"ATATÜRK","cityName":null,"quarters":[{"name":"ELMALIKENT MAH.","zip":"34764"},{"name":"TANTAVİ MAH.","zip":"34764"}]},{"name":"ÇAKMAK","cityName":null,"quarters":[{"name":"ÇAMLIK MAH.","zip":"34774"},{"name":"MEHMET AKİF MAH.","zip":"34774"},{"name":"TATLISU MAH.","zip":"34774"}]},{"name":"ESENŞEHİR","cityName":null,"quarters":[{"name":"ESENŞEHİR MAH.","zip":"34776"},{"name":"MADENLER MAH.","zip":"34776"}]},{"name":"IHLAMURKUYU","cityName":null,"quarters":[{"name":"FATİH SULTAN MEHMET MAH.","zip":"34771"},{"name":"IHLAMURKUYU MAH.","zip":"34771"},{"name":"TEPEÜSTÜ MAH.","zip":"34771"}]},{"name":"İNKILAP","cityName":null,"quarters":[{"name":"SARAY MAH.","zip":"34768"},{"name":"YAMANEVLER MAH.","zip":"34768"}]},{"name":"KAZIMKARABEKİR","cityName":null,"quarters":[{"name":"HEKİMBAŞI MAH.","zip":"34766"},{"name":"KAZIM KARABEKİR MAH.","zip":"34766"},{"name":"TOPAĞACI MAH.","zip":"34766"}]},{"name":"NAMIKKEMAL","cityName":null,"quarters":[{"name":"İSTİKLAL MAH.","zip":"34762"},{"name":"NAMIK KEMAL MAH.","zip":"34762"}]},{"name":"YUKARIDUDULLU","cityName":null,"quarters":[{"name":"DUDULLU OSB MAH.","zip":"34775"},{"name":"ŞERİFALİ MAH.","zip":"34775"},{"name":"YUKARI DUDULLU MAH.","zip":"34775"}]},{"name":"ACIBADEM","cityName":null,"quarters":null},{"name":"ALTUNİZADE","cityName":null,"quarters":[{"name":"BARBAROS MAH.","zip":"34662"}]},{"name":"BAHÇELİEVLER","cityName":null,"quarters":null},{"name":"BEYLERBEYİ","cityName":null,"quarters":[{"name":"BURHANİYE MAH.","zip":"34676"},{"name":"KÜPLÜCE MAH.","zip":"34676"}]},{"name":"BULGURLU","cityName":null,"quarters":[{"name":"KÜÇÜK ÇAMLICA MAH.","zip":"34696"}]},{"name":"CUMHURİYET","cityName":null,"quarters":null},{"name":"ÇENGELKÖY","cityName":null,"quarters":[{"name":"GÜZELTEPE MAH.","zip":"34680"}]},{"name":"FERAH","cityName":null,"quarters":[{"name":"KISIKLI MAH.","zip":"34692"}]},{"name":"KANDİLLİ","cityName":null,"quarters":[{"name":"KULELİ MAH.","zip":"34684"},{"name":"KÜÇÜKSU MAH.","zip":"34684"}]},{"name":"KİRAZLITEPE","cityName":null,"quarters":[{"name":"MEHMET AKİF ERSOY MAH.","zip":"34682"}]},{"name":"KUZGUNCUK","cityName":null,"quarters":[{"name":"KUZGUNCUK MAH.","zip":"34674"},{"name":"SULTANTEPE MAH.","zip":"34674"}]},{"name":"MİMARSİNAN","cityName":null,"quarters":[{"name":"AZİZ MAHMUT HÜDAYİ MAH.","zip":"34672"},{"name":"MİMAR SİNAN MAH.","zip":"34672"}]},{"name":"MURATREİS","cityName":null,"quarters":[{"name":"SELAMİ ALİ MAH.","zip":"34664"},{"name":"VALİDE-İ ATİK MAH.","zip":"34664"}]},{"name":"SELİMİYE","cityName":null,"quarters":[{"name":"SELİMİYE MAH.","zip":"34668"},{"name":"ZEYNEP KAMİL MAH.","zip":"34668"}]},{"name":"ÜNALAN","cityName":null,"quarters":null},{"name":"YAVUZTÜRK","cityName":null,"quarters":null},{"name":"ÇIRPICI","cityName":null,"quarters":[{"name":"NURİPAŞA MAH.","zip":"34025"},{"name":"SÜMER MAH.","zip":"34025"},{"name":"VELİEFENDİ MAH.","zip":"34025"},{"name":"YEŞİLTEPE MAH.","zip":"34025"}]},{"name":"SEYİTNİZAM","cityName":null,"quarters":[{"name":"SEYİTNİZAM MAH.","zip":"34015"}]},{"name":"TELSİZ","cityName":null,"quarters":[{"name":"GÖKALP MAH.","zip":"34020"},{"name":"KAZLIÇEŞME MAH.","zip":"34020"},{"name":"TELSİZ MAH.","zip":"34020"},{"name":"YENİDOĞAN MAH.","zip":"34020"}]},{"name":"TOPKAPI","cityName":null,"quarters":null}]}]}