{"id":35,"name":"İZMİR","cities":[{"name":"city","districts":[{"name":"ALİAĞA","cityName":null,"quarters":[{"name":"BAHÇEDERE MAH.","zip":"35800"},{"name":"BOZKÖY MAH.","zip":"35800"},{"name":"ÇAKMAKLI MAH.","zip":"35800"},{"name":"ÇALTILIDERE MAH.","zip":"35800"},{"name":"ÇITAK MAH.","zip":"35800"},{"name":"ÇORAKLAR MAH.","zip":"35800"},{"name":"GÜZELHİSAR MAH.","zip":"35800"},{"name":"HACIÖMERLİ MAH.","zip":"35800"},{"name":"HOROZGEDİĞİ MAH.","zip":"35800"},{"name":"KALABAK MAH.","zip":"35800"},{"name":"KAPUKAYA MAH.","zip":"35800"},{"name":"KARAKÖY MAH.","zip":"35800"},{"name":"KARAKUZU MAH.","zip":"35800"},{"name":"KAZIM DİRİK MAH.","zip":"35800"},{"name":"KURTULUŞ MAH.","zip":"35800"},{"name":"KÜLTÜR MAH.","zip":"35800"},{"name":"MİMAR SİNAN MAH.","zip":"35800"},{"name":"SAMURLU MAH.","zip":"35800"},{"name":"SİTELER MAH.","zip":"35800"},{"name":"ŞEHİTKEMAL MAH.","zip":"35800"},{"name":"UZUNHASANLAR MAH.","zip":"35800"},{"name":"YALI MAH.","zip":"35800"},{"name":"YENİ MAH.","zip":"35800"},{"name":"YENİŞAKRAN MAH.","zip":"35800"},{"name":"YUKARI ŞEHİTKEMAL MAH.","zip":"35800"},{"name":"YÜKSEKKÖY MAH.","zip":"35800"}]},{"name":"HELVACI","cityName":null,"quarters":null},{"name":"BALÇOVA","cityName":null,"quarters":[{"name":"ÇETİN EMEÇ MAH.","zip":"35330"},{"name":"EĞİTİM MAH.","zip":"35330"},{"name":"FEVZİ ÇAKMAK MAH.","zip":"35330"},{"name":"İNCİRALTI MAH.","zip":"35330"},{"name":"KORUTÜRK MAH.","zip":"35330"},{"name":"ONUR MAH.","zip":"35330"},{"name":"TELEFERİK MAH.","zip":"35330"}]},{"name":"BAYINDIR","cityName":null,"quarters":[{"name":"ALANKÖY MAH.","zip":"35840"},{"name":"ARIKBAŞI MAH.","zip":"35840"},{"name":"BALCILAR MAH.","zip":"35840"},{"name":"BIYIKLAR MAH.","zip":"35840"},{"name":"BURUNCUK MAH.","zip":"35840"},{"name":"CAMİİ MAH.","zip":"35840"},{"name":"ÇAMLIBEL MAH.","zip":"35840"},{"name":"ÇENİKLER MAH.","zip":"35840"},{"name":"ÇINAR MAH.","zip":"35840"},{"name":"ÇINARDİBİ MAH.","zip":"35840"},{"name":"ÇİFTÇİGEDİĞİ MAH.","zip":"35840"},{"name":"DEMİRCİLİK MAH.","zip":"35840"},{"name":"DEREKÖY MAH.","zip":"35840"},{"name":"DERNEKLİ MAH.","zip":"35840"},{"name":"ELİFLİ MAH.","zip":"35840"},{"name":"ERGENLİ MAH.","zip":"35840"},{"name":"FATİH MAH.","zip":"35840"},{"name":"FIRINLI MAH.","zip":"35840"},{"name":"GAZİLER MAH.","zip":"35840"},{"name":"HACI BEŞİR MAH.","zip":"35840"},{"name":"HACI İBRAHİM MAH.","zip":"35840"},{"name":"HATAY MAH.","zip":"35840"},{"name":"HAVUZBAŞI MAH.","zip":"35840"},{"name":"HİSARLIK MAH.","zip":"35840"},{"name":"KABAAĞAÇ MAH.","zip":"35840"},{"name":"KARAHALİLLİ MAH.","zip":"35840"},{"name":"KARAHAYIT MAH.","zip":"35840"},{"name":"KARAPINAR MAH.","zip":"35840"},{"name":"KIZILCAAĞAÇ MAH.","zip":"35840"},{"name":"KIZILCAOVA MAH.","zip":"35840"},{"name":"KIZILKEÇİLİ MAH.","zip":"35840"},{"name":"KIZILOBA MAH.","zip":"35840"},{"name":"KURT MAH.","zip":"35840"},{"name":"LÜTUFLAR MAH.","zip":"35840"},{"name":"MİTHATPAŞA MAH.","zip":"35840"},{"name":"ORTA MAH.","zip":"35840"},{"name":"OSMANLAR MAH.","zip":"35840"},{"name":"PINARLI MAH.","zip":"35840"},{"name":"SADIKPAŞA MAH.","zip":"35840"},{"name":"SARIYURT MAH.","zip":"35840"},{"name":"SÖĞÜTÖREN MAH.","zip":"35840"},{"name":"TOKATBAŞI MAH.","zip":"35840"},{"name":"TURAN MAH.","zip":"35840"},{"name":"YAKACIK MAH.","zip":"35840"},{"name":"YAKAPINAR MAH.","zip":"35840"},{"name":"YENİ MAH.","zip":"35840"},{"name":"YENİCE MAH.","zip":"35840"},{"name":"YEŞİLOVA MAH.","zip":"35840"},{"name":"YUSUFLU MAH.","zip":"35840"},{"name":"ZEYTİNOVA MAH.","zip":"35840"}]},{"name":"CANLI","cityName":null,"quarters":[{"name":"CUMHURİYET MAH.","zip":"35845"},{"name":"KARAVELİLER MAH.","zip":"35845"}]},{"name":"ÇIRPI","cityName":null,"quarters":[{"name":"HASKÖY MAH.","zip":"35843"},{"name":"İBRAHİMÇAVUŞ MAH.","zip":"35843"},{"name":"MEKTEP MAH.","zip":"35843"},{"name":"NECATİ UZA MAH.","zip":"35843"}]},{"name":"ALPASLAN","cityName":null,"quarters":[{"name":"ALPASLAN MAH.","zip":"35540"},{"name":"CENGİZHAN MAH.","zip":"35540"},{"name":"ÇİÇEK MAH.","zip":"35540"},{"name":"FUAT EDİP BAKSI MAH.","zip":"35540"},{"name":"MUHİTTİN ERENER MAH.","zip":"35540"},{"name":"R.ŞEVKET İNCE MAH.","zip":"35540"},{"name":"TURAN MAH.","zip":"35540"}]},{"name":"BAYRAKLI","cityName":null,"quarters":[{"name":"BAYRAKLI MAH.","zip":"35530"},{"name":"ÇAY MAH.","zip":"35530"},{"name":"TEPEKULE MAH.","zip":"35530"}]},{"name":"GÜMÜŞPALA","cityName":null,"quarters":[{"name":"EMEK MAH.","zip":"35510"},{"name":"GÜMÜŞPALA MAH.","zip":"35510"},{"name":"ORG.NAFİZ GÜRMAN MAH.","zip":"35510"},{"name":"YAMANLAR MAH.","zip":"35510"}]},{"name":"MANAVKUYU","cityName":null,"quarters":[{"name":"MANSUROĞLU MAH.","zip":"35535"},{"name":"OSMANGAZİ MAH.","zip":"35535"}]},{"name":"SOĞUKKUYU","cityName":null,"quarters":[{"name":"ONUR MAH.","zip":"35520"},{"name":"POSTACILAR MAH.","zip":"35520"},{"name":"SOĞUKKUYU MAH.","zip":"35520"}]},{"name":"BERGAMA","cityName":null,"quarters":[{"name":"AKÇENGER MAH.","zip":"35700"},{"name":"ALACALAR MAH.","zip":"35700"},{"name":"ALHATLI MAH.","zip":"35700"},{"name":"ALİBEYLİ MAH.","zip":"35700"},{"name":"ARMAĞANLAR MAH.","zip":"35700"},{"name":"AŞAĞIBEY MAH.","zip":"35700"},{"name":"AŞAĞICUMA MAH.","zip":"35700"},{"name":"AŞAĞIILGINDERE MAH.","zip":"35700"},{"name":"AŞAĞIKIRIKLAR MAH.","zip":"35700"},{"name":"ATATÜRK MAH.","zip":"35700"},{"name":"ATÇILAR MAH.","zip":"35700"},{"name":"ATMACA MAH.","zip":"35700"},{"name":"AVUNDUK MAH.","zip":"35700"},{"name":"AVUNDURUK MAH.","zip":"35700"},{"name":"AYASKENT MAH.","zip":"35700"},{"name":"AYVATLAR MAH.","zip":"35700"},{"name":"AZİZİYE MAH.","zip":"35700"},{"name":"BAHÇELİEVLER MAH.","zip":"35700"},{"name":"BALABAN MAH.","zip":"35700"},{"name":"BARBAROS MAH.","zip":"35700"},{"name":"BAYRAMCILAR MAH.","zip":"35700"},{"name":"BEKİRLER MAH.","zip":"35700"},{"name":"BERGAMA OSB MAH.","zip":"35700"},{"name":"BOZKÖY MAH.","zip":"35700"},{"name":"BOZYERLER MAH.","zip":"35700"},{"name":"BÖLCEK MAH.","zip":"35700"},{"name":"CEVAPLI MAH.","zip":"35700"},{"name":"ÇAKIRLAR MAH.","zip":"35700"},{"name":"ÇALIBAHÇE MAH.","zip":"35700"},{"name":"ÇALTIKORU MAH.","zip":"35700"},{"name":"ÇAMAVLU MAH.","zip":"35700"},{"name":"ÇAMKÖY MAH.","zip":"35700"},{"name":"ÇAMOBA MAH.","zip":"35700"},{"name":"ÇELTİKÇİ MAH.","zip":"35700"},{"name":"ÇİTKÖY MAH.","zip":"35700"},{"name":"ÇOBANLAR MAH.","zip":"35700"},{"name":"ÇÜRÜKBAĞLAR MAH.","zip":"35700"},{"name":"DAĞISTAN MAH.","zip":"35700"},{"name":"DEMİRCİDERE MAH.","zip":"35700"},{"name":"DEREKÖY MAH.","zip":"35700"},{"name":"DOĞANCI MAH.","zip":"35700"},{"name":"DURMUŞLAR MAH.","zip":"35700"},{"name":"EĞİLLER MAH.","zip":"35700"},{"name":"EĞRİGÖL MAH.","zip":"35700"},{"name":"ERTUĞRUL MAH.","zip":"35700"},{"name":"FATİH MAH.","zip":"35700"},{"name":"FERİZLER MAH.","zip":"35700"},{"name":"FEVZİPAŞA MAH.","zip":"35700"},{"name":"GAYLAN MAH.","zip":"35700"},{"name":"GAZİOSMANPAŞA MAH.","zip":"35700"},{"name":"GAZİPAŞA MAH.","zip":"35700"},{"name":"GÖBELLER MAH.","zip":"35700"},{"name":"GÖÇBEYLİ MAH.","zip":"35700"},{"name":"GÖKÇEYURT MAH.","zip":"35700"},{"name":"GÜLTEPE MAH.","zip":"35700"},{"name":"GÜNEŞLİ MAH.","zip":"35700"},{"name":"HACIHAMZALAR MAH.","zip":"35700"},{"name":"HACILAR (DEREKÖY BUCAĞI) MAH.","zip":"35700"},{"name":"HACILAR (İSMAİLLİ BUCAĞI) MAH.","zip":"35700"},{"name":"HALİLAĞALAR MAH.","zip":"35700"},{"name":"HAMZALISÜLEYMANİYE MAH.","zip":"35700"},{"name":"HİSARKÖY MAH.","zip":"35700"},{"name":"ILGINCABER MAH.","zip":"35700"},{"name":"İKİZLER MAH.","zip":"35700"},{"name":"İNCECİKLER MAH.","zip":"35700"},{"name":"İNEŞİR MAH.","zip":"35700"},{"name":"İNKILAP MAH.","zip":"35700"},{"name":"İSLAMSARAY MAH.","zip":"35700"},{"name":"İSMAİLLİ MAH.","zip":"35700"},{"name":"KADIKÖY MAH.","zip":"35700"},{"name":"KADRİYE MAH.","zip":"35700"},{"name":"KALEARDI MAH.","zip":"35700"},{"name":"KAPIKAYA MAH.","zip":"35700"},{"name":"KAPLAN (GÖÇBEYLİ BUCAĞI) MAH.","zip":"35700"},{"name":"KAPLAN (YUKARIBEY BUCAĞI) MAH.","zip":"35700"},{"name":"KARAHIDIRLI MAH.","zip":"35700"},{"name":"KARALAR MAH.","zip":"35700"},{"name":"KARAVELİLER MAH.","zip":"35700"},{"name":"KAŞIKÇI MAH.","zip":"35700"},{"name":"KATRANCI MAH.","zip":"35700"},{"name":"KIRANLI MAH.","zip":"35700"},{"name":"KIRCALAR MAH.","zip":"35700"},{"name":"KIZILTEPE MAH.","zip":"35700"},{"name":"KOCAHALİLLER MAH.","zip":"35700"},{"name":"KOCAKÖY MAH.","zip":"35700"},{"name":"KOYUNELİ MAH.","zip":"35700"},{"name":"KOZLUCA MAH.","zip":"35700"},{"name":"KURFALLI MAH.","zip":"35700"},{"name":"KURTULUŞ MAH.","zip":"35700"},{"name":"MAHMUDİYE MAH.","zip":"35700"},{"name":"MALTEPE MAH.","zip":"35700"},{"name":"MARUFLAR MAH.","zip":"35700"},{"name":"MURATLAR MAH.","zip":"35700"},{"name":"NARLICA MAH.","zip":"35700"},{"name":"OKÇULAR MAH.","zip":"35700"},{"name":"ORUŞLAR MAH.","zip":"35700"},{"name":"OVACIK MAH.","zip":"35700"},{"name":"ÖKSÜZLER MAH.","zip":"35700"},{"name":"ÖRENLİ MAH.","zip":"35700"},{"name":"ÖRLEMİŞ MAH.","zip":"35700"},{"name":"PAŞAKÖY MAH.","zip":"35700"},{"name":"PINARKÖY MAH.","zip":"35700"},{"name":"PİREVELİLER MAH.","zip":"35700"},{"name":"RAHMANLAR MAH.","zip":"35700"},{"name":"SAĞANCI MAH.","zip":"35700"},{"name":"SARICALAR MAH.","zip":"35700"},{"name":"SARICAOĞLU MAH.","zip":"35700"},{"name":"SARIDERE MAH.","zip":"35700"},{"name":"SEKLİK MAH.","zip":"35700"},{"name":"SELÇUK MAH.","zip":"35700"},{"name":"SİNDEL MAH.","zip":"35700"},{"name":"SÜLEYMANLI MAH.","zip":"35700"},{"name":"TALATPAŞA MAH.","zip":"35700"},{"name":"TAVUKÇUKURU MAH.","zip":"35700"},{"name":"TEKKEDERE MAH.","zip":"35700"},{"name":"TEPEKÖY MAH.","zip":"35700"},{"name":"TERZİHALİLLER MAH.","zip":"35700"},{"name":"TIRMANLAR MAH.","zip":"35700"},{"name":"TİYELTİ MAH.","zip":"35700"},{"name":"TOPALLAR MAH.","zip":"35700"},{"name":"TURABEY MAH.","zip":"35700"},{"name":"ULUCAMİİ MAH.","zip":"35700"},{"name":"ÜÇTEPE MAH.","zip":"35700"},{"name":"ÜRKÜTLER MAH.","zip":"35700"},{"name":"YALNIZDAM MAH.","zip":"35700"},{"name":"YALNIZEV MAH.","zip":"35700"},{"name":"YENİKENT MAH.","zip":"35700"},{"name":"YENİLER MAH.","zip":"35700"},{"name":"YERLİTAHTACI MAH.","zip":"35700"},{"name":"YORTANLI MAH.","zip":"35700"},{"name":"YUKARIADA MAH.","zip":"35700"},{"name":"YUKARIBEY MAH.","zip":"35700"},{"name":"YUKARICUMA MAH.","zip":"35700"},{"name":"YUKARIKIRIKLAR MAH.","zip":"35700"},{"name":"ZAFER MAH.","zip":"35700"},{"name":"ZAĞNOZ MAH.","zip":"35700"},{"name":"ZEYTİNDAĞ MAH.","zip":"35700"}]},{"name":"BEYDAĞ","cityName":null,"quarters":[{"name":"AKTEPE MAH.","zip":"35790"},{"name":"ALAKEÇİLİ MAH.","zip":"35790"},{"name":"ATATÜRK MAH.","zip":"35790"},{"name":"BAKIRKÖY MAH.","zip":"35790"},{"name":"BEYKÖY MAH.","zip":"35790"},{"name":"CUMHURİYET MAH.","zip":"35790"},{"name":"ÇAMLIK MAH.","zip":"35790"},{"name":"ÇİFTLİKKÖY MAH.","zip":"35790"},{"name":"ÇOMAKLAR MAH.","zip":"35790"},{"name":"EĞRİDERE MAH.","zip":"35790"},{"name":"ERİKLİ MAH.","zip":"35790"},{"name":"HALIKÖY MAH.","zip":"35790"},{"name":"KARAOBA MAH.","zip":"35790"},{"name":"KURUDERE MAH.","zip":"35790"},{"name":"MENDERES MAH.","zip":"35790"},{"name":"MUTAFLAR MAH.","zip":"35790"},{"name":"PALAMUTÇUK MAH.","zip":"35790"},{"name":"SARIKAYA MAH.","zip":"35790"},{"name":"TABAKLAR MAH.","zip":"35790"},{"name":"YAĞCILAR MAH.","zip":"35790"},{"name":"YENİYURT MAH.","zip":"35790"},{"name":"YEŞİLTEPE MAH.","zip":"35790"},{"name":"YUKARIAKTEPE MAH.","zip":"35790"},{"name":"YUKARITOSUNLAR MAH.","zip":"35790"}]},{"name":"ALTINDAĞ","cityName":null,"quarters":[{"name":"ÇAMKULE MAH.","zip":"35080"},{"name":"KOŞUKAVAK MAH.","zip":"35080"},{"name":"MERKEZ MAH.","zip":"35080"},{"name":"SERİNTEPE MAH.","zip":"35080"},{"name":"YEŞİLOVA MAH.","zip":"35080"},{"name":"ZAFER MAH.","zip":"35080"}]},{"name":"ATATÜRK","cityName":null,"quarters":[{"name":"EVKA 4 MAH.","zip":"35030"},{"name":"İNÖNÜ MAH.","zip":"35030"},{"name":"KIZILAY MAH.","zip":"35030"}]},{"name":"BORNOVA","cityName":null,"quarters":[{"name":"ÇAMİÇİ MAH.","zip":"35040"},{"name":"ÇİÇEKLİ MAH.","zip":"35040"},{"name":"EĞRİDERE MAH.","zip":"35040"},{"name":"ERGENE MAH.","zip":"35040"},{"name":"ERZENE MAH.","zip":"35040"},{"name":"GÖKDERE MAH.","zip":"35040"},{"name":"KARAÇAM MAH.","zip":"35040"},{"name":"KAVAKLIDERE MAH.","zip":"35040"},{"name":"KAYADİBİ MAH.","zip":"35040"},{"name":"KURUDERE MAH.","zip":"35040"},{"name":"LAKA MAH.","zip":"35040"},{"name":"SARNIÇKÖY MAH.","zip":"35040"},{"name":"YAKAKÖY MAH.","zip":"35040"}]},{"name":"ÇAMDİBİ","cityName":null,"quarters":[{"name":"ÇINAR MAH.","zip":"35090"},{"name":"GAZİ OSMAN PAŞA MAH.","zip":"35090"},{"name":"MERİÇ MAH.","zip":"35090"},{"name":"RAFET PAŞA MAH.","zip":"35090"},{"name":"TUNA MAH.","zip":"35090"},{"name":"YILDIRIM BEYAZIT MAH.","zip":"35090"}]},{"name":"IŞIKKENT","cityName":null,"quarters":[{"name":"IŞIKLAR MAH.","zip":"35070"},{"name":"KARACAOĞLAN MAH.","zip":"35070"}]},{"name":"KAZIMDİRİK","cityName":null,"quarters":null},{"name":"NALDÖKEN","cityName":null,"quarters":[{"name":"EVKA 3 MAH.","zip":"35050"},{"name":"MEVLANA MAH.","zip":"35050"},{"name":"NALDÖKEN MAH.","zip":"35050"},{"name":"YEŞİLÇAM MAH.","zip":"35050"}]},{"name":"PINARBAŞI","cityName":null,"quarters":[{"name":"KEMALPAŞA MAH.","zip":"35060"},{"name":"ÜMİT MAH.","zip":"35060"},{"name":"YUNUS EMRE MAH.","zip":"35060"}]},{"name":"BUCA","cityName":null,"quarters":[{"name":"BELENBAŞI MAH.","zip":"35390"},{"name":"BUCA KOOP MAH.","zip":"35390"},{"name":"ÇAMLIKULE MAH.","zip":"35390"},{"name":"ÇAMLIPINAR MAH.","zip":"35390"},{"name":"DOĞANCILAR MAH.","zip":"35390"},{"name":"KARACAAĞAÇ MAH.","zip":"35390"},{"name":"KAYNAKLAR MERKEZ MAH.","zip":"35390"},{"name":"KIRIKLAR MAH.","zip":"35390"},{"name":"KOZAĞAÇ MAH.","zip":"35390"},{"name":"KURUÇEŞME MAH.","zip":"35390"},{"name":"YENİGÜN MAH.","zip":"35390"},{"name":"YILDIZ MAH.","zip":"35390"}]},{"name":"EVKA1","cityName":null,"quarters":[{"name":"AYDOĞDU MAH.","zip":"35400"},{"name":"BUCAOSB MAH.","zip":"35400"},{"name":"CUMHURİYET MAH.","zip":"35400"},{"name":"ÇAĞDAŞ MAH.","zip":"35400"},{"name":"DUMLUPINAR MAH.","zip":"35400"},{"name":"GAZİLER MAH.","zip":"35400"},{"name":"İZKENT MAH.","zip":"35400"},{"name":"KARANFİL MAH.","zip":"35400"},{"name":"MURATHAN MAH.","zip":"35400"},{"name":"ŞİRİNKAPI MAH.","zip":"35400"},{"name":"YAYLACIK MAH.","zip":"35400"}]},{"name":"İŞÇİEVLERİ","cityName":null,"quarters":[{"name":"ÇALDIRAN MAH.","zip":"35370"},{"name":"ÇAMLIK MAH.","zip":"35370"},{"name":"DİCLE MAH.","zip":"35370"},{"name":"GÜVEN MAH.","zip":"35370"},{"name":"HÜRRİYET MAH.","zip":"35370"},{"name":"LALELİ MAH.","zip":"35370"},{"name":"MENDERES MAH.","zip":"35370"},{"name":"UFUK MAH.","zip":"35370"},{"name":"YİĞİTLER MAH.","zip":"35370"}]},{"name":"KAYNAKLAR","cityName":null,"quarters":[{"name":"YILDIZLAR MAH.","zip":"35395"},{"name":"ZAFER MAH.","zip":"35395"}]},{"name":"ŞİRİNYER","cityName":null,"quarters":[{"name":"EFELER MAH.","zip":"35380"},{"name":"FIRAT MAH.","zip":"35380"},{"name":"GÖKSU MAH.","zip":"35380"},{"name":"İNKILAP MAH.","zip":"35380"},{"name":"İNÖNÜ MAH.","zip":"35380"},{"name":"MUSTAFA KEMAL MAH.","zip":"35380"},{"name":"SEYHAN MAH.","zip":"35380"},{"name":"VALİ RAHMİ BEY MAH.","zip":"35380"},{"name":"YEŞİLBAĞLAR MAH.","zip":"35380"}]},{"name":"ALAÇATI","cityName":null,"quarters":[{"name":"KARAKÖY MAH.","zip":"35937"}]},{"name":"ÇEŞME","cityName":null,"quarters":[{"name":"ALAÇATI MAH.","zip":"35930"},{"name":"ALTINKUM MAH.","zip":"35930"},{"name":"ALTINYUNUS MAH.","zip":"35930"},{"name":"ARDIÇ MAH.","zip":"35930"},{"name":"BOYALIK MAH.","zip":"35930"},{"name":"CELAL BAYAR MAH.","zip":"35930"},{"name":"CUMHURİYET MAH.","zip":"35930"},{"name":"ÇAKABEY MAH.","zip":"35930"},{"name":"ÇİFTLİK MAH.","zip":"35930"},{"name":"DALYAN MAH.","zip":"35930"},{"name":"FAHRETTİNPAŞA MAH.","zip":"35930"},{"name":"ILDIR MAH.","zip":"35930"},{"name":"ILICA MAH.","zip":"35930"},{"name":"İSMET İNÖNÜ MAH.","zip":"35930"},{"name":"MUSALLA MAH.","zip":"35930"},{"name":"OVACIK MAH.","zip":"35930"},{"name":"REİSDERE MAH.","zip":"35930"},{"name":"SAKARYA MAH.","zip":"35930"},{"name":"ŞEHİT MEHMET MAH.","zip":"35930"},{"name":"ŞİFNE MAH.","zip":"35930"},{"name":"ÜNİVERSİTE MAH.","zip":"35930"},{"name":"YALI MAH.","zip":"35930"}]},{"name":"BÜYÜKÇİĞLİ","cityName":null,"quarters":[{"name":"AYDINLIKEVLER MAH.","zip":"35640"},{"name":"EVKA-2 MAH.","zip":"35640"},{"name":"EVKA-6 MAH.","zip":"35640"},{"name":"GÜZELTEPE MAH.","zip":"35640"},{"name":"KÖYİÇİ MAH.","zip":"35640"},{"name":"MALTEPE MAH.","zip":"35640"},{"name":"ŞİRİNTEPE MAH.","zip":"35640"},{"name":"YAKAKENT MAH.","zip":"35640"}]},{"name":"ÇİĞLİ","cityName":null,"quarters":[{"name":"ATAŞEHİR MAH.","zip":"35620"},{"name":"BALATÇIK MAH.","zip":"35620"},{"name":"KAKLIÇ MAH.","zip":"35620"},{"name":"KÜÇÜK ÇİĞLİ MAH.","zip":"35620"},{"name":"SASALI MERKEZ MAH.","zip":"35620"},{"name":"YENİ MAHALLE MAH.","zip":"35620"}]},{"name":"EGEKENT","cityName":null,"quarters":[{"name":"ÇAĞDAŞ MAH.","zip":"35610"},{"name":"EGEKENT MAH.","zip":"35610"},{"name":"ESENTEPE MAH.","zip":"35610"},{"name":"EVKA-5 MAH.","zip":"35610"},{"name":"İZKENT MAH.","zip":"35610"}]},{"name":"HARMANDALI","cityName":null,"quarters":[{"name":"CUMHURİYET MAH.","zip":"35650"},{"name":"HARMANDALI GAZİ MUSTAFA KEMAL ATATÜRK MAH.","zip":"35650"},{"name":"İNÖNÜ MAH.","zip":"35650"},{"name":"UĞUR MUMCU MAH.","zip":"35650"}]},{"name":"DİKİLİ","cityName":null,"quarters":[{"name":"BAHÇELİ MAH.","zip":"35980"},{"name":"CUMHURİYET MAH.","zip":"35980"},{"name":"ÇAĞLAN MAH.","zip":"35980"},{"name":"ÇANDARLI MAH.","zip":"35980"},{"name":"ÇUKURALANI MAH.","zip":"35980"},{"name":"DELİKTAŞ MAH.","zip":"35980"},{"name":"DEMİRTAŞ MAH.","zip":"35980"},{"name":"DENİZKÖY MAH.","zip":"35980"},{"name":"ESENTEPE MAH.","zip":"35980"},{"name":"GAZİPAŞA MAH.","zip":"35980"},{"name":"GÖKÇEAĞIL MAH.","zip":"35980"},{"name":"İSLAMLAR MAH.","zip":"35980"},{"name":"İSMETPAŞA MAH.","zip":"35980"},{"name":"KABAKUM MAH.","zip":"35980"},{"name":"KATIRALANI MAH.","zip":"35980"},{"name":"KIRATLI MAH.","zip":"35980"},{"name":"KIROBA MAH.","zip":"35980"},{"name":"KIZILÇUKUR MAH.","zip":"35980"},{"name":"KOCAOBA MAH.","zip":"35980"},{"name":"MAZILI MAH.","zip":"35980"},{"name":"MERDİVENLİ MAH.","zip":"35980"},{"name":"NEBİLER MAH.","zip":"35980"},{"name":"SALİHLER MAH.","zip":"35980"},{"name":"SALİMBEY MAH.","zip":"35980"},{"name":"SAMANLIKKÖY MAH.","zip":"35980"},{"name":"UZUNBURUN MAH.","zip":"35980"},{"name":"YAHŞİBEY MAH.","zip":"35980"},{"name":"YAYLAYURT MAH.","zip":"35980"},{"name":"YENİCE MAH.","zip":"35980"}]},{"name":"BAĞARASI","cityName":null,"quarters":[{"name":"KAZIM DİRİK MAH.","zip":"35683"}]},{"name":"FOÇA","cityName":null,"quarters":[{"name":"FEVZİPAŞA MAH.","zip":"35680"},{"name":"ILIPINAR MAH.","zip":"35680"},{"name":"İSMETPAŞA MAH.","zip":"35680"},{"name":"KEMAL ATATÜRK MAH.","zip":"35680"},{"name":"KOCA MEHMETLER MAH.","zip":"35680"},{"name":"KOZBEYLİ MAH.","zip":"35680"},{"name":"MAREŞAL FEVZİ ÇAKMAK MAH.","zip":"35680"},{"name":"MUSTAFA KEMAL ATATÜRK MAH.","zip":"35680"},{"name":"YENİBAĞARASI MAH.","zip":"35680"},{"name":"YENİKÖY MAH.","zip":"35680"}]},{"name":"YENİFOÇA","cityName":null,"quarters":[{"name":"FATİH MAH.","zip":"35687"},{"name":"FEVZİ ÇAKMAK MAH.","zip":"35687"}]},{"name":"GAZİEMİR","cityName":null,"quarters":[{"name":"ATATÜRK MAH.","zip":"35410"},{"name":"ATIFBEY MAH.","zip":"35410"},{"name":"BEYAZEVLER MAH.","zip":"35410"},{"name":"BİNBAŞI REŞATBEY MAH.","zip":"35410"},{"name":"DOKUZ EYLÜL MAH.","zip":"35410"},{"name":"EMREZ MAH.","zip":"35410"},{"name":"FATİH MAH.","zip":"35410"},{"name":"GAZİ MAH.","zip":"35410"},{"name":"GAZİKENT MAH.","zip":"35410"},{"name":"HÜRRİYET MAH.","zip":"35410"},{"name":"IRMAK MAH.","zip":"35410"},{"name":"MENDERES MAH.","zip":"35410"},{"name":"SEVGİ MAH.","zip":"35410"},{"name":"YEŞİL MAH.","zip":"35410"},{"name":"ZAFER MAH.","zip":"35410"},{"name":"ZAFER SB MAH.","zip":"35410"}]},{"name":"GÜZELBAHÇE","cityName":null,"quarters":[{"name":"ÇAMLI MAH.","zip":"35310"},{"name":"ÇELEBİ MAH.","zip":"35310"},{"name":"KAHRAMANDERE MAH.","zip":"35310"},{"name":"KÜÇÜKKAYA MAH.","zip":"35310"},{"name":"MALTEPE MAH.","zip":"35310"},{"name":"MUSTAFA KEMAL PAŞA MAH.","zip":"35310"},{"name":"PAYAMLI MAH.","zip":"35310"},{"name":"SİTELER MAH.","zip":"35310"},{"name":"YAKA MAH.","zip":"35310"},{"name":"YALI MAH.","zip":"35310"},{"name":"YELKİ MAH.","zip":"35310"}]},{"name":"FAHRETTİNALTAY","cityName":null,"quarters":[{"name":"ESENTEPE MAH.","zip":"35140"},{"name":"ESENYALI MAH.","zip":"35140"},{"name":"FAHRETTİN ALTAY MAH.","zip":"35140"},{"name":"GENERAL KAZIM öZALP MAH.","zip":"35140"},{"name":"MALİYECİLER MAH.","zip":"35140"},{"name":"METİN OKTAY MAH.","zip":"35140"},{"name":"MUAMMER AKAR MAH.","zip":"35140"},{"name":"POLİGON MAH.","zip":"35140"},{"name":"ŞEHİTLER MAH.","zip":"35140"},{"name":"ÜÇKUYULAR MAH.","zip":"35140"}]},{"name":"HATAY","cityName":null,"quarters":[{"name":"BAHÇELİEVLER MAH.","zip":"35150"},{"name":"BASIN SİTESİ MAH.","zip":"35150"}]},{"name":"KARABAĞLAR","cityName":null,"quarters":[{"name":"BARIŞ MAH.","zip":"35130"},{"name":"GÜNALTAY MAH.","zip":"35130"},{"name":"İHSAN ALYANAK MAH.","zip":"35130"},{"name":"KAVACIK MAH.","zip":"35130"},{"name":"PEKER MAH.","zip":"35130"},{"name":"SELVİLİ MAH.","zip":"35130"},{"name":"SEVGİ MAH.","zip":"35130"},{"name":"TIRAZLI MAH.","zip":"35130"},{"name":"YUNUS EMRE MAH.","zip":"35130"}]},{"name":"KİBAR","cityName":null,"quarters":[{"name":"CENNETÇEŞME MAH.","zip":"35120"},{"name":"DEVRİM MAH.","zip":"35120"},{"name":"GAZİ MAH.","zip":"35120"},{"name":"KİBAR MAH.","zip":"35120"},{"name":"ÖZGÜR MAH.","zip":"35120"},{"name":"UMUT MAH.","zip":"35120"},{"name":"UZUNDERE MAH.","zip":"35120"},{"name":"YAŞAR KEMAL MAH.","zip":"35120"},{"name":"YURDOĞLU MAH.","zip":"35120"},{"name":"YÜZBAŞI ŞERAFETTİN MAH.","zip":"35120"}]},{"name":"YEŞİLYURT","cityName":null,"quarters":[{"name":"ALİ FUAT ERDEN MAH.","zip":"35160"},{"name":"BAHRİYE ÜÇOK MAH.","zip":"35160"},{"name":"DOĞANAY MAH.","zip":"35160"},{"name":"ESENLİK MAH.","zip":"35160"},{"name":"KAZIM KARABEKİR MAH.","zip":"35160"},{"name":"LİMONTEPE MAH.","zip":"35160"},{"name":"REFET BELE MAH.","zip":"35160"},{"name":"REİS MAH.","zip":"35160"},{"name":"SALİH OMURTAK MAH.","zip":"35160"},{"name":"TAHSİN YAZICI MAH.","zip":"35160"},{"name":"VATAN MAH.","zip":"35160"}]},{"name":"ZİNCİRLİKUYU","cityName":null,"quarters":[{"name":"BAHAR MAH.","zip":"35110"},{"name":"BOZYAKA MAH.","zip":"35110"},{"name":"CENNETOĞLU MAH.","zip":"35110"},{"name":"ÇALIKUŞU MAH.","zip":"35110"},{"name":"GENERAL ASIM GÜNDÜZ MAH.","zip":"35110"},{"name":"GÜLYAKA MAH.","zip":"35110"},{"name":"KARABAĞLAR MAH.","zip":"35110"},{"name":"OSMAN AKSÜNER MAH.","zip":"35110"},{"name":"SARIYER MAH.","zip":"35110"},{"name":"UĞUR MUMCU MAH.","zip":"35110"}]},{"name":"KARABURUN","cityName":null,"quarters":[{"name":"BOZKÖY MAH.","zip":"35960"},{"name":"EĞLENHOCA MAH.","zip":"35960"},{"name":"HASSEKİ MAH.","zip":"35960"},{"name":"İNECİK MAH.","zip":"35960"},{"name":"İSKELE MAH.","zip":"35960"},{"name":"KÖSEDERE MAH.","zip":"35960"},{"name":"KÜÇÜKBAHÇE MAH.","zip":"35960"},{"name":"MERKEZ MAH.","zip":"35960"},{"name":"PARLAK MAH.","zip":"35960"},{"name":"SAİP MAH.","zip":"35960"},{"name":"SALMAN MAH.","zip":"35960"},{"name":"SARPINCIK MAH.","zip":"35960"},{"name":"TEPEBOZ MAH.","zip":"35960"},{"name":"YAYLA MAH.","zip":"35960"}]},{"name":"MORDOĞAN","cityName":null,"quarters":null},{"name":"ALAYBEY","cityName":null,"quarters":[{"name":"BAHARİYE MAH.","zip":"35600"},{"name":"BAHÇELİEVLER MAH.","zip":"35600"},{"name":"TERSANE MAH.","zip":"35600"},{"name":"TUNA MAH.","zip":"35600"}]},{"name":"CUMHURİYET","cityName":null,"quarters":[{"name":"İNÖNÜ MAH.","zip":"35570"},{"name":"MUSTAFA KEMAL MAH.","zip":"35570"},{"name":"ZÜBEYDE HANIM MAH.","zip":"35570"}]},{"name":"DENİZBOSTANLISI","cityName":null,"quarters":[{"name":"BOSTANLI MAH.","zip":"35590"},{"name":"MAVİŞEHİR MAH.","zip":"35590"}]},{"name":"İMBATLI","cityName":null,"quarters":[{"name":"LATİFE HANIM MAH.","zip":"35575"},{"name":"ÖRNEKKÖY MAH.","zip":"35575"}]},{"name":"KARŞIYAKA","cityName":null,"quarters":[{"name":"BAHRİYE ÜÇOK MAH.","zip":"35580"},{"name":"DONANMACI MAH.","zip":"35580"},{"name":"SANCAKLI MAH.","zip":"35580"},{"name":"YAMANLAR MAH.","zip":"35580"}]},{"name":"NERGİZ","cityName":null,"quarters":[{"name":"DEMİRKÖPRÜ MAH.","zip":"35560"},{"name":"FİKRİ ALTAY MAH.","zip":"35560"},{"name":"GONCALAR MAH.","zip":"35560"},{"name":"NERGİZ MAH.","zip":"35560"},{"name":"ŞEMİKLER MAH.","zip":"35560"}]},{"name":"YALI","cityName":null,"quarters":null},{"name":"ARMUTLU","cityName":null,"quarters":[{"name":"HÜRRİYET MAH.","zip":"35737"}]},{"name":"BAĞYURDU","cityName":null,"quarters":[{"name":"HALİLBEYLİ MAH.","zip":"35743"},{"name":"KAZIMPAŞA MAH.","zip":"35743"},{"name":"KEMAL ATATÜRK MAH.","zip":"35743"},{"name":"YENİ MAH.","zip":"35743"}]},{"name":"KEMALPAŞA","cityName":null,"quarters":[{"name":"AKALAN MAH.","zip":"35730"},{"name":"ANSIZCA MAH.","zip":"35730"},{"name":"AŞAĞIKIZILCA MAH.","zip":"35730"},{"name":"ATATÜRK MAH.","zip":"35730"},{"name":"BAYRAMLI MAH.","zip":"35730"},{"name":"BEŞPINAR MAH.","zip":"35730"},{"name":"CUMALI MAH.","zip":"35730"},{"name":"ÇAMBEL MAH.","zip":"35730"},{"name":"ÇINARKÖY MAH.","zip":"35730"},{"name":"ÇİNİLİKÖY MAH.","zip":"35730"},{"name":"DAMLACIK MAH.","zip":"35730"},{"name":"DEREKÖY MAH.","zip":"35730"},{"name":"GÖKÇEYURT MAH.","zip":"35730"},{"name":"GÖKYAKA MAH.","zip":"35730"},{"name":"HALİLBEYLİ OSB MAH.","zip":"35730"},{"name":"HAMZABABA MAH.","zip":"35730"},{"name":"KAMBERLER MAH.","zip":"35730"},{"name":"KEMALPAŞA OSB MAH.","zip":"35730"},{"name":"KIZILÜZÜM MAH.","zip":"35730"},{"name":"KUYUCAK MAH.","zip":"35730"},{"name":"MEHMET AKİF ERSOY MAH.","zip":"35730"},{"name":"NAZARKÖY MAH.","zip":"35730"},{"name":"OVACIK MAH.","zip":"35730"},{"name":"ÖRNEKKÖY MAH.","zip":"35730"},{"name":"SARIÇALI MAH.","zip":"35730"},{"name":"SARILAR MAH.","zip":"35730"},{"name":"SEKİZ EYLÜL MAH.","zip":"35730"},{"name":"SİNANCILAR MAH.","zip":"35730"},{"name":"SOĞUKPINAR MAH.","zip":"35730"},{"name":"SÜTÇÜLER MAH.","zip":"35730"},{"name":"VİŞNELİ MAH.","zip":"35730"},{"name":"YENİKURUDERE MAH.","zip":"35730"},{"name":"YENMİŞ MAH.","zip":"35730"},{"name":"YEŞİLKÖY MAH.","zip":"35730"},{"name":"YEŞİLYURT MAH.","zip":"35730"},{"name":"YİĞİTLER MAH.","zip":"35730"},{"name":"YUKARIKIZILCA MERKEZ MAH.","zip":"35730"},{"name":"ZEAMET MAH.","zip":"35730"}]},{"name":"ÖREN","cityName":null,"quarters":null},{"name":"ULUCAK","cityName":null,"quarters":[{"name":"İSTİKLAL MAH.","zip":"35735"},{"name":"MUSTAFA KEMAL ATATÜRK MAH.","zip":"35735"}]},{"name":"KINIK","cityName":null,"quarters":[{"name":"ARPASEKİ MAH.","zip":"35990"},{"name":"AŞAĞI MAH.","zip":"35990"},{"name":"AZİZİYE MAH.","zip":"35990"},{"name":"BADEMALAN MAH.","zip":"35990"},{"name":"BAĞALAN MAH.","zip":"35990"},{"name":"BALABAN MAH.","zip":"35990"},{"name":"BÜYÜKOBA MAH.","zip":"35990"},{"name":"CUMALI MAH.","zip":"35990"},{"name":"ÇALTI MAH.","zip":"35990"},{"name":"ÇANKÖY MAH.","zip":"35990"},{"name":"ÇİFTLİKKÖY MAH.","zip":"35990"},{"name":"DEĞİRMENCİELİ MAH.","zip":"35990"},{"name":"DÜNDARLI MAH.","zip":"35990"},{"name":"ELMADERE MAH.","zip":"35990"},{"name":"FATİH MAH.","zip":"35990"},{"name":"HAMZAHOCALI MAH.","zip":"35990"},{"name":"IŞIKLAR MAH.","zip":"35990"},{"name":"İBRAHİMAĞA MAH.","zip":"35990"},{"name":"KALEMKÖY MAH.","zip":"35990"},{"name":"KARADERE MAH.","zip":"35990"},{"name":"KARATEKELİ MAH.","zip":"35990"},{"name":"KINIK OSB MAH.","zip":"35990"},{"name":"KOCAÖMER MAH.","zip":"35990"},{"name":"KODUKBURUN MAH.","zip":"35990"},{"name":"KÖSELER MAH.","zip":"35990"},{"name":"MISTIKLAR MAH.","zip":"35990"},{"name":"MUSACALI MAH.","zip":"35990"},{"name":"OSMANİYE MAH.","zip":"35990"},{"name":"ÖRTÜLÜ MAH.","zip":"35990"},{"name":"POYRACIK MAH.","zip":"35990"},{"name":"SUCAHLI MAH.","zip":"35990"},{"name":"TAŞTEPE MAH.","zip":"35990"},{"name":"TÜRKCEDİT MAH.","zip":"35990"},{"name":"YAYAKENT MAH.","zip":"35990"},{"name":"YAYLAKÖY MAH.","zip":"35990"},{"name":"YENİ MAH.","zip":"35990"},{"name":"YUKARI MAH.","zip":"35990"}]},{"name":"KİRAZ","cityName":null,"quarters":[{"name":"AKPINAR MAH.","zip":"35890"},{"name":"ALTINOLUK MAH.","zip":"35890"},{"name":"ARKACILAR MAH.","zip":"35890"},{"name":"AVUNDURUK MAH.","zip":"35890"},{"name":"AYDOĞDU MAH.","zip":"35890"},{"name":"BAHÇEARASI MAH.","zip":"35890"},{"name":"BAŞARAN MAH.","zip":"35890"},{"name":"CERİTLER MAH.","zip":"35890"},{"name":"CEVİZLİ MAH.","zip":"35890"},{"name":"CUMHURİYET MAH.","zip":"35890"},{"name":"ÇANAKÇI MAH.","zip":"35890"},{"name":"ÇATAK MAH.","zip":"35890"},{"name":"ÇAYAĞZI MAH.","zip":"35890"},{"name":"ÇÖMLEKÇİ MAH.","zip":"35890"},{"name":"DOĞANCILAR MAH.","zip":"35890"},{"name":"DOKUZLAR MAH.","zip":"35890"},{"name":"EMENLER MAH.","zip":"35890"},{"name":"GEDİK MAH.","zip":"35890"},{"name":"HALİLLER MAH.","zip":"35890"},{"name":"HİSAR MAH.","zip":"35890"},{"name":"İĞDELİ MAH.","zip":"35890"},{"name":"İSTİKLAL MAH.","zip":"35890"},{"name":"KALEKÖY MAH.","zip":"35890"},{"name":"KARABAĞ MAH.","zip":"35890"},{"name":"KARABULU MAH.","zip":"35890"},{"name":"KARABURÇ MAH.","zip":"35890"},{"name":"KARAMAN MAH.","zip":"35890"},{"name":"KIRKÖY MAH.","zip":"35890"},{"name":"KİBAR MAH.","zip":"35890"},{"name":"MAVİDERE MAH.","zip":"35890"},{"name":"MERSİNLİDERE MAH.","zip":"35890"},{"name":"OLGUNLAR MAH.","zip":"35890"},{"name":"OVACIK MAH.","zip":"35890"},{"name":"ÖREN MAH.","zip":"35890"},{"name":"ÖRENCİK MAH.","zip":"35890"},{"name":"PINARBAŞI MAH.","zip":"35890"},{"name":"SAÇLI MAH.","zip":"35890"},{"name":"SARIKAYA MAH.","zip":"35890"},{"name":"SARISU MAH.","zip":"35890"},{"name":"SIRIMLI MAH.","zip":"35890"},{"name":"SOLAKLAR MAH.","zip":"35890"},{"name":"SULUDERE MAH.","zip":"35890"},{"name":"ŞEMSİLER MAH.","zip":"35890"},{"name":"TAŞLIYATAK MAH.","zip":"35890"},{"name":"TEKBIÇAKLAR MAH.","zip":"35890"},{"name":"TUMBULLAR MAH.","zip":"35890"},{"name":"UMURCALI MAH.","zip":"35890"},{"name":"UMURLU MAH.","zip":"35890"},{"name":"UZUNKÖY MAH.","zip":"35890"},{"name":"VELİLER MAH.","zip":"35890"},{"name":"YAĞLAR MAH.","zip":"35890"},{"name":"YENİ MAH.","zip":"35890"},{"name":"YENİKÖY MAH.","zip":"35890"},{"name":"YENİŞEHİR MAH.","zip":"35890"},{"name":"YEŞİLDERE MAH.","zip":"35890"}]},{"name":"ALSANCAK","cityName":null,"quarters":[{"name":"KÜLTÜR MAH.","zip":"35220"},{"name":"MİMAR SİNAN MAH.","zip":"35220"}]},{"name":"BASMANE","cityName":null,"quarters":[{"name":"AKINCI MAH.","zip":"35240"},{"name":"ALİ REİS MAH.","zip":"35240"},{"name":"ALTAY MAH.","zip":"35240"},{"name":"ALTINORDU MAH.","zip":"35240"},{"name":"DAYIEMİR MAH.","zip":"35240"},{"name":"DOLAPLIKUYU MAH.","zip":"35240"},{"name":"ETİLER MAH.","zip":"35240"},{"name":"FAİK PAŞA MAH.","zip":"35240"},{"name":"HURŞİDİYE MAH.","zip":"35240"},{"name":"KOCAKAPI MAH.","zip":"35240"},{"name":"KUBİLAY MAH.","zip":"35240"},{"name":"KURTULUŞ MAH.","zip":"35240"},{"name":"MİRALİ MAH.","zip":"35240"},{"name":"NAMAZGAH MAH.","zip":"35240"},{"name":"PAZARYERİ MAH.","zip":"35240"},{"name":"SAKARYA MAH.","zip":"35240"},{"name":"SELÇUK MAH.","zip":"35240"},{"name":"SÜVARİ MAH.","zip":"35240"},{"name":"TUZCU MAH.","zip":"35240"},{"name":"ÜLKÜ MAH.","zip":"35240"},{"name":"YENİ MAH.","zip":"35240"}]},{"name":"EŞREFPAŞA","cityName":null,"quarters":[{"name":"19 MAYIS MAH.","zip":"35270"},{"name":"2.KADRİYE MAH.","zip":"35270"},{"name":"ATİLLA MAH.","zip":"35270"},{"name":"AZİZİYE MAH.","zip":"35270"},{"name":"BALLIKUYU MAH.","zip":"35270"},{"name":"ÇİMENTEPE MAH.","zip":"35270"},{"name":"DUATEPE MAH.","zip":"35270"},{"name":"GÜNEŞLİ MAH.","zip":"35270"},{"name":"HASAN ÖZDEMİR MAH.","zip":"35270"},{"name":"İMARİYE MAH.","zip":"35270"},{"name":"KADİFEKALE MAH.","zip":"35270"},{"name":"KOCATEPE MAH.","zip":"35270"},{"name":"KOSOVA MAH.","zip":"35270"},{"name":"TINAZTEPE MAH.","zip":"35270"},{"name":"VEZİRAĞA MAH.","zip":"35270"},{"name":"YEŞİLDERE MAH.","zip":"35270"},{"name":"ZAFERTEPE MAH.","zip":"35270"}]},{"name":"GÜLTEPE","cityName":null,"quarters":[{"name":"ANADOLU MAH.","zip":"35190"},{"name":"ATAMER MAH.","zip":"35190"},{"name":"ÇINARTEPE MAH.","zip":"35190"},{"name":"HUZUR MAH.","zip":"35190"},{"name":"MEHMET AKİF MAH.","zip":"35190"},{"name":"MİLLET MAH.","zip":"35190"},{"name":"MURAT MAH.","zip":"35190"},{"name":"SAYGI MAH.","zip":"35190"},{"name":"TRAKYA MAH.","zip":"35190"},{"name":"ULUBATLI MAH.","zip":"35190"},{"name":"YAVUZ SELİM MAH.","zip":"35190"},{"name":"ZEYBEK MAH.","zip":"35190"}]},{"name":"GÜRÇEŞME","cityName":null,"quarters":[{"name":"CENGİZ TOPEL MAH.","zip":"35180"},{"name":"EMİR SULTAN MAH.","zip":"35180"},{"name":"FERAHLI MAH.","zip":"35180"},{"name":"GÜNEY MAH.","zip":"35180"},{"name":"İSMET PAŞA MAH.","zip":"35180"},{"name":"KÜÇÜKADA MAH.","zip":"35180"},{"name":"LALE MAH.","zip":"35180"},{"name":"LEVENT MAH.","zip":"35180"},{"name":"MEHTAP MAH.","zip":"35180"},{"name":"YENİDOĞAN MAH.","zip":"35180"},{"name":"ZEYTİNLİK MAH.","zip":"35180"}]},{"name":"GÜZELYALI","cityName":null,"quarters":[{"name":"GÜZELYALI MAH.","zip":"35290"},{"name":"MEHMET ALİ AKMAN MAH.","zip":"35290"}]},{"name":"KAHRAMANLAR","cityName":null,"quarters":[{"name":"KAHRAMANLAR MAH.","zip":"35230"},{"name":"OĞUZLAR MAH.","zip":"35230"},{"name":"UMURBEY MAH.","zip":"35230"}]},{"name":"KEMERALTI","cityName":null,"quarters":[{"name":"GÜZELYURT MAH.","zip":"35250"},{"name":"KESTELLİ MAH.","zip":"35250"},{"name":"KONAK MAH.","zip":"35250"},{"name":"YENİGÜN MAH.","zip":"35250"}]},{"name":"KONAK","cityName":null,"quarters":[{"name":"BARBAROS MAH.","zip":"35260"},{"name":"BOZKURT MAH.","zip":"35260"},{"name":"ÇAHABEY MAH.","zip":"35260"},{"name":"FATİH MAH.","zip":"35260"},{"name":"FEVZİ PAŞA MAH.","zip":"35260"},{"name":"GÜNGÖR MAH.","zip":"35260"},{"name":"KAHRAMAN MESCİT MAH.","zip":"35260"},{"name":"MECİDİYE MAH.","zip":"35260"},{"name":"NAMIK KEMAL MAH.","zip":"35260"},{"name":"ODUNKAPI MAH.","zip":"35260"},{"name":"SÜMER MAH.","zip":"35260"},{"name":"ŞEHİT NEDİM TUĞALTAY MAH.","zip":"35260"},{"name":"TAN MAH.","zip":"35260"},{"name":"TÜRKYILMAZ MAH.","zip":"35260"},{"name":"UĞUR MAH.","zip":"35260"},{"name":"YEŞİLTEPE MAH.","zip":"35260"},{"name":"YILDIZ MAH.","zip":"35260"}]},{"name":"KÜÇÜKYALI","cityName":null,"quarters":[{"name":"ÇANKAYA MAH.","zip":"35280"},{"name":"KEMAL REİS MAH.","zip":"35280"},{"name":"KILIÇ REİS MAH.","zip":"35280"},{"name":"MİTHATPAŞA MAH.","zip":"35280"},{"name":"MURAT REİS MAH.","zip":"35280"},{"name":"PİRİ REİS MAH.","zip":"35280"},{"name":"TURGUT REİS MAH.","zip":"35280"}]},{"name":"PASAPORT","cityName":null,"quarters":[{"name":"İSMET KAPTAN MAH.","zip":"35210"}]},{"name":"YENİŞEHİR","cityName":null,"quarters":[{"name":"HALKAPINAR MAH.","zip":"35170"},{"name":"HİLAL MAH.","zip":"35170"},{"name":"MERSİNLİ MAH.","zip":"35170"},{"name":"YENİŞEHİR MAH.","zip":"35170"}]},{"name":"ATAKÖY","cityName":null,"quarters":null},{"name":"DEĞİRMENDERE","cityName":null,"quarters":[{"name":"DEĞİRMENDERE FEVZİ ÇAKMAK MAH.","zip":"35472"},{"name":"DEĞİRMENDERE İNÖNÜ MAH.","zip":"35472"}]},{"name":"DEVELİ","cityName":null,"quarters":null},{"name":"GÖRECE","cityName":null,"quarters":[{"name":"GÖRECE CUMHURİYET MAH.","zip":"35473"},{"name":"HÜRRİYET MAH.","zip":"35473"}]},{"name":"GÜMÜLDÜR","cityName":null,"quarters":[{"name":"GÜMÜLDÜR CUMHURİYET MAH.","zip":"35480"},{"name":"GÜMÜLDÜR FEVZİ ÇAKMAK MAH.","zip":"35480"},{"name":"GÜMÜLDÜR İNÖNÜ MAH.","zip":"35480"}]},{"name":"KISIK","cityName":null,"quarters":null},{"name":"MENDERES","cityName":null,"quarters":[{"name":"AKÇAKÖY MAH.","zip":"35471"},{"name":"ALTINTEPE MAH.","zip":"35471"},{"name":"BARBAROS MAH.","zip":"35471"},{"name":"BULGURCA MAH.","zip":"35471"},{"name":"CÜNEYTBEY MAH.","zip":"35471"},{"name":"ÇAKALTEPE MAH.","zip":"35471"},{"name":"ÇAMÖNÜ MAH.","zip":"35471"},{"name":"ÇATALCA MAH.","zip":"35471"},{"name":"ÇİLE MAH.","zip":"35471"},{"name":"ÇİLEME MAH.","zip":"35471"},{"name":"DEREKÖY MAH.","zip":"35471"},{"name":"EFEMÇUKURU MAH.","zip":"35471"},{"name":"GAZİPAŞA MAH.","zip":"35471"},{"name":"GÖLCÜKLER MAH.","zip":"35471"},{"name":"GÖLOVA MAH.","zip":"35471"},{"name":"İTOB OSB MAH.","zip":"35471"},{"name":"KARAKUYU MAH.","zip":"35471"},{"name":"KASIMPAŞA MAH.","zip":"35471"},{"name":"KELER MAH.","zip":"35471"},{"name":"KEMALPAŞA MAH.","zip":"35471"},{"name":"KUYUCAK MAH.","zip":"35471"},{"name":"KÜNER MAH.","zip":"35471"},{"name":"MİTHATPAŞA MAH.","zip":"35471"},{"name":"OĞLANANASI ATATÜRK MAH.","zip":"35471"},{"name":"OĞLANANASI CUMHURİYET MAH.","zip":"35471"},{"name":"SANCAKLI MAH.","zip":"35471"},{"name":"ŞAŞAL MAH.","zip":"35471"},{"name":"YENİKÖY MAH.","zip":"35471"}]},{"name":"ÖZDERE","cityName":null,"quarters":[{"name":"ORTA MAH.","zip":"35495"},{"name":"ÖZDERE CUMHURİYET MAH.","zip":"35495"}]},{"name":"TEKELİ","cityName":null,"quarters":[{"name":"TEKELİ FEVZİ ÇAKMAK MAH.","zip":"35477"}]},{"name":"MENEMEN","cityName":null,"quarters":[{"name":"30 AĞUSTOS MAH.","zip":"35660"},{"name":"75.YIL CUMHURİYET MAH.","zip":"35660"},{"name":"85.YIL CUMHURİYET MAH.","zip":"35660"},{"name":"9 EYLÜL MAH.","zip":"35660"},{"name":"AHIHIDIR MAH.","zip":"35660"},{"name":"ALANİÇİ MAH.","zip":"35660"},{"name":"ATATÜRK MAH.","zip":"35660"},{"name":"ATATÜRK PLASTİKOSB MAH.","zip":"35660"},{"name":"AYVACIK MAH.","zip":"35660"},{"name":"BAĞCILAR MAH.","zip":"35660"},{"name":"BELEN MAH.","zip":"35660"},{"name":"BOZALAN MAH.","zip":"35660"},{"name":"BURUNCUK MAH.","zip":"35660"},{"name":"CAMİİKEBİR MAH.","zip":"35660"},{"name":"CUMHURİYET MAH.","zip":"35660"},{"name":"ÇALTI MAH.","zip":"35660"},{"name":"ÇAVUŞ MAH.","zip":"35660"},{"name":"ÇUKURKÖY MAH.","zip":"35660"},{"name":"DEĞİRMENDERE MAH.","zip":"35660"},{"name":"DOĞA MAH.","zip":"35660"},{"name":"EMİRALEM MERKEZ MAH.","zip":"35660"},{"name":"ESATPAŞA MAH.","zip":"35660"},{"name":"FATİH MAH.","zip":"35660"},{"name":"GAYBİ MAH.","zip":"35660"},{"name":"GAZİ MAH.","zip":"35660"},{"name":"GAZİ MUSTAFA KEMAL MAH.","zip":"35660"},{"name":"GÖKTEPE MAH.","zip":"35660"},{"name":"GÖLCÜK MAH.","zip":"35660"},{"name":"GÖRECE MAH.","zip":"35660"},{"name":"GÜNERLİ MAH.","zip":"35660"},{"name":"HASANLAR MAH.","zip":"35660"},{"name":"HATUNDERE MAH.","zip":"35660"},{"name":"HAYKIRAN MAH.","zip":"35660"},{"name":"IRMAK MAH.","zip":"35660"},{"name":"İĞNEDERE MAH.","zip":"35660"},{"name":"İNCİRLİ PINAR MAH.","zip":"35660"},{"name":"İNÖNÜ MAH.","zip":"35660"},{"name":"İSMET İNÖNÜ MAH.","zip":"35660"},{"name":"İSTİKLAL MAH.","zip":"35660"},{"name":"KARAORMAN MAH.","zip":"35660"},{"name":"KASIMPAŞA MAH.","zip":"35660"},{"name":"KAZIMPAŞA MAH.","zip":"35660"},{"name":"KEMAL ATATÜRK MAH.","zip":"35660"},{"name":"KESİK MAH.","zip":"35660"},{"name":"KIR MAH.","zip":"35660"},{"name":"MALTEPE SB MAH.","zip":"35660"},{"name":"MERMERLİ MAH.","zip":"35660"},{"name":"MUSABEY MAH.","zip":"35660"},{"name":"MUSTAFA KEMAL ATATÜRK MAH.","zip":"35660"},{"name":"SEYDİNNASRULLAH MAH.","zip":"35660"},{"name":"SÜLEYMANLI MAH.","zip":"35660"},{"name":"SÜZBEYLİ MAH.","zip":"35660"},{"name":"TELEKLER MAH.","zip":"35660"},{"name":"TURGUTLAR MAH.","zip":"35660"},{"name":"TUZÇULLU MAH.","zip":"35660"},{"name":"TÜLBENTLİ MAH.","zip":"35660"},{"name":"UĞUR MUMCU MAH.","zip":"35660"},{"name":"ULUS MAH.","zip":"35660"},{"name":"VİLLAKENT MAH.","zip":"35660"},{"name":"YAHŞELLİ MAH.","zip":"35660"},{"name":"YANIKKÖY MAH.","zip":"35660"},{"name":"YAYLA MAH.","zip":"35660"},{"name":"YEŞİL PINAR MAH.","zip":"35660"},{"name":"YILDIRIM MAH.","zip":"35660"},{"name":"ZAFER MAH.","zip":"35660"},{"name":"ZEYTİNLİK MAH.","zip":"35660"}]},{"name":"NARLIDERE","cityName":null,"quarters":[{"name":"ALTIEVLER MAH.","zip":"35320"},{"name":"ATATÜRK MAH.","zip":"35320"},{"name":"ÇAMTEPE MAH.","zip":"35320"},{"name":"ÇATALKAYA MAH.","zip":"35320"},{"name":"HUZUR MAH.","zip":"35320"},{"name":"ILICA MAH.","zip":"35320"},{"name":"LİMANREİS MAH.","zip":"35320"},{"name":"NARLI MAH.","zip":"35320"},{"name":"SAHİLEVLERİ MAH.","zip":"35320"},{"name":"YENİKALE MAH.","zip":"35320"}]},{"name":"ÖDEMİŞ","cityName":null,"quarters":[{"name":"ALAŞARLI MAH.","zip":"35750"},{"name":"ANAFARTALAR MAH.","zip":"35750"},{"name":"ARTICAK MAH.","zip":"35750"},{"name":"ATATÜRK MAH.","zip":"35750"},{"name":"BADEMLİ MAH.","zip":"35750"},{"name":"BALABANLI MAH.","zip":"35750"},{"name":"BAYIRLI MAH.","zip":"35750"},{"name":"BEBEKLER MAH.","zip":"35750"},{"name":"BENGİSU MAH.","zip":"35750"},{"name":"BEYAZITLAR MAH.","zip":"35750"},{"name":"BIÇAKÇI MAH.","zip":"35750"},{"name":"BİRGİ MAH.","zip":"35750"},{"name":"BOZCAYAKA MAH.","zip":"35750"},{"name":"BOZDAĞ MAH.","zip":"35750"},{"name":"BUCAK MAH.","zip":"35750"},{"name":"BÜLBÜLLER MAH.","zip":"35750"},{"name":"BÜYÜKAVULCUK MAH.","zip":"35750"},{"name":"CEVİZALAN MAH.","zip":"35750"},{"name":"CUMHURİYET MAH.","zip":"35750"},{"name":"ÇAĞLAYAN MAH.","zip":"35750"},{"name":"ÇAMLICA MAH.","zip":"35750"},{"name":"ÇAMYAYLA MAH.","zip":"35750"},{"name":"ÇAYIR MAH.","zip":"35750"},{"name":"ÇAYLI MAH.","zip":"35750"},{"name":"ÇOBANLAR MAH.","zip":"35750"},{"name":"DEMİRCİLİ MAH.","zip":"35750"},{"name":"DEMİRDERE MAH.","zip":"35750"},{"name":"DEREUZUNYER MAH.","zip":"35750"},{"name":"DOLAYLAR MAH.","zip":"35750"},{"name":"EMİRLİ MAH.","zip":"35750"},{"name":"EMMİOĞLU MAH.","zip":"35750"},{"name":"ERTUĞRUL MAH.","zip":"35750"},{"name":"GERÇEKLİ MAH.","zip":"35750"},{"name":"GERELİ MAH.","zip":"35750"},{"name":"GÖLCÜK MAH.","zip":"35750"},{"name":"GÜNEY MAH.","zip":"35750"},{"name":"GÜNLÜCE MAH.","zip":"35750"},{"name":"HACIHASAN MAH.","zip":"35750"},{"name":"HAMAM MAH.","zip":"35750"},{"name":"HORZUM MAH.","zip":"35750"},{"name":"HÜRRİYET MAH.","zip":"35750"},{"name":"IŞIK MAH.","zip":"35750"},{"name":"İLKKURŞUN MAH.","zip":"35750"},{"name":"İNÖNÜ MAH.","zip":"35750"},{"name":"KARADOĞAN MAH.","zip":"35750"},{"name":"KARAKOVA MAH.","zip":"35750"},{"name":"KAYAKÖY MAH.","zip":"35750"},{"name":"KAYMAKÇI MAH.","zip":"35750"},{"name":"KAZANLI MAH.","zip":"35750"},{"name":"KEMENLER MAH.","zip":"35750"},{"name":"KEMER MAH.","zip":"35750"},{"name":"KERPİÇLİK MAH.","zip":"35750"},{"name":"KIŞLA MAH.","zip":"35750"},{"name":"KIZILCA MAH.","zip":"35750"},{"name":"KIZILCAAVLU MAH.","zip":"35750"},{"name":"KONAKLI MAH.","zip":"35750"},{"name":"KÖFÜNDERE MAH.","zip":"35750"},{"name":"KÖSELER MAH.","zip":"35750"},{"name":"KURUCUOVA MAH.","zip":"35750"},{"name":"KUTLUBEYLER MAH.","zip":"35750"},{"name":"KUVVETLİ MAH.","zip":"35750"},{"name":"KÜÇÜKAVULCUK MAH.","zip":"35750"},{"name":"KÜÇÜKÖREN MAH.","zip":"35750"},{"name":"KÜRE MAH.","zip":"35750"},{"name":"MESCİTLİ MAH.","zip":"35750"},{"name":"MEŞRUTİYET MAH.","zip":"35750"},{"name":"MİMAR SİNAN MAH.","zip":"35750"},{"name":"MURSALLI MAH.","zip":"35750"},{"name":"OCAKLI MAH.","zip":"35750"},{"name":"OĞUZLAR MAH.","zip":"35750"},{"name":"ORHANGAZİ MAH.","zip":"35750"},{"name":"ORTAKÖY MAH.","zip":"35750"},{"name":"OVACIK MAH.","zip":"35750"},{"name":"OVAKENT MAH.","zip":"35750"},{"name":"PİRİNÇÇİ MAH.","zip":"35750"},{"name":"SEKİKÖY MAH.","zip":"35750"},{"name":"SEYREKLİ MAH.","zip":"35750"},{"name":"SUÇIKTI MAH.","zip":"35750"},{"name":"SÜLEYMAN DEMİREL MAH.","zip":"35750"},{"name":"SÜLEYMANLAR MAH.","zip":"35750"},{"name":"ŞİRİNKÖY MAH.","zip":"35750"},{"name":"TEKKE MAH.","zip":"35750"},{"name":"TOSUNLAR MAH.","zip":"35750"},{"name":"TÜRKMEN MAH.","zip":"35750"},{"name":"TÜRKÖNÜ MAH.","zip":"35750"},{"name":"UMURBEY MAH.","zip":"35750"},{"name":"UZUNDERE MAH.","zip":"35750"},{"name":"ÜÇ EYLÜL MAH.","zip":"35750"},{"name":"ÜÇKONAK MAH.","zip":"35750"},{"name":"ÜZÜMLÜ MAH.","zip":"35750"},{"name":"VELİLER MAH.","zip":"35750"},{"name":"YENİCEKÖY MAH.","zip":"35750"},{"name":"YENİKÖY MAH.","zip":"35750"},{"name":"YEŞİLKÖY MAH.","zip":"35750"},{"name":"YILANLI MAH.","zip":"35750"},{"name":"YOLÜSTÜ MAH.","zip":"35750"},{"name":"YUSUFDERE MAH.","zip":"35750"},{"name":"ZAFER MAH.","zip":"35750"}]},{"name":"DOĞANBEY","cityName":null,"quarters":[{"name":"CUMHURİYET MAH.","zip":"35465"},{"name":"PAYAMLI MAH.","zip":"35465"}]},{"name":"SEFERİHİSAR","cityName":null,"quarters":[{"name":"CAMİKEBİR MAH.","zip":"35460"},{"name":"ÇAMTEPE MAH.","zip":"35460"},{"name":"ÇOLAK İBRAHİM BEY MAH.","zip":"35460"},{"name":"DÜZCE MAH.","zip":"35460"},{"name":"GÖDENCE MAH.","zip":"35460"},{"name":"GÖLCÜK MAH.","zip":"35460"},{"name":"HIDIRLIK MAH.","zip":"35460"},{"name":"İHSANİYE MAH.","zip":"35460"},{"name":"KAVAKDERE MAH.","zip":"35460"},{"name":"ORHANLI MAH.","zip":"35460"},{"name":"SIĞACIK MAH.","zip":"35460"},{"name":"TEPECİK MAH.","zip":"35460"},{"name":"TURABİYE MAH.","zip":"35460"},{"name":"TURGUT MAH.","zip":"35460"},{"name":"ULAMIŞ MAH.","zip":"35460"}]},{"name":"ÜRKMEZ","cityName":null,"quarters":[{"name":"MERSİN ALANI MAH.","zip":"35485"}]},{"name":"SELÇUK","cityName":null,"quarters":[{"name":"ACARLAR MAH.","zip":"35920"},{"name":"ATATÜRK MAH.","zip":"35920"},{"name":"BARUTÇU MAH.","zip":"35920"},{"name":"BELEVİ MAH.","zip":"35920"},{"name":"CUMHURİYET MAH.","zip":"35920"},{"name":"ÇAMLIK MAH.","zip":"35920"},{"name":"GÖKÇEALAN MAH.","zip":"35920"},{"name":"HAVUTÇULU MAH.","zip":"35920"},{"name":"İSA BEY MAH.","zip":"35920"},{"name":"SULTANİYE MAH.","zip":"35920"},{"name":"ŞİRİNCE MAH.","zip":"35920"},{"name":"ZAFER MAH.","zip":"35920"},{"name":"ZEYTİNKÖY MAH.","zip":"35920"}]},{"name":"GÖKÇEN","cityName":null,"quarters":[{"name":"ÇOBANKÖY MAH.","zip":"35910"},{"name":"DERELİ MAH.","zip":"35910"},{"name":"EĞRİDERE MAH.","zip":"35910"},{"name":"FATİH MAH.","zip":"35910"},{"name":"KIRTEPE MAH.","zip":"35910"},{"name":"KIZILCAHAVLU MAH.","zip":"35910"},{"name":"KOCAALİLER MAH.","zip":"35910"},{"name":"OSMANCIK MAH.","zip":"35910"},{"name":"PEŞREFLİ MAH.","zip":"35910"},{"name":"SARILAR MAH.","zip":"35910"},{"name":"SARUHANLI MAH.","zip":"35910"},{"name":"YEĞENLİ MAH.","zip":"35910"},{"name":"YENİŞEHİR MAH.","zip":"35910"}]},{"name":"TİRE","cityName":null,"quarters":[{"name":"ADNAN MENDERES MAH.","zip":"35900"},{"name":"AKÇAŞEHİR MAH.","zip":"35900"},{"name":"AKKOYUNLU MAH.","zip":"35900"},{"name":"AKMESCİT MAH.","zip":"35900"},{"name":"AKYURT MAH.","zip":"35900"},{"name":"ALACALI MAH.","zip":"35900"},{"name":"ALAYLI MAH.","zip":"35900"},{"name":"ARMUTLU MAH.","zip":"35900"},{"name":"ATATÜRK MAH.","zip":"35900"},{"name":"AYAKLIKIRI MAH.","zip":"35900"},{"name":"BAHARİYE MAH.","zip":"35900"},{"name":"BAŞKÖY MAH.","zip":"35900"},{"name":"BOYNUYOĞUN MAH.","zip":"35900"},{"name":"BÜYÜKKALE MAH.","zip":"35900"},{"name":"BÜYÜKKEMERDERE MAH.","zip":"35900"},{"name":"BÜYÜKKÖMÜRCÜ MAH.","zip":"35900"},{"name":"CAMBAZLI MAH.","zip":"35900"},{"name":"ÇAYIRLI MAH.","zip":"35900"},{"name":"ÇERİKÖZÜ MAH.","zip":"35900"},{"name":"ÇİNİYERİ MAH.","zip":"35900"},{"name":"ÇUKURKÖY MAH.","zip":"35900"},{"name":"DAĞDERE MAH.","zip":"35900"},{"name":"DALLIK MAH.","zip":"35900"},{"name":"DERE MAH.","zip":"35900"},{"name":"DEREBAŞI MAH.","zip":"35900"},{"name":"DİBEKÇİ MAH.","zip":"35900"},{"name":"DOYRANLI MAH.","zip":"35900"},{"name":"DUATEPE MAH.","zip":"35900"},{"name":"DUMLUPINAR MAH.","zip":"35900"},{"name":"DÜNDARLI MAH.","zip":"35900"},{"name":"ERTUĞRUL MAH.","zip":"35900"},{"name":"ESKİOBA MAH.","zip":"35900"},{"name":"GÖKÇEN MAH.","zip":"35900"},{"name":"HALKAPINAR MAH.","zip":"35900"},{"name":"HASANÇAVUŞLAR MAH.","zip":"35900"},{"name":"HİSARLIK MAH.","zip":"35900"},{"name":"HÜRRİYET MAH.","zip":"35900"},{"name":"IŞIKLAR MAH.","zip":"35900"},{"name":"IŞIKLI MAH.","zip":"35900"},{"name":"İBNİ MELEK MAH.","zip":"35900"},{"name":"İBNİ MELEK OSB MAH.","zip":"35900"},{"name":"İHSANİYE MAH.","zip":"35900"},{"name":"İPEKÇİLER MAH.","zip":"35900"},{"name":"İSTİKLAL MAH.","zip":"35900"},{"name":"KAPLAN MAH.","zip":"35900"},{"name":"KARACA ALİ MAH.","zip":"35900"},{"name":"KARATEKE MAH.","zip":"35900"},{"name":"KETENCİ MAH.","zip":"35900"},{"name":"KİRELİ MAH.","zip":"35900"},{"name":"KURŞAK MAH.","zip":"35900"},{"name":"KURTULUŞ MAH.","zip":"35900"},{"name":"KÜÇÜKBURUN MAH.","zip":"35900"},{"name":"KÜÇÜKKALE MAH.","zip":"35900"},{"name":"KÜÇÜKKEMERDERE MAH.","zip":"35900"},{"name":"KÜÇÜKKÖMÜRCÜ MAH.","zip":"35900"},{"name":"KÜRDÜLLÜ MAH.","zip":"35900"},{"name":"MAHMUTLAR MAH.","zip":"35900"},{"name":"MEHMETLER MAH.","zip":"35900"},{"name":"MUSALAR MAH.","zip":"35900"},{"name":"ORTAKÖY MAH.","zip":"35900"},{"name":"PAŞA MAH.","zip":"35900"},{"name":"SOMAK MAH.","zip":"35900"},{"name":"TOKİ MAH.","zip":"35900"},{"name":"TOPALAK MAH.","zip":"35900"},{"name":"TOPARLAR MAH.","zip":"35900"},{"name":"TURAN MAH.","zip":"35900"},{"name":"TURGUTLU MAH.","zip":"35900"},{"name":"ÜZÜMLER MAH.","zip":"35900"},{"name":"YAMANDERE MAH.","zip":"35900"},{"name":"YEMİŞLER MAH.","zip":"35900"},{"name":"YENİ MAH.","zip":"35900"},{"name":"YENİÇİFTLİK MAH.","zip":"35900"},{"name":"YENİOBA MAH.","zip":"35900"}]},{"name":"AYRANCILAR","cityName":null,"quarters":[{"name":"FEVZİ ÇAKMAK MAH.","zip":"35870"},{"name":"İNÖNÜ MAH.","zip":"35870"},{"name":"TÜRKMENKÖY MAH.","zip":"35870"}]},{"name":"ÇAYBAŞI","cityName":null,"quarters":[{"name":"KARŞIYAKA MAH.","zip":"35880"},{"name":"MUSTAFA KEMAL ATATÜRK MAH.","zip":"35880"},{"name":"YENİ MAH.","zip":"35880"}]},{"name":"PANCAR","cityName":null,"quarters":[{"name":"ORGANİZE SANAYİ BÖLGESİ MAH.","zip":"35865"},{"name":"PANCAR MAH.","zip":"35865"}]},{"name":"SUBAŞI","cityName":null,"quarters":[{"name":"PAMUKYAZI MAH.","zip":"35885"},{"name":"SUBAŞI MAH.","zip":"35885"}]},{"name":"TORBALI","cityName":null,"quarters":[{"name":"ALPKENT MAH.","zip":"35860"},{"name":"ARSLANLAR MAH.","zip":"35860"},{"name":"ATALAN MAH.","zip":"35860"},{"name":"ATATÜRK MAH.","zip":"35860"},{"name":"BOZKÖY MAH.","zip":"35860"},{"name":"BÜLBÜLDERE MAH.","zip":"35860"},{"name":"CUMHURİYET MAH.","zip":"35860"},{"name":"ÇAKIRBEYLİ MAH.","zip":"35860"},{"name":"ÇAMLICA MAH.","zip":"35860"},{"name":"ÇAPAK MAH.","zip":"35860"},{"name":"DAĞKIZILCA MAH.","zip":"35860"},{"name":"DAĞTEKE MAH.","zip":"35860"},{"name":"DEMİRCİ MAH.","zip":"35860"},{"name":"DÜVERLİK MAH.","zip":"35860"},{"name":"EĞERCİ MAH.","zip":"35860"},{"name":"ERTUĞRUL MAH.","zip":"35860"},{"name":"GAZİ MUSTAFA KEMAL MAH.","zip":"35860"},{"name":"GÖLLÜCE MAH.","zip":"35860"},{"name":"HELVACI MAH.","zip":"35860"},{"name":"KAPLANCIK MAH.","zip":"35860"},{"name":"KARAKIZLAR MAH.","zip":"35860"},{"name":"KARAKUYU MAH.","zip":"35860"},{"name":"KARAOT MAH.","zip":"35860"},{"name":"KIRBAŞ MAH.","zip":"35860"},{"name":"KORUCUK MAH.","zip":"35860"},{"name":"KUŞÇUBURUN MAH.","zip":"35860"},{"name":"MURATBEY MAH.","zip":"35860"},{"name":"NAİME MAH.","zip":"35860"},{"name":"ORMANKÖY MAH.","zip":"35860"},{"name":"ORTAKÖY MAH.","zip":"35860"},{"name":"ÖZBEY MAH.","zip":"35860"},{"name":"SAĞLIK MAH.","zip":"35860"},{"name":"SAİPLER MAH.","zip":"35860"},{"name":"ŞEHİTLER MAH.","zip":"35860"},{"name":"TAŞKESİK MAH.","zip":"35860"},{"name":"TEPEKÖY MAH.","zip":"35860"},{"name":"TORBALI MAH.","zip":"35860"},{"name":"TULUM MAH.","zip":"35860"},{"name":"YEDİ EYLÜL MAH.","zip":"35860"},{"name":"YEMİŞLİK MAH.","zip":"35860"},{"name":"YENİKÖY MAH.","zip":"35860"},{"name":"YEŞİLKÖY MAH.","zip":"35860"},{"name":"YOĞURTÇULAR MAH.","zip":"35860"}]},{"name":"YAZIBAŞI","cityName":null,"quarters":[{"name":"İSTİKLAL MAH.","zip":"35875"},{"name":"YAZIBAŞI MAH.","zip":"35875"}]},{"name":"YENİKÖYOSB","cityName":null,"quarters":null},{"name":"BADEMLER","cityName":null,"quarters":null},{"name":"BALIKLIOVA","cityName":null,"quarters":null},{"name":"ÇEŞMEALTI","cityName":null,"quarters":[{"name":"GÜVENDİK MAH.","zip":"35450"}]},{"name":"İSKELE","cityName":null,"quarters":[{"name":"İSKELE MAH.","zip":"35441"},{"name":"KALABAK MAH.","zip":"35441"}]},{"name":"İYTE","cityName":null,"quarters":null},{"name":"KUŞÇULAR","cityName":null,"quarters":null},{"name":"ÖZBEK","cityName":null,"quarters":null},{"name":"URLA","cityName":null,"quarters":[{"name":"BARBAROS MAH.","zip":"35430"},{"name":"BİRGİ MAH.","zip":"35430"},{"name":"CAMİATİK MAH.","zip":"35430"},{"name":"DEMİRCİLİ MAH.","zip":"35430"},{"name":"HACI İSA MAH.","zip":"35430"},{"name":"İÇMELER MAH.","zip":"35430"},{"name":"KADIOVACIK MAH.","zip":"35430"},{"name":"NAİPLİ MAH.","zip":"35430"},{"name":"NOHUTALAN MAH.","zip":"35430"},{"name":"OVACIK MAH.","zip":"35430"},{"name":"RÜSTEM MAH.","zip":"35430"},{"name":"SIRA MAH.","zip":"35430"},{"name":"TORASAN MAH.","zip":"35430"},{"name":"UZUNKUYU MAH.","zip":"35430"},{"name":"YAĞCILAR MAH.","zip":"35430"},{"name":"YAKA MAH.","zip":"35430"},{"name":"YELALTI MAH.","zip":"35430"},{"name":"YENİ MAH.","zip":"35430"},{"name":"YENİCE MAH.","zip":"35430"},{"name":"YENİKENT MAH.","zip":"35430"},{"name":"ZEYTİNELİ MAH.","zip":"35430"},{"name":"ZEYTİNLER MAH.","zip":"35430"}]},{"name":"ZEYTİNALANI","cityName":null,"quarters":[{"name":"M.FEVZİ ÇAKMAK MAH.","zip":"35445"},{"name":"ŞİRİNKENT MAH.","zip":"35445"},{"name":"ZEYTİNALANI MAH.","zip":"35445"}]}]}]}