{"id":36,"name":"KARS","cities":[{"name":"city","districts":[{"name":"AKYAKA","cityName":null,"quarters":null},{"name":"MERKEZKÖYLER","cityName":null,"quarters":[{"name":"ASLAHANE KÖYÜ","zip":"36782"},{"name":"AŞAĞI MAH.","zip":"36782"},{"name":"BOYUNTAŞ KÖYÜ","zip":"36782"},{"name":"BÜYÜKDURDURAN KÖYÜ","zip":"36782"},{"name":"BÜYÜKPİRVELİ KÖYÜ","zip":"36782"},{"name":"CAMUŞLU KÖYÜ","zip":"36782"},{"name":"CEBECİ KÖYÜ","zip":"36782"},{"name":"ÇETİNDURAK KÖYÜ","zip":"36782"},{"name":"DEMİRKENT KÖYÜ","zip":"36782"},{"name":"DURAKLI KÖYÜ","zip":"36782"},{"name":"ESENYAYLA KÖYÜ","zip":"36782"},{"name":"GEÇİTKÖY KÖYÜ","zip":"36782"},{"name":"HACIPİRİ KÖYÜ","zip":"36782"},{"name":"İBİŞKÖY KÖYÜ","zip":"36782"},{"name":"İNCEDERE KÖYÜ","zip":"36782"},{"name":"KALKANKALE KÖYÜ","zip":"36782"},{"name":"KARAHAN KÖYÜ","zip":"36782"},{"name":"KARŞI MAH.","zip":"36782"},{"name":"KAYADÖVEN KÖYÜ","zip":"36782"},{"name":"KAYAKÖPRÜ KÖYÜ","zip":"36782"},{"name":"KÜÇÜKAKÜZÜM KÖYÜ","zip":"36782"},{"name":"KÜÇÜKDURDURAN KÖYÜ","zip":"36782"},{"name":"KÜREKDERE KÖYÜ","zip":"36782"},{"name":"MERKEZ MAH.","zip":"36782"},{"name":"SULAKBAHÇE KÖYÜ","zip":"36782"},{"name":"SÜNGÜDERESİ KÖYÜ","zip":"36782"},{"name":"ŞAHNALAR KÖYÜ","zip":"36782"},{"name":"ÜÇPINAR KÖYÜ","zip":"36782"},{"name":"YERLİKAVAK KÖYÜ","zip":"36782"},{"name":"yok MAH.","zip":"36782"},{"name":"YUKARI MAH.","zip":"36782"}]},{"name":"ARPAÇAY","cityName":null,"quarters":[{"name":"ORTA MAH.","zip":"36730"},{"name":"YALINÇAYIR MAH.","zip":"36730"},{"name":"YENİ MAH.","zip":"36730"}]},{"name":"MERKEZKÖYLER","cityName":null,"quarters":[{"name":"AKÇALAR KÖYÜ","zip":"36732"},{"name":"AKMAZDAM KÖYÜ","zip":"36732"},{"name":"ARSLANOĞLU KÖYÜ","zip":"36732"},{"name":"ATCILAR KÖYÜ","zip":"36732"},{"name":"AYDINGÜN KÖYÜ","zip":"36732"},{"name":"BACIOĞLU KÖYÜ","zip":"36732"},{"name":"BARDAKLI KÖYÜ","zip":"36732"},{"name":"BOZYİĞİT KÖYÜ","zip":"36732"},{"name":"BURCALI KÖYÜ","zip":"36732"},{"name":"BÜYÜKÇATMA KÖYÜ","zip":"36732"},{"name":"CARCI KÖYÜ","zip":"36732"},{"name":"CARCIOĞLU AFET EVLERİ MAH.","zip":"36732"},{"name":"CARCIOĞLU KÖYÜ","zip":"36732"},{"name":"ÇANAKSU KÖYÜ","zip":"36732"},{"name":"DAĞKÖYÜ KÖYÜ","zip":"36732"},{"name":"DEĞİRMENKÖPRÜ KÖYÜ","zip":"36732"},{"name":"DOĞRUYOL KÖYÜ","zip":"36732"},{"name":"GAZİLER MAH.","zip":"36732"},{"name":"GEDİKSATILMIŞ KÖYÜ","zip":"36732"},{"name":"GÖLDALI KÖYÜ","zip":"36732"},{"name":"GÖNÜLALAN KÖYÜ","zip":"36732"},{"name":"GÜLTEPE MAH.","zip":"36732"},{"name":"GÜLYÜZÜ KÖYÜ","zip":"36732"},{"name":"GÜVERCİN KÖYÜ","zip":"36732"},{"name":"HASANÇAVUŞ KÖYÜ","zip":"36732"},{"name":"KAKAÇ KÖYÜ","zip":"36732"},{"name":"KARAKALE KÖYÜ","zip":"36732"},{"name":"KARAURGAN KÖYÜ","zip":"36732"},{"name":"KARDEŞTEPE KÖYÜ","zip":"36732"},{"name":"KIRAÇ KÖYÜ","zip":"36732"},{"name":"KIŞLA MAH.","zip":"36732"},{"name":"KOÇKÖYÜ KÖYÜ","zip":"36732"},{"name":"KUYUCUK KÖYÜ","zip":"36732"},{"name":"KUZGUNLU KÖYÜ","zip":"36732"},{"name":"KÜÇÜKBOĞAZ KÖYÜ","zip":"36732"},{"name":"KÜÇÜKÇATMA KÖYÜ","zip":"36732"},{"name":"KÜMBET KÖYÜ","zip":"36732"},{"name":"MELİKKÖYÜ KÖYÜ","zip":"36732"},{"name":"MESCİTLİ KÖYÜ","zip":"36732"},{"name":"MEYDANCIK KÖYÜ","zip":"36732"},{"name":"OKÇUOĞLU KÖYÜ","zip":"36732"},{"name":"ORTA MAH.","zip":"36732"},{"name":"POLATKÖYÜ KÖYÜ","zip":"36732"},{"name":"SÖĞÜTLÜ KÖYÜ","zip":"36732"},{"name":"TAŞBAŞI KÖYÜ","zip":"36732"},{"name":"TAŞDERE KÖYÜ","zip":"36732"},{"name":"TAŞKÖPRÜ KÖYÜ","zip":"36732"},{"name":"TAŞLIAĞIL KÖYÜ","zip":"36732"},{"name":"TELEK KÖYÜ","zip":"36732"},{"name":"TEPECİK KÖYÜ","zip":"36732"},{"name":"TEPEKÖY KÖYÜ","zip":"36732"},{"name":"TOMARLI KÖYÜ","zip":"36732"}]},{"name":"DİGOR","cityName":null,"quarters":null},{"name":"MERKEZKÖYLER","cityName":null,"quarters":[{"name":"ALEM KÖYÜ","zip":"36672"},{"name":"ARPALI KÖYÜ","zip":"36672"},{"name":"AŞAĞIBAŞKÖY KÖYÜ","zip":"36672"},{"name":"BACALI KÖYÜ","zip":"36672"},{"name":"BAŞKÖY KÖYÜ","zip":"36672"},{"name":"BAYIRBAĞI KÖYÜ","zip":"36672"},{"name":"BOSTANKALE KÖYÜ","zip":"36672"},{"name":"CELALKÖY KÖYÜ","zip":"36672"},{"name":"ÇARIKÇI MAH.","zip":"36672"},{"name":"ÇATAK KÖYÜ","zip":"36672"},{"name":"ÇUKURCA MAH.","zip":"36672"},{"name":"DAĞPINAR KÖYÜ","zip":"36672"},{"name":"DERİNÖZ KÖYÜ","zip":"36672"},{"name":"DOLAYLI KÖYÜ","zip":"36672"},{"name":"DÜZGEÇİT KÖYÜ","zip":"36672"},{"name":"EREN KÖYÜ","zip":"36672"},{"name":"GÜLHAYRAN KÖYÜ","zip":"36672"},{"name":"HALIKIŞLAK KÖYÜ","zip":"36672"},{"name":"HASANCAN KÖYÜ","zip":"36672"},{"name":"HİSARÖNÜ KÖYÜ","zip":"36672"},{"name":"KARABAĞ KÖYÜ","zip":"36672"},{"name":"KARAKALE KÖYÜ","zip":"36672"},{"name":"KİLİTTAŞI KÖYÜ","zip":"36672"},{"name":"KOCAKÖY KÖYÜ","zip":"36672"},{"name":"KÖSELER KÖYÜ","zip":"36672"},{"name":"MAHİRBEY KÖYÜ","zip":"36672"},{"name":"MERKEZ MAH.","zip":"36672"},{"name":"NEBİYURDU MAH.","zip":"36672"},{"name":"OYUKLU KÖYÜ","zip":"36672"},{"name":"SAKLICA KÖYÜ","zip":"36672"},{"name":"SORGUÇKAVAK KÖYÜ","zip":"36672"},{"name":"SORKUNLU KÖYÜ","zip":"36672"},{"name":"ŞATIROĞLU KÖYÜ","zip":"36672"},{"name":"ŞENOL KÖYÜ","zip":"36672"},{"name":"ŞİRİNKÖY KÖYÜ","zip":"36672"},{"name":"TÜRKMEŞEN KÖYÜ","zip":"36672"},{"name":"UZUNKAYA KÖYÜ","zip":"36672"},{"name":"VARLI KÖYÜ","zip":"36672"},{"name":"YAĞLICA KÖYÜ","zip":"36672"},{"name":"YAYLACIK KÖYÜ","zip":"36672"},{"name":"YEMENÇAYIR KÖYÜ","zip":"36672"},{"name":"YENİKÖY KÖYÜ","zip":"36672"}]},{"name":"KAĞIZMAN","cityName":null,"quarters":[{"name":"AŞAĞIDERE MAH.","zip":"36700"},{"name":"BAYAM MAH.","zip":"36700"},{"name":"HAZNEDAR MAH.","zip":"36700"},{"name":"ŞAHİNDERE MAH.","zip":"36700"},{"name":"TOPRAKKALE MAH.","zip":"36700"},{"name":"YUKARI DERE MAH.","zip":"36700"},{"name":"YUKARI KÜMBET MAH.","zip":"36700"},{"name":"ZUVAR MAH.","zip":"36700"}]},{"name":"MERKEZKÖYLER","cityName":null,"quarters":[{"name":"2.MEZRA MAH.","zip":"36702"},{"name":"3.MEZRA MAH.","zip":"36702"},{"name":"AFET EVLERİ MAH.","zip":"36702"},{"name":"AĞDAM KÖYÜ","zip":"36702"},{"name":"AKÇAKALE KÖYÜ","zip":"36702"},{"name":"AKÇAY KÖYÜ","zip":"36702"},{"name":"AKÖREN KÖYÜ","zip":"36702"},{"name":"AKYAYLA KÖYÜ","zip":"36702"},{"name":"ALTUNGEDİK KÖYÜ","zip":"36702"},{"name":"ARAS MAH.","zip":"36702"},{"name":"AŞAĞIKARAGÜNEY KÖYÜ","zip":"36702"},{"name":"AŞAĞIKARAGÜNEY MEZRASI MAH.","zip":"36702"},{"name":"AŞAĞITUT KÖYÜ","zip":"36702"},{"name":"AYDINKAVAK KÖYÜ","zip":"36702"},{"name":"BAHÇECİK MAH.","zip":"36702"},{"name":"BAYAM MAH.","zip":"36702"},{"name":"BULANIK KÖYÜ","zip":"36702"},{"name":"BÜCÜKLÜ KÖYÜ","zip":"36702"},{"name":"CAMUŞLU KÖYÜ","zip":"36702"},{"name":"ÇALLI AFETEVLERİ MAH.","zip":"36702"},{"name":"ÇALLI BAYAM MAH.","zip":"36702"},{"name":"ÇALLI KÖYÜ","zip":"36702"},{"name":"ÇALLI MAH.","zip":"36702"},{"name":"ÇAVUŞLAR MAH.","zip":"36702"},{"name":"ÇAYARASI KÖYÜ","zip":"36702"},{"name":"ÇAYBÜK KÖYÜ","zip":"36702"},{"name":"ÇENGİLLİ KÖYÜ","zip":"36702"},{"name":"ÇENGİLLİ MAH.","zip":"36702"},{"name":"ÇEPERLİ KÖYÜ","zip":"36702"},{"name":"ÇİÇEKLİ KÖYÜ","zip":"36702"},{"name":"ÇİFLİK MAH.","zip":"36702"},{"name":"ÇİLEHANE KÖYÜ","zip":"36702"},{"name":"ÇUKURAYVA KÖYÜ","zip":"36702"},{"name":"DEĞİRMEN MAH.","zip":"36702"},{"name":"DEĞİRMENDERE KÖYÜ","zip":"36702"},{"name":"DEĞİRMENDERE MAH.","zip":"36702"},{"name":"DEMİRKAPI MAH.","zip":"36702"},{"name":"DENİZGÖLÜ KÖYÜ","zip":"36702"},{"name":"DEVEBÜK KÖYÜ","zip":"36702"},{"name":"DİBEKKAYA KÖYÜ","zip":"36702"},{"name":"DİKTAŞ MAH.","zip":"36702"},{"name":"DONANDI KÖYÜ","zip":"36702"},{"name":"DURANLAR KÖYÜ","zip":"36702"},{"name":"ESENKIR KÖYÜ","zip":"36702"},{"name":"ESENKIR MAH.","zip":"36702"},{"name":"EVYAPAN KÖYÜ","zip":"36702"},{"name":"GÖRECEK KÖYÜ","zip":"36702"},{"name":"GÖZLÜCE MAH.","zip":"36702"},{"name":"GÜLAĞA MAH.","zip":"36702"},{"name":"GÜMÜŞTEPE KÖYÜ","zip":"36702"},{"name":"GÜNİNDİ KÖYÜ","zip":"36702"},{"name":"GÜNİNDİYAYLASI KÖYÜ","zip":"36702"},{"name":"GÜVEN MAH.","zip":"36702"},{"name":"GÜVENDİK KÖYÜ","zip":"36702"},{"name":"HİZAN MAH.","zip":"36702"},{"name":"KARABAĞ KÖYÜ","zip":"36702"},{"name":"KARABONCUK KÖYÜ","zip":"36702"},{"name":"KARACAÖREN KÖYÜ","zip":"36702"},{"name":"KARAKALE KÖYÜ","zip":"36702"},{"name":"KARAKUŞ KÖYÜ","zip":"36702"},{"name":"KEŞİŞKIRAN KÖYÜ","zip":"36702"},{"name":"KEŞİŞKIRAN MAH.","zip":"36702"},{"name":"KOZLU KÖYÜ","zip":"36702"},{"name":"KÖKPINAR KÖYÜ","zip":"36702"},{"name":"KÖMÜRLÜ KÖYÜ","zip":"36702"},{"name":"KÖPRÜBAŞI MAH.","zip":"36702"},{"name":"KÖRPINAR AFETEVLERİ MAH.","zip":"36702"},{"name":"KÖTEK KÖYÜ","zip":"36702"},{"name":"KÖYİÇİ MAH.","zip":"36702"},{"name":"KULOĞLU KÖYÜ","zip":"36702"},{"name":"KURUYAYLA KÖYÜ","zip":"36702"},{"name":"MERKEZ MAH.","zip":"36702"},{"name":"ORTAKÖY KÖYÜ","zip":"36702"},{"name":"PASLI KÖYÜ","zip":"36702"},{"name":"PINAR GÖZE MAH.","zip":"36702"},{"name":"RIZVAN MAH.","zip":"36702"},{"name":"SAĞBAŞ KÖYÜ","zip":"36702"},{"name":"SEKSEN MAH.","zip":"36702"},{"name":"SESVEREN KÖYÜ","zip":"36702"},{"name":"ŞABAN KÖYÜ","zip":"36702"},{"name":"TAB MAH.","zip":"36702"},{"name":"TAŞBİLEK KÖYÜ","zip":"36702"},{"name":"TAŞBURUN AFET EVLERİ MAH.","zip":"36702"},{"name":"TAŞBURUN KÖYÜ","zip":"36702"},{"name":"TEK EV MAH.","zip":"36702"},{"name":"TEK EVLER MAH.","zip":"36702"},{"name":"TOMRUKTAŞ KÖYÜ","zip":"36702"},{"name":"TUNÇKAYA KÖYÜ","zip":"36702"},{"name":"TUT MAH.","zip":"36702"},{"name":"ÜLKER AFETEVLERİ MAH.","zip":"36702"},{"name":"ÜRKER KÖYÜ","zip":"36702"},{"name":"YAĞLICA KÖYÜ","zip":"36702"},{"name":"YALNIZAĞAÇ KÖYÜ","zip":"36702"},{"name":"YANKIPINAR KÖYÜ","zip":"36702"},{"name":"YELLİKIRAN KÖYÜ","zip":"36702"},{"name":"YENİCE KÖYÜ","zip":"36702"},{"name":"YOLKORUR KÖYÜ","zip":"36702"},{"name":"YUKARI DONANDI MAH.","zip":"36702"},{"name":"YUKARIGÜNEY KARA MAH.","zip":"36702"},{"name":"YUKARIKARAGÜNEY KÖYÜ","zip":"36702"}]},{"name":"KARS","cityName":null,"quarters":[{"name":"ALPASLAN MAH.","zip":"36100"},{"name":"ATATÜRK MAH.","zip":"36100"},{"name":"AYDINLIKEVLER MAH.","zip":"36100"},{"name":"BAHÇELİEVLER MAH.","zip":"36100"},{"name":"BAYRAMPAŞA MAH.","zip":"36100"},{"name":"BÜLBÜL MAH.","zip":"36100"},{"name":"CUMHURİYET MAH.","zip":"36100"},{"name":"FEVZİÇAKMAK MAH.","zip":"36100"},{"name":"HAFIZPAŞA MAH.","zip":"36100"},{"name":"HALİTPAŞA MAH.","zip":"36100"},{"name":"İSTASYON MAH.","zip":"36100"},{"name":"KALEİÇİ MAH.","zip":"36100"},{"name":"KALEİÇİ OSB MAH.","zip":"36100"},{"name":"KARADAĞ MAH.","zip":"36100"},{"name":"MERKEZ MAH.","zip":"36100"},{"name":"ORTAKAPI MAH.","zip":"36100"},{"name":"ÖRNEK MAH.","zip":"36100"},{"name":"PAŞAÇAYIRI MAH.","zip":"36100"},{"name":"PAŞAÇAYIRIOSB MAH.","zip":"36100"},{"name":"SUKAPI MAH.","zip":"36100"},{"name":"ŞEHİTLER MAH.","zip":"36100"},{"name":"YENİ MAH.","zip":"36100"},{"name":"YENİŞEHİR MAH.","zip":"36100"},{"name":"YUSUFPAŞA MAH.","zip":"36100"}]},{"name":"MERKEZKÖYLER","cityName":null,"quarters":[{"name":"AKBABA KÖYÜ","zip":"36002"},{"name":"AKDERE KÖYÜ","zip":"36002"},{"name":"ALACA KÖYÜ","zip":"36002"},{"name":"ALÇILI KÖYÜ","zip":"36002"},{"name":"ANİ KÖYÜ","zip":"36002"},{"name":"ARAZOĞLU KÖYÜ","zip":"36002"},{"name":"ARSLANİZİ KÖYÜ","zip":"36002"},{"name":"AŞAĞI MAH.","zip":"36002"},{"name":"ATAKÖY KÖYÜ","zip":"36002"},{"name":"ATAYURT KÖYÜ","zip":"36002"},{"name":"AYAKGEDİKLER KÖYÜ","zip":"36002"},{"name":"AYDINALAN KÖYÜ","zip":"36002"},{"name":"AZAT KÖYÜ","zip":"36002"},{"name":"BAŞGEDİKLER KÖYÜ","zip":"36002"},{"name":"BAŞKAYA KÖYÜ","zip":"36002"},{"name":"BAYRAKTAR KÖYÜ","zip":"36002"},{"name":"BEKLER KÖYÜ","zip":"36002"},{"name":"BOĞATEPE KÖYÜ","zip":"36002"},{"name":"BOĞAZ KÖYÜ","zip":"36002"},{"name":"BORLUK KÖYÜ","zip":"36002"},{"name":"BOZKALE KÖYÜ","zip":"36002"},{"name":"BULANIK KÖYÜ","zip":"36002"},{"name":"BÜYÜKAKÜZÜM KÖYÜ","zip":"36002"},{"name":"CAMİ MAH.","zip":"36002"},{"name":"CUMHURİYET KÖYÜ","zip":"36002"},{"name":"ÇAĞLAYAN KÖYÜ","zip":"36002"},{"name":"ÇAKMAK KÖYÜ","zip":"36002"},{"name":"ÇAMURLU KÖYÜ","zip":"36002"},{"name":"ÇERME KÖYÜ","zip":"36002"},{"name":"ÇIĞIRGAN KÖYÜ","zip":"36002"},{"name":"ÇORAK KÖYÜ","zip":"36002"},{"name":"DAVUL KÖYÜ","zip":"36002"},{"name":"DERECİK KÖYÜ","zip":"36002"},{"name":"DİKME KÖYÜ","zip":"36002"},{"name":"ESENKENT KÖYÜ","zip":"36002"},{"name":"ESENYAZI KÖYÜ","zip":"36002"},{"name":"EŞMEYAZI KÖYÜ","zip":"36002"},{"name":"GELİRLİ KÖYÜ","zip":"36002"},{"name":"GÜDELİ KÖYÜ","zip":"36002"},{"name":"GÜLLÜCE MAH.","zip":"36002"},{"name":"HACIHALİL KÖYÜ","zip":"36002"},{"name":"HACIVELİ KÖYÜ","zip":"36002"},{"name":"HALEFOĞLU KÖYÜ","zip":"36002"},{"name":"HAMZAGEREK KÖYÜ","zip":"36002"},{"name":"HAPANLI KÖYÜ","zip":"36002"},{"name":"HASÇİFTLİK KÖYÜ","zip":"36002"},{"name":"KARACAÖREN KÖYÜ","zip":"36002"},{"name":"KARAÇOBAN KÖYÜ","zip":"36002"},{"name":"KARAKALE KÖYÜ","zip":"36002"},{"name":"KARAKAŞ KÖYÜ","zip":"36002"},{"name":"KOCABAHÇE KÖYÜ","zip":"36002"},{"name":"KOZLUCA KÖYÜ","zip":"36002"},{"name":"KÜÇÜKBOĞATEPE KÖYÜ","zip":"36002"},{"name":"KÜÇÜKPİRVELİ KÖYÜ","zip":"36002"},{"name":"KÜÇÜKYUSUF KÖYÜ","zip":"36002"},{"name":"KÜLVEREN KÖYÜ","zip":"36002"},{"name":"KÜMBETLİ KÖYÜ","zip":"36002"},{"name":"MAKSUTÇUK KÖYÜ","zip":"36002"},{"name":"MEZRAA KÖYÜ","zip":"36002"},{"name":"OĞUZLU KÖYÜ","zip":"36002"},{"name":"ORTA MAH.","zip":"36002"},{"name":"ORTAGEDİKLER KÖYÜ","zip":"36002"},{"name":"ÖLÇÜLÜ KÖYÜ","zip":"36002"},{"name":"SOYLU KÖYÜ","zip":"36002"},{"name":"SÖĞÜTLÜ KÖYÜ","zip":"36002"},{"name":"SUBATAN KÖYÜ","zip":"36002"},{"name":"ŞEMSİ MAH.","zip":"36002"},{"name":"TAZEKENT KÖYÜ","zip":"36002"},{"name":"TEKNELİ KÖYÜ","zip":"36002"},{"name":"TEKNELİ MAH.","zip":"36002"},{"name":"TEPE MAH.","zip":"36002"},{"name":"ÜÇBÖLÜK KÖYÜ","zip":"36002"},{"name":"VERİMLİ KÖYÜ","zip":"36002"},{"name":"YAĞIKESEN KÖYÜ","zip":"36002"},{"name":"YALÇINLAR KÖYÜ","zip":"36002"},{"name":"YALINKAYA KÖYÜ","zip":"36002"},{"name":"YAYLA EVLERİ MAH.","zip":"36002"},{"name":"YILANLI KÖYÜ","zip":"36002"},{"name":"YUKARI MAH.","zip":"36002"},{"name":"YÜCELEN KÖYÜ","zip":"36002"},{"name":"AKKOZ KÖYÜ","zip":"36502"},{"name":"AKKOZ YAYLA EVLERİ MAH.","zip":"36502"},{"name":"AKÖREN KÖYÜ","zip":"36502"},{"name":"ALİSOFU KÖYÜ","zip":"36502"},{"name":"ALTINBULAK KÖYÜ","zip":"36502"},{"name":"ARMUTLU KÖYÜ","zip":"36502"},{"name":"ASBUĞA KÖYÜ","zip":"36502"},{"name":"AŞAĞI MAH.","zip":"36502"},{"name":"AŞAĞISALLIPINAR KÖYÜ","zip":"36502"},{"name":"BALABANTAŞ KÖYÜ","zip":"36502"},{"name":"BALIKLI KÖYÜ","zip":"36502"},{"name":"BAŞKÖY KÖYÜ","zip":"36502"},{"name":"BELENCİK KÖYÜ","zip":"36502"},{"name":"BEŞYOL KÖYÜ","zip":"36502"},{"name":"BOYALI KÖYÜ","zip":"36502"},{"name":"BOZAT KÖYÜ","zip":"36502"},{"name":"ÇAMYAZI KÖYÜ","zip":"36502"},{"name":"ÇARDAKÇATI KÖYÜ","zip":"36502"},{"name":"ÇATAK KÖYÜ","zip":"36502"},{"name":"ÇOLAKLI KÖYÜ","zip":"36502"},{"name":"DEĞİRMEN MAH.","zip":"36502"},{"name":"EŞMEÇAYIR KÖYÜ","zip":"36502"},{"name":"GECİKMEZ KÖYÜ","zip":"36502"},{"name":"GÜLLÜCE KÖYÜ","zip":"36502"},{"name":"HAMAMLI KÖYÜ","zip":"36502"},{"name":"HANDERE KÖYÜ","zip":"36502"},{"name":"HOŞGELDİ MAH.","zip":"36502"},{"name":"İNKAYA KÖYÜ","zip":"36502"},{"name":"İSİSU KÖYÜ","zip":"36502"},{"name":"KALEBAŞI KÖYÜ","zip":"36502"},{"name":"KARAKÖSE KÖYÜ","zip":"36502"},{"name":"KARAKURT KÖYÜ","zip":"36502"},{"name":"KARAPINAR KÖYÜ","zip":"36502"},{"name":"KARATAŞ MAH.","zip":"36502"},{"name":"KARAURGAN KÖYÜ","zip":"36502"},{"name":"KAYALIBOĞAZ KÖYÜ","zip":"36502"},{"name":"KAZANTAŞ KÖYÜ","zip":"36502"},{"name":"KAZIKKAYA KÖYÜ","zip":"36502"},{"name":"KOÇOĞLU KÖYÜ","zip":"36502"},{"name":"KOZAN KÖYÜ","zip":"36502"},{"name":"KÖROĞLU KÖYÜ","zip":"36502"},{"name":"KURBANÇAYIR KÖYÜ","zip":"36502"},{"name":"KÜÇÜK GÜLLÜCE MAH.","zip":"36502"},{"name":"MAKSUTÇUK MAH.","zip":"36502"},{"name":"MERKEZ MAH.","zip":"36502"},{"name":"MESCİTLİ KÖYÜ","zip":"36502"},{"name":"ODALAR KÖYÜ","zip":"36502"},{"name":"OKUL MAH.","zip":"36502"},{"name":"ORTAKALE KÖYÜ","zip":"36502"},{"name":"PARMAKDERE KÖYÜ","zip":"36502"},{"name":"SIRATAŞLAR KÖYÜ","zip":"36502"},{"name":"SIRBASAN KÖYÜ","zip":"36502"},{"name":"SONVEREN MAH.","zip":"36502"},{"name":"SÜNGÜTAŞI KÖYÜ","zip":"36502"},{"name":"ŞEHİTEMİN KÖYÜ","zip":"36502"},{"name":"ŞEHİTHALİT KÖYÜ","zip":"36502"},{"name":"TAŞLIGÜNEY KÖYÜ","zip":"36502"},{"name":"TOPKAYA KÖYÜ","zip":"36502"},{"name":"UZUNGAZİ KÖYÜ","zip":"36502"},{"name":"YAĞBASAN KÖYÜ","zip":"36502"},{"name":"YARKAYA DEPREM KONUTLARI MAH.","zip":"36502"},{"name":"YARKAYA KÖYÜ","zip":"36502"},{"name":"YAYIKLI KÖYÜ","zip":"36502"},{"name":"YENİGAZİ KÖYÜ","zip":"36502"},{"name":"YENİKÖY KÖYÜ","zip":"36502"},{"name":"YUKARI MAH.","zip":"36502"},{"name":"YUKARISALLIPINAR KÖYÜ","zip":"36502"}]},{"name":"SARIKAMIŞ","cityName":null,"quarters":[{"name":"ERENLER MAH.","zip":"36500"},{"name":"İNÖNÜ MAH.","zip":"36500"},{"name":"İSTASYON MAH.","zip":"36500"},{"name":"KAZIMKARABEKİR MAH.","zip":"36500"},{"name":"ŞEHİTLER MAH.","zip":"36500"},{"name":"TEPE MAH.","zip":"36500"},{"name":"YENİ MAH.","zip":"36500"}]},{"name":"MERKEZKÖYLER","cityName":null,"quarters":[{"name":"AKPINAR KÖYÜ","zip":"36902"},{"name":"AKYAR KÖYÜ","zip":"36902"},{"name":"ALİSOFU KÖYÜ","zip":"36902"},{"name":"AŞAĞI MAH.","zip":"36902"},{"name":"AŞAĞIDAMLAPINAR KÖYÜ","zip":"36902"},{"name":"AŞAĞIKOTANLI KÖYÜ","zip":"36902"},{"name":"BAŞKÖY KÖYÜ","zip":"36902"},{"name":"BAYBURT KÖYÜ","zip":"36902"},{"name":"BAYKARA KÖYÜ","zip":"36902"},{"name":"BENLİAHMET KÖYÜ","zip":"36902"},{"name":"BEYKÖY KÖYÜ","zip":"36902"},{"name":"BOZKUŞ KÖYÜ","zip":"36902"},{"name":"BÖLÜKBAŞ KÖYÜ","zip":"36902"},{"name":"BÜYÜK OLUKLU KÖYÜ","zip":"36902"},{"name":"BÜYÜKDERE KÖYÜ","zip":"36902"},{"name":"CAMİ ALTI MAH.","zip":"36902"},{"name":"CAMİ ÜSTÜ MAH.","zip":"36902"},{"name":"CAMİİ MAH.","zip":"36902"},{"name":"CAVLAK KÖYÜ","zip":"36902"},{"name":"ÇAYBAŞI KÖYÜ","zip":"36902"},{"name":"ÇIPLAKLI KÖYÜ","zip":"36902"},{"name":"DARBOĞAZ KÖYÜ","zip":"36902"},{"name":"DEĞİRMEN MAH.","zip":"36902"},{"name":"DEĞİRMENBAŞI MAH.","zip":"36902"},{"name":"DÖLBENTLİ KÖYÜ","zip":"36902"},{"name":"ESKİGAZİ KÖYÜ","zip":"36902"},{"name":"ESKİGEÇİT KÖYÜ","zip":"36902"},{"name":"GELİNALAN KÖYÜ","zip":"36902"},{"name":"GİRİŞ MAH.","zip":"36902"},{"name":"GÜRBÜZLER KÖYÜ","zip":"36902"},{"name":"HASBEY KÖYÜ","zip":"36902"},{"name":"İĞDİR KÖYÜ","zip":"36902"},{"name":"KAMIŞLI KÖYÜ","zip":"36902"},{"name":"KARAÇAYIR KÖYÜ","zip":"36902"},{"name":"KARAHAMZA KÖYÜ","zip":"36902"},{"name":"KARAKALE KÖYÜ","zip":"36902"},{"name":"KATRANLI KÖYÜ","zip":"36902"},{"name":"KAYNARLI KÖYÜ","zip":"36902"},{"name":"KEKEÇ KÖYÜ","zip":"36902"},{"name":"KIRKPINAR KÖYÜ","zip":"36902"},{"name":"KOŞAPINAR KÖYÜ","zip":"36902"},{"name":"KOYUNYURDU KÖYÜ","zip":"36902"},{"name":"LALOĞLU KÖYÜ","zip":"36902"},{"name":"MOLLAMUSTAFA KÖYÜ","zip":"36902"},{"name":"OKUL MAH.","zip":"36902"},{"name":"OLUKLU KÖYÜ","zip":"36902"},{"name":"ORTA MAH.","zip":"36902"},{"name":"ORTAKALE KÖYÜ","zip":"36902"},{"name":"SARIGÜN KÖYÜ","zip":"36902"},{"name":"SÖĞÜTLÜ KÖYÜ","zip":"36902"},{"name":"TEPE MAH.","zip":"36902"},{"name":"TOZLUCA KÖYÜ","zip":"36902"},{"name":"TUYGUN KÖYÜ","zip":"36902"},{"name":"YALNIZÇAM KÖYÜ","zip":"36902"},{"name":"YAMAÇLI KÖYÜ","zip":"36902"},{"name":"YASSICA KÖYÜ","zip":"36902"},{"name":"YAYLACIK KÖYÜ","zip":"36902"},{"name":"YENİCE KÖYÜ","zip":"36902"},{"name":"YEŞİLTEPE KÖYÜ","zip":"36902"},{"name":"YOLGEÇMEZ KÖYÜ","zip":"36902"},{"name":"YUKARI MAH.","zip":"36902"},{"name":"YUKARIDAMLAPINAR KÖYÜ","zip":"36902"},{"name":"YUKARIKOTANLI KÖYÜ","zip":"36902"}]},{"name":"SELİM","cityName":null,"quarters":[{"name":"ÇARŞI MAH.","zip":"36900"},{"name":"KÖPRÜBAŞI MAH.","zip":"36900"}]},{"name":"MERKEZKÖYLER","cityName":null,"quarters":[{"name":"AFETEVLERİ MAH.","zip":"36762"},{"name":"AKSU KÖYÜ","zip":"36762"},{"name":"AYNALI KÖYÜ","zip":"36762"},{"name":"BEŞEVLER MAH.","zip":"36762"},{"name":"BÜYÜKÇATAK KÖYÜ","zip":"36762"},{"name":"ÇAMÇAVUŞ KÖYÜ","zip":"36762"},{"name":"ÇIĞRIKLI KÖYÜ","zip":"36762"},{"name":"DOYUMLU KÖYÜ","zip":"36762"},{"name":"ERDAĞI KÖYÜ","zip":"36762"},{"name":"ERMİŞLER KÖYÜ","zip":"36762"},{"name":"GÖLBAŞI KÖYÜ","zip":"36762"},{"name":"GÖLBAŞI MEZRA MAH.","zip":"36762"},{"name":"HARMANLI KÖYÜ","zip":"36762"},{"name":"İNCESU KÖYÜ","zip":"36762"},{"name":"İNCİLİPINAR KÖYÜ","zip":"36762"},{"name":"KALECİK KÖYÜ","zip":"36762"},{"name":"KARAPINAR KÖYÜ","zip":"36762"},{"name":"KARATUZAK MAH.","zip":"36762"},{"name":"KAYADİBİ KÖYÜ","zip":"36762"},{"name":"KAYALIK KÖYÜ","zip":"36762"},{"name":"KEÇİLİ KÖYÜ","zip":"36762"},{"name":"KIRÇİÇEĞİ KÖYÜ","zip":"36762"},{"name":"KIRKPINAR KÖYÜ","zip":"36762"},{"name":"KİZİROĞLU KÖYÜ","zip":"36762"},{"name":"KÖYİÇİ MAH.","zip":"36762"},{"name":"KURUGÖL KÖYÜ","zip":"36762"},{"name":"KÜÇÜKÇATAK KÖYÜ","zip":"36762"},{"name":"MERKEZ MAH.","zip":"36762"},{"name":"ORTALAR KÖYÜ","zip":"36762"},{"name":"PORSUKLU KÖYÜ","zip":"36762"},{"name":"TAŞLICA KÖYÜ","zip":"36762"},{"name":"TEPE MAH.","zip":"36762"},{"name":"YAYLACIK KÖYÜ","zip":"36762"},{"name":"YOLBOYU KÖYÜ","zip":"36762"}]},{"name":"SUSUZ","cityName":null,"quarters":[{"name":"İNKILAP MAH.","zip":"36760"},{"name":"İNÖNÜ MAH.","zip":"36760"},{"name":"KAZIM KARABEKİR MAH.","zip":"36760"}]}]}]}