{"id":37,"name":"KASTAMONU","cities":[{"name":"city","districts":[{"name":"ABANA","cityName":null,"quarters":[{"name":"KONAKÖREN MAH.","zip":"37970"},{"name":"MERKEZ MAH.","zip":"37970"}]},{"name":"MERKEZKÖYLER","cityName":null,"quarters":[{"name":"AKÇAM(MACA) MAH.","zip":"37972"},{"name":"ALİ KAHYA MAH.","zip":"37972"},{"name":"ALİ ONBAŞI MAH.","zip":"37972"},{"name":"ALTIKULAÇ (KADI) MAH.","zip":"37972"},{"name":"ALTIKULAÇ KÖYÜ","zip":"37972"},{"name":"AŞÇI MAH.","zip":"37972"},{"name":"BADIMANA MAH.","zip":"37972"},{"name":"ÇAMPINAR KÖYÜ","zip":"37972"},{"name":"ÇAMPINAR MAH.","zip":"37972"},{"name":"ÇÖLMEK MAH.","zip":"37972"},{"name":"DELES MAH.","zip":"37972"},{"name":"DENİZBÜKÜ KÖYÜ","zip":"37972"},{"name":"DENİZBÜKÜ MAH.","zip":"37972"},{"name":"ELMAÇUKURU KÖYÜ","zip":"37972"},{"name":"ELMAÇUKURU MAH.","zip":"37972"},{"name":"GÖYNÜKLER KÖYÜ","zip":"37972"},{"name":"GÖYNÜKLER MAH.","zip":"37972"},{"name":"GÜLEN MAH.","zip":"37972"},{"name":"HAMZA MAH.","zip":"37972"},{"name":"KADIYUSUF KÖYÜ","zip":"37972"},{"name":"KADIYUSUF MAH.","zip":"37972"},{"name":"KALAFAT MAH.","zip":"37972"},{"name":"KARAHACILAR MAH.","zip":"37972"},{"name":"KARTAL MAH.","zip":"37972"},{"name":"KAYIŞ MAH.","zip":"37972"},{"name":"KERİM MAH.","zip":"37972"},{"name":"KIŞLACIK MAH.","zip":"37972"},{"name":"KİRENPINARI MAH.","zip":"37972"},{"name":"KOÇ MAH.","zip":"37972"},{"name":"KONAK MAH.","zip":"37972"},{"name":"KOVALAK MAH.","zip":"37972"},{"name":"KURTLAMA MAH.","zip":"37972"},{"name":"KUZGUN MAH.","zip":"37972"},{"name":"MACAR MAH.","zip":"37972"},{"name":"MANAV MAH.","zip":"37972"},{"name":"MOLLAAHMET MAH.","zip":"37972"},{"name":"MÜSELLİM MAH.","zip":"37972"},{"name":"NADAR MAH.","zip":"37972"},{"name":"OLUKYANI MAH.","zip":"37972"},{"name":"ORZA MAH.","zip":"37972"},{"name":"PAŞA MAH.","zip":"37972"},{"name":"RECEP MAH.","zip":"37972"},{"name":"SOLTU MAH.","zip":"37972"},{"name":"TARAKÇI MAH.","zip":"37972"},{"name":"TEPE MAH.","zip":"37972"},{"name":"TERZİ MAH.","zip":"37972"},{"name":"YAKABAŞI KÖYÜ","zip":"37972"},{"name":"YAKABAŞI(YAYLAS) MAH.","zip":"37972"},{"name":"YEMENİ KÖYÜ","zip":"37972"},{"name":"YEMENİ MAH.","zip":"37972"},{"name":"YEŞİLYUVA KÖYÜ","zip":"37972"},{"name":"YEŞİLYUVA MAH.","zip":"37972"},{"name":"ZİRAATLIK MAH.","zip":"37972"},{"name":"ZİYRATLIK MAH.","zip":"37972"}]},{"name":"AĞLI","cityName":null,"quarters":[{"name":"DANACI MAH.","zip":"37920"},{"name":"DİKMEN MAH.","zip":"37920"},{"name":"KETENCİLER MAH.","zip":"37920"},{"name":"KIRLARDERE MAH.","zip":"37920"},{"name":"MERKEZ MAH.","zip":"37920"},{"name":"ÖRENCİK MAH.","zip":"37920"},{"name":"SELMANLI MAH.","zip":"37920"},{"name":"SİNAN MAH.","zip":"37920"},{"name":"YAĞLICA MAH.","zip":"37920"}]},{"name":"MERKEZKÖYLER","cityName":null,"quarters":[{"name":"AKÇAKESE KÖYÜ","zip":"37922"},{"name":"AKDİVAN KÖYÜ","zip":"37922"},{"name":"ARAPOĞLU MAH.","zip":"37922"},{"name":"AŞAĞI TURNACIK MAH.","zip":"37922"},{"name":"BALCA MAH.","zip":"37922"},{"name":"BALOĞLU MAH.","zip":"37922"},{"name":"BAYRAM GAZİ MAH.","zip":"37922"},{"name":"BEREKETLİ KÖYÜ","zip":"37922"},{"name":"CAMİ YANI MAH.","zip":"37922"},{"name":"CİNCİOĞLU MAH.","zip":"37922"},{"name":"ÇAPAL MAH.","zip":"37922"},{"name":"ÇAYLI MAH.","zip":"37922"},{"name":"ÇÖPCÜ MAH.","zip":"37922"},{"name":"DANA MAH.","zip":"37922"},{"name":"DELİHASAN MAH.","zip":"37922"},{"name":"DİKELOĞLU MAH.","zip":"37922"},{"name":"ESE MAH.","zip":"37922"},{"name":"EVRENLER MAH.","zip":"37922"},{"name":"EYÜPAĞA MAH.","zip":"37922"},{"name":"FIRINCIK KÖYÜ","zip":"37922"},{"name":"GALTA MAH.","zip":"37922"},{"name":"GÖLCÜĞEZ KÖYÜ","zip":"37922"},{"name":"HALİL MAH.","zip":"37922"},{"name":"HASANLI MAH.","zip":"37922"},{"name":"HATİP MAH.","zip":"37922"},{"name":"HÜSEYİNEFENDİ MAH.","zip":"37922"},{"name":"İBATOĞLU MAH.","zip":"37922"},{"name":"KABACI KÖYÜ","zip":"37922"},{"name":"KABALAR MAH.","zip":"37922"},{"name":"KADI MAH.","zip":"37922"},{"name":"KARAKÖY MAH.","zip":"37922"},{"name":"KARAOĞLAN MAH.","zip":"37922"},{"name":"KARAPINAR MAH.","zip":"37922"},{"name":"KAYABAŞI MAH.","zip":"37922"},{"name":"KELLER MAH.","zip":"37922"},{"name":"KESİM MAH.","zip":"37922"},{"name":"KIZILCAELMA MAH.","zip":"37922"},{"name":"KOCABAŞ MAH.","zip":"37922"},{"name":"KOÇCUĞAZ MAH.","zip":"37922"},{"name":"KURTDERESİ MAH.","zip":"37922"},{"name":"KURU MAH.","zip":"37922"},{"name":"MAZAK MAH.","zip":"37922"},{"name":"MERKEZ MAH.","zip":"37922"},{"name":"MIRLAVAT MAH.","zip":"37922"},{"name":"MURATOĞLU MAH.","zip":"37922"},{"name":"MURTAZAOĞLU MAH.","zip":"37922"},{"name":"MÜSELLİMLER KÖYÜ","zip":"37922"},{"name":"OLUKÖZÜ KÖYÜ","zip":"37922"},{"name":"ORNU MAH.","zip":"37922"},{"name":"OSMANÇELEBİ MAH.","zip":"37922"},{"name":"ÖCÜR MAH.","zip":"37922"},{"name":"ÖRENCİK MAH.","zip":"37922"},{"name":"PAŞAOĞLU MAH.","zip":"37922"},{"name":"SELMANLI KÖYÜ","zip":"37922"},{"name":"SELVER MAH.","zip":"37922"},{"name":"ŞAHİN MAH.","zip":"37922"},{"name":"ŞEYHOĞLU MAH.","zip":"37922"},{"name":"TAVLIOĞLU MAH.","zip":"37922"},{"name":"TEPE MAH.","zip":"37922"},{"name":"TUNUSLAR KÖYÜ","zip":"37922"},{"name":"TURNACIK KÖYÜ","zip":"37922"},{"name":"YAYLA MAH.","zip":"37922"},{"name":"YEŞİLPINAR KÖYÜ","zip":"37922"},{"name":"YUKARI TURNACIK MAH.","zip":"37922"}]},{"name":"ARAÇ","cityName":null,"quarters":[{"name":"İNÖNÜ MAH.","zip":"37800"},{"name":"MESUDİYE MAH.","zip":"37800"},{"name":"YENİ MAH.","zip":"37800"},{"name":"YEŞİL MAH.","zip":"37800"},{"name":"YUKARIARAÇ MAH.","zip":"37800"}]},{"name":"MERKEZKÖYLER","cityName":null,"quarters":[{"name":"ADO MAH.","zip":"37802"},{"name":"AFET MAH.","zip":"37802"},{"name":"AHATLAR KÖYÜ","zip":"37802"},{"name":"AHMETLER MAH.","zip":"37802"},{"name":"AKGEÇİT KÖYÜ","zip":"37802"},{"name":"AKINCILAR KÖYÜ","zip":"37802"},{"name":"AKSEKİ MAH.","zip":"37802"},{"name":"AKSÖĞÜT MAH.","zip":"37802"},{"name":"AKSU KÖYÜ","zip":"37802"},{"name":"AKTAŞ KÖYÜ","zip":"37802"},{"name":"ALAKAYA KÖYÜ","zip":"37802"},{"name":"ALAN MAH.","zip":"37802"},{"name":"ALINÖREN KÖYÜ","zip":"37802"},{"name":"ALİ GADO MAH.","zip":"37802"},{"name":"ALİBEY MAH.","zip":"37802"},{"name":"APDUDOĞU MAH.","zip":"37802"},{"name":"ASAR MAH.","zip":"37802"},{"name":"AŞAĞI DİPHAN MAH.","zip":"37802"},{"name":"AŞAĞI MAH.","zip":"37802"},{"name":"AŞAĞI ÖREN MAH.","zip":"37802"},{"name":"AŞAĞI SİNDİRE MAH.","zip":"37802"},{"name":"AŞAĞIÇOBANÖZÜ KÖYÜ","zip":"37802"},{"name":"AŞAĞIILIPINAR KÖYÜ","zip":"37802"},{"name":"AŞAĞIİKİZÖREN KÖYÜ","zip":"37802"},{"name":"AŞAĞIOBA KÖYÜ","zip":"37802"},{"name":"AŞAĞIÖREN MAH.","zip":"37802"},{"name":"AŞAĞIYAZI KÖYÜ","zip":"37802"},{"name":"AT SEKİ MAH.","zip":"37802"},{"name":"AVLACIK KÖYÜ","zip":"37802"},{"name":"AVLAĞIÇAYIRI KÖYÜ","zip":"37802"},{"name":"BAHÇECİK KÖYÜ","zip":"37802"},{"name":"BAHÇECİK MAH.","zip":"37802"},{"name":"BAKILCAK MAH.","zip":"37802"},{"name":"BALÇIKHİSAR KÖYÜ","zip":"37802"},{"name":"BARITCI MAH.","zip":"37802"},{"name":"BAŞKÖY KÖYÜ","zip":"37802"},{"name":"BEKTAŞLAR MAH.","zip":"37802"},{"name":"BEKTÜRE KÖYÜ","zip":"37802"},{"name":"BEKTÜRE MAH.","zip":"37802"},{"name":"BELEN KÖYÜ","zip":"37802"},{"name":"BELKAVAK KÖYÜ","zip":"37802"},{"name":"BERBER MAH.","zip":"37802"},{"name":"BODUROĞLU MAH.","zip":"37802"},{"name":"BOĞDAM KÖYÜ","zip":"37802"},{"name":"BOSTAN MAH.","zip":"37802"},{"name":"BOYALI MAH.","zip":"37802"},{"name":"BÜRÜMCEK MAH.","zip":"37802"},{"name":"CANLAR MAH.","zip":"37802"},{"name":"CELEPLER KÖYÜ","zip":"37802"},{"name":"CELLER MAH.","zip":"37802"},{"name":"CEVİZLİK KÖYÜ","zip":"37802"},{"name":"ÇABANDERE MAH.","zip":"37802"},{"name":"ÇAKILLAR MAH.","zip":"37802"},{"name":"ÇAKIRIN MAH.","zip":"37802"},{"name":"ÇALCA MAH.","zip":"37802"},{"name":"ÇALIK MAH.","zip":"37802"},{"name":"ÇALKÖY KÖYÜ","zip":"37802"},{"name":"ÇAMALTI KÖYÜ","zip":"37802"},{"name":"ÇAMLI TEPE MAH.","zip":"37802"},{"name":"ÇAVUŞ KÖYÜ","zip":"37802"},{"name":"ÇAVUŞ MAH.","zip":"37802"},{"name":"ÇAVUŞ YAYLASI MAH.","zip":"37802"},{"name":"ÇAYKAŞI KÖYÜ","zip":"37802"},{"name":"ÇENGELİ MAH.","zip":"37802"},{"name":"ÇERÇİLER KÖYÜ","zip":"37802"},{"name":"ÇIKRIKÇI MAH.","zip":"37802"},{"name":"ÇİFTÇİ MAH.","zip":"37802"},{"name":"ÇİFTLİK MAH.","zip":"37802"},{"name":"ÇORAK MAH.","zip":"37802"},{"name":"ÇORAKDERE MAH.","zip":"37802"},{"name":"ÇORUM MAH.","zip":"37802"},{"name":"ÇUBUKLUDERE KÖYÜ","zip":"37802"},{"name":"ÇUKURPELİT KÖYÜ","zip":"37802"},{"name":"ÇUKURTARLA MAH.","zip":"37802"},{"name":"DAMLA KÖYÜ","zip":"37802"},{"name":"DAYIOĞLU MAH.","zip":"37802"},{"name":"DEDECÜK MAH.","zip":"37802"},{"name":"DEĞİRMEN BAŞI MAH.","zip":"37802"},{"name":"DEĞİRMENÇAY KÖYÜ","zip":"37802"},{"name":"DELİ HÜSEYİN MAH.","zip":"37802"},{"name":"DEMİRCİ MAH.","zip":"37802"},{"name":"DERE MAH.","zip":"37802"},{"name":"DEREÇATI KÖYÜ","zip":"37802"},{"name":"DEREKIŞLA MAH.","zip":"37802"},{"name":"DERELER MAH.","zip":"37802"},{"name":"DERETEPE KÖYÜ","zip":"37802"},{"name":"DERYA MAH.","zip":"37802"},{"name":"DİPHAN MAH.","zip":"37802"},{"name":"DOĞANCA KÖYÜ","zip":"37802"},{"name":"DOĞANPINAR KÖYÜ","zip":"37802"},{"name":"DORUK KÖYÜ","zip":"37802"},{"name":"DORUK MAH.","zip":"37802"},{"name":"DURAKLAR MAH.","zip":"37802"},{"name":"DURMUŞOĞLU MAH.","zip":"37802"},{"name":"EBULEYS MAH.","zip":"37802"},{"name":"EBULEYS-OVA MAH.","zip":"37802"},{"name":"ECEMLER MAH.","zip":"37802"},{"name":"EKİNCİK MAH.","zip":"37802"},{"name":"EKİNÖZÜ KÖYÜ","zip":"37802"},{"name":"ELMACIK MAH.","zip":"37802"},{"name":"ELMAÇUKURU MAH.","zip":"37802"},{"name":"ENCİBO MAH.","zip":"37802"},{"name":"ERCEK MAH.","zip":"37802"},{"name":"EREKLİ KÖYÜ","zip":"37802"},{"name":"ERENCİK MAH.","zip":"37802"},{"name":"ESELER MAH.","zip":"37802"},{"name":"ESİR MAH.","zip":"37802"},{"name":"ESKİ MAH.","zip":"37802"},{"name":"ESKİ SUSUZ MAH.","zip":"37802"},{"name":"ESKİCİ MAH.","zip":"37802"},{"name":"ESKİİĞDİR KÖYÜ","zip":"37802"},{"name":"EYNİBEY MAH.","zip":"37802"},{"name":"FINDICAK MAH.","zip":"37802"},{"name":"FINDIKLI KÖYÜ","zip":"37802"},{"name":"GEMİ KÖYÜ","zip":"37802"},{"name":"GEMİCİ MAH.","zip":"37802"},{"name":"GERGEN KÖYÜ","zip":"37802"},{"name":"GERİŞ MAH.","zip":"37802"},{"name":"GERİŞ-YAYLA EVİ MAH.","zip":"37802"},{"name":"GEZTARLA MAH.","zip":"37802"},{"name":"GÖCENİN KIŞLASI MAH.","zip":"37802"},{"name":"GÖÇÇÜN MAH.","zip":"37802"},{"name":"GÖDE MAH.","zip":"37802"},{"name":"GÖKCEÇAT KÖYÜ","zip":"37802"},{"name":"GÖKCEOĞLU MAH.","zip":"37802"},{"name":"GÖKÇESU KÖYÜ","zip":"37802"},{"name":"GÖLCÜK KÖYÜ","zip":"37802"},{"name":"GÖLLER MAH.","zip":"37802"},{"name":"GÖYNÜK MAH.","zip":"37802"},{"name":"GÜLLÜK MAH.","zip":"37802"},{"name":"GÜLÜKLER KÖYÜ","zip":"37802"},{"name":"GÜNEY MAH.","zip":"37802"},{"name":"GÜZELCE KÖYÜ","zip":"37802"},{"name":"GÜZLÜK KÖYÜ","zip":"37802"},{"name":"GÜZLÜK MAH.","zip":"37802"},{"name":"HALAÇLAR MAH.","zip":"37802"},{"name":"HALİLOBA KÖYÜ","zip":"37802"},{"name":"HALLAR MAH.","zip":"37802"},{"name":"HANÖZÜ KÖYÜ","zip":"37802"},{"name":"HARMANCIK MAH.","zip":"37802"},{"name":"HASBEYLER MAH.","zip":"37802"},{"name":"HATIBOGİL MAH.","zip":"37802"},{"name":"HATİP KÖYÜ","zip":"37802"},{"name":"HATİP MAH.","zip":"37802"},{"name":"HATİPGİL MAH.","zip":"37802"},{"name":"HAYDAROĞLU MAH.","zip":"37802"},{"name":"HEMO MAH.","zip":"37802"},{"name":"HEPCANLAR MAH.","zip":"37802"},{"name":"HIZAR MAH.","zip":"37802"},{"name":"HOŞAFCI MAH.","zip":"37802"},{"name":"HURUÇÖREN KÖYÜ","zip":"37802"},{"name":"HÜMMETOĞLU MAH.","zip":"37802"},{"name":"IRBATLI MAH.","zip":"37802"},{"name":"İĞDİR KÖYÜ","zip":"37802"},{"name":"İĞDİR MAH.","zip":"37802"},{"name":"İĞDİRKIŞLA KÖYÜ","zip":"37802"},{"name":"İHSANLI KÖYÜ","zip":"37802"},{"name":"İMAM MAH.","zip":"37802"},{"name":"İMREHALAR MAH.","zip":"37802"},{"name":"İNTAŞ MAH.","zip":"37802"},{"name":"İSPİROĞLU MAH.","zip":"37802"},{"name":"KADIKÖY MAH.","zip":"37802"},{"name":"KAHYA MAH.","zip":"37802"},{"name":"KALAYCIOĞLU MAH.","zip":"37802"},{"name":"KAPILLI MAH.","zip":"37802"},{"name":"KARAAĞAÇ MAH.","zip":"37802"},{"name":"KARACALIK MAH.","zip":"37802"},{"name":"KARACAOLUK MAH.","zip":"37802"},{"name":"KARACIK KÖYÜ","zip":"37802"},{"name":"KARAÇALAR KÖYÜ","zip":"37802"},{"name":"KARAÇALILIK MAH.","zip":"37802"},{"name":"KARAÇAYIR MAH.","zip":"37802"},{"name":"KARAGÖZ MAH.","zip":"37802"},{"name":"KARAKAYA KÖYÜ","zip":"37802"},{"name":"KARAMCAK MAH.","zip":"37802"},{"name":"KARANDI MAH.","zip":"37802"},{"name":"KARARECEP MAH.","zip":"37802"},{"name":"KARASU MAH.","zip":"37802"},{"name":"KARAYOLLARI ALTI MAH.","zip":"37802"},{"name":"KARCI MAH.","zip":"37802"},{"name":"KARCILAR KÖYÜ","zip":"37802"},{"name":"KARKALMAZ MAH.","zip":"37802"},{"name":"KAROLO MAH.","zip":"37802"},{"name":"KAVACIK KÖYÜ","zip":"37802"},{"name":"KAVACIK MAH.","zip":"37802"},{"name":"KAVAK KÖYÜ","zip":"37802"},{"name":"KAVAK MAH.","zip":"37802"},{"name":"KAVURGA MAH.","zip":"37802"},{"name":"KAYABAŞI KÖYÜ","zip":"37802"},{"name":"KAYABOĞAZI KÖYÜ","zip":"37802"},{"name":"KAYADİBİ MAH.","zip":"37802"},{"name":"KAYAKISIĞI MAH.","zip":"37802"},{"name":"KAYAÖREN KÖYÜ","zip":"37802"},{"name":"KELLER MAH.","zip":"37802"},{"name":"KEMERLER KÖYÜ","zip":"37802"},{"name":"KINCI MAH.","zip":"37802"},{"name":"KIŞLA MAH.","zip":"37802"},{"name":"KIŞLAKÖY KÖYÜ","zip":"37802"},{"name":"KIYAN KÖYÜ","zip":"37802"},{"name":"KIYIDİBİ KÖYÜ","zip":"37802"},{"name":"KIZAKYOKUŞU MAH.","zip":"37802"},{"name":"KIZILÇALAR MAH.","zip":"37802"},{"name":"KIZILÖREN KÖYÜ","zip":"37802"},{"name":"KIZILSARAY KÖYÜ","zip":"37802"},{"name":"KİRAZLI KÖYÜ","zip":"37802"},{"name":"KİRAZLI MAH.","zip":"37802"},{"name":"KİRECCİK MAH.","zip":"37802"},{"name":"KOÇÇUAZ MAH.","zip":"37802"},{"name":"KONAK MAH.","zip":"37802"},{"name":"KONAKLAR MAH.","zip":"37802"},{"name":"KOVANLI KÖYÜ","zip":"37802"},{"name":"KÖKLÜDERE KÖYÜ","zip":"37802"},{"name":"KÖKLÜYURT KÖYÜ","zip":"37802"},{"name":"KÖLEHASAN MAH.","zip":"37802"},{"name":"KÖLEOĞLU MAH.","zip":"37802"},{"name":"KÖPRÜBAŞI MAH.","zip":"37802"},{"name":"KÖPRÜYANI MAH.","zip":"37802"},{"name":"KÖSE KÖYÜ","zip":"37802"},{"name":"KÖSE MAH.","zip":"37802"},{"name":"KÖSELER MAH.","zip":"37802"},{"name":"KÖSEOĞLU MAH.","zip":"37802"},{"name":"KÖŞKLÜ MAH.","zip":"37802"},{"name":"KÖYYERİ MAH.","zip":"37802"},{"name":"KUZLAN MAH.","zip":"37802"},{"name":"KÜÇÜK BELEN MAH.","zip":"37802"},{"name":"KÜREKÇİ MAH.","zip":"37802"},{"name":"KÜTÜKOĞLU MAH.","zip":"37802"},{"name":"MAHMATLAR MAH.","zip":"37802"},{"name":"MANDRA MAH.","zip":"37802"},{"name":"MEKEZ MAH.","zip":"37802"},{"name":"MEMİŞOĞLU MAH.","zip":"37802"},{"name":"MERKEZ MAH.","zip":"37802"},{"name":"MERKEZ-ÇOBANOĞLU MAH.","zip":"37802"},{"name":"MESUTLAR MAH.","zip":"37802"},{"name":"MEZRA MAH.","zip":"37802"},{"name":"MIKCI MAH.","zip":"37802"},{"name":"MIRUSUTTUR MAH.","zip":"37802"},{"name":"MİRZEK MAH.","zip":"37802"},{"name":"MUHACİRLER MAH.","zip":"37802"},{"name":"MURATLI KÖYÜ","zip":"37802"},{"name":"MURATOĞLU MAH.","zip":"37802"},{"name":"MUSALAR MAH.","zip":"37802"},{"name":"MÜSEMLER MAH.","zip":"37802"},{"name":"MÜSLİMLER KÖYÜ","zip":"37802"},{"name":"MÜSLÜMAN MAH.","zip":"37802"},{"name":"OKÇULAR KÖYÜ","zip":"37802"},{"name":"OKÇULAR MAH.","zip":"37802"},{"name":"OKLUK KÖYÜ","zip":"37802"},{"name":"OKUL ÇEVRESİ MAH.","zip":"37802"},{"name":"ORTA MAH.","zip":"37802"},{"name":"ORUÇBEY MAH.","zip":"37802"},{"name":"ORUŞLAR MAH.","zip":"37802"},{"name":"OVA MAH.","zip":"37802"},{"name":"OYCALI KÖYÜ","zip":"37802"},{"name":"ÖMERCİN MAH.","zip":"37802"},{"name":"ÖMERSİN KÖYÜ","zip":"37802"},{"name":"ÖRENALTI MAH.","zip":"37802"},{"name":"ÖTEDOMA MAH.","zip":"37802"},{"name":"ÖZAĞZI MAH.","zip":"37802"},{"name":"ÖZBEL KÖYÜ","zip":"37802"},{"name":"PALAZLAR KÖYÜ","zip":"37802"},{"name":"PAŞALI MAH.","zip":"37802"},{"name":"PELİTÖREN KÖYÜ","zip":"37802"},{"name":"PINARÖREN KÖYÜ","zip":"37802"},{"name":"PİRİNÇ SUYU YAYLA MAH.","zip":"37802"},{"name":"POYRAZLI MAH.","zip":"37802"},{"name":"RAMAZANOĞLU MAH.","zip":"37802"},{"name":"RECEPBEY KÖYÜ","zip":"37802"},{"name":"SALTUKLU KÖYÜ","zip":"37802"},{"name":"SAMATLAR KÖYÜ","zip":"37802"},{"name":"SAMATLAR MAH.","zip":"37802"},{"name":"SARAÇOĞLU MAH.","zip":"37802"},{"name":"SARAY MAH.","zip":"37802"},{"name":"SARAYCIK MAH.","zip":"37802"},{"name":"SARCILAR MAH.","zip":"37802"},{"name":"SARIHACI KÖYÜ","zip":"37802"},{"name":"SARMAŞIK MAH.","zip":"37802"},{"name":"SARPUN KÖYÜ","zip":"37802"},{"name":"SAZAK MAH.","zip":"37802"},{"name":"SERDAR KÖYÜ","zip":"37802"},{"name":"SERDAR MAH.","zip":"37802"},{"name":"SEYRAN MAH.","zip":"37802"},{"name":"SIHLAR MAH.","zip":"37802"},{"name":"SIRAGÖMÜ KÖYÜ","zip":"37802"},{"name":"SOÇULAR MAH.","zip":"37802"},{"name":"SOFCULAR KÖYÜ","zip":"37802"},{"name":"SOFCULAR MAH.","zip":"37802"},{"name":"SOFUOĞLU MAH.","zip":"37802"},{"name":"SOĞANDERE MAH.","zip":"37802"},{"name":"SOĞUK SU MAH.","zip":"37802"},{"name":"SOKAK MAH.","zip":"37802"},{"name":"SUSUZ -GERİŞ MAH.","zip":"37802"},{"name":"SUSUZ -ISPALAR MAH.","zip":"37802"},{"name":"SUSUZ KÖYÜ","zip":"37802"},{"name":"SUSUZ YAYLASI MAH.","zip":"37802"},{"name":"SUSUZ-AHLATÇIK MAH.","zip":"37802"},{"name":"SUSUZ-TÜRBELİ MAH.","zip":"37802"},{"name":"SÜMENLER KÖYÜ","zip":"37802"},{"name":"SÜNGÜLÜ MAH.","zip":"37802"},{"name":"ŞABANLAR MAH.","zip":"37802"},{"name":"ŞEHRİMANLAR KÖYÜ","zip":"37802"},{"name":"ŞEKERCİ MAH.","zip":"37802"},{"name":"ŞENYURT KÖYÜ","zip":"37802"},{"name":"ŞEYKEMLER YABO MAH.","zip":"37802"},{"name":"ŞİRİNGÜNEY KÖYÜ","zip":"37802"},{"name":"TAŞPINAR KÖYÜ","zip":"37802"},{"name":"TAŞPINAR MAH.","zip":"37802"},{"name":"TATLICA KÖYÜ","zip":"37802"},{"name":"TAVŞANLI KÖYÜ","zip":"37802"},{"name":"TEKEREN MAH.","zip":"37802"},{"name":"TEKKE MAH.","zip":"37802"},{"name":"TELLİ MAH.","zip":"37802"},{"name":"TELLİKOZ KÖYÜ","zip":"37802"},{"name":"TEPE MAH.","zip":"37802"},{"name":"TERKE KÖYÜ","zip":"37802"},{"name":"TOKATLI KÖYÜ","zip":"37802"},{"name":"TOPUZOĞLU OVA MAH.","zip":"37802"},{"name":"TOYGAÖREN KÖYÜ","zip":"37802"},{"name":"TUZAKLI KÖYÜ","zip":"37802"},{"name":"TÜFEKCİ MAH.","zip":"37802"},{"name":"TÜRKMENOĞLU MAH.","zip":"37802"},{"name":"UĞUR KÖYÜ","zip":"37802"},{"name":"UĞUR MAH.","zip":"37802"},{"name":"ULUALAN MAH.","zip":"37802"},{"name":"ULUCAK KÖYÜ","zip":"37802"},{"name":"UZUN MAH.","zip":"37802"},{"name":"ÜÇPINAR KÖYÜ","zip":"37802"},{"name":"ÜVEY MAH.","zip":"37802"},{"name":"VARVAN MAH.","zip":"37802"},{"name":"Y. İKİZÖREN MAH.","zip":"37802"},{"name":"Y.SİNDİRE MAH.","zip":"37802"},{"name":"YAKACIK MAH.","zip":"37802"},{"name":"YAKUPOĞLU MAH.","zip":"37802"},{"name":"YALNIZOĞLU MAH.","zip":"37802"},{"name":"YAYLA EVLERİ MAH.","zip":"37802"},{"name":"YAYLA MAH.","zip":"37802"},{"name":"YENİ MAH.","zip":"37802"},{"name":"YENİ OVA MAH.","zip":"37802"},{"name":"YENİCE KÖYÜ","zip":"37802"},{"name":"YENİCE MAH.","zip":"37802"},{"name":"YESİRLER MAH.","zip":"37802"},{"name":"YEŞİL MAH.","zip":"37802"},{"name":"YEŞİLOVA KÖYÜ","zip":"37802"},{"name":"YONCA MAH.","zip":"37802"},{"name":"YUKARI MAH.","zip":"37802"},{"name":"YUKARIÇOBANÖZÜ KÖYÜ","zip":"37802"},{"name":"YUKARIGÜNEY KÖYÜ","zip":"37802"},{"name":"YUKARIILIPINAR KÖYÜ","zip":"37802"},{"name":"YUKARIİKİZÖREN KÖYÜ","zip":"37802"},{"name":"YUKARIOBA KÖYÜ","zip":"37802"},{"name":"YUKARIÖREN MAH.","zip":"37802"},{"name":"YUKARIYAZI KÖYÜ","zip":"37802"},{"name":"YURTTEPE KÖYÜ","zip":"37802"},{"name":"YUSUFAKLAR MAH.","zip":"37802"},{"name":"YUVALCA MAH.","zip":"37802"},{"name":"ZAİM MAH.","zip":"37802"}]},{"name":"AZDAVAY","cityName":null,"quarters":[{"name":"KARŞIYAKA MAH.","zip":"37750"},{"name":"MERKEZ MAH.","zip":"37750"},{"name":"YENİ MAH.","zip":"37750"}]},{"name":"MERKEZKÖYLER","cityName":null,"quarters":[{"name":"AHATKÖY KÖYÜ","zip":"37752"},{"name":"AHMETBEY MAH.","zip":"37752"},{"name":"AKCAÇAM KÖYÜ","zip":"37752"},{"name":"AKCAELMA MAH.","zip":"37752"},{"name":"AKTAŞ MAH.","zip":"37752"},{"name":"ALACIK KÖYÜ","zip":"37752"},{"name":"ALDAY MAH.","zip":"37752"},{"name":"ALI KÖYÜ","zip":"37752"},{"name":"ALI MAH.","zip":"37752"},{"name":"ALİMOĞLU MAH.","zip":"37752"},{"name":"ALİPAŞA MAH.","zip":"37752"},{"name":"ALNEK MAH.","zip":"37752"},{"name":"ALTINTAŞ MAH.","zip":"37752"},{"name":"AMBARLI MAH.","zip":"37752"},{"name":"ARABACI MAH.","zip":"37752"},{"name":"ARABOĞLU MAH.","zip":"37752"},{"name":"ARAPOĞLU MAH.","zip":"37752"},{"name":"ARMUTEREN MAH.","zip":"37752"},{"name":"ARSLANCA KÖYÜ","zip":"37752"},{"name":"AŞAGÖREN MAH.","zip":"37752"},{"name":"AYVAT MAH.","zip":"37752"},{"name":"BAKIRCI KÖYÜ","zip":"37752"},{"name":"BAL MAH.","zip":"37752"},{"name":"BALCA MAH.","zip":"37752"},{"name":"BALLIK MAH.","zip":"37752"},{"name":"BAŞ MAH.","zip":"37752"},{"name":"BAŞAKÇAY KÖYÜ","zip":"37752"},{"name":"BAŞOĞLU MAH.","zip":"37752"},{"name":"BAŞÖREN KÖYÜ","zip":"37752"},{"name":"BAYAT MAH.","zip":"37752"},{"name":"BAYRAKTAR MAH.","zip":"37752"},{"name":"BEKDEMİR MAH.","zip":"37752"},{"name":"BİLALPAŞA MAH.","zip":"37752"},{"name":"BİTELER MAH.","zip":"37752"},{"name":"BOSTANCI MAH.","zip":"37752"},{"name":"BOŞNAK MAH.","zip":"37752"},{"name":"BOYALCA MAH.","zip":"37752"},{"name":"BOZARMUT MAH.","zip":"37752"},{"name":"BÜRÜMÜK MAH.","zip":"37752"},{"name":"CEBECİ MAH.","zip":"37752"},{"name":"ÇADIRCI MAH.","zip":"37752"},{"name":"ÇAKILDAK MAH.","zip":"37752"},{"name":"ÇAKIROĞLU KÖYÜ","zip":"37752"},{"name":"ÇALCI MAH.","zip":"37752"},{"name":"ÇALCIÖREN MAH.","zip":"37752"},{"name":"ÇALDİBİ MAH.","zip":"37752"},{"name":"ÇAMLIBÜK KÖYÜ","zip":"37752"},{"name":"ÇAMLIBÜK MERKEZ MAH.","zip":"37752"},{"name":"ÇAMLIK MAH.","zip":"37752"},{"name":"ÇANAKÇI MAH.","zip":"37752"},{"name":"ÇATAK MAH.","zip":"37752"},{"name":"ÇAY MAH.","zip":"37752"},{"name":"ÇELEBİ MAH.","zip":"37752"},{"name":"ÇERTEK MAH.","zip":"37752"},{"name":"ÇETİNPINAR MAH.","zip":"37752"},{"name":"ÇIRALI MAH.","zip":"37752"},{"name":"ÇİFTLİK MAH.","zip":"37752"},{"name":"ÇOÇUKÖREN KÖYÜ","zip":"37752"},{"name":"ÇÖMEZ MAH.","zip":"37752"},{"name":"ÇÖMLEKTEPE KÖYÜ","zip":"37752"},{"name":"ÇUHADERESİ MAH.","zip":"37752"},{"name":"ÇUKURHARMAN MAH.","zip":"37752"},{"name":"DACCAK MAH.","zip":"37752"},{"name":"DAĞ MAH.","zip":"37752"},{"name":"DAĞKÖY MAH.","zip":"37752"},{"name":"DEĞİRMENCİ MAH.","zip":"37752"},{"name":"DEMİRCİ MAH.","zip":"37752"},{"name":"DEMİRCİLER MAH.","zip":"37752"},{"name":"DERE MAH.","zip":"37752"},{"name":"DEREKÖY MAH.","zip":"37752"},{"name":"DERELİTEKKE KÖYÜ","zip":"37752"},{"name":"DEREYÜCEK KÖYÜ","zip":"37752"},{"name":"DİVANDAĞ MAH.","zip":"37752"},{"name":"DOLAY MAH.","zip":"37752"},{"name":"DORNUÇ MAH.","zip":"37752"},{"name":"DURSUN MAH.","zip":"37752"},{"name":"EGERCİLER MAH.","zip":"37752"},{"name":"EKŞİ MAH.","zip":"37752"},{"name":"ELECE MAH.","zip":"37752"},{"name":"EMRE MAH.","zip":"37752"},{"name":"ESKÖY MAH.","zip":"37752"},{"name":"EVLEK KÖYÜ","zip":"37752"},{"name":"FİREMÜK MAH.","zip":"37752"},{"name":"GECEN KÖYÜ","zip":"37752"},{"name":"GERİŞ MAH.","zip":"37752"},{"name":"GEYİKÖZÜ MAH.","zip":"37752"},{"name":"GIYAS MAH.","zip":"37752"},{"name":"GÖKTAŞ KÖYÜ","zip":"37752"},{"name":"GÖKTAŞ MAH.","zip":"37752"},{"name":"GÖKTEPE MAH.","zip":"37752"},{"name":"GÜLTEPE KÖYÜ","zip":"37752"},{"name":"GÜMÜRTLER KÖYÜ","zip":"37752"},{"name":"GÜNEY MAH.","zip":"37752"},{"name":"HACI HASAN MAH.","zip":"37752"},{"name":"HACI MAH.","zip":"37752"},{"name":"HACIBEY MAH.","zip":"37752"},{"name":"HACILAR MAH.","zip":"37752"},{"name":"HACIOĞLU MAH.","zip":"37752"},{"name":"HACULLU MAH.","zip":"37752"},{"name":"HALAŞLI MAH.","zip":"37752"},{"name":"HALİMOĞLU MAH.","zip":"37752"},{"name":"HAMZALI MAH.","zip":"37752"},{"name":"HANİFEOĞLU MAH.","zip":"37752"},{"name":"HARAMTANAZ MAH.","zip":"37752"},{"name":"HARMANCIK MAH.","zip":"37752"},{"name":"HASANKÖYÜ MAH.","zip":"37752"},{"name":"HATIP MAH.","zip":"37752"},{"name":"HECCELİ MAH.","zip":"37752"},{"name":"HELVACI MAH.","zip":"37752"},{"name":"HIDIRLAR KÖYÜ","zip":"37752"},{"name":"HIRAKARAMUK MAH.","zip":"37752"},{"name":"HİMMET MAH.","zip":"37752"},{"name":"HOCA MAH.","zip":"37752"},{"name":"HOCAKÖY KÖYÜ","zip":"37752"},{"name":"HODANCI MAH.","zip":"37752"},{"name":"HOROZ MAH.","zip":"37752"},{"name":"HOVGA MAH.","zip":"37752"},{"name":"HÜSEYİNBAŞOĞLU MAH.","zip":"37752"},{"name":"IRNA MAH.","zip":"37752"},{"name":"IŞIKLAR MAH.","zip":"37752"},{"name":"İBRAHİM MAH.","zip":"37752"},{"name":"İMAM MAH.","zip":"37752"},{"name":"İMAMOĞLU MAH.","zip":"37752"},{"name":"İSVERE MAH.","zip":"37752"},{"name":"KABA MAH.","zip":"37752"},{"name":"KABALAR MAH.","zip":"37752"},{"name":"KADI MAH.","zip":"37752"},{"name":"KADIOĞLU MAH.","zip":"37752"},{"name":"KALAŞLI MAH.","zip":"37752"},{"name":"KALDIR MAH.","zip":"37752"},{"name":"KALE MAH.","zip":"37752"},{"name":"KANLI ANIZ MAH.","zip":"37752"},{"name":"KANLIDAĞ KÖYÜ","zip":"37752"},{"name":"KARABÜKLER MAH.","zip":"37752"},{"name":"KARACA MAH.","zip":"37752"},{"name":"KARACALAR MAH.","zip":"37752"},{"name":"KARAÇAM MAH.","zip":"37752"},{"name":"KARAÇAY MAH.","zip":"37752"},{"name":"KARAHALILILAR KÖYÜ","zip":"37752"},{"name":"KARAHÜSEYİN MAH.","zip":"37752"},{"name":"KARAKUŞLU KÖYÜ","zip":"37752"},{"name":"KARAMEHMETOĞLU MAH.","zip":"37752"},{"name":"KARAŞ MAH.","zip":"37752"},{"name":"KARCALAR MAH.","zip":"37752"},{"name":"KARGALAR MAH.","zip":"37752"},{"name":"KASAP MAH.","zip":"37752"},{"name":"KASIM MAH.","zip":"37752"},{"name":"KAVAKLI MAH.","zip":"37752"},{"name":"KAYA MAH.","zip":"37752"},{"name":"KAYABAŞI KÖYÜ","zip":"37752"},{"name":"KAYADİBİ MAH.","zip":"37752"},{"name":"KAYAOĞLU KÖYÜ","zip":"37752"},{"name":"KAYIKÇI MAH.","zip":"37752"},{"name":"KEFELİ MAH.","zip":"37752"},{"name":"KEPÇE MAH.","zip":"37752"},{"name":"KEREMENLER MAH.","zip":"37752"},{"name":"KERPİÇLİK KÖYÜ","zip":"37752"},{"name":"KERVANSARAY MAH.","zip":"37752"},{"name":"KEŞCİ MAH.","zip":"37752"},{"name":"KIRAÇ MAH.","zip":"37752"},{"name":"KIRCALAR KÖYÜ","zip":"37752"},{"name":"KIRMACI KÖYÜ","zip":"37752"},{"name":"KIŞLACIK MAH.","zip":"37752"},{"name":"KIYGINCIK MAH.","zip":"37752"},{"name":"KIZILCAPINAR MAH.","zip":"37752"},{"name":"KIZILCASU MAH.","zip":"37752"},{"name":"KIZILCATARLA MAH.","zip":"37752"},{"name":"KIZILLI MAH.","zip":"37752"},{"name":"KIZKAYASI MAH.","zip":"37752"},{"name":"KİLİM MAH.","zip":"37752"},{"name":"KOCAAĞAÇ MAH.","zip":"37752"},{"name":"KOCAOĞLU MAH.","zip":"37752"},{"name":"KOCCUVAZ MAH.","zip":"37752"},{"name":"KOCOĞLAR MAH.","zip":"37752"},{"name":"KOLCA KÖYÜ","zip":"37752"},{"name":"KOZLUÖREN KÖYÜ","zip":"37752"},{"name":"KÖFÜNOĞLU MAH.","zip":"37752"},{"name":"KÖLE MAH.","zip":"37752"},{"name":"KÖLO MAH.","zip":"37752"},{"name":"KÖSE KÖYÜ MAH.","zip":"37752"},{"name":"KÖSE MAH.","zip":"37752"},{"name":"KUMARI MAH.","zip":"37752"},{"name":"KUNDURU MAH.","zip":"37752"},{"name":"KURTÇULAR KÖYÜ","zip":"37752"},{"name":"KURTLAR MAH.","zip":"37752"},{"name":"KURUOĞLU MAH.","zip":"37752"},{"name":"KUŞ MAH.","zip":"37752"},{"name":"KUZ MAH.","zip":"37752"},{"name":"KÜÇÜK GÖKTAŞ MAH.","zip":"37752"},{"name":"KÜRKÜŞLÜ MAH.","zip":"37752"},{"name":"KÜRTOĞLU MAH.","zip":"37752"},{"name":"MADEN KÖYÜ","zip":"37752"},{"name":"MAKSUTKÖY KÖYÜ","zip":"37752"},{"name":"MANTAROĞLU MAH.","zip":"37752"},{"name":"MARUF MAH.","zip":"37752"},{"name":"MEHMETÇELEBİ KÖYÜ","zip":"37752"},{"name":"MEMREMİ MAH.","zip":"37752"},{"name":"MENE MAH.","zip":"37752"},{"name":"MENTEŞ MAH.","zip":"37752"},{"name":"MERKEZ MAH.","zip":"37752"},{"name":"MEYİT MAH.","zip":"37752"},{"name":"MUĞLAS MAH.","zip":"37752"},{"name":"MUS MAH.","zip":"37752"},{"name":"MUSA MAH.","zip":"37752"},{"name":"MUSAOĞLU MAH.","zip":"37752"},{"name":"MÜDERRİS MAH.","zip":"37752"},{"name":"MÜSELLİM MAH.","zip":"37752"},{"name":"NALBANTOĞLU MAH.","zip":"37752"},{"name":"ODABAŞI MAH.","zip":"37752"},{"name":"OKCU MAH.","zip":"37752"},{"name":"OLUKLU MAH.","zip":"37752"},{"name":"ORTACA MAH.","zip":"37752"},{"name":"ORTAKÇI MAH.","zip":"37752"},{"name":"ORTAKÖY MAH.","zip":"37752"},{"name":"ORUÇ MAH.","zip":"37752"},{"name":"ORUÇOĞLU MAH.","zip":"37752"},{"name":"ÖMER MAH.","zip":"37752"},{"name":"ÖMERBEYOĞLU MAH.","zip":"37752"},{"name":"ÖMÜR MAH.","zip":"37752"},{"name":"ÖRCÜN MAH.","zip":"37752"},{"name":"ÖRENCİK MAH.","zip":"37752"},{"name":"PELİTÇE MAH.","zip":"37752"},{"name":"PELİTVEREN MAH.","zip":"37752"},{"name":"PÜRTAŞ MAH.","zip":"37752"},{"name":"RECEP MAH.","zip":"37752"},{"name":"RIDVAN MAH.","zip":"37752"},{"name":"SABUNCULAR KÖYÜ","zip":"37752"},{"name":"SADA KÖYÜ","zip":"37752"},{"name":"SAĞIROĞLU MAH.","zip":"37752"},{"name":"SAKARÖZÜ MAH.","zip":"37752"},{"name":"SAKIZLAR MAH.","zip":"37752"},{"name":"SAKIZOĞLU MAH.","zip":"37752"},{"name":"SALİHLER MAH.","zip":"37752"},{"name":"SAMA MAH.","zip":"37752"},{"name":"SAMANCI KÖYÜ","zip":"37752"},{"name":"SARAYKÖY KÖYÜ","zip":"37752"},{"name":"SARIBEYOĞLU MAH.","zip":"37752"},{"name":"SARICAOĞLU MAH.","zip":"37752"},{"name":"SARIÇAM MAH.","zip":"37752"},{"name":"SARIKAYA MAH.","zip":"37752"},{"name":"SARILAR MAH.","zip":"37752"},{"name":"SARIYAKUP MAH.","zip":"37752"},{"name":"SARNIÇKÖY KÖYÜ","zip":"37752"},{"name":"SEKÇE MAH.","zip":"37752"},{"name":"SERKE MAH.","zip":"37752"},{"name":"SIRA MAH.","zip":"37752"},{"name":"SIRAKÖY KÖYÜ","zip":"37752"},{"name":"SOFTAOĞLU MAH.","zip":"37752"},{"name":"SOFULAR MAH.","zip":"37752"},{"name":"SOFUOĞLU MAH.","zip":"37752"},{"name":"SÖĞÜTÖZÜ MAH.","zip":"37752"},{"name":"SÖĞÜTPINAR KÖYÜ","zip":"37752"},{"name":"SÖKÜ MAH.","zip":"37752"},{"name":"SÖKÜVEREN MAH.","zip":"37752"},{"name":"SÖVÜŞLER MAH.","zip":"37752"},{"name":"SUNGURLAR MAH.","zip":"37752"},{"name":"SÜLLER MAH.","zip":"37752"},{"name":"ŞABAN FAKI MAH.","zip":"37752"},{"name":"ŞABANLI MAH.","zip":"37752"},{"name":"ŞEMŞİ MAH.","zip":"37752"},{"name":"ŞEYH MAH.","zip":"37752"},{"name":"ŞÜKÜROĞLU MAH.","zip":"37752"},{"name":"TABAKLI MAH.","zip":"37752"},{"name":"TASKÖY KÖYÜ","zip":"37752"},{"name":"TASKÖY MERKEZ MAH.","zip":"37752"},{"name":"TEKKE MAH.","zip":"37752"},{"name":"TEPEKÖY MAH.","zip":"37752"},{"name":"TEPEÜSTÜ MAH.","zip":"37752"},{"name":"TERZİ MAH.","zip":"37752"},{"name":"TİLKİ MAH.","zip":"37752"},{"name":"TOMRUKKÖY KÖYÜ","zip":"37752"},{"name":"TOPUK KÖYÜ","zip":"37752"},{"name":"TÜLEK MAH.","zip":"37752"},{"name":"TÜTÜNCÜ MAH.","zip":"37752"},{"name":"ULUAY MAH.","zip":"37752"},{"name":"ÜYÜK KÖYÜ","zip":"37752"},{"name":"VALİSİ MAH.","zip":"37752"},{"name":"YAHYABAŞ MAH.","zip":"37752"},{"name":"YAKAYER MAH.","zip":"37752"},{"name":"YARAN MAH.","zip":"37752"},{"name":"YAVULAR MAH.","zip":"37752"},{"name":"YAYLA MAH.","zip":"37752"},{"name":"YAYLAGERİŞİ MAH.","zip":"37752"},{"name":"YAZICIOĞLU MAH.","zip":"37752"},{"name":"YELİYEN MAH.","zip":"37752"},{"name":"YENİ MAH.","zip":"37752"},{"name":"YEŞİLKÖY KÖYÜ","zip":"37752"},{"name":"YILLATMA MAH.","zip":"37752"},{"name":"YOKUŞ MAH.","zip":"37752"},{"name":"YUKARIKÖY MAH.","zip":"37752"},{"name":"YUMACIK KÖYÜ","zip":"37752"},{"name":"ZAHNA MAH.","zip":"37752"},{"name":"ZEYFE MAH.","zip":"37752"},{"name":"ZURNACI MAH.","zip":"37752"},{"name":"ZÜMRÜT KÖYÜ","zip":"37752"}]},{"name":"BOZKURT","cityName":null,"quarters":[{"name":"MERKEZ MAH.","zip":"37680"},{"name":"ŞEN MAH.","zip":"37680"},{"name":"YENİ MAH.","zip":"37680"},{"name":"YÜKSEK MAH.","zip":"37680"}]},{"name":"MERKEZKÖYLER","cityName":null,"quarters":[{"name":"AHMETLER MAH.","zip":"37682"},{"name":"AKGÜNEY MAH.","zip":"37682"},{"name":"ALANTEPE KÖYÜ","zip":"37682"},{"name":"ALİ ÇELEBİ MAH.","zip":"37682"},{"name":"ALİKADIOĞLU MAH.","zip":"37682"},{"name":"AMBARCILAR KÖYÜ","zip":"37682"},{"name":"ANACA MAH.","zip":"37682"},{"name":"ANBARLI MAH.","zip":"37682"},{"name":"ARMUTLUYÜZÜ MAH.","zip":"37682"},{"name":"ARPALIKBAŞI MAH.","zip":"37682"},{"name":"ARZA MAH.","zip":"37682"},{"name":"ARZA YAYLASI MAH.","zip":"37682"},{"name":"ASARBAŞI MAH.","zip":"37682"},{"name":"AŞA KAYA MAH.","zip":"37682"},{"name":"AŞAĞI HARMAN MAH.","zip":"37682"},{"name":"AŞAĞI KARŞI MAH.","zip":"37682"},{"name":"AŞAĞI MAH.","zip":"37682"},{"name":"AŞAĞI TEKDAL (HURSU) MAH.","zip":"37682"},{"name":"AŞAĞIDEĞİRMENBAŞI MAH.","zip":"37682"},{"name":"AŞAĞIKARAHASAN MAH.","zip":"37682"},{"name":"AŞAODAY MAH.","zip":"37682"},{"name":"AVU OLTUĞU MAH.","zip":"37682"},{"name":"AYDIN MAH.","zip":"37682"},{"name":"BABAKİNİ MAH.","zip":"37682"},{"name":"BAKIRCIOĞLAN YAYLASI MAH.","zip":"37682"},{"name":"BALYEMEZ MAH.","zip":"37682"},{"name":"BAŞSÖKÜ MAH.","zip":"37682"},{"name":"BAYRAKTAR MAH.","zip":"37682"},{"name":"BAYRAMGAZİ KÖYÜ","zip":"37682"},{"name":"BEDBAŞI MAH.","zip":"37682"},{"name":"BELDEĞİRMEN KÖYÜ","zip":"37682"},{"name":"BELEN MAH.","zip":"37682"},{"name":"BERÇİ MAH.","zip":"37682"},{"name":"BOŞNAK MAH.","zip":"37682"},{"name":"BÜYÜKDÜZ MAH.","zip":"37682"},{"name":"CABINA MAH.","zip":"37682"},{"name":"CALAY MAH.","zip":"37682"},{"name":"CAMİ YANI MAH.","zip":"37682"},{"name":"CEDİM MAH.","zip":"37682"},{"name":"CEVİZ MAH.","zip":"37682"},{"name":"CİN MAH.","zip":"37682"},{"name":"CUFANA MAH.","zip":"37682"},{"name":"ÇALIVO MAH.","zip":"37682"},{"name":"ÇANKAYA MAH.","zip":"37682"},{"name":"ÇARCİNA MAH.","zip":"37682"},{"name":"ÇARŞI MAH.","zip":"37682"},{"name":"ÇAY MAH.","zip":"37682"},{"name":"ÇAYIR MERKEZ MAH.","zip":"37682"},{"name":"ÇEVİK MAH.","zip":"37682"},{"name":"ÇİÇEKYAYLA KÖYÜ","zip":"37682"},{"name":"ÇUKUR GÖYNÜĞÜ MAH.","zip":"37682"},{"name":"ÇUKURTARLA MAH.","zip":"37682"},{"name":"DAĞ MAH.","zip":"37682"},{"name":"DARSU KÖYÜ","zip":"37682"},{"name":"DEFNE MAH.","zip":"37682"},{"name":"DEMİRCİ MAH.","zip":"37682"},{"name":"DEREBEYLER MAH.","zip":"37682"},{"name":"DEREYOL MAH.","zip":"37682"},{"name":"DEŞDİ ELMA MAH.","zip":"37682"},{"name":"DÖNGEL PINARI MAH.","zip":"37682"},{"name":"DURSUN KÖYÜ","zip":"37682"},{"name":"DÜZ GÖYNÜK MAH.","zip":"37682"},{"name":"EĞRO MAH.","zip":"37682"},{"name":"ELMEDÜZÜ MAH.","zip":"37682"},{"name":"ERENCE MAH.","zip":"37682"},{"name":"ESENTEPE MAH.","zip":"37682"},{"name":"ESKÖY MAH.","zip":"37682"},{"name":"FEZMAN MAH.","zip":"37682"},{"name":"GERÇEK MAH.","zip":"37682"},{"name":"GÖL MAH.","zip":"37682"},{"name":"GÖRENTAŞ KÖYÜ","zip":"37682"},{"name":"GÜBÜCEK MAH.","zip":"37682"},{"name":"GÜDÜLO MAH.","zip":"37682"},{"name":"GÜLOZ MAH.","zip":"37682"},{"name":"GÜLÜBOL MAH.","zip":"37682"},{"name":"GÜLÜBOL YAYLASI MAH.","zip":"37682"},{"name":"GÜNEY MAH.","zip":"37682"},{"name":"GÜNGÖREN KÖYÜ","zip":"37682"},{"name":"GÜNVAKTI KÖYÜ","zip":"37682"},{"name":"GÜZLÜK MAH.","zip":"37682"},{"name":"HACIHASAN MAH.","zip":"37682"},{"name":"HACIKÖY MAH.","zip":"37682"},{"name":"HARMAN KAYA MAH.","zip":"37682"},{"name":"HARMANYAZI MAH.","zip":"37682"},{"name":"HASMİL MAH.","zip":"37682"},{"name":"HATIP MAH.","zip":"37682"},{"name":"HATİP MAH.","zip":"37682"},{"name":"HATİPOĞLU MAH.","zip":"37682"},{"name":"ISIRGANLIK MAH.","zip":"37682"},{"name":"IŞIĞAN KÖYÜ","zip":"37682"},{"name":"İBRAHİM KÖYÜ","zip":"37682"},{"name":"İKİDAM MAH.","zip":"37682"},{"name":"İLİŞİ KÖYÜ","zip":"37682"},{"name":"İMAM MAH.","zip":"37682"},{"name":"İMAMOĞLU MAH.","zip":"37682"},{"name":"İNCEYAZI KÖYÜ","zip":"37682"},{"name":"İNİŞDİBİ MAH.","zip":"37682"},{"name":"İSKELEME MAH.","zip":"37682"},{"name":"KADIOĞLU MAH.","zip":"37682"},{"name":"KAMAK MAH.","zip":"37682"},{"name":"KARA KESTANE MAH.","zip":"37682"},{"name":"KARAKÖY MAH.","zip":"37682"},{"name":"KARAMUK MAH.","zip":"37682"},{"name":"KARAPINAR MAH.","zip":"37682"},{"name":"KARIVO MAH.","zip":"37682"},{"name":"KARŞIYAKA MAH.","zip":"37682"},{"name":"KAVAKÇA MAH.","zip":"37682"},{"name":"KAYALAR KÖYÜ","zip":"37682"},{"name":"KAYARDI MAH.","zip":"37682"},{"name":"KAZANCI MAH.","zip":"37682"},{"name":"KEÇECİ HASAN MAH.","zip":"37682"},{"name":"KEÇECİOĞLU MAH.","zip":"37682"},{"name":"KEHYAOĞLU MAH.","zip":"37682"},{"name":"KERİMLER MAH.","zip":"37682"},{"name":"KESİM MAH.","zip":"37682"},{"name":"KESNE ALTI MAH.","zip":"37682"},{"name":"KESTANESÖKÜ KÖYÜ","zip":"37682"},{"name":"KEŞLİK KÖYÜ","zip":"37682"},{"name":"KIŞLA MAH.","zip":"37682"},{"name":"KIZILCAELMA KÖYÜ","zip":"37682"},{"name":"KİRAZLI MAŞA MAH.","zip":"37682"},{"name":"KİRAZSÖKÜ KÖYÜ","zip":"37682"},{"name":"KOCAÇAM KÖYÜ","zip":"37682"},{"name":"KOÇCUĞAZ MAH.","zip":"37682"},{"name":"KOŞMAPINAR KÖYÜ","zip":"37682"},{"name":"KÖRAĞA MAH.","zip":"37682"},{"name":"KÖROĞLU MAH.","zip":"37682"},{"name":"KÖRÜSTAN YAYLASI MAH.","zip":"37682"},{"name":"KÖSEALİ KÖYÜ","zip":"37682"},{"name":"KÖYYERİ MAH.","zip":"37682"},{"name":"KUTLUCA KÖYÜ","zip":"37682"},{"name":"KUZ MAH.","zip":"37682"},{"name":"KÜLLÜOĞLU MAH.","zip":"37682"},{"name":"MADEN MAH.","zip":"37682"},{"name":"MAHMUT MAH.","zip":"37682"},{"name":"MAHMUTOĞLU MAH.","zip":"37682"},{"name":"MAMATLAR KÖYÜ","zip":"37682"},{"name":"MARAZ MAH.","zip":"37682"},{"name":"MERKEZ DEMİRCİ MAH.","zip":"37682"},{"name":"MERKEZ MAH.","zip":"37682"},{"name":"MESKE MAH.","zip":"37682"},{"name":"MOLLO MAH.","zip":"37682"},{"name":"MUMLAR MAH.","zip":"37682"},{"name":"MUSTA GÖYNÜ MAH.","zip":"37682"},{"name":"MUŞNA MAH.","zip":"37682"},{"name":"NASIHOĞLU (AFETEVLER) MAH.","zip":"37682"},{"name":"ODURNU AŞA DÜZ MAH.","zip":"37682"},{"name":"ODURNU YUKARI DÜZ MAH.","zip":"37682"},{"name":"ORTA MAH.","zip":"37682"},{"name":"ORTASÖKÜ KÖYÜ","zip":"37682"},{"name":"ÖKÜZ YATAĞI MAH.","zip":"37682"},{"name":"PAN AHMET MAH.","zip":"37682"},{"name":"POYRAZLAR MAH.","zip":"37682"},{"name":"SAKIZCI MAH.","zip":"37682"},{"name":"SAKIZCILAR KÖYÜ","zip":"37682"},{"name":"SAKIZLI MAH.","zip":"37682"},{"name":"SARICI ERİK YAYLASI MAH.","zip":"37682"},{"name":"SARIÇİÇEK KÖYÜ","zip":"37682"},{"name":"SARMAŞIK MAH.","zip":"37682"},{"name":"SÖKÜ MAH.","zip":"37682"},{"name":"SUBAŞI MAH.","zip":"37682"},{"name":"ŞEYHOĞLU KÖYÜ","zip":"37682"},{"name":"TAŞCI MAH.","zip":"37682"},{"name":"TEKECİ MAH.","zip":"37682"},{"name":"TEKEROĞLU MAH.","zip":"37682"},{"name":"TEKKE MAH.","zip":"37682"},{"name":"TEZCAN KÖYÜ","zip":"37682"},{"name":"TOPÇU MAH.","zip":"37682"},{"name":"TORBA MAH.","zip":"37682"},{"name":"TURNOOĞLU MAH.","zip":"37682"},{"name":"ULU KÖYÜ","zip":"37682"},{"name":"UZUNMUSTAFA MAH.","zip":"37682"},{"name":"UZUNÖMER MAH.","zip":"37682"},{"name":"YALNIZÇAM MAH.","zip":"37682"},{"name":"YANIK MAH.","zip":"37682"},{"name":"YARDERE MAH.","zip":"37682"},{"name":"YAŞARLI KÖYÜ","zip":"37682"},{"name":"YAYLA MAH.","zip":"37682"},{"name":"YAYLATEPE KÖYÜ","zip":"37682"},{"name":"YEMİŞEN MAH.","zip":"37682"},{"name":"YENİ MAH.","zip":"37682"},{"name":"YENİCE MAH.","zip":"37682"},{"name":"YILATMA MAH.","zip":"37682"},{"name":"YUKARI DEĞİRMENBAŞI MAH.","zip":"37682"},{"name":"YUKARI MAH.","zip":"37682"},{"name":"YUKARI OFAY MAH.","zip":"37682"},{"name":"YUKARI TEKDAL (HURSU) MAH.","zip":"37682"},{"name":"YUKARI YAYLA MAH.","zip":"37682"},{"name":"YUKARIKARAHASAN MAH.","zip":"37682"},{"name":"YUKARIKARŞI MAH.","zip":"37682"},{"name":"YUKARIKÖY-YAMAK-KESEÇUKUR MAH.","zip":"37682"},{"name":"YUNDOLUĞU MAH.","zip":"37682"},{"name":"ZONYA MAH.","zip":"37682"}]},{"name":"CİDE","cityName":null,"quarters":[{"name":"CUMHURİYET MAH.","zip":"37600"},{"name":"ECE MAH.","zip":"37600"},{"name":"IRMAK MAH.","zip":"37600"},{"name":"KASABA MAH.","zip":"37600"},{"name":"KEMERLİ MAH.","zip":"37600"},{"name":"KIRCI MAH.","zip":"37600"},{"name":"KUMLUCA MAH.","zip":"37600"},{"name":"MEMİŞ MAH.","zip":"37600"},{"name":"NASUH MAH.","zip":"37600"}]},{"name":"MERKEZKÖYLER","cityName":null,"quarters":[{"name":"ABDULKADİR KÖYÜ","zip":"37602"},{"name":"ABSALAN MAH.","zip":"37602"},{"name":"ADIYÜZÜ MAH.","zip":"37602"},{"name":"AĞAÇBÜKÜ KÖYÜ","zip":"37602"},{"name":"AHMETLİ MAH.","zip":"37602"},{"name":"AKAĞAÇ MAH.","zip":"37602"},{"name":"AKBAYIR KÖYÜ","zip":"37602"},{"name":"AKBAYIR MAH.","zip":"37602"},{"name":"AKBULUT MAH.","zip":"37602"},{"name":"AKÇA KÖYÜ","zip":"37602"},{"name":"AKÇA MAH.","zip":"37602"},{"name":"AKDEMİR MAH.","zip":"37602"},{"name":"AKSU MAH.","zip":"37602"},{"name":"ALAYAZI KÖYÜ","zip":"37602"},{"name":"ALAYAZI MAH.","zip":"37602"},{"name":"ALAYÜZ KÖYÜ","zip":"37602"},{"name":"ALAYÜZ MAH.","zip":"37602"},{"name":"ALİ MAH.","zip":"37602"},{"name":"ALTINTAŞ MAH.","zip":"37602"},{"name":"ARILI MAH.","zip":"37602"},{"name":"ARPALI MAH.","zip":"37602"},{"name":"AŞAĞI ALACA MAH.","zip":"37602"},{"name":"AŞAĞI KOZAK MAH.","zip":"37602"},{"name":"AŞAĞI KÖSELİ MAH.","zip":"37602"},{"name":"AŞAĞI MAH.","zip":"37602"},{"name":"AŞAĞIYAYLA MAH.","zip":"37602"},{"name":"AYDIN MAH.","zip":"37602"},{"name":"AYDINCIK KÖYÜ","zip":"37602"},{"name":"AYDINCIK MAH.","zip":"37602"},{"name":"BAHADİNLİ MAH.","zip":"37602"},{"name":"BALTACI KÖYÜ","zip":"37602"},{"name":"BAŞKÖY KÖYÜ","zip":"37602"},{"name":"BAYIRLI MAH.","zip":"37602"},{"name":"BAYRAKLI MAH.","zip":"37602"},{"name":"BELDİBİ MAH.","zip":"37602"},{"name":"BELTEPE KÖYÜ","zip":"37602"},{"name":"BELTEPE MAH.","zip":"37602"},{"name":"BEŞEVLER KÖYÜ","zip":"37602"},{"name":"BEYKÖY MAH.","zip":"37602"},{"name":"BEYKUŞ MAH.","zip":"37602"},{"name":"BİLALLAR MAH.","zip":"37602"},{"name":"BUĞDAYCIK MAH.","zip":"37602"},{"name":"BUKET MAH.","zip":"37602"},{"name":"CEBECİ MAH.","zip":"37602"},{"name":"CENGEL MAH.","zip":"37602"},{"name":"CUMAYANI MAH.","zip":"37602"},{"name":"ÇAKAL MAH.","zip":"37602"},{"name":"ÇAKIRLI KÖYÜ","zip":"37602"},{"name":"ÇAKIRLI MAH.","zip":"37602"},{"name":"ÇAKMAKÇI MAH.","zip":"37602"},{"name":"ÇALCA MAH.","zip":"37602"},{"name":"ÇALÇA MAH.","zip":"37602"},{"name":"ÇAMALTI KÖYÜ","zip":"37602"},{"name":"ÇAMDİBİ KÖYÜ","zip":"37602"},{"name":"ÇAMDİBİ MAH.","zip":"37602"},{"name":"ÇATALOLUK KÖYÜ","zip":"37602"},{"name":"ÇAVUŞ MAH.","zip":"37602"},{"name":"ÇAYÜSTÜ KÖYÜ","zip":"37602"},{"name":"ÇAYYAKA KÖYÜ","zip":"37602"},{"name":"ÇENGELLİ MAH.","zip":"37602"},{"name":"ÇERÇİ MAH.","zip":"37602"},{"name":"ÇINARCIK MAH.","zip":"37602"},{"name":"ÇINARLAR MAH.","zip":"37602"},{"name":"ÇITAKLI MAH.","zip":"37602"},{"name":"ÇİLEKÇE KÖYÜ","zip":"37602"},{"name":"ÇOLAK MAH.","zip":"37602"},{"name":"ÇUKURÇAL KÖYÜ","zip":"37602"},{"name":"DAĞ MAH.","zip":"37602"},{"name":"DAHALLAR MAH.","zip":"37602"},{"name":"DANIŞMAN MAH.","zip":"37602"},{"name":"DEĞİRMEN ÇAYI MAH.","zip":"37602"},{"name":"DEĞİRMENBENDİ MAH.","zip":"37602"},{"name":"DELİHASAN MAH.","zip":"37602"},{"name":"DEMİRCİ MAH.","zip":"37602"},{"name":"DENİZKONAK KÖYÜ","zip":"37602"},{"name":"DENİZKONAK MAH.","zip":"37602"},{"name":"DERE MAH.","zip":"37602"},{"name":"DEREBAĞ KÖYÜ","zip":"37602"},{"name":"DEREBUCAĞI KÖYÜ","zip":"37602"},{"name":"DEVELİ MAH.","zip":"37602"},{"name":"DIRAN MAH.","zip":"37602"},{"name":"DİLEK MAH.","zip":"37602"},{"name":"DOĞANKAYA KÖYÜ","zip":"37602"},{"name":"DOĞRUCA MAH.","zip":"37602"},{"name":"DÖNGELCE KÖYÜ","zip":"37602"},{"name":"DÖNGELCE MAH.","zip":"37602"},{"name":"DÜZKÖY KÖYÜ","zip":"37602"},{"name":"DÜZKÖY MAH.","zip":"37602"},{"name":"ECEREN MAH.","zip":"37602"},{"name":"ELEKÇİBAĞ MAH.","zip":"37602"},{"name":"EMİRLER KÖYÜ","zip":"37602"},{"name":"EMİRLER MAH.","zip":"37602"},{"name":"ERENCİK MAH.","zip":"37602"},{"name":"ESE MAH.","zip":"37602"},{"name":"ESENCE MAH.","zip":"37602"},{"name":"ESENLER MAH.","zip":"37602"},{"name":"FERAH MAH.","zip":"37602"},{"name":"FETTAH MAH.","zip":"37602"},{"name":"GEBEŞ KÖYÜ","zip":"37602"},{"name":"GEBEŞ MAH.","zip":"37602"},{"name":"GEDE MAH.","zip":"37602"},{"name":"GEDİKOĞLU MAH.","zip":"37602"},{"name":"GELÜNNE MAH.","zip":"37602"},{"name":"GİDEROS MAH.","zip":"37602"},{"name":"GÖKÇELER KÖYÜ","zip":"37602"},{"name":"GÖKÇEÖREN KÖYÜ","zip":"37602"},{"name":"GÖKÇEÖREN MAH.","zip":"37602"},{"name":"GÖKSU MAH.","zip":"37602"},{"name":"GÖMEREN MAH.","zip":"37602"},{"name":"GÖZTEPE MAH.","zip":"37602"},{"name":"GÜLPINAR MAH.","zip":"37602"},{"name":"GÜMÜŞSU MAH.","zip":"37602"},{"name":"GÜNDOĞAN KÖYÜ","zip":"37602"},{"name":"GÜNDOĞDU MAH.","zip":"37602"},{"name":"GÜNEBAKAN KÖYÜ","zip":"37602"},{"name":"GÜNEY MAH.","zip":"37602"},{"name":"GÜRGÜNE MAH.","zip":"37602"},{"name":"GÜVEL MAH.","zip":"37602"},{"name":"GÜVENLİ MAH.","zip":"37602"},{"name":"GÜZEL YAYLA MAH.","zip":"37602"},{"name":"GÜZELCE MAH.","zip":"37602"},{"name":"GÜZELYAYLA KÖYÜ","zip":"37602"},{"name":"HACIAHMET KÖYÜ","zip":"37602"},{"name":"HACIAHMET MAH.","zip":"37602"},{"name":"HAKTANIR MAH.","zip":"37602"},{"name":"HALLA MAH.","zip":"37602"},{"name":"HAMDİOĞLU MAH.","zip":"37602"},{"name":"HAMİTLİ KÖYÜ","zip":"37602"},{"name":"HAMİTLİ MAH.","zip":"37602"},{"name":"HAMZALI MAH.","zip":"37602"},{"name":"HIDIR MAH.","zip":"37602"},{"name":"HIDIRLAR MAH.","zip":"37602"},{"name":"HİMMETBEŞE KÖYÜ","zip":"37602"},{"name":"HOCA MAH.","zip":"37602"},{"name":"İLYASBEY KÖYÜ","zip":"37602"},{"name":"İLYASBEY MAH.","zip":"37602"},{"name":"İSAKLAR MAH.","zip":"37602"},{"name":"İSAKÖY KÖYÜ","zip":"37602"},{"name":"İSHAKÇA KÖYÜ","zip":"37602"},{"name":"İSKELE MAH.","zip":"37602"},{"name":"İSLAMBEY MAH.","zip":"37602"},{"name":"KABALAKLI MAH.","zip":"37602"},{"name":"KADI MAH.","zip":"37602"},{"name":"KADIKÖY MAH.","zip":"37602"},{"name":"KAHYA MAH.","zip":"37602"},{"name":"KAHYALAR MAH.","zip":"37602"},{"name":"KALAFAT KÖYÜ","zip":"37602"},{"name":"KALAFAT MAH.","zip":"37602"},{"name":"KALAYCI MAH.","zip":"37602"},{"name":"KALAYCI-AŞAĞI MAH.","zip":"37602"},{"name":"KAPAKLI MAH.","zip":"37602"},{"name":"KAPAKLICA MAH.","zip":"37602"},{"name":"KAPISUYU KÖYÜ","zip":"37602"},{"name":"KARABALÇIK MAH.","zip":"37602"},{"name":"KARABUDAKLAR MAH.","zip":"37602"},{"name":"KARACA MAH.","zip":"37602"},{"name":"KARAKADI KÖYÜ","zip":"37602"},{"name":"KARAKADI MAH.","zip":"37602"},{"name":"KARAMAN MAH.","zip":"37602"},{"name":"KARASU MAH.","zip":"37602"},{"name":"KARDERE MAH.","zip":"37602"},{"name":"KARGACAK MAH.","zip":"37602"},{"name":"KARGALAR MAH.","zip":"37602"},{"name":"KASIM MAH.","zip":"37602"},{"name":"KASIMKÖY KÖYÜ","zip":"37602"},{"name":"KAYAARDI KÖYÜ","zip":"37602"},{"name":"KAYADİBİ MAH.","zip":"37602"},{"name":"KAZALLI MAH.","zip":"37602"},{"name":"KAZANLI KÖYÜ","zip":"37602"},{"name":"KAZANLI MAH.","zip":"37602"},{"name":"KEÇİKÖY MAH.","zip":"37602"},{"name":"KELOĞLU MAH.","zip":"37602"},{"name":"KETHÜDA KÖYÜ","zip":"37602"},{"name":"KEZAĞZI KÖYÜ","zip":"37602"},{"name":"KEZAĞZI MAH.","zip":"37602"},{"name":"KINDIRALIK MAH.","zip":"37602"},{"name":"KIRAN MAH.","zip":"37602"},{"name":"KIRANLIKOZ KÖYÜ","zip":"37602"},{"name":"KIRANLIKOZ MAH.","zip":"37602"},{"name":"KIŞLA MAH.","zip":"37602"},{"name":"KIZILOVAZ MAH.","zip":"37602"},{"name":"KİRAZDERE MAH.","zip":"37602"},{"name":"KİRAZTARLA MAH.","zip":"37602"},{"name":"KOCATAŞ MAH.","zip":"37602"},{"name":"KOÇLAR KÖYÜ","zip":"37602"},{"name":"KOÇLAR MAH.","zip":"37602"},{"name":"KODAK MAH.","zip":"37602"},{"name":"KOKURDAN MAH.","zip":"37602"},{"name":"KOLCA MAH.","zip":"37602"},{"name":"KONAKYANI MAH.","zip":"37602"},{"name":"KONUKLAR KÖYÜ","zip":"37602"},{"name":"KONUKLAR MAH.","zip":"37602"},{"name":"KOVANÖREN KÖYÜ","zip":"37602"},{"name":"KÖSE MAH.","zip":"37602"},{"name":"KÖSELİ KÖYÜ","zip":"37602"},{"name":"KUMKÖY KÖYÜ","zip":"37602"},{"name":"KUŞÇU KÖYÜ","zip":"37602"},{"name":"KUŞÇU MAH.","zip":"37602"},{"name":"KUŞKAYASI KÖYÜ","zip":"37602"},{"name":"KUZDAĞ MAH.","zip":"37602"},{"name":"KUZLUK MAH.","zip":"37602"},{"name":"KÜÇÜK BELTEPE MAH.","zip":"37602"},{"name":"KÜPLÜCE MAH.","zip":"37602"},{"name":"MAMAKLI MAH.","zip":"37602"},{"name":"MENCEKLİ KÖYÜ","zip":"37602"},{"name":"MENÜK KÖYÜ","zip":"37602"},{"name":"MENÜK MAH.","zip":"37602"},{"name":"MERKEZ MAH.","zip":"37602"},{"name":"MİDİLLİ MAH.","zip":"37602"},{"name":"MİDİLLİOĞLU MAH.","zip":"37602"},{"name":"MUSA MAH.","zip":"37602"},{"name":"MUSAKÖY KÖYÜ","zip":"37602"},{"name":"MUSLUBEY MAH.","zip":"37602"},{"name":"MUTÇA MAH.","zip":"37602"},{"name":"MUTLU MAH.","zip":"37602"},{"name":"MÜDÖRON MAH.","zip":"37602"},{"name":"MÜSTECEP MAH.","zip":"37602"},{"name":"MÜSTECİP MAH.","zip":"37602"},{"name":"NAMAZLI MAH.","zip":"37602"},{"name":"NANEPINARI KÖYÜ","zip":"37602"},{"name":"NASSURA MAH.","zip":"37602"},{"name":"NEYİP MAH.","zip":"37602"},{"name":"NOSUFLAR MAH.","zip":"37602"},{"name":"OĞLAKÇA MAH.","zip":"37602"},{"name":"OKÇU MAH.","zip":"37602"},{"name":"OKÇULAR KÖYÜ","zip":"37602"},{"name":"OKÇULAR MAH.","zip":"37602"},{"name":"OKLUCA MAH.","zip":"37602"},{"name":"OKURCALAR MAH.","zip":"37602"},{"name":"OLUCAK KÖYÜ","zip":"37602"},{"name":"ONBAŞI MAH.","zip":"37602"},{"name":"ORTA MAH.","zip":"37602"},{"name":"ORTACA KÖYÜ","zip":"37602"},{"name":"ORTAMESCİT MAH.","zip":"37602"},{"name":"OVA MAH.","zip":"37602"},{"name":"OVACIK KÖYÜ","zip":"37602"},{"name":"OVACIK MAH.","zip":"37602"},{"name":"ÖRTÜLÜ MAH.","zip":"37602"},{"name":"ÖTEGEÇE MAH.","zip":"37602"},{"name":"ÖVEÇLER KÖYÜ","zip":"37602"},{"name":"ÖVEÇLER MAH.","zip":"37602"},{"name":"PAPUÇÇU MAH.","zip":"37602"},{"name":"PAZAR YERİ SOĞUKSU MAH.","zip":"37602"},{"name":"PAZARCIK MAH.","zip":"37602"},{"name":"PEHLİVANLI KÖYÜ","zip":"37602"},{"name":"PEHLİVANLI MAH.","zip":"37602"},{"name":"PEKDEMİR MAH.","zip":"37602"},{"name":"PİRE MAH.","zip":"37602"},{"name":"RIDVAN MAH.","zip":"37602"},{"name":"SADIKLAR MAH.","zip":"37602"},{"name":"SAHİL MAH.","zip":"37602"},{"name":"SAKALLI KÖYÜ","zip":"37602"},{"name":"SAKALLI MAH.","zip":"37602"},{"name":"SAMANYOLU MAH.","zip":"37602"},{"name":"SAPANÇAYI MAH.","zip":"37602"},{"name":"SARIÇAM MAH.","zip":"37602"},{"name":"SERDEŞ MAH.","zip":"37602"},{"name":"SEYRENCİ MAH.","zip":"37602"},{"name":"SIRAKAYA KÖYÜ","zip":"37602"},{"name":"SİPAHİ KÖYÜ","zip":"37602"},{"name":"SİPAHİ MAH.","zip":"37602"},{"name":"SİVRİCE MAH.","zip":"37602"},{"name":"SOFTA MAH.","zip":"37602"},{"name":"SOFULAR KÖYÜ","zip":"37602"},{"name":"SOĞUCAK KÖYÜ","zip":"37602"},{"name":"SOĞUCAK MAH.","zip":"37602"},{"name":"SOĞUKSU MAH.","zip":"37602"},{"name":"SOLA MAH.","zip":"37602"},{"name":"ŞABAN MAH.","zip":"37602"},{"name":"ŞAHNALAR MAH.","zip":"37602"},{"name":"ŞAR MAH.","zip":"37602"},{"name":"ŞENKÖY KÖYÜ","zip":"37602"},{"name":"ŞENKÖY MAH.","zip":"37602"},{"name":"TABAKLI ( NASURA ) MAH.","zip":"37602"},{"name":"TANHA MAH.","zip":"37602"},{"name":"TARAKÇI KÖYÜ","zip":"37602"},{"name":"TARAKÇI MAH.","zip":"37602"},{"name":"TAŞOLUK MAH.","zip":"37602"},{"name":"TAŞPINAR MAH.","zip":"37602"},{"name":"TATLISU MAH.","zip":"37602"},{"name":"TEKEVELİ MAH.","zip":"37602"},{"name":"TEPE MAH.","zip":"37602"},{"name":"TEPEYURT MAH.","zip":"37602"},{"name":"TERZİ MAH.","zip":"37602"},{"name":"TOPÇU MAH.","zip":"37602"},{"name":"TOYGARLI KÖYÜ","zip":"37602"},{"name":"TOYGARLI MAH.","zip":"37602"},{"name":"UĞURLU KÖYÜ","zip":"37602"},{"name":"UĞURLU MAH.","zip":"37602"},{"name":"ULU MAH.","zip":"37602"},{"name":"URGANLI MAH.","zip":"37602"},{"name":"UZUNOĞLU MAH.","zip":"37602"},{"name":"ÜÇAĞIL KÖYÜ","zip":"37602"},{"name":"ÜÇAĞIL MAH.","zip":"37602"},{"name":"VELİOĞLU KÖYÜ","zip":"37602"},{"name":"VELİOĞLU MAH.","zip":"37602"},{"name":"YAĞMURLU MAH.","zip":"37602"},{"name":"YALÇINKÖY KÖYÜ","zip":"37602"},{"name":"YALI MAH.","zip":"37602"},{"name":"YARIMAGA MAH.","zip":"37602"},{"name":"YAYLAKÖY KÖYÜ","zip":"37602"},{"name":"YAZI MAH.","zip":"37602"},{"name":"YEGENLER MAH.","zip":"37602"},{"name":"YELCE MAH.","zip":"37602"},{"name":"YENİ MAH.","zip":"37602"},{"name":"YENİCE KÖYÜ","zip":"37602"},{"name":"YENİCE MAH.","zip":"37602"},{"name":"YENİDOĞAN MAH.","zip":"37602"},{"name":"YENİKÖY KÖYÜ","zip":"37602"},{"name":"YEŞİLCE MAH.","zip":"37602"},{"name":"YEŞİLYURT MAH.","zip":"37602"},{"name":"YILDIZALAN KÖYÜ","zip":"37602"},{"name":"YILDIZALAN MAH.","zip":"37602"},{"name":"YK.SERDEŞ MAH.","zip":"37602"},{"name":"YUKARI ALACA MAH.","zip":"37602"},{"name":"YUKARI KOZAK MAH.","zip":"37602"},{"name":"YUKARI KÖSELİ MAH.","zip":"37602"},{"name":"YUKARI MAH.","zip":"37602"},{"name":"YUKARIYAYLA MAH.","zip":"37602"},{"name":"YURTBAŞI KÖYÜ","zip":"37602"},{"name":"YURTBAŞI MAH.","zip":"37602"}]},{"name":"ÇATALZEYTİN","cityName":null,"quarters":[{"name":"MERKEZ MAH.","zip":"37940"}]},{"name":"MERKEZKÖYLER","cityName":null,"quarters":[{"name":"ABLU MAH.","zip":"37942"},{"name":"AKGÜN MAH.","zip":"37942"},{"name":"ALAHASAN MAH.","zip":"37942"},{"name":"ALI MAH.","zip":"37942"},{"name":"ARICA KÖYÜ","zip":"37942"},{"name":"ARKA YAYLASI MAH.","zip":"37942"},{"name":"ASMAKOZ MAH.","zip":"37942"},{"name":"AŞAĞI MAH.","zip":"37942"},{"name":"AŞAĞISÖKÜ KÖYÜ","zip":"37942"},{"name":"AT MEYDANI MAH.","zip":"37942"},{"name":"ATTEPE MAH.","zip":"37942"},{"name":"AYBARLAR MAH.","zip":"37942"},{"name":"AYI KOVDUK MAH.","zip":"37942"},{"name":"BAĞLARBAŞI MAH.","zip":"37942"},{"name":"BALCI KÜME MAH.","zip":"37942"},{"name":"BARDAKLI MAH.","zip":"37942"},{"name":"BAŞSÖKÜ MAH.","zip":"37942"},{"name":"BEKİRLER MAH.","zip":"37942"},{"name":"BEREKET MAH.","zip":"37942"},{"name":"BEŞEVLER MAH.","zip":"37942"},{"name":"BOSTANCI MAH.","zip":"37942"},{"name":"BUTLAR MAH.","zip":"37942"},{"name":"BÜYÜKDÜZ MAH.","zip":"37942"},{"name":"CAMİ YANI MAH.","zip":"37942"},{"name":"CANLAR KÖYÜ","zip":"37942"},{"name":"CEBECİ MAH.","zip":"37942"},{"name":"CELAL MAH.","zip":"37942"},{"name":"CELALLAR KÖYÜ","zip":"37942"},{"name":"CİNCİOĞLU MAH.","zip":"37942"},{"name":"CİVAN MAH.","zip":"37942"},{"name":"CULLAR MAH.","zip":"37942"},{"name":"ÇAĞLAR KÖYÜ","zip":"37942"},{"name":"ÇAMLIK MAH.","zip":"37942"},{"name":"ÇATAK KÖYÜ","zip":"37942"},{"name":"ÇAYIR MAH.","zip":"37942"},{"name":"ÇEPNİ KÖYÜ","zip":"37942"},{"name":"ÇERÇİ MAH.","zip":"37942"},{"name":"ÇIKIŞLAR MAH.","zip":"37942"},{"name":"ÇİFTLİK MAH.","zip":"37942"},{"name":"ÇÖREKÇİ MAH.","zip":"37942"},{"name":"ÇUBUKLU KÖYÜ","zip":"37942"},{"name":"ÇUKURCA MAH.","zip":"37942"},{"name":"ÇUKURSÖKÜ MAH.","zip":"37942"},{"name":"DAĞKÖY KÖYÜ","zip":"37942"},{"name":"DANGALAK MAH.","zip":"37942"},{"name":"DEĞİRMEN ÖNÜ MAH.","zip":"37942"},{"name":"DEMİRCİ MAH.","zip":"37942"},{"name":"DEMİRCİOĞLU MAH.","zip":"37942"},{"name":"DEMİROĞLU MAH.","zip":"37942"},{"name":"DOĞAN KÖYÜ","zip":"37942"},{"name":"DOĞAN YUVASI MAH.","zip":"37942"},{"name":"DUMANLAR MAH.","zip":"37942"},{"name":"DURAN KÖYÜ","zip":"37942"},{"name":"DÜZKÖY MAH.","zip":"37942"},{"name":"DÜZMAMLAY MAH.","zip":"37942"},{"name":"EMECEN MAH.","zip":"37942"},{"name":"EMİRLER MAH.","zip":"37942"},{"name":"EPÇELER KÖYÜ","zip":"37942"},{"name":"EPÇELİ MAH.","zip":"37942"},{"name":"ES KÖPRÜCEK MAH.","zip":"37942"},{"name":"ESKİ BOSTAN MAH.","zip":"37942"},{"name":"FEVZİOĞLU MAH.","zip":"37942"},{"name":"FINDICAK MAH.","zip":"37942"},{"name":"FINDIKLI KÖYÜ","zip":"37942"},{"name":"FİTİLLİK MAH.","zip":"37942"},{"name":"GAFAR MAH.","zip":"37942"},{"name":"GECİTLİ MAH.","zip":"37942"},{"name":"GEDİKOĞLU MAH.","zip":"37942"},{"name":"GİNOLU MAH.","zip":"37942"},{"name":"GÖLHARMANI MAH.","zip":"37942"},{"name":"GÖLLER MAH.","zip":"37942"},{"name":"GÜMÜŞOĞLU MAH.","zip":"37942"},{"name":"GÜNEŞLER KÖYÜ","zip":"37942"},{"name":"GÜNEŞLİ MAH.","zip":"37942"},{"name":"GÜNEY MAH.","zip":"37942"},{"name":"GÜNEYLER MAH.","zip":"37942"},{"name":"GÜNEYOĞLU MAH.","zip":"37942"},{"name":"GÜNEYSÖKÜ MAH.","zip":"37942"},{"name":"GÜZLE MAH.","zip":"37942"},{"name":"HACIREİS KÖYÜ","zip":"37942"},{"name":"HACIREİSSÖKÜ KÖYÜ","zip":"37942"},{"name":"HAMİDİYE KÖYÜ","zip":"37942"},{"name":"HARDİ KÖPRÜSÜ MÜCAVİR MAH.","zip":"37942"},{"name":"HASANLAR MAH.","zip":"37942"},{"name":"HASANPAŞA MAH.","zip":"37942"},{"name":"HATİP MAH.","zip":"37942"},{"name":"HATİPOĞLU MAH.","zip":"37942"},{"name":"HÖCEK MAH.","zip":"37942"},{"name":"HÜSEYİNLER MAH.","zip":"37942"},{"name":"İSMAİL KÖYÜ","zip":"37942"},{"name":"İTOĞLU MAH.","zip":"37942"},{"name":"İTOĞLU YAYLASI MAH.","zip":"37942"},{"name":"KABALAK DÜZÜ MAH.","zip":"37942"},{"name":"KADI MAH.","zip":"37942"},{"name":"KADIKÖY MAH.","zip":"37942"},{"name":"KADILAR YAYLASI MAH.","zip":"37942"},{"name":"KADIOĞLU KÜME MAH.","zip":"37942"},{"name":"KADIOĞLU MAH.","zip":"37942"},{"name":"KALAÇ MAH.","zip":"37942"},{"name":"KALAFAT MAH.","zip":"37942"},{"name":"KAMBUROĞLU MAH.","zip":"37942"},{"name":"KAPAN MAH.","zip":"37942"},{"name":"KAPIKAYA MAH.","zip":"37942"},{"name":"KAPLAK MAH.","zip":"37942"},{"name":"KARA SARMAŞIK MAH.","zip":"37942"},{"name":"KARACAKAYA KÖYÜ","zip":"37942"},{"name":"KARADAĞLI MAH.","zip":"37942"},{"name":"KARAMANLAR MAH.","zip":"37942"},{"name":"KARAPINAR MAH.","zip":"37942"},{"name":"KAŞLICA KÖYÜ","zip":"37942"},{"name":"KATİP MAH.","zip":"37942"},{"name":"KAVAKLI KÖYÜ","zip":"37942"},{"name":"KAVAKÖREN KÖYÜ","zip":"37942"},{"name":"KAYA MAH.","zip":"37942"},{"name":"KAYAALTI KÜME MAH.","zip":"37942"},{"name":"KAYABAŞI MAH.","zip":"37942"},{"name":"KAYADİBİ KÖYÜ","zip":"37942"},{"name":"KAYIŞÇIOĞLU MAH.","zip":"37942"},{"name":"KAYMAZLAR KÖYÜ","zip":"37942"},{"name":"KEPEK MAH.","zip":"37942"},{"name":"KESECİK MAH.","zip":"37942"},{"name":"KESNECİOĞLU MAH.","zip":"37942"},{"name":"KETE MAH.","zip":"37942"},{"name":"KILAVUZLAR MAH.","zip":"37942"},{"name":"KIRLANGIÇ MAH.","zip":"37942"},{"name":"KIVILLAR MAH.","zip":"37942"},{"name":"KIZILAĞAÇÇUKURU MAH.","zip":"37942"},{"name":"KIZILCAKAYA KÖYÜ","zip":"37942"},{"name":"KİRAZBAĞI MAH.","zip":"37942"},{"name":"KİRAZLI KÖYÜ","zip":"37942"},{"name":"KONAKLI KÖYÜ","zip":"37942"},{"name":"KORU YAYLASI MAH.","zip":"37942"},{"name":"KÖKLÜCE KÖYÜ","zip":"37942"},{"name":"KÖPRÜCEK MAH.","zip":"37942"},{"name":"KÖROĞLU MAH.","zip":"37942"},{"name":"KUĞU KÖYÜ","zip":"37942"},{"name":"KULFALLAR KÖYÜ","zip":"37942"},{"name":"KUZ MAH.","zip":"37942"},{"name":"KUZSÖKÜ KÖYÜ","zip":"37942"},{"name":"KÜÇÜKYATAK YAYLASI MAH.","zip":"37942"},{"name":"KÜTÜKCÜ MAH.","zip":"37942"},{"name":"MAHMUT MAH.","zip":"37942"},{"name":"MASUTLAR MAH.","zip":"37942"},{"name":"MENTEREK MAH.","zip":"37942"},{"name":"MERKEZ MAH.","zip":"37942"},{"name":"MERKEZ TAŞÇI MAH.","zip":"37942"},{"name":"MEYDANCIK MAH.","zip":"37942"},{"name":"MIDANOĞLU MAH.","zip":"37942"},{"name":"MISIRLIK MAH.","zip":"37942"},{"name":"MOLLAHASAN MAH.","zip":"37942"},{"name":"MURAT MAH.","zip":"37942"},{"name":"MUSTAFAOĞLU MAH.","zip":"37942"},{"name":"OBRUK MAH.","zip":"37942"},{"name":"ORTA MAH.","zip":"37942"},{"name":"OSMAN MAH.","zip":"37942"},{"name":"OSMANOĞLU MAH.","zip":"37942"},{"name":"ÖZLÜ MAH.","zip":"37942"},{"name":"PAŞALI KÖYÜ","zip":"37942"},{"name":"PAŞAOĞLU MAH.","zip":"37942"},{"name":"PATLADUN MAH.","zip":"37942"},{"name":"PAZAR YERİ MAH.","zip":"37942"},{"name":"PİRİ KÖYÜ","zip":"37942"},{"name":"PÜR MAH.","zip":"37942"},{"name":"SAATÇİ MAH.","zip":"37942"},{"name":"SAĞ MAH.","zip":"37942"},{"name":"SAMANCI KÖYÜ","zip":"37942"},{"name":"SARAÇLAR KÖYÜ","zip":"37942"},{"name":"SAYDAŞ MAH.","zip":"37942"},{"name":"SAZAK MAH.","zip":"37942"},{"name":"SIRAKONAK KÖYÜ","zip":"37942"},{"name":"SİFAN MAH.","zip":"37942"},{"name":"SOMAYLI YURDU MAH.","zip":"37942"},{"name":"SOYICAK MAH.","zip":"37942"},{"name":"SÖĞÜÇLER MAH.","zip":"37942"},{"name":"SÖĞÜŞLER MAH.","zip":"37942"},{"name":"SÖKÜ KÖYÜ","zip":"37942"},{"name":"SUÇATI MAH.","zip":"37942"},{"name":"SUMAYLI YURDU MAH.","zip":"37942"},{"name":"ŞABAN MAH.","zip":"37942"},{"name":"ŞİŞMANLAR MAH.","zip":"37942"},{"name":"TARAKÇILAR MAH.","zip":"37942"},{"name":"TAŞGELİK MAH.","zip":"37942"},{"name":"TEPE YAYLA MAH.","zip":"37942"},{"name":"TERZİLER MAH.","zip":"37942"},{"name":"TİLHAN MAH.","zip":"37942"},{"name":"TOPCU MAH.","zip":"37942"},{"name":"TOPÇU MAH.","zip":"37942"},{"name":"TOPÇUOĞLU MAH.","zip":"37942"},{"name":"TOPRAKÇIOĞLU MAH.","zip":"37942"},{"name":"TÜCCAR MAH.","zip":"37942"},{"name":"TÜFEKÇİ MAH.","zip":"37942"},{"name":"TÜĞMEN MAH.","zip":"37942"},{"name":"TÜLEK MAH.","zip":"37942"},{"name":"ULU MAH.","zip":"37942"},{"name":"ULUCUK MAH.","zip":"37942"},{"name":"ULUGÜNEY MAH.","zip":"37942"},{"name":"URLUCA MAH.","zip":"37942"},{"name":"USTAOĞLU MAH.","zip":"37942"},{"name":"UZUNOĞLU MAH.","zip":"37942"},{"name":"UZUNPOYRA MAH.","zip":"37942"},{"name":"ÜÇEVLER MAH.","zip":"37942"},{"name":"YABU KÜME MAH.","zip":"37942"},{"name":"YANIK MAH.","zip":"37942"},{"name":"YAYLA GAVUR PINARI MAH.","zip":"37942"},{"name":"YAYLA MAH.","zip":"37942"},{"name":"YAYLAOLUĞU YAYLASI MAH.","zip":"37942"},{"name":"YAZICIOĞLU MAH.","zip":"37942"},{"name":"YEMİŞLİ KÖYÜ","zip":"37942"},{"name":"YENİ MAH.","zip":"37942"},{"name":"YENİBEYLER KÖYÜ","zip":"37942"},{"name":"YENİKÖY MAH.","zip":"37942"},{"name":"YUKARI MAH.","zip":"37942"},{"name":"YUKARIGÜNEYSÖKÜ MAH.","zip":"37942"},{"name":"YUKARISÖKÜ KÖYÜ","zip":"37942"},{"name":"YUMRU MAH.","zip":"37942"},{"name":"YUNUSLAR KÖYÜ","zip":"37942"},{"name":"YUSUF MAH.","zip":"37942"},{"name":"YUVACIK MAH.","zip":"37942"}]},{"name":"DADAY","cityName":null,"quarters":[{"name":"KALEM MAH.","zip":"37870"},{"name":"KELEBEK MAH.","zip":"37870"},{"name":"MERKEZ MAH.","zip":"37870"}]},{"name":"MERKEZKÖYLER","cityName":null,"quarters":[{"name":"ABDİOĞLU MAH.","zip":"37872"},{"name":"AFURÖZÜ MAH.","zip":"37872"},{"name":"AĞSAR MAH.","zip":"37872"},{"name":"AHATVEREN MAH.","zip":"37872"},{"name":"AHMETOĞLU MAH.","zip":"37872"},{"name":"AKBIYIK MAH.","zip":"37872"},{"name":"AKÇAMEHMET MAH.","zip":"37872"},{"name":"AKÇİÇEK MAH.","zip":"37872"},{"name":"AKILÇALMAN KÖYÜ","zip":"37872"},{"name":"AKPINAR KÖYÜ","zip":"37872"},{"name":"AKPINAR MAH.","zip":"37872"},{"name":"AKTAŞTEKKE KÖYÜ","zip":"37872"},{"name":"ALEYBEY MAH.","zip":"37872"},{"name":"ALINCA MAH.","zip":"37872"},{"name":"ALINCAALTI MAH.","zip":"37872"},{"name":"ALİPAŞA KÖYÜ","zip":"37872"},{"name":"ARABACI MAH.","zip":"37872"},{"name":"ARABACILAR KÖYÜ","zip":"37872"},{"name":"AŞAĞI MAH.","zip":"37872"},{"name":"AŞAĞI ÖDEN MAH.","zip":"37872"},{"name":"BAĞIŞLAR KÖYÜ","zip":"37872"},{"name":"BAHÇELİ MAH.","zip":"37872"},{"name":"BALTACI MAH.","zip":"37872"},{"name":"BASTAK KÖYÜ","zip":"37872"},{"name":"BAYIR KÖYÜ","zip":"37872"},{"name":"BAYRAM MAH.","zip":"37872"},{"name":"BAYRAMLI KÖYÜ","zip":"37872"},{"name":"BAYRAMOĞLU MAH.","zip":"37872"},{"name":"BEKİR MAH.","zip":"37872"},{"name":"BEYAZLAR MAH.","zip":"37872"},{"name":"BEYKOZ KÖYÜ","zip":"37872"},{"name":"BEZİRKAN KÖYÜ","zip":"37872"},{"name":"BIYIKLI MAH.","zip":"37872"},{"name":"BİNBAŞIOĞLU MAH.","zip":"37872"},{"name":"BİTİGÖZÜ MAH.","zip":"37872"},{"name":"BOLATLAR KÖYÜ","zip":"37872"},{"name":"BOYALICA KÖYÜ","zip":"37872"},{"name":"BOYALILAR KÖYÜ","zip":"37872"},{"name":"BOZCAARMUT MAH.","zip":"37872"},{"name":"BUDAKLAR MAH.","zip":"37872"},{"name":"BUDAKLI KÖYÜ","zip":"37872"},{"name":"BUZAĞIVEREN MAH.","zip":"37872"},{"name":"BÜYÜKDERE MAH.","zip":"37872"},{"name":"BÜYÜKİLİT MAH.","zip":"37872"},{"name":"CAMİİ MAH.","zip":"37872"},{"name":"CEBECİR MAH.","zip":"37872"},{"name":"CEŞLER MAH.","zip":"37872"},{"name":"CİV MAH.","zip":"37872"},{"name":"CİVLER MAH.","zip":"37872"},{"name":"ÇAKAL MAH.","zip":"37872"},{"name":"ÇALCA MAH.","zip":"37872"},{"name":"ÇAMKONAK KÖYÜ","zip":"37872"},{"name":"ÇAMLIBEL KÖYÜ","zip":"37872"},{"name":"ÇAMOĞLU MAH.","zip":"37872"},{"name":"ÇAMOLUK MAH.","zip":"37872"},{"name":"ÇARŞI MAH.","zip":"37872"},{"name":"ÇAVUŞLU KÖYÜ","zip":"37872"},{"name":"ÇAYIRLI KÖYÜ","zip":"37872"},{"name":"ÇAYÖZÜ KÖYÜ","zip":"37872"},{"name":"ÇENTEKLER MAH.","zip":"37872"},{"name":"ÇERÇİLER MAH.","zip":"37872"},{"name":"ÇERKEZ MAH.","zip":"37872"},{"name":"ÇILLAR MAH.","zip":"37872"},{"name":"ÇIRDAK MAH.","zip":"37872"},{"name":"ÇİFTLİK MAH.","zip":"37872"},{"name":"ÇİMKELER MAH.","zip":"37872"},{"name":"ÇOMAKLAR MAH.","zip":"37872"},{"name":"ÇÖLMEKÇİLER KÖYÜ","zip":"37872"},{"name":"ÇÖPÖREN MAH.","zip":"37872"},{"name":"ÇUKUR MAH.","zip":"37872"},{"name":"DAVULCU MAH.","zip":"37872"},{"name":"DAVUT KÖYÜ","zip":"37872"},{"name":"DEĞİRMENCİK KÖYÜ","zip":"37872"},{"name":"DEĞİRMENÖZÜ KÖYÜ","zip":"37872"},{"name":"DEMİRCE KÖYÜ","zip":"37872"},{"name":"DEMİRCİ MAH.","zip":"37872"},{"name":"DEMİRCİLER MAH.","zip":"37872"},{"name":"DEMİRHAN MAH.","zip":"37872"},{"name":"DERE MAH.","zip":"37872"},{"name":"DEREKÖY KÖYÜ","zip":"37872"},{"name":"DEREÖZÜ KÖYÜ","zip":"37872"},{"name":"DEYİRMENCİ MAH.","zip":"37872"},{"name":"DİKMEN MAH.","zip":"37872"},{"name":"DÖRTDEĞİRMENLER MAH.","zip":"37872"},{"name":"ELMACIK MAH.","zip":"37872"},{"name":"ELMAYAZI KÖYÜ","zip":"37872"},{"name":"ELVEREN MAH.","zip":"37872"},{"name":"ERCEK MAH.","zip":"37872"},{"name":"ERDEMLER MAH.","zip":"37872"},{"name":"ERTAŞ KÖYÜ","zip":"37872"},{"name":"ERTİGÖZÜ MAH.","zip":"37872"},{"name":"ESENLER MAH.","zip":"37872"},{"name":"ESGİLİ MAH.","zip":"37872"},{"name":"ESKİ KÖY MAH.","zip":"37872"},{"name":"EYLEK MAH.","zip":"37872"},{"name":"FASILLAR KÖYÜ","zip":"37872"},{"name":"FATMAÖREN MAH.","zip":"37872"},{"name":"FERMAN MAH.","zip":"37872"},{"name":"FETTAH MAH.","zip":"37872"},{"name":"FINDICAK MAH.","zip":"37872"},{"name":"GAZA MAH.","zip":"37872"},{"name":"GOGO MAH.","zip":"37872"},{"name":"GÖÇERLER MAH.","zip":"37872"},{"name":"GÖÇMENLER MAH.","zip":"37872"},{"name":"GÖKÇEBEL MAH.","zip":"37872"},{"name":"GÖKÖREN KÖYÜ","zip":"37872"},{"name":"GÖRÜK KÖYÜ","zip":"37872"},{"name":"GÖRÜKÇALI MAH.","zip":"37872"},{"name":"GÖYNÜK MAH.","zip":"37872"},{"name":"GÜLYAN MAH.","zip":"37872"},{"name":"GÜMÜŞLÜĞÜ MAH.","zip":"37872"},{"name":"HACI MAH.","zip":"37872"},{"name":"HACIMANGİL MAH.","zip":"37872"},{"name":"HACO MAH.","zip":"37872"},{"name":"HACOĞLU MAH.","zip":"37872"},{"name":"HAN MAH.","zip":"37872"},{"name":"HASAHŞEYH MAH.","zip":"37872"},{"name":"HASANAĞA KÖYÜ","zip":"37872"},{"name":"HASANBEY MAH.","zip":"37872"},{"name":"HASANŞEYH KÖYÜ","zip":"37872"},{"name":"HELVECİ MAH.","zip":"37872"},{"name":"HONCATLAR MAH.","zip":"37872"},{"name":"HÖBÜLOĞLU MAH.","zip":"37872"},{"name":"HÜSEMA MAH.","zip":"37872"},{"name":"HÜSEYİNÇAMI MAH.","zip":"37872"},{"name":"İLYAS MAH.","zip":"37872"},{"name":"İNCİĞEZ KÖYÜ","zip":"37872"},{"name":"KADI MAH.","zip":"37872"},{"name":"KAHYAR MAH.","zip":"37872"},{"name":"KANLIÇAYIR MAH.","zip":"37872"},{"name":"KAPAKLI KÖYÜ","zip":"37872"},{"name":"KARAAĞAÇ KÖYÜ","zip":"37872"},{"name":"KARABEYLER MAH.","zip":"37872"},{"name":"KARABOĞA MAH.","zip":"37872"},{"name":"KARACAAĞAÇ KÖYÜ","zip":"37872"},{"name":"KARACAKESE MAH.","zip":"37872"},{"name":"KARACAÖREN KÖYÜ","zip":"37872"},{"name":"KARAGÖZ MAH.","zip":"37872"},{"name":"KARALAR MAH.","zip":"37872"},{"name":"KARAMIK KÖYÜ","zip":"37872"},{"name":"KARAÖMER MAH.","zip":"37872"},{"name":"KARAPINAR MAH.","zip":"37872"},{"name":"KARŞI MAH.","zip":"37872"},{"name":"KAVAKLI MAH.","zip":"37872"},{"name":"KAVAKYAYLA KÖYÜ","zip":"37872"},{"name":"KAYABAĞI KÖYÜ","zip":"37872"},{"name":"KAYI KÖYÜ","zip":"37872"},{"name":"KAYIMOĞLU MAH.","zip":"37872"},{"name":"KAZIKLAR MAH.","zip":"37872"},{"name":"KERPİÇ MAH.","zip":"37872"},{"name":"KILIÇLAR MAH.","zip":"37872"},{"name":"KIŞLA MAH.","zip":"37872"},{"name":"KIŞLACIK MAH.","zip":"37872"},{"name":"KIZILİNEK MAH.","zip":"37872"},{"name":"KIZILÖRENCİK KÖYÜ","zip":"37872"},{"name":"KIZSİNİ KÖYÜ","zip":"37872"},{"name":"KİRAZ MAH.","zip":"37872"},{"name":"KİRET (MEŞELİ) MAH.","zip":"37872"},{"name":"KOÇCUĞAZ KÖYÜ","zip":"37872"},{"name":"KOZDERE MAH.","zip":"37872"},{"name":"KÖCEKLER MAH.","zip":"37872"},{"name":"KÖSE MAH.","zip":"37872"},{"name":"KÖSELER MAH.","zip":"37872"},{"name":"KÖŞELER KÖYÜ","zip":"37872"},{"name":"KURUDAŞ MAH.","zip":"37872"},{"name":"KUZ MAH.","zip":"37872"},{"name":"KÜLCÜLER MAH.","zip":"37872"},{"name":"KÜTEN KÖYÜ","zip":"37872"},{"name":"MADEN MAH.","zip":"37872"},{"name":"MANAV MAH.","zip":"37872"},{"name":"MANDIRA MAH.","zip":"37872"},{"name":"MEMEÖREN MAH.","zip":"37872"},{"name":"MERK MAH.","zip":"37872"},{"name":"MERKEZ MAH.","zip":"37872"},{"name":"MEYDAN MAH.","zip":"37872"},{"name":"MEYRE MAH.","zip":"37872"},{"name":"MİYAT MAH.","zip":"37872"},{"name":"MOLLAAHMET MAH.","zip":"37872"},{"name":"MURATOĞLU MAH.","zip":"37872"},{"name":"MUSA MAH.","zip":"37872"},{"name":"MUSO MAH.","zip":"37872"},{"name":"NECİLER MAH.","zip":"37872"},{"name":"NERGİZ MAH.","zip":"37872"},{"name":"OKÇULAR MAH.","zip":"37872"},{"name":"OKLUK KÖYÜ","zip":"37872"},{"name":"OLUCAK MAH.","zip":"37872"},{"name":"ORTA MAH.","zip":"37872"},{"name":"ORTAKÇI MAH.","zip":"37872"},{"name":"ÖMÜRBEY MAH.","zip":"37872"},{"name":"ÖREN MAH.","zip":"37872"},{"name":"ÖRENCİK KÖYÜ","zip":"37872"},{"name":"ÖRENCİK MAH.","zip":"37872"},{"name":"ÖRHENE MAH.","zip":"37872"},{"name":"ÖTEKIŞLA MAH.","zip":"37872"},{"name":"PAZAR MAH.","zip":"37872"},{"name":"PELİTVEREN MAH.","zip":"37872"},{"name":"PİRDEDE MAH.","zip":"37872"},{"name":"SABIRLAR MAH.","zip":"37872"},{"name":"SANCI MAH.","zip":"37872"},{"name":"SANSAR MAH.","zip":"37872"},{"name":"SAREN (GÜLLÜCE) MAH.","zip":"37872"},{"name":"SARICI MAH.","zip":"37872"},{"name":"SARIÇAM KÖYÜ","zip":"37872"},{"name":"SARIMSAKCI MAH.","zip":"37872"},{"name":"SARNIÇ MAH.","zip":"37872"},{"name":"SARPUN KÖYÜ","zip":"37872"},{"name":"SARPUN MAH.","zip":"37872"},{"name":"SELALMAZ KÖYÜ","zip":"37872"},{"name":"SELAM MAH.","zip":"37872"},{"name":"SELİMOĞLU MAH.","zip":"37872"},{"name":"SEYDİBEY MAH.","zip":"37872"},{"name":"SİPAHİ MAH.","zip":"37872"},{"name":"SİYAHLAR KÖYÜ","zip":"37872"},{"name":"SOFULAR MAH.","zip":"37872"},{"name":"SORKUN KÖYÜ","zip":"37872"},{"name":"SORKUNCUK KÖYÜ","zip":"37872"},{"name":"SÖĞÜDEK MAH.","zip":"37872"},{"name":"SUNGUR MAH.","zip":"37872"},{"name":"SÜNNETÇİ MAH.","zip":"37872"},{"name":"ŞÜKÜR MAH.","zip":"37872"},{"name":"TABAKLAR MAH.","zip":"37872"},{"name":"TAPOĞLU MAH.","zip":"37872"},{"name":"TAŞÇILAR MAH.","zip":"37872"},{"name":"TEKKE MAH.","zip":"37872"},{"name":"TEMBELLER MAH.","zip":"37872"},{"name":"TEPE MAH.","zip":"37872"},{"name":"TEPEHARMAN MAH.","zip":"37872"},{"name":"TEPEKÖY MAH.","zip":"37872"},{"name":"TEPEKÖY1 MAH.","zip":"37872"},{"name":"TOHUMLAR MAH.","zip":"37872"},{"name":"TOPALOĞLU MAH.","zip":"37872"},{"name":"TURİDİOĞLU MAH.","zip":"37872"},{"name":"TUZCU MAH.","zip":"37872"},{"name":"TÜFEKÇİ KÖYÜ","zip":"37872"},{"name":"ULU MAH.","zip":"37872"},{"name":"UZBANLAR KÖYÜ","zip":"37872"},{"name":"ÜYUCEK MAH.","zip":"37872"},{"name":"ÜYÜKÖREN KÖYÜ","zip":"37872"},{"name":"Y. KAYACIK MAH.","zip":"37872"},{"name":"YAKALI MAH.","zip":"37872"},{"name":"YALAKDERESİ MAH.","zip":"37872"},{"name":"YALAMA MAH.","zip":"37872"},{"name":"YALNIZ MAH.","zip":"37872"},{"name":"YAYLA MAH.","zip":"37872"},{"name":"YAYLACIK MAH.","zip":"37872"},{"name":"YAYLIMKARA MAH.","zip":"37872"},{"name":"YAZI MAH.","zip":"37872"},{"name":"YAZICAMEYDAN KÖYÜ","zip":"37872"},{"name":"YENİ MAH.","zip":"37872"},{"name":"YESİR MAH.","zip":"37872"},{"name":"YEŞİL MAH.","zip":"37872"},{"name":"YUKARI MAH.","zip":"37872"},{"name":"YUKARI ÖDEN MAH.","zip":"37872"},{"name":"YUKARIÖDEN MAH.","zip":"37872"},{"name":"YUMURTACI MAH.","zip":"37872"},{"name":"ZAROĞLU MAH.","zip":"37872"}]},{"name":"DEVREKANİ","cityName":null,"quarters":[{"name":"ÇAYIRCIK MAH.","zip":"37700"},{"name":"ETÇİLER MAH.","zip":"37700"},{"name":"İSMAİLBEY MAH.","zip":"37700"},{"name":"KADİRBEY MAH.","zip":"37700"},{"name":"KURTŞEYH MAH.","zip":"37700"},{"name":"MÜTEVELLİ MAH.","zip":"37700"},{"name":"SAZYAKA MAH.","zip":"37700"}]},{"name":"MERKEZKÖYLER","cityName":null,"quarters":[{"name":"AHLATÇIK KÖYÜ","zip":"37702"},{"name":"AKÇAPINAR KÖYÜ","zip":"37702"},{"name":"AKDOĞAN KÖYÜ","zip":"37702"},{"name":"AKMESCİT KÖYÜ","zip":"37702"},{"name":"ALAÇAY KÖYÜ","zip":"37702"},{"name":"ALAGERİŞ MAH.","zip":"37702"},{"name":"ALÇILAR KÖYÜ","zip":"37702"},{"name":"ALIÇÇILAR ( ALIÇÇI ) MAH.","zip":"37702"},{"name":"ALIÇÇILAR ( HACI) MAH.","zip":"37702"},{"name":"ALIÇÇILAR ( YUKARI ) MAH.","zip":"37702"},{"name":"ALIÇÇILAR MAH.","zip":"37702"},{"name":"ALINCA MAH.","zip":"37702"},{"name":"ALINÖREN KÖYÜ","zip":"37702"},{"name":"ALİ MAH.","zip":"37702"},{"name":"ALİBEYOĞLU MAH.","zip":"37702"},{"name":"ALİUSTAOĞLU MAH.","zip":"37702"},{"name":"ARKUTÇA MAH.","zip":"37702"},{"name":"ARSLANBEY KÖYÜ","zip":"37702"},{"name":"ASARCIK KÖYÜ","zip":"37702"},{"name":"AŞAĞI HASANEFENDİ MAH.","zip":"37702"},{"name":"AŞAĞI KÜPLER MAH.","zip":"37702"},{"name":"AŞAĞI MAH.","zip":"37702"},{"name":"AŞAĞI YAZIHİSAR MAH.","zip":"37702"},{"name":"AŞIKLAR MAH.","zip":"37702"},{"name":"AT ÇİFTLİĞİ MAH.","zip":"37702"},{"name":"AYDINLAR MAH.","zip":"37702"},{"name":"AYVACA MAH.","zip":"37702"},{"name":"BALABANLAR KÖYÜ","zip":"37702"},{"name":"BALIBEY MAH.","zip":"37702"},{"name":"BALTACAK KÖYÜ","zip":"37702"},{"name":"BAŞAKPINAR KÖYÜ","zip":"37702"},{"name":"BAŞAKPINARTEPE KÖYÜ","zip":"37702"},{"name":"BAŞÖREN MAH.","zip":"37702"},{"name":"BATAN MAH.","zip":"37702"},{"name":"BAYRAMOĞLU MAH.","zip":"37702"},{"name":"BELOVACIK KÖYÜ","zip":"37702"},{"name":"BEREKETLİ MAH.","zip":"37702"},{"name":"BEYLER MAH.","zip":"37702"},{"name":"BEYLİK MAH.","zip":"37702"},{"name":"BINGILDAYIK KÖYÜ","zip":"37702"},{"name":"BİYO MAH.","zip":"37702"},{"name":"BOZARMUT KÖYÜ","zip":"37702"},{"name":"BOZKOCA KÖYÜ","zip":"37702"},{"name":"BOZKOCATEPE KÖYÜ","zip":"37702"},{"name":"BOZKOCATEPE MAH.","zip":"37702"},{"name":"BÜRÜMCE MAH.","zip":"37702"},{"name":"CİNİTCİ MAH.","zip":"37702"},{"name":"CİNOĞLU MAH.","zip":"37702"},{"name":"ÇAKALLAR MAH.","zip":"37702"},{"name":"ÇAKIROĞLU MAH.","zip":"37702"},{"name":"ÇAL MAH.","zip":"37702"},{"name":"ÇALCA MAH.","zip":"37702"},{"name":"ÇALKAYA MAH.","zip":"37702"},{"name":"ÇATAK KÖYÜ","zip":"37702"},{"name":"ÇAVUŞLU KÖYÜ","zip":"37702"},{"name":"ÇERÇİ DERESİ MAH.","zip":"37702"},{"name":"ÇERİBAŞI MAH.","zip":"37702"},{"name":"ÇİRİŞ MAH.","zip":"37702"},{"name":"ÇONTAY KÖYÜ","zip":"37702"},{"name":"ÇORBACI KÖYÜ","zip":"37702"},{"name":"ÇÖREKÇİ KÖYÜ","zip":"37702"},{"name":"DAVUTLAR MAH.","zip":"37702"},{"name":"DAVUTOĞLU MAH.","zip":"37702"},{"name":"DELİ MUSA MAH.","zip":"37702"},{"name":"DELİHALİLLER MAH.","zip":"37702"},{"name":"DEMİRCİ MAH.","zip":"37702"},{"name":"DEMİRCİLER MAH.","zip":"37702"},{"name":"DERE MAH.","zip":"37702"},{"name":"DERESÖKÜ MAH.","zip":"37702"},{"name":"DEVRENCİK MAH.","zip":"37702"},{"name":"DİBEDEN MAH.","zip":"37702"},{"name":"DOĞUÖRCÜNLER KÖYÜ","zip":"37702"},{"name":"DORA MAH.","zip":"37702"},{"name":"DUACI MAH.","zip":"37702"},{"name":"DURALI MAH.","zip":"37702"},{"name":"DÜNDARLAR MAH.","zip":"37702"},{"name":"EBREK MAH.","zip":"37702"},{"name":"EĞRİÇ MAH.","zip":"37702"},{"name":"ELMALI CAMİ MAH.","zip":"37702"},{"name":"ELMALITEKKE KÖYÜ","zip":"37702"},{"name":"EMECEN MAH.","zip":"37702"},{"name":"ERENLER KÖYÜ","zip":"37702"},{"name":"ESENTAŞ MAH.","zip":"37702"},{"name":"FAKILAR KÖYÜ","zip":"37702"},{"name":"GAFER MAH.","zip":"37702"},{"name":"GELİNOĞLU MAH.","zip":"37702"},{"name":"GERİŞ MAH.","zip":"37702"},{"name":"GINAKAYASI MAH.","zip":"37702"},{"name":"GÖCEN MAH.","zip":"37702"},{"name":"GÖÇERLER MAH.","zip":"37702"},{"name":"GÖDEŞLER MAH.","zip":"37702"},{"name":"GÖYNÜKÖREN KÖYÜ","zip":"37702"},{"name":"GUBATLAR MAH.","zip":"37702"},{"name":"GÜMESİNİ MAH.","zip":"37702"},{"name":"GÜNEY MAH.","zip":"37702"},{"name":"GÜNEYLİ MAH.","zip":"37702"},{"name":"HABEŞLİ KÖYÜ","zip":"37702"},{"name":"HACELİ MAH.","zip":"37702"},{"name":"HACI AHMET MAH.","zip":"37702"},{"name":"HACI HASAN MAH.","zip":"37702"},{"name":"HACI KÖSE MAH.","zip":"37702"},{"name":"HASIRLI KÖYÜ","zip":"37702"},{"name":"HATAP MAH.","zip":"37702"},{"name":"HATİPOĞLU MAH.","zip":"37702"},{"name":"HIDIROĞLU MAH.","zip":"37702"},{"name":"HIŞIMLAR MAH.","zip":"37702"},{"name":"ISIRGANLI MAH.","zip":"37702"},{"name":"İĞDİR MAH.","zip":"37702"},{"name":"İNCİGEZ MAH.","zip":"37702"},{"name":"İNCİĞEZ KÖYÜ","zip":"37702"},{"name":"KABALAR MAH.","zip":"37702"},{"name":"KADI MAH.","zip":"37702"},{"name":"KADIOĞLU KÖYÜ","zip":"37702"},{"name":"KADIOĞLU MAH.","zip":"37702"},{"name":"KANLIABAT KÖYÜ","zip":"37702"},{"name":"KARABAKAL MAH.","zip":"37702"},{"name":"KARABEYLER MAH.","zip":"37702"},{"name":"KARACATAŞ MAH.","zip":"37702"},{"name":"KARAÇAM KÖYÜ","zip":"37702"},{"name":"KARAÇAM MAH.","zip":"37702"},{"name":"KARAHALİL MAH.","zip":"37702"},{"name":"KARAHÜSEYİN MAH.","zip":"37702"},{"name":"KARAKUM MAH.","zip":"37702"},{"name":"KARAOĞLAN MAH.","zip":"37702"},{"name":"KARAOLUK MAH.","zip":"37702"},{"name":"KARAŞABAN MAH.","zip":"37702"},{"name":"KARAVEN MAH.","zip":"37702"},{"name":"KARAYAZICILAR KÖYÜ","zip":"37702"},{"name":"KASAPLAR KÖYÜ","zip":"37702"},{"name":"KAVUNCULAR MAH.","zip":"37702"},{"name":"KAYA ÇUKURU MAH.","zip":"37702"},{"name":"KAYLICA MAH.","zip":"37702"},{"name":"KAYMAKÇI MAH.","zip":"37702"},{"name":"KELES MAH.","zip":"37702"},{"name":"KEMİKLER MAH.","zip":"37702"},{"name":"KEPEZ MAH.","zip":"37702"},{"name":"KEŞ MAH.","zip":"37702"},{"name":"KILCAN MAH.","zip":"37702"},{"name":"KINIK KÖYÜ","zip":"37702"},{"name":"KIRCALAR MAH.","zip":"37702"},{"name":"KIRINCIK MAH.","zip":"37702"},{"name":"KIZACIK KÖYÜ","zip":"37702"},{"name":"KIZILKESE MAH.","zip":"37702"},{"name":"KIZILLAR MAH.","zip":"37702"},{"name":"KOKURDAN MAH.","zip":"37702"},{"name":"KÖSTEKÇİ MAH.","zip":"37702"},{"name":"KULAKSIZLAR MAH.","zip":"37702"},{"name":"KURMALAR MAH.","zip":"37702"},{"name":"KURT KÖYÜ","zip":"37702"},{"name":"KURTMAHMUT MAH.","zip":"37702"},{"name":"KURUKAVAK MAH.","zip":"37702"},{"name":"KUTUCULAR MAH.","zip":"37702"},{"name":"KUZ KÖYÜ","zip":"37702"},{"name":"KUZ MAH.","zip":"37702"},{"name":"KUZGEÇE MAH.","zip":"37702"},{"name":"KUZSÖKÜ MAH.","zip":"37702"},{"name":"KÜLLÜ MAH.","zip":"37702"},{"name":"KÜP MAH.","zip":"37702"},{"name":"LAÇİN KÖYÜ","zip":"37702"},{"name":"MADEN MAH.","zip":"37702"},{"name":"MERKEZ MAH.","zip":"37702"},{"name":"MOLLA MAH.","zip":"37702"},{"name":"MÜEZZİN MAH.","zip":"37702"},{"name":"NAİPOĞLU MAH.","zip":"37702"},{"name":"NASIFOĞLU MAH.","zip":"37702"},{"name":"NEBİOĞLU MAH.","zip":"37702"},{"name":"OĞUZ MAH.","zip":"37702"},{"name":"ORTAKÖY MAH.","zip":"37702"},{"name":"ORUÇ MAH.","zip":"37702"},{"name":"OSMANBEY MAH.","zip":"37702"},{"name":"OSMANOĞLU MAH.","zip":"37702"},{"name":"ÖRCÜNLER MAH.","zip":"37702"},{"name":"ÖRENBAŞI KÖYÜ","zip":"37702"},{"name":"ÖRENCİK MAH.","zip":"37702"},{"name":"PINARÖZÜ KÖYÜ","zip":"37702"},{"name":"SAFDAĞ MAH.","zip":"37702"},{"name":"SAKALLAR MAH.","zip":"37702"},{"name":"SARAY MAH.","zip":"37702"},{"name":"SARAYDURAK KÖYÜ","zip":"37702"},{"name":"SARI MAH.","zip":"37702"},{"name":"SARITAŞ MAH.","zip":"37702"},{"name":"SARIYONCA KÖYÜ","zip":"37702"},{"name":"SARPUNALINCA KÖYÜ","zip":"37702"},{"name":"SEFER MAH.","zip":"37702"},{"name":"SELHATTİN KÖYÜ","zip":"37702"},{"name":"SIPACI MAH.","zip":"37702"},{"name":"SİNANTEKKE KÖYÜ","zip":"37702"},{"name":"SOFU MAH.","zip":"37702"},{"name":"SOFUOĞLU MAH.","zip":"37702"},{"name":"SOĞUK MAH.","zip":"37702"},{"name":"SOLAKLAR MAH.","zip":"37702"},{"name":"SÖKMEN MAH.","zip":"37702"},{"name":"SÜRÜCÜ AHMET MAH.","zip":"37702"},{"name":"ŞABANBEYOĞLU MAH.","zip":"37702"},{"name":"ŞEKERCİ MAH.","zip":"37702"},{"name":"ŞENLİK KÖYÜ","zip":"37702"},{"name":"ŞENLİK MERKEZ MAH.","zip":"37702"},{"name":"ŞENLİK PAZARYERİ MAH.","zip":"37702"},{"name":"ŞEYHBALİ KÖYÜ","zip":"37702"},{"name":"TEKKEKIZILLAR KÖYÜ","zip":"37702"},{"name":"TEPE MAH.","zip":"37702"},{"name":"TERZİ MAH.","zip":"37702"},{"name":"TIRKIŞ MAH.","zip":"37702"},{"name":"TOMALAR MAH.","zip":"37702"},{"name":"TOPALLAR MAH.","zip":"37702"},{"name":"TOPCU MAH.","zip":"37702"},{"name":"TOPLAR MAH.","zip":"37702"},{"name":"TUĞMAN MAH.","zip":"37702"},{"name":"TUZCULAR MAH.","zip":"37702"},{"name":"TÜYSÜZ MAH.","zip":"37702"},{"name":"ULAMIŞ KÖYÜ","zip":"37702"},{"name":"VEFA MAH.","zip":"37702"},{"name":"YAĞBEY MAH.","zip":"37702"},{"name":"YALIKOĞLU MAH.","zip":"37702"},{"name":"YANIK MAH.","zip":"37702"},{"name":"YAYLA MAH.","zip":"37702"},{"name":"YAZIBELEN KÖYÜ","zip":"37702"},{"name":"YAZICI MAH.","zip":"37702"},{"name":"YAZIHİSAR KÖYÜ","zip":"37702"},{"name":"YENİ MAH.","zip":"37702"},{"name":"YENİKOMŞU MAH.","zip":"37702"},{"name":"YOLASIĞMAZ MAH.","zip":"37702"},{"name":"YUKARI HASANEFENDİ MAH.","zip":"37702"},{"name":"YUKARI KARAVEN MAH.","zip":"37702"},{"name":"YUKARI KINIK MAH.","zip":"37702"},{"name":"YUKARI KUZ MAH.","zip":"37702"},{"name":"YUKARI KÜPLER MAH.","zip":"37702"},{"name":"YUKARI MAH.","zip":"37702"}]},{"name":"DOĞANYURT","cityName":null,"quarters":[{"name":"MERKEZ MAH.","zip":"37550"}]},{"name":"MERKEZKÖYLER","cityName":null,"quarters":[{"name":"AKPINAR MAH.","zip":"37552"},{"name":"ALİBEY MAH.","zip":"37552"},{"name":"ARMUTLU MAH.","zip":"37552"},{"name":"AŞAĞI MAH.","zip":"37552"},{"name":"AŞAĞIMESCİT KÖYÜ","zip":"37552"},{"name":"AŞAĞITORAZYA MAH.","zip":"37552"},{"name":"BALDIRAN KÖYÜ","zip":"37552"},{"name":"BALLIK MAH.","zip":"37552"},{"name":"BAŞKÖY KÖYÜ","zip":"37552"},{"name":"BELYAKA KÖYÜ","zip":"37552"},{"name":"BOĞAZCIK KÖYÜ","zip":"37552"},{"name":"ÇAKIRLI KÖYÜ","zip":"37552"},{"name":"ÇATALANIZ MAH.","zip":"37552"},{"name":"ÇELDİRMEZ MAH.","zip":"37552"},{"name":"ÇİFTLİK MAH.","zip":"37552"},{"name":"ÇÖKME MAH.","zip":"37552"},{"name":"ÇUKUR MAH.","zip":"37552"},{"name":"DANIŞMAN KÖYÜ","zip":"37552"},{"name":"DEMİRCİ KÖYÜ","zip":"37552"},{"name":"DENİZBÜKÜ KÖYÜ","zip":"37552"},{"name":"DENİZGÖRÜLEN KÖYÜ","zip":"37552"},{"name":"DERE MAH.","zip":"37552"},{"name":"DERİNDERE MAH.","zip":"37552"},{"name":"DÜZ KÖYÜ","zip":"37552"},{"name":"DÜZAĞAÇ KÖYÜ","zip":"37552"},{"name":"EKECEK MAH.","zip":"37552"},{"name":"ERENCİK MAH.","zip":"37552"},{"name":"ERKÖZ MAH.","zip":"37552"},{"name":"EŞEKCİ KÖYÜ MAH.","zip":"37552"},{"name":"EVŞEN MAH.","zip":"37552"},{"name":"GÖKÇE KÖYÜ","zip":"37552"},{"name":"GÖLGELİK MAH.","zip":"37552"},{"name":"GÖZALAN KÖYÜ","zip":"37552"},{"name":"GÜRMÜDÜ KÖYÜ","zip":"37552"},{"name":"GÜZLE MAH.","zip":"37552"},{"name":"HASKAVAK KÖYÜ","zip":"37552"},{"name":"HATİP MAH.","zip":"37552"},{"name":"ILDIZ(AŞAĞI ILDAY) MAH.","zip":"37552"},{"name":"ISINDI MAH.","zip":"37552"},{"name":"IŞVANLI(KISIKLI) MAH.","zip":"37552"},{"name":"KARAÇAM MAH.","zip":"37552"},{"name":"KARAMAN MAH.","zip":"37552"},{"name":"KARAMANAĞZI MAH.","zip":"37552"},{"name":"KARAŞLI MAH.","zip":"37552"},{"name":"KARŞI MAH.","zip":"37552"},{"name":"KAŞALTI MAH.","zip":"37552"},{"name":"KAYABAŞI MAH.","zip":"37552"},{"name":"KAYRAN KÖYÜ","zip":"37552"},{"name":"KAZIKLI MAH.","zip":"37552"},{"name":"KESECİK 1 MAH.","zip":"37552"},{"name":"KESECİK 2 MAH.","zip":"37552"},{"name":"KIŞLA MAH.","zip":"37552"},{"name":"KIŞLAK MAH.","zip":"37552"},{"name":"KOÇÇUKURU MAH.","zip":"37552"},{"name":"KÖFÜNANBARI KÖYÜ","zip":"37552"},{"name":"KÖY YERİ MAH.","zip":"37552"},{"name":"KÖYALTI BAŞI MAH.","zip":"37552"},{"name":"KURT MAH.","zip":"37552"},{"name":"KUYUMCA MAH.","zip":"37552"},{"name":"KUZ MAH.","zip":"37552"},{"name":"KÜÇÜKTEPE KÖYÜ","zip":"37552"},{"name":"MERKEZ MAH.","zip":"37552"},{"name":"MURE MAH.","zip":"37552"},{"name":"ORTABURUN KÖYÜ","zip":"37552"},{"name":"PANCARLIK MAH.","zip":"37552"},{"name":"SARIÇİÇEK MAH.","zip":"37552"},{"name":"SIK MAH.","zip":"37552"},{"name":"SOĞANLIK MAH.","zip":"37552"},{"name":"ŞİRİN KÖYÜ","zip":"37552"},{"name":"TAŞLIPINAR KÖYÜ","zip":"37552"},{"name":"UĞAZ DİBİ MAH.","zip":"37552"},{"name":"URVANA MAH.","zip":"37552"},{"name":"UVAZLI MAH.","zip":"37552"},{"name":"UYUMLU MAH.","zip":"37552"},{"name":"YANIKDAĞ MAH.","zip":"37552"},{"name":"YASSIKIŞLA KÖYÜ","zip":"37552"},{"name":"YAYLA YERİ MAH.","zip":"37552"},{"name":"YAYLA(ILDAY) MAH.","zip":"37552"},{"name":"YUKARI ALİBEY MAH.","zip":"37552"},{"name":"YUKARI MAH.","zip":"37552"},{"name":"YUKARI ORTABURUN MAH.","zip":"37552"},{"name":"YUKARIMESCİT KÖYÜ","zip":"37552"},{"name":"YUKARITORAZYA MAH.","zip":"37552"},{"name":"YÜKSEK MAH.","zip":"37552"},{"name":"ZEYTİNÇUKURU MAH.","zip":"37552"}]},{"name":"GÖKÇEAĞAÇ","cityName":null,"quarters":[{"name":"HANÖNÜ MAH.","zip":"37450"},{"name":"VAKIF GEYMENE MAH.","zip":"37450"}]},{"name":"MERKEZKÖYLER","cityName":null,"quarters":[{"name":"ABDİOĞLU MAH.","zip":"37452"},{"name":"ACISU MAH.","zip":"37452"},{"name":"AĞACIKLI MAH.","zip":"37452"},{"name":"AKCASU MERKEZ MAH.","zip":"37452"},{"name":"AKÇASU KÖYÜ","zip":"37452"},{"name":"AKDÜZEN MAH.","zip":"37452"},{"name":"AKELMA MAH.","zip":"37452"},{"name":"ALAGEÇE MAH.","zip":"37452"},{"name":"ALAKAYA MAH.","zip":"37452"},{"name":"ALIÇ MAH.","zip":"37452"},{"name":"ARPACIKAĞZI MAH.","zip":"37452"},{"name":"AŞAĞI AKCASU MAH.","zip":"37452"},{"name":"AŞAĞI ÇUKURSÖKÜ MAH.","zip":"37452"},{"name":"AŞAĞI KÜREÇAYI MAH.","zip":"37452"},{"name":"AŞAĞI SÖKÜ MAH.","zip":"37452"},{"name":"AYDERESİ MAH.","zip":"37452"},{"name":"AYŞEOĞLU MAH.","zip":"37452"},{"name":"AYVA ÇUKURU MAH.","zip":"37452"},{"name":"AYVACA MAH.","zip":"37452"},{"name":"BAĞDERE KÖYÜ","zip":"37452"},{"name":"BALOĞLU MAH.","zip":"37452"},{"name":"BAYAMCA MAH.","zip":"37452"},{"name":"BEKİRLİ MAH.","zip":"37452"},{"name":"BEŞİR MAH.","zip":"37452"},{"name":"BİLAL MAH.","zip":"37452"},{"name":"BOSTANCI MAH.","zip":"37452"},{"name":"BÖLÜKYAZI KÖYÜ","zip":"37452"},{"name":"BÜRNÜK MAH.","zip":"37452"},{"name":"COZOĞLU MAH.","zip":"37452"},{"name":"ÇAKIRÇAY KÖYÜ","zip":"37452"},{"name":"ÇAKIRÇAY MAH.","zip":"37452"},{"name":"ÇAKIROĞLU MAH.","zip":"37452"},{"name":"ÇALÇI MAH.","zip":"37452"},{"name":"ÇALTICAK MAH.","zip":"37452"},{"name":"ÇATALOLUK MAH.","zip":"37452"},{"name":"ÇAY MAH.","zip":"37452"},{"name":"ÇAYAĞAZI MAH.","zip":"37452"},{"name":"ÇAYBAŞI KÖYÜ","zip":"37452"},{"name":"ÇAYIRCIK MAH.","zip":"37452"},{"name":"ÇAYLI MAH.","zip":"37452"},{"name":"ÇONSUZLAR MAH.","zip":"37452"},{"name":"ÇOTUK MAH.","zip":"37452"},{"name":"DAMLACA MAH.","zip":"37452"},{"name":"DANACIOĞLU MAH.","zip":"37452"},{"name":"DANGALAK MAH.","zip":"37452"},{"name":"DEMİRCİ MAH.","zip":"37452"},{"name":"DEMİRCİMÜEZZİN KÖYÜ","zip":"37452"},{"name":"DERE MAH.","zip":"37452"},{"name":"DİKMEN MAH.","zip":"37452"},{"name":"DONGUÇ MAH.","zip":"37452"},{"name":"DÜVENCİ MAH.","zip":"37452"},{"name":"ELMACIK MAH.","zip":"37452"},{"name":"ESE MAH.","zip":"37452"},{"name":"FARKUŞA MAH.","zip":"37452"},{"name":"GAVURBAŞI MAH.","zip":"37452"},{"name":"GERENCE MAH.","zip":"37452"},{"name":"GÖKBELEN KÖYÜ","zip":"37452"},{"name":"GÖKÇEAĞAÇ KÖYÜ","zip":"37452"},{"name":"GÖZSÖKÜ MAH.","zip":"37452"},{"name":"GÖZÜKARA MAH.","zip":"37452"},{"name":"HACIALİOĞLU MAH.","zip":"37452"},{"name":"HALKABÜK KÖYÜ","zip":"37452"},{"name":"HASAN MAH.","zip":"37452"},{"name":"HATİPOĞLU MAH.","zip":"37452"},{"name":"HAYATÖNÜ MAH.","zip":"37452"},{"name":"HIDIRLI MAH.","zip":"37452"},{"name":"HOCAOĞLU MAH.","zip":"37452"},{"name":"HOCAVAKIF KÖYÜ","zip":"37452"},{"name":"İFRİTOĞLU MAH.","zip":"37452"},{"name":"İMAMOĞLU MAH.","zip":"37452"},{"name":"İPEK MAH.","zip":"37452"},{"name":"KAÇAK MAH.","zip":"37452"},{"name":"KADI MAH.","zip":"37452"},{"name":"KAPAN MAH.","zip":"37452"},{"name":"KARAALİ MAH.","zip":"37452"},{"name":"KARABÜK MAH.","zip":"37452"},{"name":"KARAKOÇ MAH.","zip":"37452"},{"name":"KARAKOÇ YAYLASI MAH.","zip":"37452"},{"name":"KARAOLUK MAH.","zip":"37452"},{"name":"KAŞHARMAN MAH.","zip":"37452"},{"name":"KAVAK KÖYÜ","zip":"37452"},{"name":"KAVAK MAH.","zip":"37452"},{"name":"KAVAKALTI MAH.","zip":"37452"},{"name":"KAYABAŞI KÖYÜ","zip":"37452"},{"name":"KAYADİBİ MAH.","zip":"37452"},{"name":"KIZILCAÖREN MAH.","zip":"37452"},{"name":"KİRT MAH.","zip":"37452"},{"name":"KONACIK MAH.","zip":"37452"},{"name":"KORKMAZ MAH.","zip":"37452"},{"name":"KORUCAK MAH.","zip":"37452"},{"name":"KUZSÖKÜ MADANLAR MAH.","zip":"37452"},{"name":"KUZSÖKÜ MAH.","zip":"37452"},{"name":"KÜPELİ MAH.","zip":"37452"},{"name":"KÜREÇAYI KÖYÜ","zip":"37452"},{"name":"MAHMUTOĞLU MAH.","zip":"37452"},{"name":"MELLEŞLER MAH.","zip":"37452"},{"name":"MERCİMECÜK MAH.","zip":"37452"},{"name":"MERKEZ MAH.","zip":"37452"},{"name":"MÜEZZİN MAH.","zip":"37452"},{"name":"ÖKÜZALTI MAH.","zip":"37452"},{"name":"SAFRAN MAH.","zip":"37452"},{"name":"SARIALAN KÖYÜ","zip":"37452"},{"name":"SARICALI MAH.","zip":"37452"},{"name":"SARISÖKÜ MAH.","zip":"37452"},{"name":"SARNIÇ MAH.","zip":"37452"},{"name":"SEKECEK MAH.","zip":"37452"},{"name":"SEPETÇİ MAH.","zip":"37452"},{"name":"SERDAROĞLU MAH.","zip":"37452"},{"name":"SİNNÖZÜ MAH.","zip":"37452"},{"name":"SİPAHİ MAH.","zip":"37452"},{"name":"SİRKE KÖYÜ","zip":"37452"},{"name":"SOYUK MAH.","zip":"37452"},{"name":"SÖKÜ MAH.","zip":"37452"},{"name":"SUSUZ MAH.","zip":"37452"},{"name":"TAVUKÇU MAH.","zip":"37452"},{"name":"TEPE MAH.","zip":"37452"},{"name":"TEPECİK MAH.","zip":"37452"},{"name":"TEPEKÖY MAH.","zip":"37452"},{"name":"TOP MAH.","zip":"37452"},{"name":"TÜRKMEN MAH.","zip":"37452"},{"name":"UNCUOĞLU MAH.","zip":"37452"},{"name":"ÜÇKAYA MAH.","zip":"37452"},{"name":"ÜYÜCEK MAH.","zip":"37452"},{"name":"YALAK DERESİ MAH.","zip":"37452"},{"name":"YAMALI MAH.","zip":"37452"},{"name":"YARKAYA MAH.","zip":"37452"},{"name":"YAYLA EVLERİ MAH.","zip":"37452"},{"name":"YAZLIK MAH.","zip":"37452"},{"name":"YENİBOYUNDURCAK KÖYÜ","zip":"37452"},{"name":"YENİCE KÖYÜ","zip":"37452"},{"name":"YENİKÖY KÖYÜ","zip":"37452"},{"name":"YILANLI KÖYÜ","zip":"37452"},{"name":"YOZLU MAH.","zip":"37452"},{"name":"YUKARI ÇUKURSÖKÜ MAH.","zip":"37452"},{"name":"YUKARI KÜREÇAYI MAH.","zip":"37452"},{"name":"YUKARI SÖKÜ MAH.","zip":"37452"},{"name":"YUKARIÇAKIRÇAY KÖYÜ","zip":"37452"},{"name":"YUMACIK MAH.","zip":"37452"},{"name":"YÜRÜKÖREN MAH.","zip":"37452"},{"name":"ZEYBEKOĞLU MAH.","zip":"37452"}]},{"name":"İHSANGAZİ","cityName":null,"quarters":[{"name":"ÇAY MAH.","zip":"37250"},{"name":"ELÇELEBİ MAH.","zip":"37250"},{"name":"İSALAR MAH.","zip":"37250"},{"name":"KALFAT MAH.","zip":"37250"},{"name":"KUŞÇULAR MAH.","zip":"37250"},{"name":"SEVİNDİK MAH.","zip":"37250"},{"name":"SİPAHİLER MAH.","zip":"37250"},{"name":"YENİ MAH.","zip":"37250"},{"name":"YEŞİL MAH.","zip":"37250"}]},{"name":"MERKEZKÖYLER","cityName":null,"quarters":[{"name":"AKKAYA KÖYÜ","zip":"37252"},{"name":"AKKAYA MAH.","zip":"37252"},{"name":"AKKİRPİ KÖYÜ","zip":"37252"},{"name":"ALACA MAH.","zip":"37252"},{"name":"ALÇIOĞLU MAH.","zip":"37252"},{"name":"ALINCA MAH.","zip":"37252"},{"name":"ALUÇ YAYLA MAH.","zip":"37252"},{"name":"ANBARCI MAH.","zip":"37252"},{"name":"AŞAĞI İMİRLER MAH.","zip":"37252"},{"name":"AŞAĞI KAVAK MAH.","zip":"37252"},{"name":"AŞAĞI MAH.","zip":"37252"},{"name":"AŞAĞI SIVAR MAH.","zip":"37252"},{"name":"AŞAĞI SÖKÜ MAH.","zip":"37252"},{"name":"AŞAĞI SÜNLÜK MAH.","zip":"37252"},{"name":"BEDİRGERİŞ KÖYÜ","zip":"37252"},{"name":"BEDO MAH.","zip":"37252"},{"name":"BELENÇAL KÖYÜ","zip":"37252"},{"name":"BELENÇAL MAH.","zip":"37252"},{"name":"BOZARMUT KÖYÜ","zip":"37252"},{"name":"BUĞDÜZ MAH.","zip":"37252"},{"name":"BÜYÜK KÖY MAH.","zip":"37252"},{"name":"CAMİÖNÜ MAH.","zip":"37252"},{"name":"ÇAKILLAR MAH.","zip":"37252"},{"name":"ÇATAK YAYLA MAH.","zip":"37252"},{"name":"ÇATALYAZI KÖYÜ","zip":"37252"},{"name":"ÇATO MAH.","zip":"37252"},{"name":"ÇAVUŞ MAH.","zip":"37252"},{"name":"ÇİÇEKPINAR KÖYÜ","zip":"37252"},{"name":"ÇÖMEN MAH.","zip":"37252"},{"name":"DAĞYOLU KÖYÜ","zip":"37252"},{"name":"DEĞİRMENBAŞI MAH.","zip":"37252"},{"name":"DERE MAH.","zip":"37252"},{"name":"DORUK YAYLA MAH.","zip":"37252"},{"name":"ECELER MAH.","zip":"37252"},{"name":"EMİNEFENDİ MAH.","zip":"37252"},{"name":"ENBİYA KÖYÜ","zip":"37252"},{"name":"FATMAOĞLU MAH.","zip":"37252"},{"name":"GAMİT MAH.","zip":"37252"},{"name":"GENİŞÇE ORTA MAH.","zip":"37252"},{"name":"GÖKÇE MAH.","zip":"37252"},{"name":"GÖPCO MAH.","zip":"37252"},{"name":"GÖRPE KÖYÜ","zip":"37252"},{"name":"GÜNEY MAH.","zip":"37252"},{"name":"HALİL MAH.","zip":"37252"},{"name":"HANÖNÜ MAH.","zip":"37252"},{"name":"HASANPAŞA MAH.","zip":"37252"},{"name":"HATİP MAH.","zip":"37252"},{"name":"HAYDARLAR KÖYÜ","zip":"37252"},{"name":"HİMMET MAH.","zip":"37252"},{"name":"HOCA MAH.","zip":"37252"},{"name":"HOCAHACİP KÖYÜ","zip":"37252"},{"name":"HÜSEMOĞLU MAH.","zip":"37252"},{"name":"İMAM MAH.","zip":"37252"},{"name":"İMAMOĞLU MAH.","zip":"37252"},{"name":"İMİRLER MAH.","zip":"37252"},{"name":"İNCİĞEZ KÖYÜ","zip":"37252"},{"name":"KADILAR MAH.","zip":"37252"},{"name":"KANLICA MAH.","zip":"37252"},{"name":"KANLIGÖL MAH.","zip":"37252"},{"name":"KAPAKLI KÖYÜ","zip":"37252"},{"name":"KARABALTA MAH.","zip":"37252"},{"name":"KARABİBER MAH.","zip":"37252"},{"name":"KARAÇALI MAH.","zip":"37252"},{"name":"KARAYAPRAK MAH.","zip":"37252"},{"name":"KAYA MAH.","zip":"37252"},{"name":"KAYALI MAH.","zip":"37252"},{"name":"KAYAPINAR KÖYÜ","zip":"37252"},{"name":"KEPENEK MAH.","zip":"37252"},{"name":"KIRIKOĞLU MAH.","zip":"37252"},{"name":"KIŞLA MAH.","zip":"37252"},{"name":"KIZILELLER KÖYÜ","zip":"37252"},{"name":"KOÇCUĞAZ KÖYÜ","zip":"37252"},{"name":"KÖSELER MAH.","zip":"37252"},{"name":"KÖSEOĞLU MAH.","zip":"37252"},{"name":"KUŞLAR MAH.","zip":"37252"},{"name":"KUTUCU MAH.","zip":"37252"},{"name":"KUZGEÇE MAH.","zip":"37252"},{"name":"MANGAZ MAH.","zip":"37252"},{"name":"MERKEZ MAH.","zip":"37252"},{"name":"MUAZZİN MAH.","zip":"37252"},{"name":"MUTAF MAH.","zip":"37252"},{"name":"OBRUK KÖYÜ","zip":"37252"},{"name":"OBRUK MAH.","zip":"37252"},{"name":"OKLUCA MAH.","zip":"37252"},{"name":"OLÇAK MAH.","zip":"37252"},{"name":"ORTACA MAH.","zip":"37252"},{"name":"ORTALIK MAH.","zip":"37252"},{"name":"ÖRENCİK KÖYÜ","zip":"37252"},{"name":"ÖTEGEÇE MAH.","zip":"37252"},{"name":"PARLALIK MAH.","zip":"37252"},{"name":"PELPO MAH.","zip":"37252"},{"name":"PİYAL MAH.","zip":"37252"},{"name":"SALAM MAH.","zip":"37252"},{"name":"SARIPINAR KÖYÜ","zip":"37252"},{"name":"SEKECEK KIŞLASI MAH.","zip":"37252"},{"name":"SEKECEK MAH.","zip":"37252"},{"name":"SEPETÇİOĞLU KÖYÜ","zip":"37252"},{"name":"SEYRANLI MAH.","zip":"37252"},{"name":"SIKLIK MAH.","zip":"37252"},{"name":"SİNDERLER MAH.","zip":"37252"},{"name":"SÜNLÜK KÖYÜ","zip":"37252"},{"name":"ŞAHİNLER MAH.","zip":"37252"},{"name":"ŞATIR MAH.","zip":"37252"},{"name":"ŞEYH MAH.","zip":"37252"},{"name":"TARAKÇI MAH.","zip":"37252"},{"name":"TEPE MAH.","zip":"37252"},{"name":"TERZİ MAH.","zip":"37252"},{"name":"TOKUROĞLU MAH.","zip":"37252"},{"name":"TOMURCUK MAH.","zip":"37252"},{"name":"UZUNOĞLU MAH.","zip":"37252"},{"name":"YARIŞLAR KÖYÜ","zip":"37252"},{"name":"YENİ MAH.","zip":"37252"},{"name":"YENİ YAYLA MAH.","zip":"37252"},{"name":"YUKARI BUCAK MAH.","zip":"37252"},{"name":"YUKARI KAVAK MAH.","zip":"37252"},{"name":"YUKARI MAH.","zip":"37252"},{"name":"YUKARI SÖKÜ MAH.","zip":"37252"},{"name":"YUKARI SÜNLÜK MAH.","zip":"37252"},{"name":"YUKARISİVAL MAH.","zip":"37252"},{"name":"YUSUFOĞLU MAH.","zip":"37252"},{"name":"ZEYBEK MAH.","zip":"37252"}]},{"name":"İNEBOLU","cityName":null,"quarters":[{"name":"AVARA MAH.","zip":"37500"},{"name":"BOYRAN MAH.","zip":"37500"},{"name":"CAMİKEBİR MAH.","zip":"37500"},{"name":"CÜNÜRYE MAH.","zip":"37500"},{"name":"KARACA MAH.","zip":"37500"},{"name":"KARADENİZ MAH.","zip":"37500"},{"name":"KIZILKARA MAH.","zip":"37500"},{"name":"YENİ MAH.","zip":"37500"},{"name":"YUKARIHATİPBAĞI MAH.","zip":"37500"}]},{"name":"MERKEZKÖYLER","cityName":null,"quarters":[{"name":"AHA MAH.","zip":"37502"},{"name":"AKÇAY KÖYÜ","zip":"37502"},{"name":"AKGÜNEY KÖYÜ","zip":"37502"},{"name":"AKKONAK KÖYÜ","zip":"37502"},{"name":"AKPINAR MAH.","zip":"37502"},{"name":"AKTAŞ KÖYÜ","zip":"37502"},{"name":"ALACA KÖYÜ","zip":"37502"},{"name":"ALİ MAH.","zip":"37502"},{"name":"AMBARCIK MAH.","zip":"37502"},{"name":"APTİ MAH.","zip":"37502"},{"name":"ARALDI MAH.","zip":"37502"},{"name":"ARKUTÇA MAH.","zip":"37502"},{"name":"ARMUTÇA MAH.","zip":"37502"},{"name":"AŞAĞI GÜDE MAH.","zip":"37502"},{"name":"AŞAĞI MAH.","zip":"37502"},{"name":"AŞAĞIÇAYLI KÖYÜ","zip":"37502"},{"name":"ATABEYLİ KÖYÜ","zip":"37502"},{"name":"ATATÜRK MAH.","zip":"37502"},{"name":"AYAN MAH.","zip":"37502"},{"name":"AYVAKÖY KÖYÜ","zip":"37502"},{"name":"AYVAT KÖYÜ","zip":"37502"},{"name":"BAKACAK MAH.","zip":"37502"},{"name":"BAŞKÖY KÖYÜ","zip":"37502"},{"name":"BAYIRALAN KÖYÜ","zip":"37502"},{"name":"BEKİROĞLU MAH.","zip":"37502"},{"name":"BELEN KÖYÜ","zip":"37502"},{"name":"BELENCE KÖYÜ","zip":"37502"},{"name":"BELÖREN KÖYÜ","zip":"37502"},{"name":"BEYLER KÖYÜ","zip":"37502"},{"name":"BIÇAKÇILAR MAH.","zip":"37502"},{"name":"BÖCÖKÖYÜ MAH.","zip":"37502"},{"name":"BÖREKÇİ MAH.","zip":"37502"},{"name":"BUDAK MAH.","zip":"37502"},{"name":"BÜYÜK MAH.","zip":"37502"},{"name":"CELİ MAH.","zip":"37502"},{"name":"CEVİZLERYANI MAH.","zip":"37502"},{"name":"CİLOĞLU MAH.","zip":"37502"},{"name":"ÇAKAL MAH.","zip":"37502"},{"name":"ÇAKICI MAH.","zip":"37502"},{"name":"ÇAMDALI KÖYÜ","zip":"37502"},{"name":"ÇAMLICA KÖYÜ","zip":"37502"},{"name":"ÇANAKÇI MAH.","zip":"37502"},{"name":"ÇANDIR MAH.","zip":"37502"},{"name":"ÇAVUŞOĞLU MAH.","zip":"37502"},{"name":"ÇAYDÜZÜ KÖYÜ","zip":"37502"},{"name":"ÇAYIR MAH.","zip":"37502"},{"name":"ÇAYKIYI KÖYÜ","zip":"37502"},{"name":"ÇİÇEKYAZI KÖYÜ","zip":"37502"},{"name":"ÇİLOĞLU MAH.","zip":"37502"},{"name":"ÇORAK MAH.","zip":"37502"},{"name":"ÇORBACI MAH.","zip":"37502"},{"name":"ÇUBUK KÖYÜ","zip":"37502"},{"name":"DAĞ MAH.","zip":"37502"},{"name":"DANAOĞLU MAH.","zip":"37502"},{"name":"DANYA MAH.","zip":"37502"},{"name":"DAYI MAH.","zip":"37502"},{"name":"DELİKTAŞ KÖYÜ","zip":"37502"},{"name":"DEMİR MAH.","zip":"37502"},{"name":"DEMİRCİ MAH.","zip":"37502"},{"name":"DERE MAH.","zip":"37502"},{"name":"DERESÖKÜ KÖYÜ","zip":"37502"},{"name":"DİBEK KÖYÜ","zip":"37502"},{"name":"DİKİLİ KÖYÜ","zip":"37502"},{"name":"DOĞANÖREN KÖYÜ","zip":"37502"},{"name":"DURUPINAR KÖYÜ","zip":"37502"},{"name":"EFENDİOĞLU MAH.","zip":"37502"},{"name":"EĞRİOĞLU MAH.","zip":"37502"},{"name":"ELİK MAH.","zip":"37502"},{"name":"ERCEKOZ MAH.","zip":"37502"},{"name":"ERENYOLU KÖYÜ","zip":"37502"},{"name":"ERİKPINARI MAH.","zip":"37502"},{"name":"ERKEKARPA KÖYÜ","zip":"37502"},{"name":"ERKEKARPA MÜCAVİR MAH.","zip":"37502"},{"name":"ESENYURT KÖYÜ","zip":"37502"},{"name":"EVRENYE KÖYÜ","zip":"37502"},{"name":"EYRİK MAH.","zip":"37502"},{"name":"FADARA MAH.","zip":"37502"},{"name":"FATIRIZ MAH.","zip":"37502"},{"name":"FİDİMSE MAH.","zip":"37502"},{"name":"GERİŞ MAH.","zip":"37502"},{"name":"GİBORU MAH.","zip":"37502"},{"name":"GÖÇENOĞLU MAH.","zip":"37502"},{"name":"GÖÇKÜN KÖYÜ","zip":"37502"},{"name":"GÖKBEL KÖYÜ","zip":"37502"},{"name":"GÖKÇEVRE KÖYÜ","zip":"37502"},{"name":"GÖL MAH.","zip":"37502"},{"name":"GÖLLER MAH.","zip":"37502"},{"name":"GÜDE KÖYÜ","zip":"37502"},{"name":"GÜNEŞLİ KÖYÜ","zip":"37502"},{"name":"GÜRGENLİK MAH.","zip":"37502"},{"name":"GÜZEL YALI MAH.","zip":"37502"},{"name":"HACI MAH.","zip":"37502"},{"name":"HACIEFENDİOĞLU MAH.","zip":"37502"},{"name":"HACIİBRAHİM KÖYÜ","zip":"37502"},{"name":"HACIMEHMET KÖYÜ","zip":"37502"},{"name":"HAMDİOĞLU MAH.","zip":"37502"},{"name":"HAMİTKÖY KÖYÜ","zip":"37502"},{"name":"HANCI MAH.","zip":"37502"},{"name":"HAYRİOĞLU KÖYÜ","zip":"37502"},{"name":"HIZARYANI MAH.","zip":"37502"},{"name":"HÜRMETLİ KÖYÜ","zip":"37502"},{"name":"İKİYAKA KÖYÜ","zip":"37502"},{"name":"İKİZLER KÖYÜ","zip":"37502"},{"name":"İMAM MAH.","zip":"37502"},{"name":"İSKELE MAH.","zip":"37502"},{"name":"İSKELLE MÜCAVİR MAH.","zip":"37502"},{"name":"İSKİR MAH.","zip":"37502"},{"name":"KABALAR KÖYÜ","zip":"37502"},{"name":"KABALARSÖKÜ KÖYÜ","zip":"37502"},{"name":"KABAMDOĞLU MAH.","zip":"37502"},{"name":"KABAOĞLU MAH.","zip":"37502"},{"name":"KADIOĞLUM MAH.","zip":"37502"},{"name":"KADIRGA MAH.","zip":"37502"},{"name":"KAFA MAH.","zip":"37502"},{"name":"KAHYAOĞLU MAH.","zip":"37502"},{"name":"KARABAŞ MAH.","zip":"37502"},{"name":"KARABEY KÖYÜ","zip":"37502"},{"name":"KARACAKAYA MAH.","zip":"37502"},{"name":"KARAFAL MAH.","zip":"37502"},{"name":"KARŞI MAH.","zip":"37502"},{"name":"KARŞIYAKA KÖYÜ","zip":"37502"},{"name":"KAYAALTI MAH.","zip":"37502"},{"name":"KAYAELMASI KÖYÜ","zip":"37502"},{"name":"KAYARDI MAH.","zip":"37502"},{"name":"KAYIKÇIOĞLU MAH.","zip":"37502"},{"name":"KELEŞ MAH.","zip":"37502"},{"name":"KELEŞOĞLU MAH.","zip":"37502"},{"name":"KELOĞLU KÖYÜ","zip":"37502"},{"name":"KİREÇÇİK MAH.","zip":"37502"},{"name":"KOCAOĞLU MAH.","zip":"37502"},{"name":"KOLCA MAH.","zip":"37502"},{"name":"KONAKYANI MAH.","zip":"37502"},{"name":"KORUPINAR KÖYÜ","zip":"37502"},{"name":"KOSEOĞLU MAH.","zip":"37502"},{"name":"KÖK MAH.","zip":"37502"},{"name":"KÖLE MAH.","zip":"37502"},{"name":"KÖPRÜLÜ MAH.","zip":"37502"},{"name":"KÖROĞLU KÖYÜ","zip":"37502"},{"name":"KÖSEKÖY KÖYÜ","zip":"37502"},{"name":"KÖYÜSTÜ MAH.","zip":"37502"},{"name":"KURT MAH.","zip":"37502"},{"name":"KURTOĞLU MAH.","zip":"37502"},{"name":"KUŞ MAH.","zip":"37502"},{"name":"KUŞBURNU MAH.","zip":"37502"},{"name":"KUZLUK KÖYÜ","zip":"37502"},{"name":"KÜÇÜK MAH.","zip":"37502"},{"name":"KÜLLÜ MAH.","zip":"37502"},{"name":"KÜPOĞLU MAH.","zip":"37502"},{"name":"MANASTIR MAH.","zip":"37502"},{"name":"MERKEL MAH.","zip":"37502"},{"name":"MERKEZ MAH.","zip":"37502"},{"name":"MEYDAN MAH.","zip":"37502"},{"name":"MİKAİL MAH.","zip":"37502"},{"name":"MOLLA ÖMER MAH.","zip":"37502"},{"name":"MUMRA MAH.","zip":"37502"},{"name":"MUSAKÖY KÖYÜ","zip":"37502"},{"name":"MUSAKÖY MÜCAVİR MAH.","zip":"37502"},{"name":"MUSRAT MAH.","zip":"37502"},{"name":"MÜEZZİN MAH.","zip":"37502"},{"name":"NAMAZGAH MAH.","zip":"37502"},{"name":"ORTA MAH.","zip":"37502"},{"name":"ORTACA MAH.","zip":"37502"},{"name":"ORTAKÖYÜ MAH.","zip":"37502"},{"name":"OSMANOĞLU MAH.","zip":"37502"},{"name":"ÖRTÜLÜ KÖYÜ","zip":"37502"},{"name":"ÖZBAŞI KÖYÜ","zip":"37502"},{"name":"ÖZLÜCE KÖYÜ","zip":"37502"},{"name":"ÖZLÜCE MAH.","zip":"37502"},{"name":"PAZEN MAH.","zip":"37502"},{"name":"SAĞLIK OCAĞI MAH.","zip":"37502"},{"name":"SAKALAR KÖYÜ","zip":"37502"},{"name":"SAKALAR MAH.","zip":"37502"},{"name":"SALICIOĞLU KÖYÜ","zip":"37502"},{"name":"SAN MAH.","zip":"37502"},{"name":"SARIAHMET MAH.","zip":"37502"},{"name":"SELAM MAH.","zip":"37502"},{"name":"SELİM MAH.","zip":"37502"},{"name":"SERENLİ MAH.","zip":"37502"},{"name":"SIRÇALIK MAH.","zip":"37502"},{"name":"SOFTA MAH.","zip":"37502"},{"name":"SOĞUKPINAR KÖYÜ","zip":"37502"},{"name":"SÖĞÜTLÜ ÇEŞME MAH.","zip":"37502"},{"name":"SÖKÜ KÖYÜ","zip":"37502"},{"name":"SÖKÜCEK MAH.","zip":"37502"},{"name":"SÖMÖZ MAH.","zip":"37502"},{"name":"SÖNMEZ MAH.","zip":"37502"},{"name":"SÖRPTARLA MAH.","zip":"37502"},{"name":"SÜLOĞLU MAH.","zip":"37502"},{"name":"ŞAHNE MAH.","zip":"37502"},{"name":"ŞAMALI KÖYÜ","zip":"37502"},{"name":"ŞAMAOĞLU KÖYÜ","zip":"37502"},{"name":"ŞEHİT MEHMET ASLAN MAH.","zip":"37502"},{"name":"ŞEYHÖMER KÖYÜ","zip":"37502"},{"name":"ŞIH MAH.","zip":"37502"},{"name":"ŞİRVAN MAH.","zip":"37502"},{"name":"ŞİŞMAN MAH.","zip":"37502"},{"name":"TAŞBURUN KÖYÜ","zip":"37502"},{"name":"TAŞOLUK KÖYÜ","zip":"37502"},{"name":"TERELİK MAH.","zip":"37502"},{"name":"TERZİ MAH.","zip":"37502"},{"name":"TOKATLI MAH.","zip":"37502"},{"name":"TOKLUKAYA KÖYÜ","zip":"37502"},{"name":"TOKLUKAYA MAH.","zip":"37502"},{"name":"TOPAL MUSTAFAOĞLU MAH.","zip":"37502"},{"name":"TOZLUYURT MAH.","zip":"37502"},{"name":"UĞRAK KÖYÜ","zip":"37502"},{"name":"ULUKÖY KÖYÜ","zip":"37502"},{"name":"ULUYOL KÖYÜ","zip":"37502"},{"name":"UNCUK MAH.","zip":"37502"},{"name":"ÜÇEVLER KÖYÜ","zip":"37502"},{"name":"ÜÇEVLER MAH.","zip":"37502"},{"name":"ÜÇLÜCE KÖYÜ","zip":"37502"},{"name":"YAKABOYU KÖYÜ","zip":"37502"},{"name":"YAMAÇ KÖYÜ","zip":"37502"},{"name":"YANAR MAH.","zip":"37502"},{"name":"YAYLA MAH.","zip":"37502"},{"name":"YAZTEPE KÖYÜ","zip":"37502"},{"name":"YELE MAH.","zip":"37502"},{"name":"YENERİ MAH.","zip":"37502"},{"name":"YEŞİLÖZ KÖYÜ","zip":"37502"},{"name":"YEŞİLÖZ MÜCAVİR MAH.","zip":"37502"},{"name":"YOLÜSTÜ KÖYÜ","zip":"37502"},{"name":"YOLÜSTÜ MAH.","zip":"37502"},{"name":"YÖRECİK MAH.","zip":"37502"},{"name":"YUKARI GÜDE MAH.","zip":"37502"},{"name":"YUKARI MAH.","zip":"37502"},{"name":"YUKARIÇAYLI KÖYÜ","zip":"37502"},{"name":"YUKARIKÖY KÖYÜ","zip":"37502"},{"name":"YUNUSKÖY KÖYÜ","zip":"37502"},{"name":"YUNUSKÖY MAH.","zip":"37502"},{"name":"YUVACIK KÖYÜ","zip":"37502"},{"name":"ZAMBAK MAH.","zip":"37502"},{"name":"ZEHİ MAH.","zip":"37502"}]},{"name":"KÜRE","cityName":null,"quarters":[{"name":"CAMİKEBİR MAH.","zip":"37900"},{"name":"MÜDERİS MAH.","zip":"37900"},{"name":"SAMAN MAH.","zip":"37900"}]},{"name":"MERKEZKÖYLER","cityName":null,"quarters":[{"name":"ABDULLAH MAH.","zip":"37902"},{"name":"ABUDA MAH.","zip":"37902"},{"name":"ABUT MAH.","zip":"37902"},{"name":"AFŞARGÜNEY KÖYÜ","zip":"37902"},{"name":"AFŞARİMAM KÖYÜ","zip":"37902"},{"name":"AHLATCIK MAH.","zip":"37902"},{"name":"AHMETBEŞE KÖYÜ","zip":"37902"},{"name":"AKMANOĞLU MAH.","zip":"37902"},{"name":"AKPINAR MAH.","zip":"37902"},{"name":"ALACIK KÖYÜ","zip":"37902"},{"name":"ALACIK MAH.","zip":"37902"},{"name":"ALİ AĞA MAH.","zip":"37902"},{"name":"ALİ EFENDİ MAH.","zip":"37902"},{"name":"ALİAĞA MAH.","zip":"37902"},{"name":"AMBARLI MAH.","zip":"37902"},{"name":"ARABACILAR MAH.","zip":"37902"},{"name":"ARGI MAH.","zip":"37902"},{"name":"AŞAĞI ÇATAK MAH.","zip":"37902"},{"name":"AŞAĞI GÜNEY MAH.","zip":"37902"},{"name":"AŞAĞI KIŞLA MAH.","zip":"37902"},{"name":"AŞAĞI SARPUN MAH.","zip":"37902"},{"name":"AVCIPINARI KÖYÜ","zip":"37902"},{"name":"AYAZOĞLU MAH.","zip":"37902"},{"name":"BATTALLAR MAH.","zip":"37902"},{"name":"BAYDIOĞLU MAH.","zip":"37902"},{"name":"BEDİROĞLU MAH.","zip":"37902"},{"name":"BELÖREN KÖYÜ","zip":"37902"},{"name":"BEŞÖREN KÖYÜ","zip":"37902"},{"name":"BEYALAN KÖYÜ","zip":"37902"},{"name":"BİDECİ MAH.","zip":"37902"},{"name":"BOĞAZ MAH.","zip":"37902"},{"name":"BOYACI MAH.","zip":"37902"},{"name":"BÜRÜM KÖYÜ","zip":"37902"},{"name":"BÜRÜM YAYLA EVLERİ MAH.","zip":"37902"},{"name":"CAMİLİ KÖYÜ","zip":"37902"},{"name":"CANBAZ KÖYÜ","zip":"37902"},{"name":"CANBAZOĞLU MAH.","zip":"37902"},{"name":"CUMHURİYET MAH.","zip":"37902"},{"name":"CURALAR MAH.","zip":"37902"},{"name":"ÇAKAL MAH.","zip":"37902"},{"name":"ÇAKILLI MAH.","zip":"37902"},{"name":"ÇAL 1 MAH.","zip":"37902"},{"name":"ÇAL 2 MAH.","zip":"37902"},{"name":"ÇAT KÖYÜ","zip":"37902"},{"name":"ÇATAK KÖYÜ","zip":"37902"},{"name":"ÇAYAN MAH.","zip":"37902"},{"name":"ÇAYBÜKÜ KÖYÜ","zip":"37902"},{"name":"ÇELEBİ MAH.","zip":"37902"},{"name":"ÇIRAK MAH.","zip":"37902"},{"name":"ÇOLAK MAH.","zip":"37902"},{"name":"ÇUHA MAH.","zip":"37902"},{"name":"ÇUKUR MAH.","zip":"37902"},{"name":"DEPEYURT MAH.","zip":"37902"},{"name":"DEREKÖY MAH.","zip":"37902"},{"name":"DIRABAN MAH.","zip":"37902"},{"name":"DİBEK MAH.","zip":"37902"},{"name":"DİPRECCİ MAH.","zip":"37902"},{"name":"DORUK MAH.","zip":"37902"},{"name":"DURASANLAR MAH.","zip":"37902"},{"name":"ECEVİT MAH.","zip":"37902"},{"name":"EMİNOĞLU MAH.","zip":"37902"},{"name":"ERSİZLER KÖYÜ","zip":"37902"},{"name":"ERSİZLERDERE KÖYÜ","zip":"37902"},{"name":"ESENTEPE MAH.","zip":"37902"},{"name":"ESKİMEŞE MAH.","zip":"37902"},{"name":"GERİŞ MAH.","zip":"37902"},{"name":"GÜLLÜCE KÖYÜ","zip":"37902"},{"name":"GÜNEY KÖYÜ","zip":"37902"},{"name":"GÜRCÜ MAH.","zip":"37902"},{"name":"HABİBOĞLU MAH.","zip":"37902"},{"name":"HACIÖMER MAH.","zip":"37902"},{"name":"HARAMLAR MAH.","zip":"37902"},{"name":"HATİP MAH.","zip":"37902"},{"name":"HOCA USTAOĞLU MAH.","zip":"37902"},{"name":"HÜSÜN MAH.","zip":"37902"},{"name":"İĞDİR KÖYÜ","zip":"37902"},{"name":"İKİZÇİLER KÖYÜ","zip":"37902"},{"name":"İLATA MAH.","zip":"37902"},{"name":"İMAM MAH.","zip":"37902"},{"name":"İMRALI KÖYÜ","zip":"37902"},{"name":"İPSİNNE MAH.","zip":"37902"},{"name":"KABAOĞLU MAH.","zip":"37902"},{"name":"KADALI MAH.","zip":"37902"},{"name":"KANLICADERE MAH.","zip":"37902"},{"name":"KARAAHMET MAH.","zip":"37902"},{"name":"KARADERE MAH.","zip":"37902"},{"name":"KARADONU KÖYÜ","zip":"37902"},{"name":"KARAGÖZ MAH.","zip":"37902"},{"name":"KARAGÜRGEN MAH.","zip":"37902"},{"name":"KARAMAN KÖYÜ","zip":"37902"},{"name":"KARAMLAR MAH.","zip":"37902"},{"name":"KARAŞ MAH.","zip":"37902"},{"name":"KARŞI MAH.","zip":"37902"},{"name":"KAYA MAH.","zip":"37902"},{"name":"KAYAARKASI MAH.","zip":"37902"},{"name":"KAYADİBİ KÖYÜ","zip":"37902"},{"name":"KAZOĞLU MAH.","zip":"37902"},{"name":"KERPİÇ MAH.","zip":"37902"},{"name":"KERVANSARAY MAH.","zip":"37902"},{"name":"KESEPINAR KÖYÜ","zip":"37902"},{"name":"KIŞLA MAH.","zip":"37902"},{"name":"KOCAOĞLU MAH.","zip":"37902"},{"name":"KOÇCUĞAZ MAH.","zip":"37902"},{"name":"KOYUNKIRTIK KÖYÜ","zip":"37902"},{"name":"KOZKÖY KÖYÜ","zip":"37902"},{"name":"KÖR İSMAİLAĞA MAH.","zip":"37902"},{"name":"KÖSRELİ KÖYÜ","zip":"37902"},{"name":"KÖSTEKÇİLER KÖYÜ","zip":"37902"},{"name":"KUBATOĞLU MAH.","zip":"37902"},{"name":"KURTOĞLU MAH.","zip":"37902"},{"name":"KUŞ MAH.","zip":"37902"},{"name":"KUŞCA MAH.","zip":"37902"},{"name":"KUZ MAH.","zip":"37902"},{"name":"KUZTARLA MAH.","zip":"37902"},{"name":"KÜME EVLERİ MAH.","zip":"37902"},{"name":"MASRUF MAH.","zip":"37902"},{"name":"MERKEZ MAH.","zip":"37902"},{"name":"MOLLAHASAN MAH.","zip":"37902"},{"name":"MURATOĞLU MAH.","zip":"37902"},{"name":"NAZIR MAH.","zip":"37902"},{"name":"ORTAKÇIOĞLU MAH.","zip":"37902"},{"name":"ORTAKÖY MAH.","zip":"37902"},{"name":"ÖDEMİŞ MAH.","zip":"37902"},{"name":"ÖKSÜZLER MAH.","zip":"37902"},{"name":"ÖTEYÜZ MAH.","zip":"37902"},{"name":"SAKA MAH.","zip":"37902"},{"name":"SAMANLIKLAR MAH.","zip":"37902"},{"name":"SAMUTOĞLU MAH.","zip":"37902"},{"name":"SARKÖY MAH.","zip":"37902"},{"name":"SARPUN KÖYÜ","zip":"37902"},{"name":"SATI MAH.","zip":"37902"},{"name":"SATIOĞLU MAH.","zip":"37902"},{"name":"SAZAK MAH.","zip":"37902"},{"name":"SIRMA MAH.","zip":"37902"},{"name":"SİPAHİLER KÖYÜ","zip":"37902"},{"name":"SOFTAOĞLU MAH.","zip":"37902"},{"name":"SOFUOĞLU MAH.","zip":"37902"},{"name":"ŞALGAMOĞLU MAH.","zip":"37902"},{"name":"ŞATIR MAH.","zip":"37902"},{"name":"ŞİŞMANOĞLU MAH.","zip":"37902"},{"name":"TAŞÇANAK MAH.","zip":"37902"},{"name":"TAŞPINAR KÖYÜ","zip":"37902"},{"name":"TAŞPINAR MAH.","zip":"37902"},{"name":"TEPE MAH.","zip":"37902"},{"name":"TOKALAK MAH.","zip":"37902"},{"name":"TOPÇU KÖYÜ","zip":"37902"},{"name":"TOPÇU MAH.","zip":"37902"},{"name":"TOSYALI MAH.","zip":"37902"},{"name":"TULUMOĞLU MAH.","zip":"37902"},{"name":"TÜLÜOĞLU MAH.","zip":"37902"},{"name":"ULACIK MAH.","zip":"37902"},{"name":"UVAZ MAH.","zip":"37902"},{"name":"UZUN AHMET MAH.","zip":"37902"},{"name":"UZUNÖZ KÖYÜ","zip":"37902"},{"name":"VERZİYAN MAH.","zip":"37902"},{"name":"YAHYA MAH.","zip":"37902"},{"name":"YAYLA EVLERİ MAH.","zip":"37902"},{"name":"YAYLA MAH.","zip":"37902"},{"name":"YENİ MAH.","zip":"37902"},{"name":"YONGACI MAH.","zip":"37902"},{"name":"YUKARI ÇATAK MAH.","zip":"37902"},{"name":"YUKARI GÜNEY MAH.","zip":"37902"},{"name":"YUKARI KIŞLA MAH.","zip":"37902"},{"name":"YUKARI MAH.","zip":"37902"},{"name":"YUSUF MAH.","zip":"37902"},{"name":"ZEYBEK MAH.","zip":"37902"}]},{"name":"AKMESCİT","cityName":null,"quarters":[{"name":"ATABEYGAZİ MAH.","zip":"37100"},{"name":"HEPKEBİRLER MAH.","zip":"37100"},{"name":"HİSARARDI MAH.","zip":"37100"},{"name":"HONSALAR MAH.","zip":"37100"},{"name":"İSMAİLBEY MAH.","zip":"37100"},{"name":"SARAÇLAR MAH.","zip":"37100"},{"name":"TOPÇUOĞLU MAH.","zip":"37100"},{"name":"YAVUZSELİM MAH.","zip":"37100"}]},{"name":"CEBRAİL","cityName":null,"quarters":[{"name":"BEYÇELEBİ MAH.","zip":"37200"},{"name":"CEBRAİL MAH.","zip":"37200"},{"name":"ESENTEPE MAH.","zip":"37200"},{"name":"İSFENDİYAR MAH.","zip":"37200"},{"name":"KIRKÇEŞME MAH.","zip":"37200"},{"name":"MEHMET AKİF ERSOY MAH.","zip":"37200"}]},{"name":"KUZEYKENT","cityName":null,"quarters":[{"name":"İNÖNÜ MAH.","zip":"37150"},{"name":"KUZEYKENT MAH.","zip":"37150"}]},{"name":"MERKEZKÖYLER","cityName":null,"quarters":[{"name":"A.TORUMLAR MAH.","zip":"37210"},{"name":"ABASIYANIK MAH.","zip":"37210"},{"name":"ABBAS MAH.","zip":"37210"},{"name":"ACABALI MAH.","zip":"37210"},{"name":"ACISU MAH.","zip":"37210"},{"name":"ADEMELİK MAH.","zip":"37210"},{"name":"AĞA MAH.","zip":"37210"},{"name":"AHLAT KÖYÜ","zip":"37210"},{"name":"AHLAT MAH.","zip":"37210"},{"name":"AHLATÇIK KÖYÜ","zip":"37210"},{"name":"AHLATÇIK MAH.","zip":"37210"},{"name":"AHMETBEY KÖYÜ","zip":"37210"},{"name":"AHMETBEY MAH.","zip":"37210"},{"name":"AKCA MAH.","zip":"37210"},{"name":"AKÇAKESE KÖYÜ","zip":"37210"},{"name":"AKÇAKESE MAH.","zip":"37210"},{"name":"AKÇATAŞ KÖYÜ","zip":"37210"},{"name":"AKÇATAŞ MAH.","zip":"37210"},{"name":"AKDOĞAN KÖYÜ","zip":"37210"},{"name":"AKDOĞAN MAH.","zip":"37210"},{"name":"AKKAYA BUCAĞI İSMAİLLİ KÖYÜ","zip":"37210"},{"name":"AKKAYA MAH.","zip":"37210"},{"name":"AKPINAR MAH.","zip":"37210"},{"name":"AKSİNİR KÖYÜ","zip":"37210"},{"name":"AKSİNİROSB MAH.","zip":"37210"},{"name":"ALAMASLI MAH.","zip":"37210"},{"name":"ALAYOĞLU MAH.","zip":"37210"},{"name":"ALÇICILAR MAH.","zip":"37210"},{"name":"ALÇUCULAR KÖYÜ","zip":"37210"},{"name":"ALHANLI MAH.","zip":"37210"},{"name":"ALIÇ MAH.","zip":"37210"},{"name":"ALLAR MAH.","zip":"37210"},{"name":"ALLI MAH.","zip":"37210"},{"name":"ALPAGUT MAH.","zip":"37210"},{"name":"ALPAĞUT KÖYÜ","zip":"37210"},{"name":"ALPARSLAN KÖYÜ","zip":"37210"},{"name":"ALPASLAN MAH.","zip":"37210"},{"name":"ALPI KÖYÜ","zip":"37210"},{"name":"ALPI MAH.","zip":"37210"},{"name":"AMBARCILAR MAH.","zip":"37210"},{"name":"ARDIYÜKSEK MAH.","zip":"37210"},{"name":"ARIZ KÖYÜ","zip":"37210"},{"name":"ARIZ MAH.","zip":"37210"},{"name":"ARPAÇ MAH.","zip":"37210"},{"name":"AS MAH.","zip":"37210"},{"name":"ASARCIK MAH.","zip":"37210"},{"name":"AŞAĞI BATAK MAH.","zip":"37210"},{"name":"AŞAĞI ELMAYAKASI MAH.","zip":"37210"},{"name":"AŞAĞI MAH.","zip":"37210"},{"name":"AŞAĞI MUHSİR MAH.","zip":"37210"},{"name":"AŞAĞI ÖREN MAH.","zip":"37210"},{"name":"AŞAĞI TÜFEKÇİ MAH.","zip":"37210"},{"name":"AŞAĞIAKÇA KÖYÜ","zip":"37210"},{"name":"AŞAĞIBATAK KÖYÜ","zip":"37210"},{"name":"AŞAĞIBUZAĞIVEREN MAH.","zip":"37210"},{"name":"AŞAĞIELYAKUT KÖYÜ","zip":"37210"},{"name":"AŞAĞIELYAKUT MAH.","zip":"37210"},{"name":"AŞAĞITEPE MAH.","zip":"37210"},{"name":"AŞAĞIYUVA KÖYÜ","zip":"37210"},{"name":"AŞIKKARİP MAH.","zip":"37210"},{"name":"AVAN MAH.","zip":"37210"},{"name":"AVCI MAH.","zip":"37210"},{"name":"AYANOĞLU MAH.","zip":"37210"},{"name":"AYLICA MAH.","zip":"37210"},{"name":"AYNACIOĞLU MAH.","zip":"37210"},{"name":"AYVAGÜLLE MAH.","zip":"37210"},{"name":"AYVALAR KÖYÜ","zip":"37210"},{"name":"AYVALAR MAH.","zip":"37210"},{"name":"AYVAT MAH.","zip":"37210"},{"name":"BACAK MAH.","zip":"37210"},{"name":"BADEMCE MAH.","zip":"37210"},{"name":"BAHADIR KÖYÜ","zip":"37210"},{"name":"BAHADIR MAH.","zip":"37210"},{"name":"BAHANA MAH.","zip":"37210"},{"name":"BALCI MAH.","zip":"37210"},{"name":"BALLIK KÖYÜ","zip":"37210"},{"name":"BALLIK MAH.","zip":"37210"},{"name":"BALTACI KÖYÜ","zip":"37210"},{"name":"BALTACI MAH.","zip":"37210"},{"name":"BALTACIKUYUCAĞI KÖYÜ","zip":"37210"},{"name":"BAŞDEĞİRMENLER MAH.","zip":"37210"},{"name":"BAŞKÖY KÖYÜ","zip":"37210"},{"name":"BAŞKÖY MAH.","zip":"37210"},{"name":"BAŞÖREN KÖYÜ","zip":"37210"},{"name":"BAYINDIR KÖYÜ","zip":"37210"},{"name":"BAYLAR MAH.","zip":"37210"},{"name":"BAYRAMLI MAH.","zip":"37210"},{"name":"BEKİROĞLU MAH.","zip":"37210"},{"name":"BEKRİ MAH.","zip":"37210"},{"name":"BEKTAŞ MAH.","zip":"37210"},{"name":"BENLİ SULTAN MAH.","zip":"37210"},{"name":"BERİGEÇE MAH.","zip":"37210"},{"name":"BEŞAHLAT MAH.","zip":"37210"},{"name":"BEŞDEĞİRMENLER MAH.","zip":"37210"},{"name":"BIYIKLI MAH.","zip":"37210"},{"name":"BODUR MAH.","zip":"37210"},{"name":"BOSTAN KÖYÜ","zip":"37210"},{"name":"BOSTAN MAH.","zip":"37210"},{"name":"BOYABATLI MAH.","zip":"37210"},{"name":"BOZACI MAH.","zip":"37210"},{"name":"BOZOĞLAK KÖYÜ","zip":"37210"},{"name":"BOZOĞLAK MAH.","zip":"37210"},{"name":"BUDAMIŞ KÖYÜ","zip":"37210"},{"name":"BUDAMIŞ MAH.","zip":"37210"},{"name":"BULACIK KÖYÜ","zip":"37210"},{"name":"BULACIK MAH.","zip":"37210"},{"name":"BULAMAÇ MAH.","zip":"37210"},{"name":"BURHANLI KÖYÜ","zip":"37210"},{"name":"BÜK KÖYÜ","zip":"37210"},{"name":"BÜKKÖY MAH.","zip":"37210"},{"name":"BÜRME KÖYÜ","zip":"37210"},{"name":"BÜRME MAH.","zip":"37210"},{"name":"BÜRTÜK MAH.","zip":"37210"},{"name":"CAFERLİ MAH.","zip":"37210"},{"name":"CALAYOĞLU MAH.","zip":"37210"},{"name":"CAMBAZ MAH.","zip":"37210"},{"name":"CAMİ ÖNÜ MAH.","zip":"37210"},{"name":"CAMİ YANI MAH.","zip":"37210"},{"name":"CANBAZ KÖYÜ","zip":"37210"},{"name":"CEBECİ KÖYÜ","zip":"37210"},{"name":"CEBECİ MAH.","zip":"37210"},{"name":"CIMBAR MAH.","zip":"37210"},{"name":"CİMPİRİ MAH.","zip":"37210"},{"name":"CİVCİLER KÖYÜ","zip":"37210"},{"name":"CİVCİVLER MAH.","zip":"37210"},{"name":"CİVEK MAH.","zip":"37210"},{"name":"CİVELEK CAMI YANI MAH.","zip":"37210"},{"name":"CİVELEK MAH.","zip":"37210"},{"name":"CÖCÜLLÜ MAH.","zip":"37210"},{"name":"ÇAKILLI KÖYÜ","zip":"37210"},{"name":"ÇAKILLI MAH.","zip":"37210"},{"name":"ÇAKIROĞLU MAH.","zip":"37210"},{"name":"ÇAL MAH.","zip":"37210"},{"name":"ÇAMKENT SİTESİ MAH.","zip":"37210"},{"name":"ÇANDI MAH.","zip":"37210"},{"name":"ÇATALÇAM KÖYÜ","zip":"37210"},{"name":"ÇATÖREN KÖYÜ","zip":"37210"},{"name":"ÇATÖREN MAH.","zip":"37210"},{"name":"ÇAVUNDUR MAH.","zip":"37210"},{"name":"ÇAVUŞOĞLU MAH.","zip":"37210"},{"name":"ÇAY MAH.","zip":"37210"},{"name":"ÇAYIRBAŞI MAH.","zip":"37210"},{"name":"ÇAYLAYIK MAH.","zip":"37210"},{"name":"ÇELEBİ MAH.","zip":"37210"},{"name":"ÇERÇİ KÖYÜ","zip":"37210"},{"name":"ÇERÇİ MAH.","zip":"37210"},{"name":"ÇERKEZ MAH.","zip":"37210"},{"name":"ÇEVRELİ KÖYÜ","zip":"37210"},{"name":"ÇEVRELİ MAH.","zip":"37210"},{"name":"ÇIBAN KÖYÜ","zip":"37210"},{"name":"ÇIBAN MAH.","zip":"37210"},{"name":"ÇILDIR MAH.","zip":"37210"},{"name":"ÇIPINI MAH.","zip":"37210"},{"name":"ÇIRAK MAH.","zip":"37210"},{"name":"ÇIRAKOĞLU MAH.","zip":"37210"},{"name":"ÇİÇEK MAH.","zip":"37210"},{"name":"ÇİÇEKBAŞLI MAH.","zip":"37210"},{"name":"ÇİFTLİK MAH.","zip":"37210"},{"name":"ÇİĞİL KÖYÜ","zip":"37210"},{"name":"ÇİLİNGİR MAH.","zip":"37210"},{"name":"ÇİLLER MAH.","zip":"37210"},{"name":"ÇORAK MAH.","zip":"37210"},{"name":"ÇORUMLU KÖYÜ","zip":"37210"},{"name":"ÇÖRTÇÜ MAH.","zip":"37210"},{"name":"ÇÖTLEK MAH.","zip":"37210"},{"name":"ÇUBUKÇU MAH.","zip":"37210"},{"name":"ÇUHACILAR MAH.","zip":"37210"},{"name":"ÇUHADAR MAH.","zip":"37210"},{"name":"ÇUKURYURT MAH.","zip":"37210"},{"name":"DAĞ MAH.","zip":"37210"},{"name":"DAHALLI MAH.","zip":"37210"},{"name":"DALBAZ MAH.","zip":"37210"},{"name":"DAMKAÇ MAH.","zip":"37210"},{"name":"DAMLAÇAY KÖYÜ","zip":"37210"},{"name":"DARIBÜKÜ KÖYÜ","zip":"37210"},{"name":"DARIBÜKÜ MAH.","zip":"37210"},{"name":"DAVUTÇA MAH.","zip":"37210"},{"name":"DAYILAR KÖYÜ","zip":"37210"},{"name":"DAYILAR MAH.","zip":"37210"},{"name":"DEĞİRMENCİ(HACIMERA) MAH.","zip":"37210"},{"name":"DEĞİRMENÖNÜ MAH.","zip":"37210"},{"name":"DELİAHMET MAH.","zip":"37210"},{"name":"DELİEMİR MAH.","zip":"37210"},{"name":"DELİKOCAOĞLU MAH.","zip":"37210"},{"name":"DEMİRCİ KÖYÜ","zip":"37210"},{"name":"DEMİRCİ MAH.","zip":"37210"},{"name":"DEMİRCİLER MAH.","zip":"37210"},{"name":"DEMİRKAPI MAH.","zip":"37210"},{"name":"DENGEL MAH.","zip":"37210"},{"name":"DERE KÖY MAH.","zip":"37210"},{"name":"DERE KÖYÜ","zip":"37210"},{"name":"DERE MAH.","zip":"37210"},{"name":"DEREBERÇİN KÖYÜ","zip":"37210"},{"name":"DERVİŞ MAH.","zip":"37210"},{"name":"DIKKIL MAH.","zip":"37210"},{"name":"DİKMEN MAH.","zip":"37210"},{"name":"DOĞA KÜLTÜR KÖYÜ MAH.","zip":"37210"},{"name":"DOKUZKAT KÖYÜ","zip":"37210"},{"name":"DURACILI MAH.","zip":"37210"},{"name":"DURAK MAH.","zip":"37210"},{"name":"DURMUŞOĞLU MAH.","zip":"37210"},{"name":"DURSUN MAH.","zip":"37210"},{"name":"DURSUNLAR KÖYÜ","zip":"37210"},{"name":"DURUCA MAH.","zip":"37210"},{"name":"DURUÇAY KÖYÜ","zip":"37210"},{"name":"ECEOĞLU KÖYÜ","zip":"37210"},{"name":"ECEOĞLU MAH.","zip":"37210"},{"name":"EĞERLİK MAH.","zip":"37210"},{"name":"ELMALI MAH.","zip":"37210"},{"name":"ELMAOĞLU MAH.","zip":"37210"},{"name":"ELMAYAKASI KÖYÜ","zip":"37210"},{"name":"EMEKSİZ MAH.","zip":"37210"},{"name":"EMİR KÖYÜ","zip":"37210"},{"name":"EMİR MAH.","zip":"37210"},{"name":"EMİRLER MAH.","zip":"37210"},{"name":"EMİRLİ KÖYÜ","zip":"37210"},{"name":"EMİRLİ MAH.","zip":"37210"},{"name":"EMİROĞLU MAH.","zip":"37210"},{"name":"ERİCEK MAH.","zip":"37210"},{"name":"ERİKBELİ MAH.","zip":"37210"},{"name":"ESENLER KÖYÜ","zip":"37210"},{"name":"ESENLER MAH.","zip":"37210"},{"name":"ESENLİ KÖYÜ","zip":"37210"},{"name":"ESENLİ MAH.","zip":"37210"},{"name":"EŞEN KÖYÜ","zip":"37210"},{"name":"EŞEN MAH.","zip":"37210"},{"name":"ETYEMEZ KÖYÜ","zip":"37210"},{"name":"ETYEMEZ MAH.","zip":"37210"},{"name":"EVCİLER KÖYÜ","zip":"37210"},{"name":"EYLENCE MAH.","zip":"37210"},{"name":"EYMİR KÖYÜ","zip":"37210"},{"name":"EYMİR MAH.","zip":"37210"},{"name":"EYNİHAN MAH.","zip":"37210"},{"name":"FIRINCIK MAH.","zip":"37210"},{"name":"GAZİPAŞA MAH.","zip":"37210"},{"name":"GELERSİN MAH.","zip":"37210"},{"name":"GELİNÖREN KÖYÜ","zip":"37210"},{"name":"GELİNÖREN MAH.","zip":"37210"},{"name":"GENÇ ALİ MAH.","zip":"37210"},{"name":"GERİŞ MAH.","zip":"37210"},{"name":"GEVREKLİ MAH.","zip":"37210"},{"name":"GEYCEK MAH.","zip":"37210"},{"name":"GEYİKLİ KÖYÜ","zip":"37210"},{"name":"GEYİKLİ MAH.","zip":"37210"},{"name":"GİRDALLI KÖYÜ","zip":"37210"},{"name":"GİRDALLI MAH.","zip":"37210"},{"name":"GÖBEL MAH.","zip":"37210"},{"name":"GÖCEN KÖYÜ","zip":"37210"},{"name":"GÖCEN MAH.","zip":"37210"},{"name":"GÖÇMEN MAH.","zip":"37210"},{"name":"GÖDEL KÖYÜ","zip":"37210"},{"name":"GÖKBELEN MAH.","zip":"37210"},{"name":"GÖKÇEKENT KÖYÜ","zip":"37210"},{"name":"GÖKÇEKENT MAH.","zip":"37210"},{"name":"GÖKÇETAŞ MAH.","zip":"37210"},{"name":"GÖKÇUKUR KÖYÜ","zip":"37210"},{"name":"GÖKTAŞ MAH.","zip":"37210"},{"name":"GÖKTEPE MAH.","zip":"37210"},{"name":"GÖL ARKASI MAH.","zip":"37210"},{"name":"GÖL MAH.","zip":"37210"},{"name":"GÖL PAZARI MAH.","zip":"37210"},{"name":"GÖLKÖY KÖYÜ","zip":"37210"},{"name":"GÖLKÖY MAH.","zip":"37210"},{"name":"GÖMEÇ KÖYÜ","zip":"37210"},{"name":"GÖMEÇ MAH.","zip":"37210"},{"name":"GÖMMECE KÖYÜ","zip":"37210"},{"name":"GÖNCÜ MAH.","zip":"37210"},{"name":"GÖNCÜLER MAH.","zip":"37210"},{"name":"GÖZECİK MAH.","zip":"37210"},{"name":"GÖZLEMECİ MAH.","zip":"37210"},{"name":"GÖZLER MAH.","zip":"37210"},{"name":"GÜĞÜMCÜ MAH.","zip":"37210"},{"name":"GÜLEF KÖYÜ","zip":"37210"},{"name":"GÜLMEZLER MAH.","zip":"37210"},{"name":"GÜRCÜOĞLU MAH.","zip":"37210"},{"name":"GÜRLEYİK MAH.","zip":"37210"},{"name":"HABU MAH.","zip":"37210"},{"name":"HACI KÖYÜ","zip":"37210"},{"name":"HACI MAH.","zip":"37210"},{"name":"HACIALİ MAH.","zip":"37210"},{"name":"HACIBAKLAR MAH.","zip":"37210"},{"name":"HACIBEY KÖYÜ","zip":"37210"},{"name":"HACIBEY MAH.","zip":"37210"},{"name":"HACIELLEZ MAH.","zip":"37210"},{"name":"HACIİLYAS KÖYÜ","zip":"37210"},{"name":"HACILAR MAH.","zip":"37210"},{"name":"HACIMAHMUTOĞLU MAH.","zip":"37210"},{"name":"HACIMAN MAH.","zip":"37210"},{"name":"HACIMUHARREM KÖYÜ","zip":"37210"},{"name":"HACIOĞLU MAH.","zip":"37210"},{"name":"HACIOSMAN MAH.","zip":"37210"},{"name":"HACIÖMER MAH.","zip":"37210"},{"name":"HACIŞABAN KÖYÜ","zip":"37210"},{"name":"HACIVELİ MAH.","zip":"37210"},{"name":"HACIYUSUF KÖYÜ","zip":"37210"},{"name":"HACIYUSUF MAH.","zip":"37210"},{"name":"HALAÇLI KÖYÜ","zip":"37210"},{"name":"HALAÇLI MAH.","zip":"37210"},{"name":"HALİFE KÖYÜ","zip":"37210"},{"name":"HALİFE MAH.","zip":"37210"},{"name":"HALİFEKUYUCAĞI KÖYÜ","zip":"37210"},{"name":"HALİFEOSB MAH.","zip":"37210"},{"name":"HALİLOĞLU MAH.","zip":"37210"},{"name":"HAMİT KÖYÜ","zip":"37210"},{"name":"HAMİT MAH.","zip":"37210"},{"name":"HAMZALI MAH.","zip":"37210"},{"name":"HARMANCIK MAH.","zip":"37210"},{"name":"HAS KÖYÜ","zip":"37210"},{"name":"HAS MAH.","zip":"37210"},{"name":"HASANOĞLU MAH.","zip":"37210"},{"name":"HASANPEHLİVAN MAH.","zip":"37210"},{"name":"HATIP KÖYÜ","zip":"37210"},{"name":"HATİP MAH.","zip":"37210"},{"name":"HATİPLİ KÖYÜ","zip":"37210"},{"name":"HATİPLİ MAH.","zip":"37210"},{"name":"HATİPOĞLU KÖYÜ","zip":"37210"},{"name":"HATİPOĞLU MAH.","zip":"37210"},{"name":"HAVA ALANI TUREM MAH.","zip":"37210"},{"name":"HAYDARLAR KÖYÜ","zip":"37210"},{"name":"HAYLAMAZ MAH.","zip":"37210"},{"name":"HEDENLİOĞLU MAH.","zip":"37210"},{"name":"HIRASAN MAH.","zip":"37210"},{"name":"HOCA KÖYÜ","zip":"37210"},{"name":"HOLDİNG EVLERİ MAH.","zip":"37210"},{"name":"HORAMŞAH MAH.","zip":"37210"},{"name":"HOZMUR MAH.","zip":"37210"},{"name":"HÜSEYİNLİ KÖYÜ","zip":"37210"},{"name":"HÜSEYİNLİ MAH.","zip":"37210"},{"name":"HÜSEYİNOĞLU MAH.","zip":"37210"},{"name":"IŞIKLI MAH.","zip":"37210"},{"name":"İBEÇ MAH.","zip":"37210"},{"name":"İBİLER MAH.","zip":"37210"},{"name":"İBİŞLER KÖYÜ","zip":"37210"},{"name":"İBİŞLER MAH.","zip":"37210"},{"name":"İBRAHİMLİ KÖYÜ","zip":"37210"},{"name":"İBRAHİMLİ MAH.","zip":"37210"},{"name":"İMAM MAH.","zip":"37210"},{"name":"İMAMKÖY KÖYÜ","zip":"37210"},{"name":"İNCE MAH.","zip":"37210"},{"name":"İNCEBOĞAZ KÖYÜ","zip":"37210"},{"name":"İPSİZ MAH.","zip":"37210"},{"name":"İSLAM KÖYÜ","zip":"37210"},{"name":"İSMAİLLİ KİRAZ MAH.","zip":"37210"},{"name":"İSMAİLLİ MAH.","zip":"37210"},{"name":"İZBELİ MAH.","zip":"37210"},{"name":"KABAK MAH.","zip":"37210"},{"name":"KABAKTEPESİ MAH.","zip":"37210"},{"name":"KABALAR MAH.","zip":"37210"},{"name":"KABALI MAH.","zip":"37210"},{"name":"KABUL MAH.","zip":"37210"},{"name":"KADI MAH.","zip":"37210"},{"name":"KADIDAĞI YAPI KOOP. MAH.","zip":"37210"},{"name":"KADIN SARAYI MAH.","zip":"37210"},{"name":"KADIOĞLU KÖYÜ","zip":"37210"},{"name":"KADIOĞLU MAH.","zip":"37210"},{"name":"KADİROĞLU MAH.","zip":"37210"},{"name":"KAKIRDAK MAH.","zip":"37210"},{"name":"KAMBER MAH.","zip":"37210"},{"name":"KANTAR MAH.","zip":"37210"},{"name":"KAPAKLI MAH.","zip":"37210"},{"name":"KAPICI MAH.","zip":"37210"},{"name":"KARA HALLAR MAH.","zip":"37210"},{"name":"KARABIYIK MAH.","zip":"37210"},{"name":"KARABÖCÜ MAH.","zip":"37210"},{"name":"KARACAÖREN MAH.","zip":"37210"},{"name":"KARACILILAR MAH.","zip":"37210"},{"name":"KARAÇOMAK KÖYÜ","zip":"37210"},{"name":"KARAÇOMAK MAH.","zip":"37210"},{"name":"KARADERE MAH.","zip":"37210"},{"name":"KARAEVLİ KÖYÜ","zip":"37210"},{"name":"KARAEVLİ MAH.","zip":"37210"},{"name":"KARAHACILAR MAH.","zip":"37210"},{"name":"KARAHASANOĞLU MAH.","zip":"37210"},{"name":"KARAKUZ KÖYÜ","zip":"37210"},{"name":"KARAKUZ MAH.","zip":"37210"},{"name":"KARALAR MAH.","zip":"37210"},{"name":"KARAMUK MAH.","zip":"37210"},{"name":"KARAMUKMOLLA KÖYÜ","zip":"37210"},{"name":"KARAMUKMOLLA MAH.","zip":"37210"},{"name":"KARANDI MAH.","zip":"37210"},{"name":"KARAŞ KÖYÜ","zip":"37210"},{"name":"KARAŞ MAH.","zip":"37210"},{"name":"KARAYILAN MAH.","zip":"37210"},{"name":"KARGALAR MAH.","zip":"37210"},{"name":"KARGIN MAH.","zip":"37210"},{"name":"KARINCA MAH.","zip":"37210"},{"name":"KASABA KÖYÜ","zip":"37210"},{"name":"KASABA MAH.","zip":"37210"},{"name":"KASABAÖRENCİK KÖYÜ","zip":"37210"},{"name":"KASABAÖRENCİK MAH.","zip":"37210"},{"name":"KASIM MAH.","zip":"37210"},{"name":"KASTEK MAH.","zip":"37210"},{"name":"KAŞÇILAR KÖYÜ","zip":"37210"},{"name":"KAŞÇILAR MAH.","zip":"37210"},{"name":"KAVACIK MAH.","zip":"37210"},{"name":"KAVAK KÖYÜ","zip":"37210"},{"name":"KAVAK MAH.","zip":"37210"},{"name":"KAVALCA KÖYÜ","zip":"37210"},{"name":"KAVALCA MAH.","zip":"37210"},{"name":"KAVUN MAH.","zip":"37210"},{"name":"KAYA MAH.","zip":"37210"},{"name":"KAYA(A.KAYA) MAH.","zip":"37210"},{"name":"KAYABAŞI MAH.","zip":"37210"},{"name":"KAYALI KÖYÜ","zip":"37210"},{"name":"KAYALI MAH.","zip":"37210"},{"name":"KAYI KÖYÜ","zip":"37210"},{"name":"KAYI MAH.","zip":"37210"},{"name":"KAYIBELİ MAH.","zip":"37210"},{"name":"KAYPI MAH.","zip":"37210"},{"name":"KAYSEROĞLU MAH.","zip":"37210"},{"name":"KEDİCİK MAH.","zip":"37210"},{"name":"KEL MAH.","zip":"37210"},{"name":"KELEK MAH.","zip":"37210"},{"name":"KEMERLER KÖYÜ","zip":"37210"},{"name":"KEMERLER MAH.","zip":"37210"},{"name":"KEREMLİ KÖYÜ","zip":"37210"},{"name":"KEREMLİ MAH.","zip":"37210"},{"name":"KEŞKEK MAH.","zip":"37210"},{"name":"KEŞKEKLİ MAH.","zip":"37210"},{"name":"KILIÇLI MAH.","zip":"37210"},{"name":"KIMIZ MAH.","zip":"37210"},{"name":"KINALI MAH.","zip":"37210"},{"name":"KIRAÇLI MAH.","zip":"37210"},{"name":"KIRCALAR KÖYÜ","zip":"37210"},{"name":"KIRCALAR MAH.","zip":"37210"},{"name":"KIRIK KÖYÜ","zip":"37210"},{"name":"KIRIK MAH.","zip":"37210"},{"name":"KIRIŞOĞLU KÖYÜ","zip":"37210"},{"name":"KIYIK MAH.","zip":"37210"},{"name":"KIZBONCUK MAH.","zip":"37210"},{"name":"KIZILCAÖREN MAH.","zip":"37210"},{"name":"KIZILKESE KÖYÜ","zip":"37210"},{"name":"KIZILKESE MAH.","zip":"37210"},{"name":"KİMYOZ MAH.","zip":"37210"},{"name":"KİREÇ MAH.","zip":"37210"},{"name":"KİREMİT FABRİKASI MAH.","zip":"37210"},{"name":"KİRENLİ KÖYÜ","zip":"37210"},{"name":"KİRENLİ MAH.","zip":"37210"},{"name":"KİRPİ MAH.","zip":"37210"},{"name":"KOCAOĞLU MAH.","zip":"37210"},{"name":"KONUKÇA KÖYÜ","zip":"37210"},{"name":"KONUKÇA MAH.","zip":"37210"},{"name":"KOPARAN MAH.","zip":"37210"},{"name":"KORU KÖYÜ","zip":"37210"},{"name":"KORU MAH.","zip":"37210"},{"name":"KOŞANLAR MAH.","zip":"37210"},{"name":"KOŞANLI MAH.","zip":"37210"},{"name":"KOŞLU MAH.","zip":"37210"},{"name":"KOZKIRAN MAH.","zip":"37210"},{"name":"KOZLU MAH.","zip":"37210"},{"name":"KÖKLÜ KÖYÜ","zip":"37210"},{"name":"KÖKLÜ MAH.","zip":"37210"},{"name":"KÖSEOĞLU KÖYÜ","zip":"37210"},{"name":"KÖSEOĞLU MAH.","zip":"37210"},{"name":"KULOĞLU MAH.","zip":"37210"},{"name":"KUMARI MAH.","zip":"37210"},{"name":"KURNAZ MAH.","zip":"37210"},{"name":"KURT MAH.","zip":"37210"},{"name":"KURTÇA MAH.","zip":"37210"},{"name":"KURTDEDE MAH.","zip":"37210"},{"name":"KURTGÖMEÇ KÖYÜ","zip":"37210"},{"name":"KURTGÖMEÇ MAH.","zip":"37210"},{"name":"KURTKAYI KÖYÜ","zip":"37210"},{"name":"KURTKAYI MAH.","zip":"37210"},{"name":"KURTLUCA MAH.","zip":"37210"},{"name":"KURUCAÖREN KÖYÜ","zip":"37210"},{"name":"KURUCAÖREN MAH.","zip":"37210"},{"name":"KURUOĞLU MAH.","zip":"37210"},{"name":"KURUSARAY KÖYÜ","zip":"37210"},{"name":"KURUSARAY MAH.","zip":"37210"},{"name":"KUSKARA MAH.","zip":"37210"},{"name":"KUŞ MAH.","zip":"37210"},{"name":"KUŞKARA KÖYÜ","zip":"37210"},{"name":"KUYUCAK MAH.","zip":"37210"},{"name":"KUZÖREN MAH.","zip":"37210"},{"name":"KUZYAKA BUCAĞI ÇAVUNDUR KÖYÜ","zip":"37210"},{"name":"KUZYAKA BUCAĞI EMİRLER KÖYÜ","zip":"37210"},{"name":"KUZYAKA BUCAĞI İSMAİLLİ KÖYÜ","zip":"37210"},{"name":"KUZYAKA BUCAĞI KIYIK KÖYÜ","zip":"37210"},{"name":"KUZYAKA KÖYÜ","zip":"37210"},{"name":"KUZYAKA MAH.","zip":"37210"},{"name":"KÜÇÜKSU KÖYÜ","zip":"37210"},{"name":"KÜRT MAH.","zip":"37210"},{"name":"KÜTÜKLER MAH.","zip":"37210"},{"name":"KÜTÜKOĞLU MAH.","zip":"37210"},{"name":"M MAH.","zip":"37210"},{"name":"MANASIR MAH.","zip":"37210"},{"name":"MAŞRABACI MAH.","zip":"37210"},{"name":"MAVİLİ MAH.","zip":"37210"},{"name":"MEHRAN MAH.","zip":"37210"},{"name":"MERKEZ BUCAĞI ÇAVUNDUR KÖYÜ","zip":"37210"},{"name":"MERKEZ BUCAĞI EMİRLER KÖYÜ","zip":"37210"},{"name":"MERKEZ BUCAĞI KIYIK KÖYÜ","zip":"37210"},{"name":"MERKEZ HATİP MAH.","zip":"37210"},{"name":"MERKEZ MAH.","zip":"37210"},{"name":"MESCİT KÖYÜ","zip":"37210"},{"name":"MESCİT MAH.","zip":"37210"},{"name":"MESİN MAH.","zip":"37210"},{"name":"MOLLA AHMET MAH.","zip":"37210"},{"name":"MOLLA KÖYÜ","zip":"37210"},{"name":"MOLLA MAH.","zip":"37210"},{"name":"MUHACİRLER MAH.","zip":"37210"},{"name":"MURAT HACILAR MAH.","zip":"37210"},{"name":"MUSA MAH.","zip":"37210"},{"name":"MUSALLAR KÖYÜ","zip":"37210"},{"name":"MUSALLAR MAH.","zip":"37210"},{"name":"MUSLA MAH.","zip":"37210"},{"name":"MÜNEVVERLER MAH.","zip":"37210"},{"name":"NALCIKUYUCAĞI KÖYÜ","zip":"37210"},{"name":"NALCIKUYUCAĞI MAH.","zip":"37210"},{"name":"NEBİOĞLU MAH.","zip":"37210"},{"name":"NUMANLAR KÖYÜ","zip":"37210"},{"name":"NUMANLAR MAH.","zip":"37210"},{"name":"OBRUK KÖYÜ","zip":"37210"},{"name":"OĞUL KÖYÜ","zip":"37210"},{"name":"OĞUL MAH.","zip":"37210"},{"name":"OKÇULU MAH.","zip":"37210"},{"name":"OMCULAR KÖYÜ","zip":"37210"},{"name":"OMCULAR MAH.","zip":"37210"},{"name":"ORTA KÖYÜ","zip":"37210"},{"name":"ORTA MAH.","zip":"37210"},{"name":"ORTABOĞAZ KÖYÜ","zip":"37210"},{"name":"ORTABOĞAZ MAH.","zip":"37210"},{"name":"ORTACA MAH.","zip":"37210"},{"name":"ORTAKÇI MAH.","zip":"37210"},{"name":"OVACIK MAH.","zip":"37210"},{"name":"ÖMER MAH.","zip":"37210"},{"name":"ÖMERLİ KÖYÜ","zip":"37210"},{"name":"ÖMERLİ MAH.","zip":"37210"},{"name":"ÖREN MAH.","zip":"37210"},{"name":"ÖRENCİK KÖYÜ","zip":"37210"},{"name":"ÖRENCİK MAH.","zip":"37210"},{"name":"ÖRENYERİ KÖYÜ","zip":"37210"},{"name":"ÖRENYERİ MAH.","zip":"37210"},{"name":"ÖTAGEÇE MAH.","zip":"37210"},{"name":"ÖTE KAVACIK MAH.","zip":"37210"},{"name":"ÖTE MAH.","zip":"37210"},{"name":"ÖTE ÖRENCİK MAH.","zip":"37210"},{"name":"ÖZEYLİ MAH.","zip":"37210"},{"name":"PARLAK MAH.","zip":"37210"},{"name":"PARMAKLI TÜRBE MAH.","zip":"37210"},{"name":"PAŞA MAH.","zip":"37210"},{"name":"PEHLİVAN KÖYÜ","zip":"37210"},{"name":"PEHLİVAN MAH.","zip":"37210"},{"name":"PELİTÇİK MAH.","zip":"37210"},{"name":"PORSUKHANI MAH.","zip":"37210"},{"name":"PORTAKAL MAH.","zip":"37210"},{"name":"PÜRLÜ MAH.","zip":"37210"},{"name":"SADA KÖYÜ","zip":"37210"},{"name":"SADE MAH.","zip":"37210"},{"name":"SAĞARCIK MAH.","zip":"37210"},{"name":"SAĞIRLAR MAH.","zip":"37210"},{"name":"SAĞIROĞLU MAH.","zip":"37210"},{"name":"SAHİP KÖYÜ","zip":"37210"},{"name":"SAHİP MAH.","zip":"37210"},{"name":"SAKLAR MAH.","zip":"37210"},{"name":"SAKSAĞANLI MAH.","zip":"37210"},{"name":"SAPACA KÖYÜ","zip":"37210"},{"name":"SAPACA MAH.","zip":"37210"},{"name":"SARAYCIK KÖYÜ","zip":"37210"},{"name":"SARAYCIK MAH.","zip":"37210"},{"name":"SARI KADI MAH.","zip":"37210"},{"name":"SARICA KÖYÜ","zip":"37210"},{"name":"SARICA MAH.","zip":"37210"},{"name":"SARIKAYA MAH.","zip":"37210"},{"name":"SARIOĞLU MAH.","zip":"37210"},{"name":"SARIÖMER KÖYÜ","zip":"37210"},{"name":"SARMAŞOĞLU MAH.","zip":"37210"},{"name":"SAYKAL MAH.","zip":"37210"},{"name":"SAZCI MAH.","zip":"37210"},{"name":"SEREMİTTİN KÖYÜ","zip":"37210"},{"name":"SEREMİTTİN MAH.","zip":"37210"},{"name":"SERENLER MAH.","zip":"37210"},{"name":"SERTİ MAH.","zip":"37210"},{"name":"SIRASÖGÜTLER MAH.","zip":"37210"},{"name":"SIRASÖĞÜTLER KÖYÜ","zip":"37210"},{"name":"SİPAHİ KÖYÜ","zip":"37210"},{"name":"SİRKELİ MAH.","zip":"37210"},{"name":"SOFRANLAR MAH.","zip":"37210"},{"name":"SOFULAR MAH.","zip":"37210"},{"name":"SOĞANCI MAH.","zip":"37210"},{"name":"SUBAŞI KÖYÜ","zip":"37210"},{"name":"SUBAŞI MAH.","zip":"37210"},{"name":"SULUSÖKÜ KÖYÜ","zip":"37210"},{"name":"SULUSÖKÜ MAH.","zip":"37210"},{"name":"SUSUZ MAH.","zip":"37210"},{"name":"SÜTÇÜLER MAH.","zip":"37210"},{"name":"ŞABAN MAH.","zip":"37210"},{"name":"ŞADI BEY MAH.","zip":"37210"},{"name":"ŞADİOĞLU MAH.","zip":"37210"},{"name":"ŞAN MAH.","zip":"37210"},{"name":"ŞEKER MAH.","zip":"37210"},{"name":"ŞEKERCİ MAH.","zip":"37210"},{"name":"ŞEYH KÖYÜ","zip":"37210"},{"name":"ŞEYH MAH.","zip":"37210"},{"name":"ŞIHLI MAH.","zip":"37210"},{"name":"TABAK MAH.","zip":"37210"},{"name":"TABASAK MAH.","zip":"37210"},{"name":"TAHILLI MAH.","zip":"37210"},{"name":"TALİPLER KÖYÜ","zip":"37210"},{"name":"TANDIR MAH.","zip":"37210"},{"name":"TARLATEPE KÖYÜ","zip":"37210"},{"name":"TASAK MAH.","zip":"37210"},{"name":"TAŞAN MAH.","zip":"37210"},{"name":"TAŞANLAR MAH.","zip":"37210"},{"name":"TAŞLIK KÖYÜ","zip":"37210"},{"name":"TAŞLIK MAH.","zip":"37210"},{"name":"TEKKE KÖYÜ","zip":"37210"},{"name":"TEKKE MAH.","zip":"37210"},{"name":"TELLİOĞLU MAH.","zip":"37210"},{"name":"TEPE MAH.","zip":"37210"},{"name":"TEPEHARMAN KÖYÜ","zip":"37210"},{"name":"TEPELCE MAH.","zip":"37210"},{"name":"TEREOĞLU MAH.","zip":"37210"},{"name":"TERZİ KÖYÜ","zip":"37210"},{"name":"TERZİ MAH.","zip":"37210"},{"name":"TERZİLİ MAH.","zip":"37210"},{"name":"TIĞLI MAH.","zip":"37210"},{"name":"TIKIŞ MAH.","zip":"37210"},{"name":"TİMZAN MAH.","zip":"37210"},{"name":"TOPÇU MAH.","zip":"37210"},{"name":"TURHANLI MAH.","zip":"37210"},{"name":"TURŞUCU MAH.","zip":"37210"},{"name":"TÜLEK MAH.","zip":"37210"},{"name":"TÜRKALİ MAH.","zip":"37210"},{"name":"UZUNOLUK KÖYÜ","zip":"37210"},{"name":"UZUNOLUK MAH.","zip":"37210"},{"name":"ÜLYAN MAH.","zip":"37210"},{"name":"ÜMİT KÖYÜ","zip":"37210"},{"name":"ÜMİT MAH.","zip":"37210"},{"name":"ÜYÜCEK KÖYÜ","zip":"37210"},{"name":"ÜYÜK MAH.","zip":"37210"},{"name":"VARSAK MAH.","zip":"37210"},{"name":"VAYISLI MAH.","zip":"37210"},{"name":"VELİOĞLU MAH.","zip":"37210"},{"name":"VEZİR MAH.","zip":"37210"},{"name":"Y.AKCAKESE MAH.","zip":"37210"},{"name":"Y.TORUMLAR MAH.","zip":"37210"},{"name":"YAĞCI MAH.","zip":"37210"},{"name":"YAKA KÖYÜ","zip":"37210"},{"name":"YAKA MAH.","zip":"37210"},{"name":"YALNIZ MAH.","zip":"37210"},{"name":"YANIK MAH.","zip":"37210"},{"name":"YARÖREN KÖYÜ","zip":"37210"},{"name":"YAZI MAH.","zip":"37210"},{"name":"YEMİŞÇİ MAH.","zip":"37210"},{"name":"YENİ MAH.","zip":"37210"},{"name":"YENİAĞA MAH.","zip":"37210"},{"name":"YENİKAVAK KÖYÜ","zip":"37210"},{"name":"YENİKAVAK MAH.","zip":"37210"},{"name":"YENİKÖY MAH.","zip":"37210"},{"name":"YERÜKLER MAH.","zip":"37210"},{"name":"YEŞİLKENT MAH.","zip":"37210"},{"name":"YILANCI KÖYÜ","zip":"37210"},{"name":"YILANCI MAH.","zip":"37210"},{"name":"YK.KAYA MAH.","zip":"37210"},{"name":"YOLKONAK KÖYÜ","zip":"37210"},{"name":"YÖRECİ MAH.","zip":"37210"},{"name":"YUKARI AHLAT MAH.","zip":"37210"},{"name":"YUKARI BATAK MAH.","zip":"37210"},{"name":"YUKARI KARAKUZ MAH.","zip":"37210"},{"name":"YUKARI KÖY MAH.","zip":"37210"},{"name":"YUKARI MAH.","zip":"37210"},{"name":"YUKARI MUHSİR MAH.","zip":"37210"},{"name":"YUKARI OBRUK MAH.","zip":"37210"},{"name":"YUKARI TÜFEKÇİ MAH.","zip":"37210"},{"name":"YUKARIBATAK KÖYÜ","zip":"37210"},{"name":"YUKARIBUZAĞIVEREN MAH.","zip":"37210"},{"name":"YUKARIELYAKUT KÖYÜ","zip":"37210"},{"name":"YUKARIKUYUCAK KÖYÜ","zip":"37210"},{"name":"YUKARITEPE MAH.","zip":"37210"},{"name":"YUKARIYUVA MAH.","zip":"37210"},{"name":"YUKURIELYAKUT MAH.","zip":"37210"},{"name":"YUNUS KÖYÜ","zip":"37210"},{"name":"YÜREKVEREN KÖYÜ","zip":"37210"},{"name":"ZALİOĞLU MAH.","zip":"37210"},{"name":"ZONGALAR MAH.","zip":"37210"},{"name":"ZÜLEN MAH.","zip":"37210"},{"name":"ABUT MAH.","zip":"37772"},{"name":"AFETEVLERİ MAH.","zip":"37772"},{"name":"AHMAT AGASI MAH.","zip":"37772"},{"name":"AHMETOĞLU MAH.","zip":"37772"},{"name":"ARMA MAH.","zip":"37772"},{"name":"ASLANCA MAH.","zip":"37772"},{"name":"AŞAĞI ILICA MAH.","zip":"37772"},{"name":"AŞAĞI MAH.","zip":"37772"},{"name":"AŞAĞI TEKKE MAH.","zip":"37772"},{"name":"AŞAĞI ZELLE MAH.","zip":"37772"},{"name":"AŞAĞIAKTAŞ KÖYÜ","zip":"37772"},{"name":"ATAK MEVKİİ MAH.","zip":"37772"},{"name":"AYAZLAR MAH.","zip":"37772"},{"name":"AYLAK MAH.","zip":"37772"},{"name":"BAGLA MAH.","zip":"37772"},{"name":"BAKİÇELEBİ MAH.","zip":"37772"},{"name":"BAŞKÖY KÖYÜ","zip":"37772"},{"name":"BAYRAKTAR MAH.","zip":"37772"},{"name":"BEKDEMİR MAH.","zip":"37772"},{"name":"BIYIK MAH.","zip":"37772"},{"name":"BODUROĞLU MAH.","zip":"37772"},{"name":"BOĞAZKAYA KÖYÜ","zip":"37772"},{"name":"BOSTAN MAH.","zip":"37772"},{"name":"CEBECİ MAH.","zip":"37772"},{"name":"ÇAGDA MAH.","zip":"37772"},{"name":"ÇALCAÖREN MAH.","zip":"37772"},{"name":"ÇANAKÇI MAH.","zip":"37772"},{"name":"ÇANGAL MAH.","zip":"37772"},{"name":"ÇAVUŞ MAH.","zip":"37772"},{"name":"ÇAVUŞKÖY KÖYÜ","zip":"37772"},{"name":"ÇEKİRGE MAH.","zip":"37772"},{"name":"ÇENGEL KÖYÜ","zip":"37772"},{"name":"ÇENGEL MAH.","zip":"37772"},{"name":"ÇENGELLİ MAH.","zip":"37772"},{"name":"ÇİFTLİK MAH.","zip":"37772"},{"name":"ÇORBACI MAH.","zip":"37772"},{"name":"ÇÖME MAH.","zip":"37772"},{"name":"ÇÖMEZ MAH.","zip":"37772"},{"name":"ÇÖTENLİ MAH.","zip":"37772"},{"name":"DAĞ MAH.","zip":"37772"},{"name":"DAMASIĞMAZ MAH.","zip":"37772"},{"name":"DEFNE MAH.","zip":"37772"},{"name":"DELİ HÜSEYİN MAH.","zip":"37772"},{"name":"DELİBALTA MAH.","zip":"37772"},{"name":"DEMİRCİ MAH.","zip":"37772"},{"name":"DEMİRTAŞ KÖYÜ","zip":"37772"},{"name":"DERE MAH.","zip":"37772"},{"name":"DERECİK MAH.","zip":"37772"},{"name":"DİZDARLI KÖYÜ","zip":"37772"},{"name":"DURMUŞLAR MAH.","zip":"37772"},{"name":"ELLES MAH.","zip":"37772"},{"name":"ESEN MAH.","zip":"37772"},{"name":"ESENTEPE KÖYÜ","zip":"37772"},{"name":"ESKİ KAPANCI MAH.","zip":"37772"},{"name":"EYÜPOĞLU MAH.","zip":"37772"},{"name":"FASYE MAH.","zip":"37772"},{"name":"GARİPLER MAH.","zip":"37772"},{"name":"GAYBULU MAH.","zip":"37772"},{"name":"GEDİK MAH.","zip":"37772"},{"name":"GENNE MAH.","zip":"37772"},{"name":"GERİŞ MAH.","zip":"37772"},{"name":"GİYNE MAH.","zip":"37772"},{"name":"GOFUROGLU MAH.","zip":"37772"},{"name":"GÖKÇE MAH.","zip":"37772"},{"name":"GÖKHÜSEYİN MAH.","zip":"37772"},{"name":"GÖLYANI MAH.","zip":"37772"},{"name":"GÜNBERİ KÖYÜ","zip":"37772"},{"name":"GÜVELOĞLU MAH.","zip":"37772"},{"name":"HACI AHMET MAH.","zip":"37772"},{"name":"HACIOĞLU MAH.","zip":"37772"},{"name":"HALKALI MAH.","zip":"37772"},{"name":"HANAZLA MAH.","zip":"37772"},{"name":"HATİP MAH.","zip":"37772"},{"name":"HOCA MAH.","zip":"37772"},{"name":"HOCALAR KÖYÜ","zip":"37772"},{"name":"HÜDAYET MAH.","zip":"37772"},{"name":"ILICA KÖYÜ","zip":"37772"},{"name":"ILICA MERKEZ MAH.","zip":"37772"},{"name":"İBRAHİM ÇELEBİ MAH.","zip":"37772"},{"name":"İMAM MAH.","zip":"37772"},{"name":"İNANLI MAH.","zip":"37772"},{"name":"KADIOĞLU MAH.","zip":"37772"},{"name":"KAHVECİ MAH.","zip":"37772"},{"name":"KAHYA MAH.","zip":"37772"},{"name":"KALAYCI KÖYÜ","zip":"37772"},{"name":"KALAYCI MAH.","zip":"37772"},{"name":"KANCILAR MAH.","zip":"37772"},{"name":"KAPANCI KÖYÜ","zip":"37772"},{"name":"KARACAKAYA MAH.","zip":"37772"},{"name":"KARACAÖREN KÖYÜ","zip":"37772"},{"name":"KARAFASIL KÖYÜ","zip":"37772"},{"name":"KARAFASIL MAH.","zip":"37772"},{"name":"KARAMUSTAFA MAH.","zip":"37772"},{"name":"KARŞI MAH.","zip":"37772"},{"name":"KAVAL MAH.","zip":"37772"},{"name":"KAYABÜKÜ KÖYÜ","zip":"37772"},{"name":"KAYACIK MAH.","zip":"37772"},{"name":"KAYADİBİ MAH.","zip":"37772"},{"name":"KAYALI MAH.","zip":"37772"},{"name":"KELEKLER MAH.","zip":"37772"},{"name":"KELEM MAH.","zip":"37772"},{"name":"KERTE KÖYÜ","zip":"37772"},{"name":"KETİ MAH.","zip":"37772"},{"name":"KIRTI MAH.","zip":"37772"},{"name":"KİRPİ MAH.","zip":"37772"},{"name":"KOLCA MAH.","zip":"37772"},{"name":"KÖLCEK MAH.","zip":"37772"},{"name":"KÖRŞÜŞ MAH.","zip":"37772"},{"name":"KÖSEKÖY MAH.","zip":"37772"},{"name":"KUM MAH.","zip":"37772"},{"name":"KURTLUGELİK KÖYÜ","zip":"37772"},{"name":"KUYRUK MAH.","zip":"37772"},{"name":"LENGE MAH.","zip":"37772"},{"name":"MAŞUKLU MAH.","zip":"37772"},{"name":"MENTEŞ MAH.","zip":"37772"},{"name":"MERKEZ MAH.","zip":"37772"},{"name":"MEYİLLER MAH.","zip":"37772"},{"name":"MİLDAN MAH.","zip":"37772"},{"name":"MİRAHOR KÖYÜ","zip":"37772"},{"name":"MURATBAŞI KÖYÜ","zip":"37772"},{"name":"MUSABAŞOĞLU MAH.","zip":"37772"},{"name":"MUSLU MAH.","zip":"37772"},{"name":"NEBİOĞLU MAH.","zip":"37772"},{"name":"ORNA MAH.","zip":"37772"},{"name":"ORTA MAH.","zip":"37772"},{"name":"ORUÇ MAH.","zip":"37772"},{"name":"OVACIK MAH.","zip":"37772"},{"name":"ÖREN MAH.","zip":"37772"},{"name":"ÖRENCİK MAH.","zip":"37772"},{"name":"PAŞAOĞLU MAH.","zip":"37772"},{"name":"PAZAR YERİ MAH.","zip":"37772"},{"name":"PETEKLER MAH.","zip":"37772"},{"name":"RECEP USTA MAH.","zip":"37772"},{"name":"RECEPLİ MAH.","zip":"37772"},{"name":"RUŞEN MAH.","zip":"37772"},{"name":"SARMA MAH.","zip":"37772"},{"name":"SAVAŞ KÖYÜ","zip":"37772"},{"name":"SEYHAN MAH.","zip":"37772"},{"name":"SEYİSOĞLU MAH.","zip":"37772"},{"name":"SORKUNCUK MAH.","zip":"37772"},{"name":"SÖMEK MAH.","zip":"37772"},{"name":"SUBAŞI MAH.","zip":"37772"},{"name":"SÜMENLER KÖYÜ","zip":"37772"},{"name":"ŞABAN MAH.","zip":"37772"},{"name":"ŞABANOĞLU MAH.","zip":"37772"},{"name":"ŞAHANLI MAH.","zip":"37772"},{"name":"ŞATIR MAH.","zip":"37772"},{"name":"ŞEYFO MAH.","zip":"37772"},{"name":"ŞIHLI MAH.","zip":"37772"},{"name":"TARAKCI MAH.","zip":"37772"},{"name":"TERZİ MAH.","zip":"37772"},{"name":"TISBI MAH.","zip":"37772"},{"name":"TOPBAŞI MAH.","zip":"37772"},{"name":"TOR MAH.","zip":"37772"},{"name":"TORBIYIK MAH.","zip":"37772"},{"name":"TOYGIRAN MAH.","zip":"37772"},{"name":"URVA KÖYÜ","zip":"37772"},{"name":"UZLA KÖYÜ","zip":"37772"},{"name":"ÜLDE MAH.","zip":"37772"},{"name":"ÜYÜKÖREN KÖYÜ","zip":"37772"},{"name":"VALLA MAH.","zip":"37772"},{"name":"YAMANLAR KÖYÜ","zip":"37772"},{"name":"YANIKLAR MAH.","zip":"37772"},{"name":"YAYLA MAH.","zip":"37772"},{"name":"YENİ MAH.","zip":"37772"},{"name":"YENİÇERİ MAH.","zip":"37772"},{"name":"YEŞİL MAH.","zip":"37772"},{"name":"YUKARI ILGAZLAR MAH.","zip":"37772"},{"name":"YUKARI MAH.","zip":"37772"},{"name":"YUKARI ZELLE MAH.","zip":"37772"},{"name":"YUKARIAKTAŞ KÖYÜ","zip":"37772"},{"name":"YUMAKLI MAH.","zip":"37772"},{"name":"YUSUFLAR MAH.","zip":"37772"},{"name":"ZAİM MAH.","zip":"37772"},{"name":"ZAİMOGULLARI MAH.","zip":"37772"}]},{"name":"PINARBAŞI","cityName":null,"quarters":[{"name":"CUMHURİYET MAH.","zip":"37770"},{"name":"ÇALKAYA MAH.","zip":"37770"},{"name":"ÇAMKIŞLA MAH.","zip":"37770"},{"name":"FATİH MAH.","zip":"37770"},{"name":"UZUNÇAM MAH.","zip":"37770"}]},{"name":"MERKEZKÖYLER","cityName":null,"quarters":[{"name":"AŞAĞI ŞALGAM MAH.","zip":"37272"},{"name":"AYRANCI MAH.","zip":"37272"},{"name":"BOZARMUT MAH.","zip":"37272"},{"name":"BÖCEK MAH.","zip":"37272"},{"name":"BÖREKCİ MAH.","zip":"37272"},{"name":"ÇAVUŞOĞLU MAH.","zip":"37272"},{"name":"ÇAYAN MAH.","zip":"37272"},{"name":"ÇELEBİ MAH.","zip":"37272"},{"name":"ÇERÇİLER KÖYÜ","zip":"37272"},{"name":"ÇIRDAK KÖYÜ","zip":"37272"},{"name":"ÇİĞİLERİK KÖYÜ","zip":"37272"},{"name":"ÇÖMEK MAH.","zip":"37272"},{"name":"DEMİRCİ MAH.","zip":"37272"},{"name":"DEMİROĞLU MAH.","zip":"37272"},{"name":"DERE MAH.","zip":"37272"},{"name":"EMMİ MAH.","zip":"37272"},{"name":"EMRELER KÖYÜ","zip":"37272"},{"name":"ERCEK KÖYÜ","zip":"37272"},{"name":"GÜCÜKLER MAH.","zip":"37272"},{"name":"HACINESİFOĞLU MAH.","zip":"37272"},{"name":"HALAÇOĞLU MAH.","zip":"37272"},{"name":"HARMANDA MAH.","zip":"37272"},{"name":"HATIP MAH.","zip":"37272"},{"name":"HAYDARLI MAH.","zip":"37272"},{"name":"HOŞKUNLAR MAH.","zip":"37272"},{"name":"HÜCÜMAN MAH.","zip":"37272"},{"name":"HÜSEMLİ MAH.","zip":"37272"},{"name":"HÜSEYİNAĞA MAH.","zip":"37272"},{"name":"İBİCİOĞLU MAH.","zip":"37272"},{"name":"İMAMOĞLU MAH.","zip":"37272"},{"name":"İMRENLER KÖYÜ","zip":"37272"},{"name":"İNCESU KÖYÜ","zip":"37272"},{"name":"KADIHÜSEYİN MAH.","zip":"37272"},{"name":"KADİROĞLU MAH.","zip":"37272"},{"name":"KANDAVURLAR MAH.","zip":"37272"},{"name":"KARAÇAVUŞ KÖYÜ","zip":"37272"},{"name":"KARAÇAVUŞ MERKEZ MAH.","zip":"37272"},{"name":"KARAHMET MAH.","zip":"37272"},{"name":"KARAKAŞ MAH.","zip":"37272"},{"name":"KAYALAR MAH.","zip":"37272"},{"name":"KEPEZ KÖYÜ","zip":"37272"},{"name":"KURUOĞLU MAH.","zip":"37272"},{"name":"KUYTULU MAH.","zip":"37272"},{"name":"KUYUMCULAR MAH.","zip":"37272"},{"name":"KÜRT MAH.","zip":"37272"},{"name":"KÜRTO MAH.","zip":"37272"},{"name":"MADANBEY MAH.","zip":"37272"},{"name":"MANCILIK KÖYÜ","zip":"37272"},{"name":"MAŞAOĞLU MAH.","zip":"37272"},{"name":"MAVİLİ MAH.","zip":"37272"},{"name":"MERKEZ MAH.","zip":"37272"},{"name":"MUSTAFA MAH.","zip":"37272"},{"name":"MÜCO MAH.","zip":"37272"},{"name":"ODABAŞI KÖYÜ","zip":"37272"},{"name":"ÖDEMİŞ PAZARYERİ MAH.","zip":"37272"},{"name":"PANTIR MAH.","zip":"37272"},{"name":"SABUNCULAR KÖYÜ","zip":"37272"},{"name":"SARAYCIK MAH.","zip":"37272"},{"name":"SARNIÇ MAH.","zip":"37272"},{"name":"SELİMOĞLU MAH.","zip":"37272"},{"name":"SOFUCAK MAH.","zip":"37272"},{"name":"SÜNGÜLER MAH.","zip":"37272"},{"name":"SÜRMELİ MAH.","zip":"37272"},{"name":"ŞAHBAT MAH.","zip":"37272"},{"name":"ŞALGAM KÖYÜ","zip":"37272"},{"name":"TEPE KÖY MAH.","zip":"37272"},{"name":"ÜYÜK KÖYÜ","zip":"37272"},{"name":"ÜYÜK MERKEZ MAH.","zip":"37272"},{"name":"YAKUPOĞLU MAH.","zip":"37272"},{"name":"YAPUKÇU MAH.","zip":"37272"},{"name":"YAVSUOĞLU MAH.","zip":"37272"},{"name":"YOLYAKA KÖYÜ","zip":"37272"}]},{"name":"SEYDİLER","cityName":null,"quarters":[{"name":"AYVATLAR MAH.","zip":"37270"},{"name":"BATIÖRCÜNLER MAH.","zip":"37270"},{"name":"DELİHACILAR MAH.","zip":"37270"},{"name":"DEMİRCİÖZÜ MAH.","zip":"37270"},{"name":"HACIKAYALAR MAH.","zip":"37270"},{"name":"MERKEZ MAH.","zip":"37270"},{"name":"MERKEZ OSB MAH.","zip":"37270"},{"name":"YAĞLAR MAH.","zip":"37270"},{"name":"YAYLA MAH.","zip":"37270"},{"name":"YUKARIARSLANLI MAH.","zip":"37270"}]},{"name":"MERKEZKÖYLER","cityName":null,"quarters":[{"name":"AHMET BEY MAH.","zip":"37652"},{"name":"AKCA KESE MAH.","zip":"37652"},{"name":"ALANCIK KÖYÜ","zip":"37652"},{"name":"ALİ YERİ MAH.","zip":"37652"},{"name":"ARDIÇALAN MAH.","zip":"37652"},{"name":"AŞIKLI KÖYÜ","zip":"37652"},{"name":"AYBASAN KÖYÜ","zip":"37652"},{"name":"AZ.KALAYCI KÖYÜ","zip":"37652"},{"name":"BAŞ KÖY MAH.","zip":"37652"},{"name":"BAŞÇAVUŞ KÖYÜ","zip":"37652"},{"name":"BÜYÜKMUTLU KÖYÜ","zip":"37652"},{"name":"CELALLI KÖYÜ","zip":"37652"},{"name":"ÇATAK MAH.","zip":"37652"},{"name":"DAĞLI KÖYÜ","zip":"37652"},{"name":"DEDE MAH.","zip":"37652"},{"name":"DEĞİRMENBAŞI MAH.","zip":"37652"},{"name":"DEĞİRMENCİ MAH.","zip":"37652"},{"name":"DEMİRCİ MAH.","zip":"37652"},{"name":"DEMİRCİLİ MAH.","zip":"37652"},{"name":"DEMİRKAYA KÖYÜ","zip":"37652"},{"name":"DEREKÖY KÖYÜ","zip":"37652"},{"name":"DİBEKLİ MAH.","zip":"37652"},{"name":"DÖRDÜL KÖYÜ","zip":"37652"},{"name":"DÜZCE MAH.","zip":"37652"},{"name":"EDELER KÖYÜ","zip":"37652"},{"name":"FURUNCUK KÖYÜ","zip":"37652"},{"name":"GOSSOKÜ MAH.","zip":"37652"},{"name":"GÜCÜKDİBİ MAH.","zip":"37652"},{"name":"GÜCÜLLÜ MAH.","zip":"37652"},{"name":"GÜLLÜ MAH.","zip":"37652"},{"name":"GÜNEY YARIMCA MAH.","zip":"37652"},{"name":"GÜRLEYİK KÖYÜ","zip":"37652"},{"name":"GÜRPELİT KÖYÜ","zip":"37652"},{"name":"HALI MAH.","zip":"37652"},{"name":"HARMANCIK MAH.","zip":"37652"},{"name":"HARMANGERİŞ KÖYÜ","zip":"37652"},{"name":"HATIP MAH.","zip":"37652"},{"name":"HIDIRLI MAH.","zip":"37652"},{"name":"HİMMET KÖYÜ","zip":"37652"},{"name":"HİMMETLİ MAH.","zip":"37652"},{"name":"ILIYAZI MAH.","zip":"37652"},{"name":"İMAM MAH.","zip":"37652"},{"name":"KAYA MAH.","zip":"37652"},{"name":"KISIK MAH.","zip":"37652"},{"name":"KONUKLAR MAH.","zip":"37652"},{"name":"KÖYCEYİZ MAH.","zip":"37652"},{"name":"KUZEY YARIMCA MAH.","zip":"37652"},{"name":"KÜÇÜKMUTLU KÖYÜ","zip":"37652"},{"name":"KÜPCÜLER MAH.","zip":"37652"},{"name":"MANAV MAH.","zip":"37652"},{"name":"MENTEŞE MAH.","zip":"37652"},{"name":"MERKEZ MAH.","zip":"37652"},{"name":"MUHTREM MAH.","zip":"37652"},{"name":"ORTA MAH.","zip":"37652"},{"name":"ÖRENCİK MAH.","zip":"37652"},{"name":"PAŞA MAH.","zip":"37652"},{"name":"POYRACIK MAH.","zip":"37652"},{"name":"SALMAN KÖYÜ","zip":"37652"},{"name":"SEFER KÖYÜ","zip":"37652"},{"name":"TATLICA MAH.","zip":"37652"},{"name":"TEPECİK KÖYÜ","zip":"37652"},{"name":"TULEK MAH.","zip":"37652"},{"name":"UZUNYOL KÖYÜ","zip":"37652"},{"name":"YAKINCA MAH.","zip":"37652"},{"name":"YARIMCA KÖYÜ","zip":"37652"},{"name":"YÖRECİK MAH.","zip":"37652"},{"name":"YUKARIDAĞLI MAH.","zip":"37652"},{"name":"ZANALTI MAH.","zip":"37652"}]},{"name":"ŞENPAZAR","cityName":null,"quarters":[{"name":"DİBEKLİ MAH.","zip":"37650"},{"name":"GÜNEYTEKKE MAH.","zip":"37650"},{"name":"KARAMAN MAH.","zip":"37650"},{"name":"KORUCAK MAH.","zip":"37650"},{"name":"KUZTEKKE MAH.","zip":"37650"},{"name":"MERKEZ MAH.","zip":"37650"}]},{"name":"MERKEZKÖYLER","cityName":null,"quarters":[{"name":"ABDALHASAN KÖYÜ","zip":"37402"},{"name":"AFŞAR KÖYÜ","zip":"37402"},{"name":"AĞNAK MAH.","zip":"37402"},{"name":"AHCIBAŞI MAH.","zip":"37402"},{"name":"AHLATCI MAH.","zip":"37402"},{"name":"AKÇAKESE KÖYÜ","zip":"37402"},{"name":"AKDEĞİRMEN KÖYÜ","zip":"37402"},{"name":"AKDOĞAN KÖYÜ","zip":"37402"},{"name":"AKDOĞANTEKKE KÖYÜ","zip":"37402"},{"name":"AKHASAN MAH.","zip":"37402"},{"name":"AKILLIOĞLU MAH.","zip":"37402"},{"name":"AKSEKİ KÖYÜ","zip":"37402"},{"name":"ALAMABATAK KÖYÜ","zip":"37402"},{"name":"ALAMAKAYIŞ KÖYÜ","zip":"37402"},{"name":"ALAMAŞİŞLİ KÖYÜ","zip":"37402"},{"name":"ALASÖKÜ KÖYÜ","zip":"37402"},{"name":"ALATARLA KÖYÜ","zip":"37402"},{"name":"ALHAN MAH.","zip":"37402"},{"name":"ALIÇÇIK MAH.","zip":"37402"},{"name":"ALİBEY MAH.","zip":"37402"},{"name":"ALİBEYGIRAN MAH.","zip":"37402"},{"name":"ALİPAŞA KÖYÜ","zip":"37402"},{"name":"ALİSARAY KÖYÜ","zip":"37402"},{"name":"APTAL MAH.","zip":"37402"},{"name":"APTALGAZİ MAH.","zip":"37402"},{"name":"ARAPOĞLU MAH.","zip":"37402"},{"name":"ARMUTLU KÖYÜ","zip":"37402"},{"name":"ARSLANLI KÖYÜ","zip":"37402"},{"name":"ASARCIK MAH.","zip":"37402"},{"name":"AŞAĞI BOYALI MAH.","zip":"37402"},{"name":"AŞAĞI ÇİFTKIRAN MAH.","zip":"37402"},{"name":"AŞAĞI DEREKARAAGAÇ MAH.","zip":"37402"},{"name":"AŞAĞI KÖSEOĞLU MAH.","zip":"37402"},{"name":"AŞAĞI MAH.","zip":"37402"},{"name":"AŞAĞI TOKAŞ MAH.","zip":"37402"},{"name":"AŞAĞIÇAYIRCIK KÖYÜ","zip":"37402"},{"name":"AŞAĞIÇİT KÖYÜ","zip":"37402"},{"name":"AŞAĞIEMERCE KÖYÜ","zip":"37402"},{"name":"AŞAĞIŞEHİRÖREN KÖYÜ","zip":"37402"},{"name":"AŞAĞITELLİ MAH.","zip":"37402"},{"name":"AŞIKÇI MAH.","zip":"37402"},{"name":"AVDULLAR MAH.","zip":"37402"},{"name":"AVDULLU MAH.","zip":"37402"},{"name":"AYVALCA MAH.","zip":"37402"},{"name":"AYVALI KÖYÜ","zip":"37402"},{"name":"BADEMBEKDEMİR KÖYÜ","zip":"37402"},{"name":"BADEMCİ KÖYÜ","zip":"37402"},{"name":"BALTACI MAH.","zip":"37402"},{"name":"BARDAKÇI MAH.","zip":"37402"},{"name":"BAŞÖREN MAH.","zip":"37402"},{"name":"BAYAM MERKEZ MAH.","zip":"37402"},{"name":"BAYIRLI MAH.","zip":"37402"},{"name":"BAYRAM MAH.","zip":"37402"},{"name":"BEKDEMİR MAH.","zip":"37402"},{"name":"BEKDEMİREKŞİ KÖYÜ","zip":"37402"},{"name":"BEKİR MAH.","zip":"37402"},{"name":"BEKİRLİ KÖYÜ","zip":"37402"},{"name":"BEKTAŞ MAH.","zip":"37402"},{"name":"BELENÇAYIR MAH.","zip":"37402"},{"name":"BEY KÖYÜ","zip":"37402"},{"name":"BİRZADEOĞLU MAH.","zip":"37402"},{"name":"BODUR MAH.","zip":"37402"},{"name":"BOŞNAKLAR MAH.","zip":"37402"},{"name":"BOYUNDURCAK KÖYÜ","zip":"37402"},{"name":"BOZARMUT KÖYÜ","zip":"37402"},{"name":"BOZARMUT MAH.","zip":"37402"},{"name":"BOZTEPE MAH.","zip":"37402"},{"name":"BÖCÜ KÖYÜ","zip":"37402"},{"name":"BULAK MAH.","zip":"37402"},{"name":"BURHAN MAH.","zip":"37402"},{"name":"BÜK KÖYÜ","zip":"37402"},{"name":"BÜRÜM MAH.","zip":"37402"},{"name":"BÜYÜK SAPACA MAH.","zip":"37402"},{"name":"CALAY MAH.","zip":"37402"},{"name":"CEBECİ MAH.","zip":"37402"},{"name":"CELEP KÖYÜ","zip":"37402"},{"name":"CEVİZLİ MAH.","zip":"37402"},{"name":"CİVELEK MAH.","zip":"37402"},{"name":"CİYAR MAH.","zip":"37402"},{"name":"CURALI MAH.","zip":"37402"},{"name":"ÇAĞA MAH.","zip":"37402"},{"name":"ÇAKIR MAH.","zip":"37402"},{"name":"ÇAKIREKİN MAH.","zip":"37402"},{"name":"ÇALOĞLU MAH.","zip":"37402"},{"name":"ÇAMBAŞI KÖYÜ","zip":"37402"},{"name":"ÇAMLI MAH.","zip":"37402"},{"name":"ÇARIKLI MAH.","zip":"37402"},{"name":"ÇAT DERESİ MAH.","zip":"37402"},{"name":"ÇATTEPE MAH.","zip":"37402"},{"name":"ÇAVUŞ MAH.","zip":"37402"},{"name":"ÇAY MAH.","zip":"37402"},{"name":"ÇAYCEVHER KÖYÜ","zip":"37402"},{"name":"ÇAYKİRPİ KÖYÜ","zip":"37402"},{"name":"ÇAYLAKLAR KÖYÜ","zip":"37402"},{"name":"ÇEKİÇ KÖYÜ","zip":"37402"},{"name":"ÇETMİ KÖYÜ","zip":"37402"},{"name":"ÇEVİK KÖYÜ","zip":"37402"},{"name":"ÇİFTKIRAN KÖYÜ","zip":"37402"},{"name":"ÇİFTLİK KÖYÜ","zip":"37402"},{"name":"ÇİFTLİK MAH.","zip":"37402"},{"name":"ÇİĞDEMLİ MAH.","zip":"37402"},{"name":"ÇİLİNGİR MAH.","zip":"37402"},{"name":"ÇİMBEK MAH.","zip":"37402"},{"name":"ÇİRPİCİ MAH.","zip":"37402"},{"name":"ÇİT KÖYÜ","zip":"37402"},{"name":"ÇOBAN MAH.","zip":"37402"},{"name":"ÇOROĞLU KÖYÜ","zip":"37402"},{"name":"ÇÖRDÜ MAH.","zip":"37402"},{"name":"ÇÖRDÜK KÖYÜ","zip":"37402"},{"name":"ÇÜNÜR MAH.","zip":"37402"},{"name":"DAĞBELÖREN KÖYÜ","zip":"37402"},{"name":"DAVUTPAŞA MAH.","zip":"37402"},{"name":"DEĞİRMİ MAH.","zip":"37402"},{"name":"DELİALİŞLER MAH.","zip":"37402"},{"name":"DELİBEYOĞLU MAH.","zip":"37402"},{"name":"DELİİMAM MAH.","zip":"37402"},{"name":"DELMECE MAH.","zip":"37402"},{"name":"DEMİRCİ MAH.","zip":"37402"},{"name":"DERE KÖYÜ","zip":"37402"},{"name":"DERE MAH.","zip":"37402"},{"name":"DEREBEYSİBEY KÖYÜ","zip":"37402"},{"name":"DERECİK MAH.","zip":"37402"},{"name":"DEREKARAAĞAÇ KÖYÜ","zip":"37402"},{"name":"DEREKORU MAH.","zip":"37402"},{"name":"DERENCİK MAH.","zip":"37402"},{"name":"DİKMEN MAH.","zip":"37402"},{"name":"DİKMENDİBİ MAH.","zip":"37402"},{"name":"DİLEK KÖYÜ","zip":"37402"},{"name":"DİLLER MAH.","zip":"37402"},{"name":"DOLAY MAH.","zip":"37402"},{"name":"DOLAYDERE MAH.","zip":"37402"},{"name":"DONALAR KÖYÜ","zip":"37402"},{"name":"DONAŞALAR MAH.","zip":"37402"},{"name":"DONGİN MAH.","zip":"37402"},{"name":"DOPALOĞLU MAH.","zip":"37402"},{"name":"DOYMUŞ KÖYÜ","zip":"37402"},{"name":"DUMAN MAH.","zip":"37402"},{"name":"DURUCA KÖYÜ","zip":"37402"},{"name":"DUŞLUK MAH.","zip":"37402"},{"name":"DÜĞENÖZÜ MAH.","zip":"37402"},{"name":"EKŞİOĞLU MAH.","zip":"37402"},{"name":"ELLEZ MAH.","zip":"37402"},{"name":"EMİR MAH.","zip":"37402"},{"name":"EMİRLER MAH.","zip":"37402"},{"name":"ERİK KÖYÜ","zip":"37402"},{"name":"ERİKYATSI MAH.","zip":"37402"},{"name":"ERSİL KÖYÜ","zip":"37402"},{"name":"ERSİZLİ MAH.","zip":"37402"},{"name":"ESELLİ MAH.","zip":"37402"},{"name":"ESENLER MAH.","zip":"37402"},{"name":"ESENLİK KÖYÜ","zip":"37402"},{"name":"ESKİ MAH.","zip":"37402"},{"name":"ESKİATÇA KÖYÜ","zip":"37402"},{"name":"ESKİOĞLU KÖYÜ","zip":"37402"},{"name":"EYMÜR MAH.","zip":"37402"},{"name":"FIÇI MAH.","zip":"37402"},{"name":"GADI MAH.","zip":"37402"},{"name":"GANİOĞLU MAH.","zip":"37402"},{"name":"GARİPOĞLU MAH.","zip":"37402"},{"name":"GARİPŞAH KÖYÜ","zip":"37402"},{"name":"GERZE MAH.","zip":"37402"},{"name":"GÖÇ MAH.","zip":"37402"},{"name":"GÖRPE MAH.","zip":"37402"},{"name":"GÖYNÜK MAH.","zip":"37402"},{"name":"GUZ MAH.","zip":"37402"},{"name":"GUZSÖKÜ MAH.","zip":"37402"},{"name":"GÜLLÜ MAH.","zip":"37402"},{"name":"GÜNDOĞDU KÖYÜ","zip":"37402"},{"name":"GÜNEY MAH.","zip":"37402"},{"name":"GÜNEYCÜK MAH.","zip":"37402"},{"name":"GÜNEYKALINKESE KÖYÜ","zip":"37402"},{"name":"GÜZÖREN MAH.","zip":"37402"},{"name":"HACIALİ KÖYÜ","zip":"37402"},{"name":"HACIALİ MAH.","zip":"37402"},{"name":"HACILAR MAH.","zip":"37402"},{"name":"HALİLOĞLU MAH.","zip":"37402"},{"name":"HALLO MAH.","zip":"37402"},{"name":"HAMDULLAH MAH.","zip":"37402"},{"name":"HAMZAOĞLU KÖYÜ","zip":"37402"},{"name":"HASANLI KÖYÜ","zip":"37402"},{"name":"HATAPLI MAH.","zip":"37402"},{"name":"HATİP MAH.","zip":"37402"},{"name":"HAYIR MAH.","zip":"37402"},{"name":"HAZNEDAR MAH.","zip":"37402"},{"name":"HEBİLOGLU MAH.","zip":"37402"},{"name":"HOCA KÖYÜ","zip":"37402"},{"name":"İKİPINAR MAH.","zip":"37402"},{"name":"İKİZLER MAH.","zip":"37402"},{"name":"İMAM MAH.","zip":"37402"},{"name":"İMAMLAR MAH.","zip":"37402"},{"name":"İMAMOĞLU KÖYÜ","zip":"37402"},{"name":"İMİRLER MAH.","zip":"37402"},{"name":"İNCEÖZ MAH.","zip":"37402"},{"name":"İNCESU KÖYÜ","zip":"37402"},{"name":"İPRİM YAYLASI MAH.","zip":"37402"},{"name":"KABALA MAH.","zip":"37402"},{"name":"KABALAR KÖYÜ","zip":"37402"},{"name":"KABAŞ MAH.","zip":"37402"},{"name":"KADI KIZI MAH.","zip":"37402"},{"name":"KADI KÖYÜ","zip":"37402"},{"name":"KADILAR MAH.","zip":"37402"},{"name":"KADIOĞLU MAH.","zip":"37402"},{"name":"KALAŞLI MAH.","zip":"37402"},{"name":"KALAYCI MAH.","zip":"37402"},{"name":"KALFALI MAH.","zip":"37402"},{"name":"KAPAKLI KÖYÜ","zip":"37402"},{"name":"KAPANLI MAH.","zip":"37402"},{"name":"KAPUCU MAH.","zip":"37402"},{"name":"KARAAĞAÇ MAH.","zip":"37402"},{"name":"KARABURUN MAH.","zip":"37402"},{"name":"KARABURUN YAYLA EVİ MAH.","zip":"37402"},{"name":"KARACAKAYA KÖYÜ","zip":"37402"},{"name":"KARACAOĞLU KÖYÜ","zip":"37402"},{"name":"KARAÇALLIK MAH.","zip":"37402"},{"name":"KARADEDEOĞLU KÖYÜ","zip":"37402"},{"name":"KARADÜREN MAH.","zip":"37402"},{"name":"KARAGÜLLE MAH.","zip":"37402"},{"name":"KARAĞUZ YAYLASI MAH.","zip":"37402"},{"name":"KARAMAHMUT YAYLASI MAH.","zip":"37402"},{"name":"KARAPINAR MAH.","zip":"37402"},{"name":"KARAPÜRÇEK KÖYÜ","zip":"37402"},{"name":"KARAYILAN MAH.","zip":"37402"},{"name":"KARGACIK MAH.","zip":"37402"},{"name":"KARNIAÇIK KÖYÜ","zip":"37402"},{"name":"KARŞI BÜRÜM MAH.","zip":"37402"},{"name":"KARŞI KÖYÜ","zip":"37402"},{"name":"KARŞI MAH.","zip":"37402"},{"name":"KAVACI MAH.","zip":"37402"},{"name":"KAVACIK MAH.","zip":"37402"},{"name":"KAVAK MAH.","zip":"37402"},{"name":"KAYABAŞI MAH.","zip":"37402"},{"name":"KAYADİBİ KÖYÜ","zip":"37402"},{"name":"KAYAPINAR KÖYÜ","zip":"37402"},{"name":"KAYGINCA KÖYÜ","zip":"37402"},{"name":"KEL MAH.","zip":"37402"},{"name":"KELLER MAH.","zip":"37402"},{"name":"KELLO MAH.","zip":"37402"},{"name":"KELOĞLU MAH.","zip":"37402"},{"name":"KELÖNÜ MAH.","zip":"37402"},{"name":"KENDİROĞLU MAH.","zip":"37402"},{"name":"KERİMLER MAH.","zip":"37402"},{"name":"KERPÜC MAH.","zip":"37402"},{"name":"KESE KÖYÜ","zip":"37402"},{"name":"KESERCİOĞLU MAH.","zip":"37402"},{"name":"KETENLER MAH.","zip":"37402"},{"name":"KEYİŞ MAH.","zip":"37402"},{"name":"KILAVUZ MAH.","zip":"37402"},{"name":"KILIÇLI KÖYÜ","zip":"37402"},{"name":"KIRAN KÖYÜ","zip":"37402"},{"name":"KIRAN MAH.","zip":"37402"},{"name":"KIRHA KÖYÜ","zip":"37402"},{"name":"KIZILCAÖREN KÖYÜ","zip":"37402"},{"name":"KIZILCAÖRHEN KÖYÜ","zip":"37402"},{"name":"KIZILCIELMA MAH.","zip":"37402"},{"name":"KIZILKESE KÖYÜ","zip":"37402"},{"name":"KİRAZCIK KÖYÜ","zip":"37402"},{"name":"KİRENSÖKÜSÜ MAH.","zip":"37402"},{"name":"KİRLİK MAH.","zip":"37402"},{"name":"KİRPO MAH.","zip":"37402"},{"name":"KOCA MAH.","zip":"37402"},{"name":"KOÇANLI KÖYÜ","zip":"37402"},{"name":"KOÇCUAZ MAH.","zip":"37402"},{"name":"KOLCU MAH.","zip":"37402"},{"name":"KORNAPA KÖYÜ","zip":"37402"},{"name":"KOZLUCA MAH.","zip":"37402"},{"name":"KÖÇEKLİ KÖYÜ","zip":"37402"},{"name":"KÖLE MAH.","zip":"37402"},{"name":"KÖLOĞLU MAH.","zip":"37402"},{"name":"KÖSE MAH.","zip":"37402"},{"name":"KÖSELİ MAH.","zip":"37402"},{"name":"KÖYİÇİ MAH.","zip":"37402"},{"name":"KURDÜN MAH.","zip":"37402"},{"name":"KURU ÇAVUŞLAR MAH.","zip":"37402"},{"name":"KUŞTEPE MAH.","zip":"37402"},{"name":"KUYCAK MAH.","zip":"37402"},{"name":"KUYLUŞ KÖYÜ","zip":"37402"},{"name":"KUZGUNCUK 2 MAH.","zip":"37402"},{"name":"KUZGUNCUK MAH.","zip":"37402"},{"name":"KUZKALINKESE KÖYÜ","zip":"37402"},{"name":"KÜÇÜK SAPACA MAH.","zip":"37402"},{"name":"KÜÇÜKKUYLUŞ MAH.","zip":"37402"},{"name":"KÜÇÜKSÜ KÖYÜ","zip":"37402"},{"name":"KÜRT MAH.","zip":"37402"},{"name":"MALAK MAH.","zip":"37402"},{"name":"MANDIRA MAH.","zip":"37402"},{"name":"MASATLAR KÖYÜ","zip":"37402"},{"name":"MATIR MAH.","zip":"37402"},{"name":"MAYHAR MAH.","zip":"37402"},{"name":"MEHTER MAH.","zip":"37402"},{"name":"MEMİOĞLU MAH.","zip":"37402"},{"name":"MENCÜGEZ MAH.","zip":"37402"},{"name":"MERKEZ MAH.","zip":"37402"},{"name":"MEŞELİ MAH.","zip":"37402"},{"name":"MOLLAOGLU MAH.","zip":"37402"},{"name":"MOPAK MAH.","zip":"37402"},{"name":"MURAT MAH.","zip":"37402"},{"name":"MUSA MAH.","zip":"37402"},{"name":"MUŞURUP YAYLASI MAH.","zip":"37402"},{"name":"MÜSEYİT MAH.","zip":"37402"},{"name":"MÜTEVELLİ MAH.","zip":"37402"},{"name":"OBRUCAK KÖYÜ","zip":"37402"},{"name":"OKCU MAH.","zip":"37402"},{"name":"OLUKBAŞI KÖYÜ","zip":"37402"},{"name":"ORTA KÖYÜ","zip":"37402"},{"name":"ORTA MAH.","zip":"37402"},{"name":"ORTAKÖY MAH.","zip":"37402"},{"name":"ORTAÖZ KÖYÜ","zip":"37402"},{"name":"ORTATELLİ MAH.","zip":"37402"},{"name":"ORUÇLU MAH.","zip":"37402"},{"name":"OTMANLAR MAH.","zip":"37402"},{"name":"OYMAAĞAÇ MAH.","zip":"37402"},{"name":"OYMAAĞAÇSEKİ KÖYÜ","zip":"37402"},{"name":"ÖKÜZCÜ MAH.","zip":"37402"},{"name":"ÖMERLİ KÖYÜ","zip":"37402"},{"name":"ÖRENCİK MAH.","zip":"37402"},{"name":"ÖRHEN KÖYÜ","zip":"37402"},{"name":"ÖRHENLİ KÖYÜ","zip":"37402"},{"name":"ÖTE MAH.","zip":"37402"},{"name":"PAŞA KÖYÜ","zip":"37402"},{"name":"PAZAR MAH.","zip":"37402"},{"name":"PAZARYERİ MAH.","zip":"37402"},{"name":"PİRAHMETLİ KÖYÜ","zip":"37402"},{"name":"PİRCABEY MAH.","zip":"37402"},{"name":"PULFALI MAH.","zip":"37402"},{"name":"PURTUL MAH.","zip":"37402"},{"name":"PUŞLU MAH.","zip":"37402"},{"name":"RAHAT MAH.","zip":"37402"},{"name":"RAMAZAN MAH.","zip":"37402"},{"name":"SAKIZ MAH.","zip":"37402"},{"name":"SALİHOĞLU MAH.","zip":"37402"},{"name":"SALMANLI MAH.","zip":"37402"},{"name":"SAMANLIÖREN KÖYÜ","zip":"37402"},{"name":"SARAYCIK MAH.","zip":"37402"},{"name":"SARI MAH.","zip":"37402"},{"name":"SARIAOĞLU MAH.","zip":"37402"},{"name":"SARIKAVAK KÖYÜ","zip":"37402"},{"name":"SARIKAVAK MAH.","zip":"37402"},{"name":"SARILAR MAH.","zip":"37402"},{"name":"SARISEKİ KÖYÜ","zip":"37402"},{"name":"SARPUN KÖYÜ","zip":"37402"},{"name":"SARPUN MAH.","zip":"37402"},{"name":"SERGENLER MAH.","zip":"37402"},{"name":"SEY MAH.","zip":"37402"},{"name":"SEYİTLER MAH.","zip":"37402"},{"name":"SICAK TARLA MAH.","zip":"37402"},{"name":"SİPAHİ MAH.","zip":"37402"},{"name":"SOFTA MAH.","zip":"37402"},{"name":"SOĞANLAR MAH.","zip":"37402"},{"name":"SORGUNCUK MAH.","zip":"37402"},{"name":"SÖKÜ MAH.","zip":"37402"},{"name":"SÖYLEMEZ MAH.","zip":"37402"},{"name":"SULUOĞLU MAH.","zip":"37402"},{"name":"SÜLE MAH.","zip":"37402"},{"name":"ŞABAN MAH.","zip":"37402"},{"name":"ŞABANBEY MAH.","zip":"37402"},{"name":"ŞABANLAR MAH.","zip":"37402"},{"name":"ŞAHİNÇATI KÖYÜ","zip":"37402"},{"name":"ŞEHİRÖREN KÖYÜ","zip":"37402"},{"name":"ŞEHİRÖREN MAH.","zip":"37402"},{"name":"TAHTAK MAH.","zip":"37402"},{"name":"TAŞÇILAR KÖYÜ","zip":"37402"},{"name":"TAŞKAPI MAH.","zip":"37402"},{"name":"TAVUKÇUOĞLU KÖYÜ","zip":"37402"},{"name":"TEKEOĞLU KÖYÜ","zip":"37402"},{"name":"TEKEOĞLU MAH.","zip":"37402"},{"name":"TEKEV MAH.","zip":"37402"},{"name":"TEKKE MAH.","zip":"37402"},{"name":"TEKKEOĞLU MAH.","zip":"37402"},{"name":"TELLİ MAH.","zip":"37402"},{"name":"TEMBEL MAH.","zip":"37402"},{"name":"TEMÜR MAH.","zip":"37402"},{"name":"TENBELLER MAH.","zip":"37402"},{"name":"TEPE ARKASI MAH.","zip":"37402"},{"name":"TEPE MAH.","zip":"37402"},{"name":"TEPEDELİK KÖYÜ","zip":"37402"},{"name":"TİKENDERE MAH.","zip":"37402"},{"name":"TOKAŞ KÖYÜ","zip":"37402"},{"name":"TOPALAK MAH.","zip":"37402"},{"name":"TOPÇU MAH.","zip":"37402"},{"name":"TOPUZLAR MAH.","zip":"37402"},{"name":"TOROŞ MAH.","zip":"37402"},{"name":"TÜRKMENLER MAH.","zip":"37402"},{"name":"TÜTENLİ MAH.","zip":"37402"},{"name":"URGANCI KÖYÜ","zip":"37402"},{"name":"UZUNKAVAK KÖYÜ","zip":"37402"},{"name":"ÜZÜKTAŞ MAH.","zip":"37402"},{"name":"VAKIFBELÖREN KÖYÜ","zip":"37402"},{"name":"VEYSELLİ MAH.","zip":"37402"},{"name":"YAĞANLI MAH.","zip":"37402"},{"name":"YAHYA MAH.","zip":"37402"},{"name":"YAKA MAH.","zip":"37402"},{"name":"YALAK MAH.","zip":"37402"},{"name":"YANIŞLI MAH.","zip":"37402"},{"name":"YAVUÇ KÖYÜ","zip":"37402"},{"name":"YAVUÇKUYUCAĞI KÖYÜ","zip":"37402"},{"name":"YAYLA MAH.","zip":"37402"},{"name":"YAZICIOĞLU MAH.","zip":"37402"},{"name":"YAZIHAMİT KÖYÜ","zip":"37402"},{"name":"YEMİŞENLİOĞLU MAH.","zip":"37402"},{"name":"YENİ MAH.","zip":"37402"},{"name":"YENİÇOROĞLU MAH.","zip":"37402"},{"name":"YENİLER KÖYÜ","zip":"37402"},{"name":"YEŞİLYURT KÖYÜ","zip":"37402"},{"name":"YILANCA MAH.","zip":"37402"},{"name":"YOĞUNOLUK KÖYÜ","zip":"37402"},{"name":"YUKARI ARSLANLI MAH.","zip":"37402"},{"name":"YUKARI BOYALI MAH.","zip":"37402"},{"name":"YUKARI DEREKARAAĞAÇ MAH.","zip":"37402"},{"name":"YUKARI KÖSEOĞLU MAH.","zip":"37402"},{"name":"YUKARI MAH.","zip":"37402"},{"name":"YUKARI OBA MAH.","zip":"37402"},{"name":"YUKARI SEKİ MAH.","zip":"37402"},{"name":"YUKARIÇAYIRCIK KÖYÜ","zip":"37402"},{"name":"YUKARIEMERCE KÖYÜ","zip":"37402"},{"name":"YUKARIHATİPLER MAH.","zip":"37402"},{"name":"YUKARIŞEHİRÖREN KÖYÜ","zip":"37402"},{"name":"YUKARITELLİ MAH.","zip":"37402"},{"name":"YUNUSLU MAH.","zip":"37402"},{"name":"YÜZHANLI MAH.","zip":"37402"},{"name":"ZEYBEK MAH.","zip":"37402"}]},{"name":"TAŞKÖPRÜ","cityName":null,"quarters":[{"name":"BAHÇELİEVLER MAH.","zip":"37400"},{"name":"CAMİKEBİR MAH.","zip":"37400"},{"name":"ETHEM MAH.","zip":"37400"},{"name":"GİZLİCE MAH.","zip":"37400"},{"name":"GÖKIRMAK MAH.","zip":"37400"},{"name":"HARMANCIK MAH.","zip":"37400"},{"name":"KARASAİT MAH.","zip":"37400"},{"name":"MUSALLA MAH.","zip":"37400"},{"name":"PULCULAR MAH.","zip":"37400"},{"name":"SÜMER MAH.","zip":"37400"},{"name":"TABAKHANE MAH.","zip":"37400"},{"name":"TEKKE MAH.","zip":"37400"},{"name":"ÜSTATLAR MAH.","zip":"37400"}]},{"name":"MERKEZKÖYLER","cityName":null,"quarters":[{"name":"AKBÜK KÖYÜ","zip":"37302"},{"name":"AKÇAKAVAK MAH.","zip":"37302"},{"name":"AKDUTDİBİ MAH.","zip":"37302"},{"name":"AKSEKİ KÖYÜ","zip":"37302"},{"name":"ALAMADAN MAH.","zip":"37302"},{"name":"ALİ EFENDİ MAH.","zip":"37302"},{"name":"ALUÇ MAH.","zip":"37302"},{"name":"ASARBELEN MAH.","zip":"37302"},{"name":"AŞAĞI GÜNEY MAH.","zip":"37302"},{"name":"AŞAĞI MAH.","zip":"37302"},{"name":"AŞAĞIBERÇİN KÖYÜ","zip":"37302"},{"name":"AŞAĞIDİKMEN KÖYÜ","zip":"37302"},{"name":"AŞAĞIKAYI KÖYÜ","zip":"37302"},{"name":"AVŞAR MAH.","zip":"37302"},{"name":"BAŞYER VE KİRENLİ YAYLASI MAH.","zip":"37302"},{"name":"BAYAT KÖYÜ","zip":"37302"},{"name":"BEKTAŞLAR MAH.","zip":"37302"},{"name":"BEY MAH.","zip":"37302"},{"name":"BÜRNÜK KÖYÜ","zip":"37302"},{"name":"CAMİLİ MAH.","zip":"37302"},{"name":"CAMİLİ YAYLASI MAH.","zip":"37302"},{"name":"ÇAKIRLAR KÖYÜ","zip":"37302"},{"name":"ÇAMLICA MAH.","zip":"37302"},{"name":"ÇAY MAH.","zip":"37302"},{"name":"ÇAYBAŞI KÖYÜ","zip":"37302"},{"name":"ÇAYKAPI KÖYÜ","zip":"37302"},{"name":"ÇELTİKÇİ KÖYÜ","zip":"37302"},{"name":"ÇEPNİ KÖYÜ","zip":"37302"},{"name":"ÇEVLİK KÖYÜ","zip":"37302"},{"name":"ÇİFTER KÖYÜ","zip":"37302"},{"name":"ÇİFTLİK MAH.","zip":"37302"},{"name":"ÇOMAKLAR MAH.","zip":"37302"},{"name":"ÇUKURKÖY KÖYÜ","zip":"37302"},{"name":"DAĞARDI KÖYÜ","zip":"37302"},{"name":"DAĞÇATAĞI KÖYÜ","zip":"37302"},{"name":"DEDEM KÖYÜ","zip":"37302"},{"name":"DEMİRCİLER MAH.","zip":"37302"},{"name":"DERE MAH.","zip":"37302"},{"name":"DEVREZ MAH.","zip":"37302"},{"name":"ECEOĞLU MAH.","zip":"37302"},{"name":"EKİNCİK KÖYÜ","zip":"37302"},{"name":"EMİRHACI MAH.","zip":"37302"},{"name":"ERENLER MAH.","zip":"37302"},{"name":"ERMELİK KÖYÜ","zip":"37302"},{"name":"ERMELİK MAH.","zip":"37302"},{"name":"ESENLER MAH.","zip":"37302"},{"name":"ESKİ MAH.","zip":"37302"},{"name":"GERENLİ MAH.","zip":"37302"},{"name":"GÖKÇEÖZ KÖYÜ","zip":"37302"},{"name":"GÖKOMUZ KÖYÜ","zip":"37302"},{"name":"GÖL MAH.","zip":"37302"},{"name":"GÖTÜRGE MAH.","zip":"37302"},{"name":"GÖVRECİK KÖYÜ","zip":"37302"},{"name":"GUZ MAH.","zip":"37302"},{"name":"GÜVEKAŞI MAH.","zip":"37302"},{"name":"HACI SALİH MAH.","zip":"37302"},{"name":"HASANLI MAH.","zip":"37302"},{"name":"HATÇELER MAH.","zip":"37302"},{"name":"HATİP MAH.","zip":"37302"},{"name":"İNCEBEL KÖYÜ","zip":"37302"},{"name":"K.ERENLER MAH.","zip":"37302"},{"name":"KARABEY KÖYÜ","zip":"37302"},{"name":"KARAKÖY KÖYÜ","zip":"37302"},{"name":"KARAPÜRÇEK MAH.","zip":"37302"},{"name":"KARASAPAÇA KÖYÜ","zip":"37302"},{"name":"KARGA DERE MAH.","zip":"37302"},{"name":"KARGIN KÖYÜ","zip":"37302"},{"name":"KAYAÖNÜ KÖYÜ","zip":"37302"},{"name":"KAYSER MAH.","zip":"37302"},{"name":"KEÇELİ KÖYÜ","zip":"37302"},{"name":"KEPÇELER MAH.","zip":"37302"},{"name":"KILIÇLI MAH.","zip":"37302"},{"name":"KINIK KÖYÜ","zip":"37302"},{"name":"KIRAN MAH.","zip":"37302"},{"name":"KIRKAÇAK MAH.","zip":"37302"},{"name":"KIZILCA KÖYÜ","zip":"37302"},{"name":"KIZILCAAĞIL MAH.","zip":"37302"},{"name":"KIZILÖZ MAH.","zip":"37302"},{"name":"KİLKUYU KÖYÜ","zip":"37302"},{"name":"KİRENLİ MAH.","zip":"37302"},{"name":"KOCAOSMAN MAH.","zip":"37302"},{"name":"KÖSEN KÖYÜ","zip":"37302"},{"name":"KURAŞLAR MAH.","zip":"37302"},{"name":"KURT MAH.","zip":"37302"},{"name":"KURTBELİ MAH.","zip":"37302"},{"name":"KURTBELİ OSB MAH.","zip":"37302"},{"name":"KUŞÇULAR KÖYÜ","zip":"37302"},{"name":"KÜÇÜKKIZILCA KÖYÜ","zip":"37302"},{"name":"KÜÇÜKSEKİLER KÖYÜ","zip":"37302"},{"name":"KÜLEŞLER MAH.","zip":"37302"},{"name":"KÜRTKONDU MAH.","zip":"37302"},{"name":"KÜRÜZ MAH.","zip":"37302"},{"name":"M1 MAH.","zip":"37302"},{"name":"MANASTIR MAH.","zip":"37302"},{"name":"MERKEZ MAH.","zip":"37302"},{"name":"MEZARLIK MAH.","zip":"37302"},{"name":"MISIRLI MAH.","zip":"37302"},{"name":"MISMILAĞAÇ KÖYÜ","zip":"37302"},{"name":"MURATLI MAH.","zip":"37302"},{"name":"MUSAKÖY KÖYÜ","zip":"37302"},{"name":"ORTA BERÇİN MAH.","zip":"37302"},{"name":"ORTA MAH.","zip":"37302"},{"name":"ORTA YAYLASI MAH.","zip":"37302"},{"name":"ORTALICA KÖYÜ","zip":"37302"},{"name":"OVA MAH.","zip":"37302"},{"name":"ÖZBOYU KÖYÜ","zip":"37302"},{"name":"ÖZLEN MAH.","zip":"37302"},{"name":"SAKIZİÇİ MAH.","zip":"37302"},{"name":"SAPACA KÖYÜ","zip":"37302"},{"name":"SARSUKLAR MAH.","zip":"37302"},{"name":"SAZ DAĞI MAH.","zip":"37302"},{"name":"SEKİLER KÖYÜ","zip":"37302"},{"name":"SEVİNÇÖREN KÖYÜ","zip":"37302"},{"name":"SİNDERLİ MAH.","zip":"37302"},{"name":"SİTE MAH.","zip":"37302"},{"name":"SİVAR MAH.","zip":"37302"},{"name":"SOFULAR KÖYÜ","zip":"37302"},{"name":"SULUCA KÖYÜ","zip":"37302"},{"name":"ŞAHANOĞLU MAH.","zip":"37302"},{"name":"ŞARAKMAN KÖYÜ","zip":"37302"},{"name":"ŞEMSETTİN MAH.","zip":"37302"},{"name":"ŞIHLAR MAH.","zip":"37302"},{"name":"TAŞKAYNAR MAH.","zip":"37302"},{"name":"TEKELER MAH.","zip":"37302"},{"name":"TEPE MAH.","zip":"37302"},{"name":"TEPEARASI MAH.","zip":"37302"},{"name":"TOPALOĞLU MAH.","zip":"37302"},{"name":"UĞUR MAH.","zip":"37302"},{"name":"UNDUK MAH.","zip":"37302"},{"name":"UZUNYAZI MAH.","zip":"37302"},{"name":"YAĞCILAR KÖYÜ","zip":"37302"},{"name":"YAMUKLAR MAH.","zip":"37302"},{"name":"YAZI MAH.","zip":"37302"},{"name":"YENİ MAH.","zip":"37302"},{"name":"YENİDAĞARDI MAH.","zip":"37302"},{"name":"YENİDOĞAN KÖYÜ","zip":"37302"},{"name":"YENİSAPACA MAH.","zip":"37302"},{"name":"YEŞİLÇAYIR MAH.","zip":"37302"},{"name":"YEŞİLOVA MAH.","zip":"37302"},{"name":"YUKARI GÜNEY MAH.","zip":"37302"},{"name":"YUKARI MAH.","zip":"37302"},{"name":"YUKARIBEKTAŞLAR MAH.","zip":"37302"},{"name":"YUKARIBERÇİN KÖYÜ","zip":"37302"},{"name":"YUKARIDİKMEN KÖYÜ","zip":"37302"},{"name":"YUKARIKAYI KÖYÜ","zip":"37302"},{"name":"ZİNCİRLİKUYU KÖYÜ","zip":"37302"}]},{"name":"TOSYA","cityName":null,"quarters":[{"name":"CAMİATİK MAH.","zip":"37300"},{"name":"CUMHURİYET MAH.","zip":"37300"},{"name":"ÇATMA MAH.","zip":"37300"},{"name":"DERE MAH.","zip":"37300"},{"name":"DİLKÜŞA MAH.","zip":"37300"},{"name":"FEVZİPAŞA MAH.","zip":"37300"},{"name":"HACI KEMAL MAH.","zip":"37300"},{"name":"HACIPİR MAH.","zip":"37300"},{"name":"HARSAT MAH.","zip":"37300"},{"name":"HOCAFAKI MAH.","zip":"37300"},{"name":"HOCAİMAT MAH.","zip":"37300"},{"name":"İBNİ SELİM MAH.","zip":"37300"},{"name":"İLYASBEY MAH.","zip":"37300"},{"name":"KARGI MAH.","zip":"37300"},{"name":"KARŞIYAKA MAH.","zip":"37300"},{"name":"KUZYAKA MAH.","zip":"37300"},{"name":"MİMAR SİNAN MAH.","zip":"37300"},{"name":"PINARBAŞI MAH.","zip":"37300"},{"name":"ŞEH MAH.","zip":"37300"},{"name":"ŞEHREKÜSTÜ MAH.","zip":"37300"},{"name":"YAVUZ SELİM MAH.","zip":"37300"},{"name":"YUNUS EMRE MAH.","zip":"37300"}]}]}]}