{"id":38,"name":"KAYSERİ","cities":[{"name":"city","districts":[{"name":"AKKIŞLA","cityName":null,"quarters":[{"name":"GİRİNCİ MAH.","zip":"38830"},{"name":"GÖMÜRGEN MAH.","zip":"38830"},{"name":"GÖMÜRGEN YENİ MAH.","zip":"38830"},{"name":"GÜMÜŞSU MAH.","zip":"38830"},{"name":"KULULU MAH.","zip":"38830"},{"name":"ORTAKÖY MAH.","zip":"38830"},{"name":"ŞEN MAH.","zip":"38830"},{"name":"UĞURLU MAH.","zip":"38830"},{"name":"YENİ MAH.","zip":"38830"},{"name":"YEŞİL MAH.","zip":"38830"},{"name":"YUKARI MAH.","zip":"38830"}]},{"name":"BÜNYAN","cityName":null,"quarters":[{"name":"AKÇATI MAH.","zip":"38600"},{"name":"AKMESCİT MAH.","zip":"38600"},{"name":"ASMAKAYA MAH.","zip":"38600"},{"name":"BAYRAMLI MAH.","zip":"38600"},{"name":"BURHANİYE MAH.","zip":"38600"},{"name":"BÜYÜKTUZHİSAR MAH.","zip":"38600"},{"name":"CAMİİCEDİT MAH.","zip":"38600"},{"name":"CAMİİKEBİR MAH.","zip":"38600"},{"name":"CUMHURİYET MAH.","zip":"38600"},{"name":"DAĞARDI MAH.","zip":"38600"},{"name":"DERVİŞAĞA MAH.","zip":"38600"},{"name":"DOĞANLAR MAH.","zip":"38600"},{"name":"EKİNCİLER MAH.","zip":"38600"},{"name":"ELBAŞI MAH.","zip":"38600"},{"name":"EMİRÖREN MAH.","zip":"38600"},{"name":"FATİH MAH.","zip":"38600"},{"name":"GİRVELİ MAH.","zip":"38600"},{"name":"GÜLLÜCE MAH.","zip":"38600"},{"name":"HAZARŞAH MAH.","zip":"38600"},{"name":"İBRAHİMBEY MAH.","zip":"38600"},{"name":"İĞDECİK MAH.","zip":"38600"},{"name":"KAHVECİ MAH.","zip":"38600"},{"name":"KARACAÖREN MAH.","zip":"38600"},{"name":"KARAHIDIR MAH.","zip":"38600"},{"name":"KARAKAYA MAH.","zip":"38600"},{"name":"KARATAY MAH.","zip":"38600"},{"name":"KARDEŞLER MAH.","zip":"38600"},{"name":"KOYUNABDAL MAH.","zip":"38600"},{"name":"KÖPRÜBAŞI MAH.","zip":"38600"},{"name":"KÖSEHACILI MAH.","zip":"38600"},{"name":"MUSAŞEYH MAH.","zip":"38600"},{"name":"PİRAHMET MAH.","zip":"38600"},{"name":"SAĞLIK MAH.","zip":"38600"},{"name":"SAMAĞIR MAH.","zip":"38600"},{"name":"SIVGIN MAH.","zip":"38600"},{"name":"SULTANHANI MAH.","zip":"38600"},{"name":"SÜMER MAH.","zip":"38600"},{"name":"TOPSÖĞÜT MAH.","zip":"38600"},{"name":"YAĞMURBEY MAH.","zip":"38600"},{"name":"YAVUZ SELİM MAH.","zip":"38600"},{"name":"YENİ MAH.","zip":"38600"},{"name":"YENİ SÜKSÜN MAH.","zip":"38600"},{"name":"YENİCE MAH.","zip":"38600"},{"name":"YÜNÖREN MAH.","zip":"38600"}]},{"name":"DEVELİ","cityName":null,"quarters":[{"name":"ALPASLAN MAH.","zip":"38400"},{"name":"AŞAĞIEVEREK MAH.","zip":"38400"},{"name":"AŞIK SEYRANİ MAH.","zip":"38400"},{"name":"AYŞEPINAR MAH.","zip":"38400"},{"name":"AYVAZHACI MAH.","zip":"38400"},{"name":"BAHÇEBAŞI MAH.","zip":"38400"},{"name":"BAHÇELİEVLER MAH.","zip":"38400"},{"name":"BÜYÜKKÜNYE MAH.","zip":"38400"},{"name":"CAMİİCEDİT MAH.","zip":"38400"},{"name":"CUMHURİYET MAH.","zip":"38400"},{"name":"ÇADIRYERİ MAH.","zip":"38400"},{"name":"ÇATALOLUK MAH.","zip":"38400"},{"name":"ÇAYIRÖZÜ MAH.","zip":"38400"},{"name":"ÇAYLICA MAH.","zip":"38400"},{"name":"ÇOMAKLI MAH.","zip":"38400"},{"name":"ÇÖTEN MAH.","zip":"38400"},{"name":"ÇUKURYURT MAH.","zip":"38400"},{"name":"DEREBAŞI MAH.","zip":"38400"},{"name":"DEREŞİMLİ MAH.","zip":"38400"},{"name":"DEVELİ CAMİKEBİR MAH.","zip":"38400"},{"name":"E.CAMİİKEBİR MAH.","zip":"38400"},{"name":"EPÇE MAH.","zip":"38400"},{"name":"EŞELİK MAH.","zip":"38400"},{"name":"FATİH MAH.","zip":"38400"},{"name":"FENESEAŞAĞI MAH.","zip":"38400"},{"name":"FENESEYUKARI MAH.","zip":"38400"},{"name":"GAZİ MAH.","zip":"38400"},{"name":"GÖMEDİ MAH.","zip":"38400"},{"name":"GÜMÜŞÖREN MAH.","zip":"38400"},{"name":"GÜNEYAŞAĞI MAH.","zip":"38400"},{"name":"GÜNEYYUKARI MAH.","zip":"38400"},{"name":"HARMAN MAH.","zip":"38400"},{"name":"HAVADAN MAH.","zip":"38400"},{"name":"HOŞÇA MAH.","zip":"38400"},{"name":"HÜSEYİNLİ MAH.","zip":"38400"},{"name":"İBRAHİMAĞA MAH.","zip":"38400"},{"name":"İNCESU MAH.","zip":"38400"},{"name":"İZMİRLİ MAH.","zip":"38400"},{"name":"KABAKLI MAH.","zip":"38400"},{"name":"KALEKÖY MAH.","zip":"38400"},{"name":"KARACAÖREN MAH.","zip":"38400"},{"name":"KILIÇKAYA MAH.","zip":"38400"},{"name":"KIZIK MAH.","zip":"38400"},{"name":"KOPÇULLU MAH.","zip":"38400"},{"name":"KOZLUCA MAH.","zip":"38400"},{"name":"KÖSELER MAH.","zip":"38400"},{"name":"KULPAK MAH.","zip":"38400"},{"name":"KÜÇÜKKÜNYE MAH.","zip":"38400"},{"name":"MEHMET AKİF ERSOY MAH.","zip":"38400"},{"name":"MİLLİDERE MAH.","zip":"38400"},{"name":"MUSTAFA ASIM KÖKSAL MAH.","zip":"38400"},{"name":"ÖKSÜT MAH.","zip":"38400"},{"name":"REŞADİYE MAH.","zip":"38400"},{"name":"SARAYCIK MAH.","zip":"38400"},{"name":"SARICA MAH.","zip":"38400"},{"name":"SARIKAYA MAH.","zip":"38400"},{"name":"SATI MAH.","zip":"38400"},{"name":"SİNDELHÖYÜK MAH.","zip":"38400"},{"name":"SOYSALLI MAH.","zip":"38400"},{"name":"ŞAHMELİK MAH.","zip":"38400"},{"name":"ŞHT.ÜSTĞM.HASAN ŞAHAN MAH.","zip":"38400"},{"name":"ŞIHLI MAH.","zip":"38400"},{"name":"TAŞCI BUCAK MERKEZİ MAH.","zip":"38400"},{"name":"TOMBAK MAH.","zip":"38400"},{"name":"YAYLACIK MAH.","zip":"38400"},{"name":"YAZIBAŞI MAH.","zip":"38400"},{"name":"YEDEK MAH.","zip":"38400"},{"name":"YENİ MAH.","zip":"38400"},{"name":"YENİCE MAH.","zip":"38400"},{"name":"YENİHAYAT MAH.","zip":"38400"},{"name":"YENİKÖY MAH.","zip":"38400"},{"name":"YEŞİLYURT MAH.","zip":"38400"},{"name":"YÜZEVLER MAH.","zip":"38400"},{"name":"ZİLE MAH.","zip":"38400"}]},{"name":"FELAHİYE","cityName":null,"quarters":[{"name":"ALPARSLAN MAH.","zip":"38750"},{"name":"BEYLER MAH.","zip":"38750"},{"name":"BÜYÜK TORAMAN MAH.","zip":"38750"},{"name":"CUMHURİYET MAH.","zip":"38750"},{"name":"DARILI MAH.","zip":"38750"},{"name":"İSABEY MAH.","zip":"38750"},{"name":"KALE MAH.","zip":"38750"},{"name":"KARAŞEYH MAH.","zip":"38750"},{"name":"KAYAPINAR MAH.","zip":"38750"},{"name":"KEPİÇ MAH.","zip":"38750"},{"name":"KURUHÜYÜK MAH.","zip":"38750"},{"name":"MENTEŞE MAH.","zip":"38750"},{"name":"SİLAHTAR MAH.","zip":"38750"},{"name":"YENİ MAH.","zip":"38750"}]},{"name":"HACILAR","cityName":null,"quarters":[{"name":"AKYAZI MAH.","zip":"38310"},{"name":"AŞAĞI MAH.","zip":"38310"},{"name":"BEĞENDİK MAH.","zip":"38310"},{"name":"ERCİYES MAH.","zip":"38310"},{"name":"ORTA MAH.","zip":"38310"},{"name":"YEDİAĞAÇ MAH.","zip":"38310"},{"name":"YENİ MAH.","zip":"38310"},{"name":"YUKARI MAH.","zip":"38310"}]},{"name":"HACILAR KÖYLER","cityName":null,"quarters":[{"name":"KARPUZSEKİSİ MAH.","zip":"38315"},{"name":"SAKARÇİFTLİĞİ MAH.","zip":"38315"}]},{"name":"İNCESU","cityName":null,"quarters":[{"name":"BAHÇESARAY MAH.","zip":"38560"},{"name":"BULGURCU MAH.","zip":"38560"},{"name":"ÇARDAKLI MAH.","zip":"38560"},{"name":"DOKUZPINAR MAH.","zip":"38560"},{"name":"FIRINÖNÜ MAH.","zip":"38560"},{"name":"GARİPÇE MAH.","zip":"38560"},{"name":"GÖNENKENT MAH.","zip":"38560"},{"name":"HAMURCU MAH.","zip":"38560"},{"name":"KARAHÜYÜK MAH.","zip":"38560"},{"name":"KARAKOYUNLU MAH.","zip":"38560"},{"name":"KARAMUSTAFAPAŞA MAH.","zip":"38560"},{"name":"KIZILÖREN AŞAĞI MAH.","zip":"38560"},{"name":"KIZILÖREN AVŞAR MAH.","zip":"38560"},{"name":"KIZILÖREN ÖTEBATAN MAH.","zip":"38560"},{"name":"KIZILÖREN TABAKLI MAH.","zip":"38560"},{"name":"KÜLLÜ MAH.","zip":"38560"},{"name":"ÖRENŞEHİR MAH.","zip":"38560"},{"name":"SARAYCIK MAH.","zip":"38560"},{"name":"SARIKÜRKLÜ MAH.","zip":"38560"},{"name":"SEMERKENT MAH.","zip":"38560"},{"name":"SUBAŞI MAH.","zip":"38560"},{"name":"SULTANSAZI OSB MAH.","zip":"38560"},{"name":"SÜKSÜN CUMHURİYET MAH.","zip":"38560"},{"name":"SÜKSÜN HÜRRİYET MAH.","zip":"38560"},{"name":"SÜKSÜN ZAFER MAH.","zip":"38560"},{"name":"ŞEYHŞABAN MAH.","zip":"38560"},{"name":"TAHİRİNLİ MAH.","zip":"38560"},{"name":"ÜÇKUYU MAH.","zip":"38560"},{"name":"VALİ İHSAN ARAS MAH.","zip":"38560"},{"name":"YARIM MAH.","zip":"38560"},{"name":"YENİ CAMİİ MAH.","zip":"38560"}]},{"name":"ANKARAYOLU KÖYLER","cityName":null,"quarters":[{"name":"BEYDEĞİRMENİ MAH.","zip":"38090"},{"name":"BOĞAZKÖPRÜ MAH.","zip":"38090"},{"name":"DÜVER MAH.","zip":"38090"},{"name":"EBİÇ KIZILIRMAK MAH.","zip":"38090"},{"name":"EBİÇ MEVLANA MAH.","zip":"38090"},{"name":"ELMALI MAH.","zip":"38090"},{"name":"ESKİÖMERLER MAH.","zip":"38090"},{"name":"HIRKAKÖY MAH.","zip":"38090"},{"name":"HİMMETDEDE MAH.","zip":"38090"},{"name":"KALKANCIK MAH.","zip":"38090"},{"name":"KARAKİMSE MAH.","zip":"38090"},{"name":"KAŞKÖY MAH.","zip":"38090"},{"name":"MAHZEMİN GÜNDOĞAN MAH.","zip":"38090"},{"name":"MAHZEMİN YENİ MAH.","zip":"38090"},{"name":"MOLU MAH.","zip":"38090"},{"name":"OYMAAĞAÇ MAH.","zip":"38090"},{"name":"SARAYCIK MAH.","zip":"38090"},{"name":"YEMLİHA MAH.","zip":"38090"},{"name":"YUKARIHASİNLİ MAH.","zip":"38090"},{"name":"YUVALI MAH.","zip":"38090"}]},{"name":"ARGINCIK","cityName":null,"quarters":[{"name":"CAMİİKEBİR MAH.","zip":"38030"},{"name":"CENGİZ TOPEL MAH.","zip":"38030"},{"name":"CIRGALAN MAH.","zip":"38030"},{"name":"CUMHURİYET MAH.","zip":"38030"},{"name":"FEVZİOĞLU MAH.","zip":"38030"},{"name":"KAYABAŞI MAH.","zip":"38030"},{"name":"MEHMET AKİF ERSOY MAH.","zip":"38030"},{"name":"TALATPAŞA MAH.","zip":"38030"},{"name":"TANPINAR MAH.","zip":"38030"},{"name":"YENİPERVANE MAH.","zip":"38030"}]},{"name":"BEYAZŞEHİR","cityName":null,"quarters":[{"name":"BEYAZŞEHİR MAH.","zip":"38080"},{"name":"KOCASİNAN MAH.","zip":"38080"},{"name":"YAVUZSELİM MAH.","zip":"38080"}]},{"name":"ERKİLET","cityName":null,"quarters":[{"name":"ERKİLET ARABİDİN MAH.","zip":"38050"},{"name":"ERKİLET CAMİİKEBİR MAH.","zip":"38050"},{"name":"ERKİLET DERE MAH.","zip":"38050"},{"name":"ERKİLET GENERAL EMİR MAH.","zip":"38050"},{"name":"ERKİLET MEHMET AKİF ERSOY MAH.","zip":"38050"},{"name":"ERKİLET OSMAN GAZİ MAH.","zip":"38050"},{"name":"ERKİLET TEPE MAH.","zip":"38050"},{"name":"ERKİLET YUKARI MAH.","zip":"38050"},{"name":"ERKİLET ZADE MAH.","zip":"38050"}]},{"name":"ERKİLET KÖYLER","cityName":null,"quarters":[{"name":"BOYACI MAH.","zip":"38055"},{"name":"DADAĞI MAH.","zip":"38055"},{"name":"ERKİLET ÇEVRİL MAH.","zip":"38055"},{"name":"ERKİLET EMMİLER MAH.","zip":"38055"},{"name":"ERKİLET TAŞHAN MAH.","zip":"38055"},{"name":"HASAN ARPA MAH.","zip":"38055"},{"name":"KEMER MAH.","zip":"38055"},{"name":"KUŞÇU MAH.","zip":"38055"},{"name":"YAZIR MAH.","zip":"38055"}]},{"name":"FEVZİ ÇAKMAK","cityName":null,"quarters":[{"name":"FEVZİ ÇAKMAK MAH.","zip":"38020"},{"name":"MİMARSİNAN MAH.","zip":"38020"},{"name":"UĞUREVLER MAH.","zip":"38020"},{"name":"YILDIZEVLER MAH.","zip":"38020"}]},{"name":"GÜNEŞLİ","cityName":null,"quarters":[{"name":"AMARAT MAH.","zip":"38095"},{"name":"BARSAMA MAH.","zip":"38095"},{"name":"BUĞDAYLI MAH.","zip":"38095"},{"name":"DORUKLU MAH.","zip":"38095"},{"name":"EYİM MAH.","zip":"38095"},{"name":"GÖMEÇ MAH.","zip":"38095"},{"name":"GÜNEŞLİ BAHÇELİEVLER MAH.","zip":"38095"},{"name":"GÜNEŞLİ CUMHURİYET MAH.","zip":"38095"},{"name":"GÜNEŞLİ KALE MAH.","zip":"38095"},{"name":"HASANCI MAH.","zip":"38095"},{"name":"HÖBEK MAH.","zip":"38095"},{"name":"KARAHÖYÜK MAH.","zip":"38095"},{"name":"KIZIK MAH.","zip":"38095"},{"name":"KUŞCAĞIZ MAH.","zip":"38095"},{"name":"MOLLAHACI MAH.","zip":"38095"},{"name":"OBRUK MAH.","zip":"38095"},{"name":"SALUR MAH.","zip":"38095"},{"name":"VATAN MAH.","zip":"38095"},{"name":"YÜREĞİL MAH.","zip":"38095"}]},{"name":"KAZIM KARABEKİR","cityName":null,"quarters":null},{"name":"SANAYİ","cityName":null,"quarters":[{"name":"GEVHERNESİBE MAH.","zip":"38010"},{"name":"HACI SAKİ MAH.","zip":"38010"},{"name":"SANAYİ MAH.","zip":"38010"}]},{"name":"VALİLİK","cityName":null,"quarters":[{"name":"SAHABİYE MAH.","zip":"38015"},{"name":"SERÇEÖNÜ MAH.","zip":"38015"}]},{"name":"YENİ MAHALLE","cityName":null,"quarters":[{"name":"ELAGÖZ MAH.","zip":"38040"},{"name":"HİLAL MAH.","zip":"38040"},{"name":"HOCA AHMET YESEVİ MAH.","zip":"38040"},{"name":"MEVLANA MAH.","zip":"38040"},{"name":"PLEVNE MAH.","zip":"38040"},{"name":"SANCAKTEPE MAH.","zip":"38040"},{"name":"SARAY BOSNA MAH.","zip":"38040"},{"name":"SEYRANİ MAH.","zip":"38040"},{"name":"SÜMER MAH.","zip":"38040"},{"name":"ŞİRİNEVLER MAH.","zip":"38040"},{"name":"YAKUT MAH.","zip":"38040"},{"name":"YENİ MAH.","zip":"38040"},{"name":"YEŞİL MAH.","zip":"38040"},{"name":"ZÜMRÜT MAH.","zip":"38040"}]},{"name":"YENİŞEHİR","cityName":null,"quarters":[{"name":"BEŞPARMAK MAH.","zip":"38060"},{"name":"GAZİOSMAN PAŞA MAH.","zip":"38060"},{"name":"İSTASYON MAH.","zip":"38060"},{"name":"MİTHATPAŞA MAH.","zip":"38060"},{"name":"ORUÇREİS MAH.","zip":"38060"},{"name":"TURGUT REİS MAH.","zip":"38060"},{"name":"YAVUZ MAH.","zip":"38060"},{"name":"YENİDOĞAN MAH.","zip":"38060"},{"name":"YENİŞEHİR MAH.","zip":"38060"},{"name":"YUNUSEMRE MAH.","zip":"38060"},{"name":"ZİYAGÖKALP MAH.","zip":"38060"}]},{"name":"BATTALGAZİ","cityName":null,"quarters":[{"name":"BECEN MAH.","zip":"38150"},{"name":"CAFERBEY MAH.","zip":"38150"},{"name":"DANİŞMEND GAZİ MAH.","zip":"38150"},{"name":"ERENKÖY MAH.","zip":"38150"},{"name":"ESENYURT MAH.","zip":"38150"},{"name":"KARACAOĞLU MAH.","zip":"38150"},{"name":"KÜÇÜKALİ MAH.","zip":"38150"},{"name":"NURİHAS MAH.","zip":"38150"},{"name":"OSMANLI MAH.","zip":"38150"},{"name":"SELÇUKLU MAH.","zip":"38150"},{"name":"ŞEHİT NAZIMBEY MAH.","zip":"38150"},{"name":"TACETTİN VELİ MAH.","zip":"38150"}]},{"name":"BELSİN","cityName":null,"quarters":[{"name":"30 AĞUSTOS MAH.","zip":"38170"},{"name":"ANAFARTALAR MAH.","zip":"38170"},{"name":"ANBAR MAH.","zip":"38170"},{"name":"ANBAR SB MAH.","zip":"38170"},{"name":"KAYSERİOSB MAH.","zip":"38170"},{"name":"KEYKUBAT MAH.","zip":"38170"},{"name":"KOCATEPE MAH.","zip":"38170"},{"name":"SAKARYA MAH.","zip":"38170"},{"name":"SELİMİYE MAH.","zip":"38170"},{"name":"TINAZTEPE MAH.","zip":"38170"}]},{"name":"ÇARŞI","cityName":null,"quarters":[{"name":"CUMHURİYET MAH.","zip":"38110"},{"name":"KİÇİKAPI MAH.","zip":"38110"}]},{"name":"GESİ","cityName":null,"quarters":[{"name":"GESİ BAHÇELİ MAH.","zip":"38190"},{"name":"GESİ GÜNEY MAH.","zip":"38190"},{"name":"GESİ GÜZELKÖY MAH.","zip":"38190"},{"name":"GESİ KAYABAĞ MAH.","zip":"38190"},{"name":"GESİ KUZEY MAH.","zip":"38190"},{"name":"VEKSE MAH.","zip":"38190"},{"name":"YEŞİLYURT MAH.","zip":"38190"}]},{"name":"GÜRPINAR","cityName":null,"quarters":[{"name":"BÜYÜKBÜRÜNGÜZ FATİH MAH.","zip":"38195"},{"name":"BÜYÜKBÜRÜNGÜZ YAVUZ MAH.","zip":"38195"},{"name":"GÜRPINAR PINAR MAH.","zip":"38195"},{"name":"GÜRPINAR YEŞİL MAH.","zip":"38195"},{"name":"KÜÇÜKBÜRÜNGÜZ MAH.","zip":"38195"},{"name":"SARIMSAKLI MAH.","zip":"38195"},{"name":"SUBAŞI MAH.","zip":"38195"},{"name":"TURAN MAH.","zip":"38195"}]},{"name":"HİSARCIK-KIRANARDI","cityName":null,"quarters":[{"name":"HİSARCIK ERCİYES MAH.","zip":"38155"},{"name":"HİSARCIK İBRAHİM TENNURİ MAH.","zip":"38155"},{"name":"İNECİK MAH.","zip":"38155"},{"name":"KIRANARDI CUMHURİYET MAH.","zip":"38155"},{"name":"KIRANARDI FATİH MAH.","zip":"38155"}]},{"name":"HÜRRİYET","cityName":null,"quarters":[{"name":"AYDINLIKEVLER MAH.","zip":"38120"},{"name":"ÇORAKÇILAR MAH.","zip":"38120"},{"name":"EĞRİBUCAK MAH.","zip":"38120"},{"name":"GÜLÜK MAH.","zip":"38120"},{"name":"HÜRRİYET MAH.","zip":"38120"},{"name":"KEMERALTI MAH.","zip":"38120"},{"name":"KÜÇÜK MUSTAFA MAH.","zip":"38120"},{"name":"YENİKÖY MAH.","zip":"38120"}]},{"name":"İLDEM","cityName":null,"quarters":[{"name":"GESİ FATİH MAH.","zip":"38180"}]},{"name":"KAZIM KARABEKİR","cityName":null,"quarters":[{"name":"KAZIMKARABEKİR MAH.","zip":"38130"},{"name":"OSMAN KAVUNCU MAH.","zip":"38130"}]},{"name":"KILIÇASLAN","cityName":null,"quarters":[{"name":"GÜLTEPE MAH.","zip":"38140"},{"name":"HUNAT MAH.","zip":"38140"},{"name":"KILIÇASLAN MAH.","zip":"38140"},{"name":"KÖŞK MAH.","zip":"38140"},{"name":"MELİKGAZİ MAH.","zip":"38140"},{"name":"SEYİTGAZİ MAH.","zip":"38140"},{"name":"YENİ MAH.","zip":"38140"},{"name":"YILDIRIM BEYAZIT MAH.","zip":"38140"}]},{"name":"MİMARSİNAN","cityName":null,"quarters":[{"name":"GÖKKENT MAH.","zip":"38165"},{"name":"KONAKLAR MAH.","zip":"38165"},{"name":"MİMARSİNAN OSB MAH.","zip":"38165"},{"name":"MİMARSİNANBAHÇELİEVLER MAH.","zip":"38165"},{"name":"MİMARSİNANDEMOKRASİ MAH.","zip":"38165"},{"name":"MİMARSİNANDERE MAH.","zip":"38165"},{"name":"MİMARSİNANFATİH MAH.","zip":"38165"},{"name":"MİMARSİNANKAYAPUL MAH.","zip":"38165"},{"name":"MİMARSİNANŞİRİNTEPE MAH.","zip":"38165"},{"name":"TAVLUSUN MAH.","zip":"38165"}]},{"name":"ÇUKUR","cityName":null,"quarters":[{"name":"AŞAĞI BOĞAZİÇİ MAH.","zip":"38770"},{"name":"BAHÇELİ EVLER MAH.","zip":"38770"},{"name":"CUMHURİYET MAH.","zip":"38770"},{"name":"GÜNEY MAH.","zip":"38770"},{"name":"KALE MAH.","zip":"38770"},{"name":"KAVAKLI MAH.","zip":"38770"},{"name":"KERMELİK MAH.","zip":"38770"},{"name":"KÜPELİ MAH.","zip":"38770"},{"name":"TAŞLIK MAH.","zip":"38770"},{"name":"TUĞLAŞAH MAH.","zip":"38770"},{"name":"YENİ MAH.","zip":"38770"},{"name":"YUKARI BOĞAZİÇİ MAH.","zip":"38770"}]},{"name":"PINARBAŞI","cityName":null,"quarters":[{"name":"AKPINAR MAH.","zip":"38700"},{"name":"ALAGAZİLİ MAH.","zip":"38700"},{"name":"ALAMESCİT MAH.","zip":"38700"},{"name":"ALTIKESEK MAH.","zip":"38700"},{"name":"ARSLANBEYLİ MAH.","zip":"38700"},{"name":"ARTMAK MAH.","zip":"38700"},{"name":"AŞAĞIBEYÇAYIRI MAH.","zip":"38700"},{"name":"AŞAĞIBORANDERE MAH.","zip":"38700"},{"name":"AŞAĞIKARAGÖZ MAH.","zip":"38700"},{"name":"AŞAĞIKIZILÇEVLİK MAH.","zip":"38700"},{"name":"AVŞARPOTUKLU MAH.","zip":"38700"},{"name":"AYGÖRMEZ MAH.","zip":"38700"},{"name":"BAHÇECİK MAH.","zip":"38700"},{"name":"BESEREK MAH.","zip":"38700"},{"name":"BÜYÜKGÜMÜŞGÜN MAH.","zip":"38700"},{"name":"BÜYÜKGÜRLEĞEN MAH.","zip":"38700"},{"name":"BÜYÜKKABAKTEPE MAH.","zip":"38700"},{"name":"BÜYÜKKARAMANLI MAH.","zip":"38700"},{"name":"BÜYÜKKARAMUKLU MAH.","zip":"38700"},{"name":"BÜYÜKKÖMARMUT MAH.","zip":"38700"},{"name":"BÜYÜKPOTUKLU MAH.","zip":"38700"},{"name":"CABE MAH.","zip":"38700"},{"name":"CİNAHMET MAH.","zip":"38700"},{"name":"CİNLİÖREN MAH.","zip":"38700"},{"name":"ÇAKILKAYA MAH.","zip":"38700"},{"name":"ÇAYBAŞI MAH.","zip":"38700"},{"name":"ÇÖRDÜKLÜ MAH.","zip":"38700"},{"name":"ÇUKURYURT MAH.","zip":"38700"},{"name":"DEMİRCİLİ MAH.","zip":"38700"},{"name":"DEMİRCİÖREN MAH.","zip":"38700"},{"name":"DEVEDERESİ MAH.","zip":"38700"},{"name":"DİKİLİTAŞ MAH.","zip":"38700"},{"name":"DİLCİLER MAH.","zip":"38700"},{"name":"EĞRİSÖĞÜT MAH.","zip":"38700"},{"name":"ELMALI MAH.","zip":"38700"},{"name":"EMEĞİL MAH.","zip":"38700"},{"name":"ESENKÖY MAH.","zip":"38700"},{"name":"ESKİTEKKE MAH.","zip":"38700"},{"name":"ESKİYASSIPINAR MAH.","zip":"38700"},{"name":"FAKIEKİNCİLİĞİ MAH.","zip":"38700"},{"name":"GEBELEK MAH.","zip":"38700"},{"name":"GÖLCÜK MAH.","zip":"38700"},{"name":"GÜLTEPE MAH.","zip":"38700"},{"name":"GÜMÜŞGÜN MAH.","zip":"38700"},{"name":"GÜNEY MAH.","zip":"38700"},{"name":"HALİTBEYÖREN MAH.","zip":"38700"},{"name":"HAN MAH.","zip":"38700"},{"name":"HASIRCI MAH.","zip":"38700"},{"name":"HASSA MAH.","zip":"38700"},{"name":"HAYRİYE MAH.","zip":"38700"},{"name":"HİLMİYE MAH.","zip":"38700"},{"name":"HÜRRİYET MAH.","zip":"38700"},{"name":"İĞDELİPAYASLI MAH.","zip":"38700"},{"name":"İNLİÖREN MAH.","zip":"38700"},{"name":"İNÖNÜ MAH.","zip":"38700"},{"name":"KADILI MAH.","zip":"38700"},{"name":"KAFTANGİYEN MAH.","zip":"38700"},{"name":"KAMAN MAH.","zip":"38700"},{"name":"KARABOĞAZ MAH.","zip":"38700"},{"name":"KARAHACILI MAH.","zip":"38700"},{"name":"KARAHALKA MAH.","zip":"38700"},{"name":"KARAKUYU MAH.","zip":"38700"},{"name":"KAVAKKÖY MAH.","zip":"38700"},{"name":"KAVLAKLAR MAH.","zip":"38700"},{"name":"KAYAALTI MAH.","zip":"38700"},{"name":"KAYABAŞI MAH.","zip":"38700"},{"name":"KAYAÖNÜ MAH.","zip":"38700"},{"name":"KAYNAR MAH.","zip":"38700"},{"name":"KAZANCIK MAH.","zip":"38700"},{"name":"KERİMOĞLU MAH.","zip":"38700"},{"name":"KILIÇKIŞLA MAH.","zip":"38700"},{"name":"KILIÇMEHMET MAH.","zip":"38700"},{"name":"KIRKGEÇİT MAH.","zip":"38700"},{"name":"KIRKPINAR MAH.","zip":"38700"},{"name":"KIZILDERE MAH.","zip":"38700"},{"name":"KIZILHAN MAH.","zip":"38700"},{"name":"KIZILÖREN MAH.","zip":"38700"},{"name":"KÖŞKERLİ MAH.","zip":"38700"},{"name":"KURBAĞALIK MAH.","zip":"38700"},{"name":"KURTTEPE MAH.","zip":"38700"},{"name":"KUŞÇULAR MAH.","zip":"38700"},{"name":"KÜÇÜKKÖMARMUT MAH.","zip":"38700"},{"name":"KÜÇÜKPOTUKLU MAH.","zip":"38700"},{"name":"MALAKKÖY MAH.","zip":"38700"},{"name":"MELİKGAZİ MAH.","zip":"38700"},{"name":"METHİYE MAH.","zip":"38700"},{"name":"OLUKKAYA MAH.","zip":"38700"},{"name":"ORUÇOĞLU MAH.","zip":"38700"},{"name":"ÖRENŞEHİR BUCAK MERKEZİ MAH.","zip":"38700"},{"name":"PANLI MAH.","zip":"38700"},{"name":"PAŞALI MAH.","zip":"38700"},{"name":"PAZARÖREN MAH.","zip":"38700"},{"name":"PAZARSU MAH.","zip":"38700"},{"name":"PULPINAR MAH.","zip":"38700"},{"name":"SAÇAYAĞI MAH.","zip":"38700"},{"name":"SAÇLI MAH.","zip":"38700"},{"name":"SERİNYURT MAH.","zip":"38700"},{"name":"SOLAKLAR MAH.","zip":"38700"},{"name":"SÖĞÜTLÜ MAH.","zip":"38700"},{"name":"ŞABANLI MAH.","zip":"38700"},{"name":"ŞEREFİYE MAH.","zip":"38700"},{"name":"TAHTAKÖPRÜ MAH.","zip":"38700"},{"name":"TAŞLIGEÇİT MAH.","zip":"38700"},{"name":"TAŞLIOĞLU MAH.","zip":"38700"},{"name":"TAŞOLUK MAH.","zip":"38700"},{"name":"TERSAKAN MAH.","zip":"38700"},{"name":"TÖZGÜN MAH.","zip":"38700"},{"name":"UZUNPINAR MAH.","zip":"38700"},{"name":"UZUNYOL MAH.","zip":"38700"},{"name":"ÜÇPINAR MAH.","zip":"38700"},{"name":"YAĞLIPINAR MAH.","zip":"38700"},{"name":"YAHYABEY MAH.","zip":"38700"},{"name":"YARIMTEPE MAH.","zip":"38700"},{"name":"YENİCAMİ MAH.","zip":"38700"},{"name":"YENİOCAK MAH.","zip":"38700"},{"name":"YEREGEÇEN MAH.","zip":"38700"},{"name":"YUKARIBEYÇAYIRI MAH.","zip":"38700"},{"name":"YUKARIBORANDERE MAH.","zip":"38700"},{"name":"YUKARIKARAGÖZ MAH.","zip":"38700"},{"name":"YUKARIKIZILÇEVLİK MAH.","zip":"38700"},{"name":"YUSUFLAR MAH.","zip":"38700"}]},{"name":"SARIOĞLAN","cityName":null,"quarters":[{"name":"BAKARCAK MAH.","zip":"38820"},{"name":"BURUNÖREN MAH.","zip":"38820"},{"name":"ÇİFTLİK MAH.","zip":"38820"},{"name":"DÜZENCİK MAH.","zip":"38820"},{"name":"EBÜLHAYIR MAH.","zip":"38820"},{"name":"GAZİLER MAH.","zip":"38820"},{"name":"GÜZELYAZI MAH.","zip":"38820"},{"name":"ILICA MAH.","zip":"38820"},{"name":"İĞDELİ MAH.","zip":"38820"},{"name":"KADILI MAH.","zip":"38820"},{"name":"KALEKÖY MAH.","zip":"38820"},{"name":"KARAÖZÜ MAH.","zip":"38820"},{"name":"KARPINAR MAH.","zip":"38820"},{"name":"KEKLİKOĞLU MAH.","zip":"38820"},{"name":"KIZILPINAR MAH.","zip":"38820"},{"name":"MURATBEYLİ MAH.","zip":"38820"},{"name":"ÖMERHACILI MAH.","zip":"38820"},{"name":"ÖMÜRLÜ MAH.","zip":"38820"},{"name":"PALAS MAH.","zip":"38820"},{"name":"SOFUMAHMUT MAH.","zip":"38820"},{"name":"ŞENYURT MAH.","zip":"38820"},{"name":"TATILI MAH.","zip":"38820"},{"name":"ÜZERLİK MAH.","zip":"38820"},{"name":"YAHYALI MAH.","zip":"38820"},{"name":"YERLİKUYU MAH.","zip":"38820"},{"name":"YILDIRIM MAH.","zip":"38820"}]},{"name":"SARIZ","cityName":null,"quarters":[{"name":"ALTISÖĞÜT MAH.","zip":"38660"},{"name":"AVŞAROBASI MAH.","zip":"38660"},{"name":"AYRANLIK MAH.","zip":"38660"},{"name":"BAHÇELİ MAH.","zip":"38660"},{"name":"BÜYÜK ÖRTÜLÜ MAH.","zip":"38660"},{"name":"BÜYÜK SÖBEÇİMEN MAH.","zip":"38660"},{"name":"ÇAĞŞAK MAH.","zip":"38660"},{"name":"ÇATALPINAR MAH.","zip":"38660"},{"name":"ÇAVDAR MAH.","zip":"38660"},{"name":"ÇÖREKDERE MAH.","zip":"38660"},{"name":"DALLIKAVAK MAH.","zip":"38660"},{"name":"DAMIZLIK MAH.","zip":"38660"},{"name":"DARIDERE MAH.","zip":"38660"},{"name":"DAYOLUK MAH.","zip":"38660"},{"name":"DEĞİRMENTAŞ MAH.","zip":"38660"},{"name":"FETTAHDERE MAH.","zip":"38660"},{"name":"GÜMÜŞALİ MAH.","zip":"38660"},{"name":"GÜNESEN MAH.","zip":"38660"},{"name":"İMİRZAAĞA MAH.","zip":"38660"},{"name":"İNCEDERE MAH.","zip":"38660"},{"name":"İNCEMAĞARA MAH.","zip":"38660"},{"name":"KARAPINAR MAH.","zip":"38660"},{"name":"KARAYURT MAH.","zip":"38660"},{"name":"KEMER MAH.","zip":"38660"},{"name":"KIRKISRAK MAH.","zip":"38660"},{"name":"KISKAÇLI MAH.","zip":"38660"},{"name":"KIZILPINAR MAH.","zip":"38660"},{"name":"KURDİNİ MAH.","zip":"38660"},{"name":"KURUDERE MAH.","zip":"38660"},{"name":"KUŞÇU MAH.","zip":"38660"},{"name":"KÜÇÜK KABAKTEPE MAH.","zip":"38660"},{"name":"KÜÇÜK ÖRTÜLÜ MAH.","zip":"38660"},{"name":"KÜÇÜK SÖBEÇİMEN MAH.","zip":"38660"},{"name":"MOLLAHÜSEYİNLER MAH.","zip":"38660"},{"name":"OĞLAKKAYA MAH.","zip":"38660"},{"name":"ÖRDEKLİ MAH.","zip":"38660"},{"name":"SANCAKAĞIL MAH.","zip":"38660"},{"name":"TAVLA MAH.","zip":"38660"},{"name":"TEKNELİ MAH.","zip":"38660"},{"name":"YAYLACI MAH.","zip":"38660"},{"name":"YEDİOLUK MAH.","zip":"38660"},{"name":"YENİ MAH.","zip":"38660"},{"name":"YEŞİLKENT MAH.","zip":"38660"}]},{"name":"TALAS","cityName":null,"quarters":[{"name":"GÜLİSTANEVLER MAH.","zip":"38280"},{"name":"HAN MAH.","zip":"38280"},{"name":"HARMAN MAH.","zip":"38280"},{"name":"KİÇİKÖY MAH.","zip":"38280"},{"name":"MEVLANA MAH.","zip":"38280"},{"name":"TABLAKAYA MAH.","zip":"38280"},{"name":"YENİDOĞAN MAH.","zip":"38280"},{"name":"YUKARI MAH.","zip":"38280"}]},{"name":"TALAS KÖYLER","cityName":null,"quarters":[{"name":"ALAYBEYLİ MAH.","zip":"38300"},{"name":"ARDIÇ MAH.","zip":"38300"},{"name":"BAŞAKPINAR GAZİLER MAH.","zip":"38300"},{"name":"BAŞAKPINAR UFUK MAH.","zip":"38300"},{"name":"BAŞAKPINAR YILDIZTEPE MAH.","zip":"38300"},{"name":"CEBİR MAH.","zip":"38300"},{"name":"ÇATAKDERE MAH.","zip":"38300"},{"name":"ÇEVLİK MAH.","zip":"38300"},{"name":"ÇÖMLEKÇİ MAH.","zip":"38300"},{"name":"ENDÜRLÜK MAH.","zip":"38300"},{"name":"KAMBER MAH.","zip":"38300"},{"name":"KEPEZ MAH.","zip":"38300"},{"name":"KOÇCAĞIZ MAH.","zip":"38300"},{"name":"KURUKÖPRÜ MAH.","zip":"38300"},{"name":"MENGÜCEK MAH.","zip":"38300"},{"name":"ORTAKAVAK MAH.","zip":"38300"},{"name":"ÖRENCİK MAH.","zip":"38300"},{"name":"REŞADİYE MAH.","zip":"38300"},{"name":"SAKALTUTAN MAH.","zip":"38300"},{"name":"SÜLEYMANLI MAH.","zip":"38300"},{"name":"YAMAÇLI MAH.","zip":"38300"},{"name":"YAZYURDU MAH.","zip":"38300"},{"name":"ZİNCİDERE MAH.","zip":"38300"}]},{"name":"TOMARZA","cityName":null,"quarters":[{"name":"AKMEZAR MAH.","zip":"38900"},{"name":"ARSLANTAŞ MAH.","zip":"38900"},{"name":"AVŞARSÖĞÜTLÜ MAH.","zip":"38900"},{"name":"BEKTAŞ MAH.","zip":"38900"},{"name":"BOSTANLIK MAH.","zip":"38900"},{"name":"BÖKE MAH.","zip":"38900"},{"name":"BÜYÜKCANLI MAH.","zip":"38900"},{"name":"CULHA MAH.","zip":"38900"},{"name":"CUMHURİYET MAH.","zip":"38900"},{"name":"CÜCÜN MAH.","zip":"38900"},{"name":"ÇANAKPINAR MAH.","zip":"38900"},{"name":"ÇAYİNLİ MAH.","zip":"38900"},{"name":"ÇUKURAĞAÇ MAH.","zip":"38900"},{"name":"DADALOĞLU MAH.","zip":"38900"},{"name":"DAĞYURDU MAH.","zip":"38900"},{"name":"EKİNLİ MAH.","zip":"38900"},{"name":"EMİRUŞAĞI MAH.","zip":"38900"},{"name":"GÖKTEPE MAH.","zip":"38900"},{"name":"GÜLVEREN MAH.","zip":"38900"},{"name":"GÜZELCE MAH.","zip":"38900"},{"name":"GÜZELSU MAH.","zip":"38900"},{"name":"HACIPAŞA MAH.","zip":"38900"},{"name":"IŞIKLAR MAH.","zip":"38900"},{"name":"İCADİYE MAH.","zip":"38900"},{"name":"İMAMKULLU MAH.","zip":"38900"},{"name":"İNCİLİ MAH.","zip":"38900"},{"name":"KALE MAH.","zip":"38900"},{"name":"KAPUKAYA MAH.","zip":"38900"},{"name":"KARAMUKLU MAH.","zip":"38900"},{"name":"KARAÖREN MAH.","zip":"38900"},{"name":"KESİR MAH.","zip":"38900"},{"name":"KEVENAĞIL MAH.","zip":"38900"},{"name":"KIZILÖREN MAH.","zip":"38900"},{"name":"KÖMÜR MAH.","zip":"38900"},{"name":"KÖPRÜBAŞI MAH.","zip":"38900"},{"name":"KURTULUŞ MAH.","zip":"38900"},{"name":"KUŞCAĞIZ MAH.","zip":"38900"},{"name":"KÜÇÜKCANLI MAH.","zip":"38900"},{"name":"MELİKÖREN MAH.","zip":"38900"},{"name":"PUSATLI MAH.","zip":"38900"},{"name":"SARIMEHMETLİ MAH.","zip":"38900"},{"name":"SÖĞÜTLÜ MAH.","zip":"38900"},{"name":"SÜVEGENLER MAH.","zip":"38900"},{"name":"ŞIHBARAK MAH.","zip":"38900"},{"name":"ŞİRAZ MAH.","zip":"38900"},{"name":"TAHTAKEMER MAH.","zip":"38900"},{"name":"TATAR MAH.","zip":"38900"},{"name":"TOKLAR MAH.","zip":"38900"},{"name":"TURANLI MAH.","zip":"38900"},{"name":"ÜÇKONAK MAH.","zip":"38900"},{"name":"YAVUZSELİM MAH.","zip":"38900"},{"name":"YENİ MAH.","zip":"38900"},{"name":"YEŞİLBAĞ MAH.","zip":"38900"}]},{"name":"YAHYALI","cityName":null,"quarters":[{"name":"75.YIL MAH.","zip":"38500"},{"name":"AĞCAŞAR MAH.","zip":"38500"},{"name":"AVLAĞA MAH.","zip":"38500"},{"name":"BALCIÇAKIRI MAH.","zip":"38500"},{"name":"BURHANİYE MAH.","zip":"38500"},{"name":"BÜYÜKÇAKIR MAH.","zip":"38500"},{"name":"CAMİKEBİR MAH.","zip":"38500"},{"name":"ÇAMLICA MAH.","zip":"38500"},{"name":"ÇAVDARUŞAĞI MAH.","zip":"38500"},{"name":"ÇİĞİLLİ MAH.","zip":"38500"},{"name":"ÇUBUKHARMANI MAH.","zip":"38500"},{"name":"ÇUBUKLU MAH.","zip":"38500"},{"name":"DELİALİUŞAĞI MAH.","zip":"38500"},{"name":"DENİZOVASI MAH.","zip":"38500"},{"name":"DEREBAĞ MAH.","zip":"38500"},{"name":"DİKME MAH.","zip":"38500"},{"name":"FETULLAH MAH.","zip":"38500"},{"name":"FEVZİÇAKMAK MAH.","zip":"38500"},{"name":"GAZİBEYLİ MAH.","zip":"38500"},{"name":"İLYASLI MAH.","zip":"38500"},{"name":"İSMET MAH.","zip":"38500"},{"name":"KAPUZBAŞI MAH.","zip":"38500"},{"name":"KARAKÖY MAH.","zip":"38500"},{"name":"KAVACIK MAH.","zip":"38500"},{"name":"KİRAZLI MAH.","zip":"38500"},{"name":"KOCAHACILI MAH.","zip":"38500"},{"name":"KOPÇU MAH.","zip":"38500"},{"name":"KUZOLUK MAH.","zip":"38500"},{"name":"MADAZI MAH.","zip":"38500"},{"name":"MUSTAFABEYLİ MAH.","zip":"38500"},{"name":"SAZAK MAH.","zip":"38500"},{"name":"SENİRKÖY MAH.","zip":"38500"},{"name":"SEYDİLİ MAH.","zip":"38500"},{"name":"SÜLEYMANFAKILI MAH.","zip":"38500"},{"name":"TAŞHAN MAH.","zip":"38500"},{"name":"ULUPINAR MAH.","zip":"38500"},{"name":"YENİCE MAH.","zip":"38500"},{"name":"YERKÖY MAH.","zip":"38500"},{"name":"YEŞİLKÖY MAH.","zip":"38500"},{"name":"YULARI MAH.","zip":"38500"}]},{"name":"YEŞİLHİSAR","cityName":null,"quarters":[{"name":"ARAPLI MAH.","zip":"38800"},{"name":"BAŞKÖY MAH.","zip":"38800"},{"name":"BEYLERYUKARI MAH.","zip":"38800"},{"name":"BÜGET MAH.","zip":"38800"},{"name":"CAMİKEBİR MAH.","zip":"38800"},{"name":"CUMHURİYET MAH.","zip":"38800"},{"name":"ÇADIRKAYA MAH.","zip":"38800"},{"name":"DERBENTBAŞI MAH.","zip":"38800"},{"name":"DOĞANLI MAH.","zip":"38800"},{"name":"ERDEMLİ MAH.","zip":"38800"},{"name":"FATİH MAH.","zip":"38800"},{"name":"FEVZİOĞLU MAH.","zip":"38800"},{"name":"GÜLBAYIR MAH.","zip":"38800"},{"name":"GÜNEY MAH.","zip":"38800"},{"name":"GÜZELÖZ MAH.","zip":"38800"},{"name":"İÇMECE MAH.","zip":"38800"},{"name":"İDRİS MAH.","zip":"38800"},{"name":"KALE MAH.","zip":"38800"},{"name":"KARACABEY MAH.","zip":"38800"},{"name":"KAVAK MAH.","zip":"38800"},{"name":"KAYADİBİ MAH.","zip":"38800"},{"name":"KELER MAH.","zip":"38800"},{"name":"KEŞLİK MAH.","zip":"38800"},{"name":"KOVALI MAH.","zip":"38800"},{"name":"KÖŞK MAH.","zip":"38800"},{"name":"KUŞÇU MAH.","zip":"38800"},{"name":"KUZEY MAH.","zip":"38800"},{"name":"MAHMUDİYE MAH.","zip":"38800"},{"name":"MUSAHACILI MAH.","zip":"38800"},{"name":"OVAÇİFTLİK MAH.","zip":"38800"},{"name":"SOĞANLI MAH.","zip":"38800"},{"name":"YAVUZ SELİM MAH.","zip":"38800"},{"name":"YENİŞEHİR MAH.","zip":"38800"},{"name":"YEŞİLOVA MAH.","zip":"38800"}]}]}]}