{"id":39,"name":"KIRKLARELİ","cities":[{"name":"city","districts":[{"name":"ALPULLU","cityName":null,"quarters":[{"name":"YENİ MAH.","zip":"39570"}]},{"name":"BABAESKİ","cityName":null,"quarters":[{"name":"CUMHURİYET MAH.","zip":"39200"},{"name":"DİNDOĞRU MAH.","zip":"39200"},{"name":"FEVZİ ÇAKMAK MAH.","zip":"39200"},{"name":"GAZİKEMAL MAH.","zip":"39200"},{"name":"GAZİOSMANPAŞA MAH.","zip":"39200"},{"name":"HACIHASAN MAH.","zip":"39200"},{"name":"HAMİDİYE MAH.","zip":"39200"},{"name":"KURTULUŞ MAH.","zip":"39200"}]},{"name":"MERKEZKÖYLER","cityName":null,"quarters":[{"name":"ATATÜRK MAH.","zip":"39202"},{"name":"BİRLİK MAH.","zip":"39202"},{"name":"BÜYÜKMANDIRA KÖYÜ","zip":"39202"},{"name":"CUMHURİYET MAH.","zip":"39202"},{"name":"ÇAVUŞKÖY KÖYÜ","zip":"39202"},{"name":"ÇENGERLİ KÖYÜ","zip":"39202"},{"name":"ÇİĞDEMLİ KÖYÜ","zip":"39202"},{"name":"DEMİRKAPI MAH.","zip":"39202"},{"name":"DÜĞÜNCÜLÜ KÖYÜ","zip":"39202"},{"name":"ERİKLERYURDU KÖYÜ","zip":"39202"},{"name":"ERTUĞRULKÖY KÖYÜ","zip":"39202"},{"name":"FEVZİ ÇAKMAK MAH.","zip":"39202"},{"name":"HALİLPAŞA MAH.","zip":"39202"},{"name":"HATİP MAH.","zip":"39202"},{"name":"HAZİNEDAR KÖYÜ","zip":"39202"},{"name":"HÜRRİYET MAH.","zip":"39202"},{"name":"KADIKÖY KÖYÜ","zip":"39202"},{"name":"KARABAYIR KÖYÜ","zip":"39202"},{"name":"KARACAOĞLAN KÖYÜ","zip":"39202"},{"name":"KARAHALİL KÖYÜ","zip":"39202"},{"name":"KARAMESUTLU KÖYÜ","zip":"39202"},{"name":"KATRANCA KÖYÜ","zip":"39202"},{"name":"KEMAL PAŞA MAH.","zip":"39202"},{"name":"KULELİ KÖYÜ","zip":"39202"},{"name":"KUMRULAR KÖYÜ","zip":"39202"},{"name":"KUZUÇARDAĞI KÖYÜ","zip":"39202"},{"name":"MİNNETLER KÖYÜ","zip":"39202"},{"name":"MUTLU KÖYÜ","zip":"39202"},{"name":"MÜSELLİM KÖYÜ","zip":"39202"},{"name":"NACAK KÖYÜ","zip":"39202"},{"name":"NADIRLI KÖYÜ","zip":"39202"},{"name":"ORUÇLU KÖYÜ","zip":"39202"},{"name":"OSMANİYE KÖYÜ","zip":"39202"},{"name":"PANCARKÖY KÖYÜ","zip":"39202"},{"name":"PAŞA MAH.","zip":"39202"},{"name":"SİNANLI KÖYÜ","zip":"39202"},{"name":"SOFUHALİL KÖYÜ","zip":"39202"},{"name":"ŞAMDANİ MAH.","zip":"39202"},{"name":"TAŞAĞIL BUCAK MERKEZİ KÖYÜ","zip":"39202"},{"name":"TAŞKÖPRÜ KÖYÜ","zip":"39202"},{"name":"TERZİLİ KÖYÜ","zip":"39202"},{"name":"YENİKÖY KÖYÜ","zip":"39202"},{"name":"YENİMAHALLE KÖYÜ","zip":"39202"}]},{"name":"DEMİRKÖY","cityName":null,"quarters":[{"name":"ORHANİYE MAH.","zip":"39500"},{"name":"YENİ MAH.","zip":"39500"}]},{"name":"İĞNEADA","cityName":null,"quarters":[{"name":"BEĞENDİK KÖYÜ","zip":"39650"},{"name":"DENİZ MAH.","zip":"39650"},{"name":"FENER SİTESİ MAH.","zip":"39650"},{"name":"İĞNEADA KÖYÜ","zip":"39650"},{"name":"KORU SİTESİ MAH.","zip":"39650"},{"name":"LİMANKÖY KÖYÜ","zip":"39650"},{"name":"PALİVOR ÇİFTLİĞİ MAH.","zip":"39650"},{"name":"SİSLİOBA KÖYÜ","zip":"39650"},{"name":"YENİ MAH.","zip":"39650"}]},{"name":"MERKEZKÖYLER","cityName":null,"quarters":[{"name":"BALABAN KÖYÜ","zip":"39502"},{"name":"BOZTAŞ KÖYÜ","zip":"39502"},{"name":"GÖKYAKA KÖYÜ","zip":"39502"},{"name":"HAMDİBEY KÖYÜ","zip":"39502"},{"name":"İNCESIRT KÖYÜ","zip":"39502"},{"name":"KARACADAĞ KÖYÜ","zip":"39502"},{"name":"KARANLIK MAH.","zip":"39502"},{"name":"SARPDERE KÖYÜ","zip":"39502"},{"name":"SİVRİLER KÖYÜ","zip":"39502"},{"name":"YEŞİLCE KÖYÜ","zip":"39502"},{"name":"YİĞİTBAŞI KÖYÜ","zip":"39502"}]},{"name":"KOFÇAZ","cityName":null,"quarters":[{"name":"YEŞİLLİK MAH.","zip":"39700"}]},{"name":"MERKEZKÖYLER","cityName":null,"quarters":[{"name":"AHMETLER KÖYÜ","zip":"39702"},{"name":"AŞAĞIKANARA KÖYÜ","zip":"39702"},{"name":"BEYCİ KÖYÜ","zip":"39702"},{"name":"DEVLETLİAĞAÇ KÖYÜ","zip":"39702"},{"name":"ELMACIK KÖYÜ","zip":"39702"},{"name":"KARAABALAR KÖYÜ","zip":"39702"},{"name":"KOCATARLA KÖYÜ","zip":"39702"},{"name":"KOCAYAZI KÖYÜ","zip":"39702"},{"name":"KULA KÖYÜ","zip":"39702"},{"name":"MALKOÇLAR KÖYÜ","zip":"39702"},{"name":"TASTEPE KÖYÜ","zip":"39702"},{"name":"TATLIPINAR KÖYÜ","zip":"39702"},{"name":"TERZİDERE KÖYÜ","zip":"39702"},{"name":"TOPÇULAR KÖYÜ","zip":"39702"},{"name":"YUKARIKANARA KÖYÜ","zip":"39702"}]},{"name":"AHMETBEY","cityName":null,"quarters":[{"name":"DERE MAH.","zip":"39770"},{"name":"GÜNDOĞU MAH.","zip":"39770"},{"name":"KARŞIYAKA MAH.","zip":"39770"}]},{"name":"BÜYÜKKARIŞTIRAN","cityName":null,"quarters":[{"name":"BÜYÜKKARIŞTIRAN KÖYÜ","zip":"39780"},{"name":"ÇENGELLİ KÖYÜ","zip":"39780"},{"name":"ÇİFTLİKKÖY KÖYÜ","zip":"39780"},{"name":"DAVUTLU KÖYÜ","zip":"39780"},{"name":"EMİRALİ KÖYÜ","zip":"39780"},{"name":"FATİH MAH.","zip":"39780"},{"name":"KARAMUSUL KÖYÜ","zip":"39780"},{"name":"KAYABEYLİ KÖYÜ","zip":"39780"},{"name":"KÜÇÜKKARIŞTIRAN MAH.","zip":"39780"},{"name":"SEYİTLER KÖYÜ","zip":"39780"},{"name":"YENİ MAH.","zip":"39780"},{"name":"YILDIRIM MAH.","zip":"39780"}]},{"name":"EVRENSEKİZ","cityName":null,"quarters":[{"name":"FATİH MAH.","zip":"39790"},{"name":"GÜNDOĞU MAH.","zip":"39790"},{"name":"KIRCAALİ MAH.","zip":"39790"}]},{"name":"LÜLEBURGAZ","cityName":null,"quarters":[{"name":"ATATÜRK MAH.","zip":"39750"},{"name":"BARIŞ MAH.","zip":"39750"},{"name":"CUMHURİYET MAH.","zip":"39750"},{"name":"DERE MAH.","zip":"39750"},{"name":"DURAK MAH.","zip":"39750"},{"name":"GENÇLİK MAH.","zip":"39750"},{"name":"GÜNDOĞU MAH.","zip":"39750"},{"name":"GÜNEŞ MAH.","zip":"39750"},{"name":"HÜRRİYET MAH.","zip":"39750"},{"name":"İNÖNÜ MAH.","zip":"39750"},{"name":"İSTİKLAL MAH.","zip":"39750"},{"name":"KIRIKKÖY KÖYÜ","zip":"39750"},{"name":"KOCASİNAN MAH.","zip":"39750"},{"name":"KURTULUŞ MAH.","zip":"39750"},{"name":"ÖZERLER MAH.","zip":"39750"},{"name":"SARIMSAKLI MAH.","zip":"39750"},{"name":"SEVGİ MAH.","zip":"39750"},{"name":"SİTELER MAH.","zip":"39750"},{"name":"YENİ MAH.","zip":"39750"},{"name":"YILDIRIM MAH.","zip":"39750"},{"name":"YILDIZ MAH.","zip":"39750"},{"name":"YILMAZ MAH.","zip":"39750"},{"name":"ZAFER MAH.","zip":"39750"}]},{"name":"MERKEZKÖYLER","cityName":null,"quarters":[{"name":"AYVALI KÖYÜ","zip":"39752"},{"name":"CELALİYE KÖYÜ","zip":"39752"},{"name":"CEYLANKÖY KÖYÜ","zip":"39752"},{"name":"ÇEŞMEKOLU KÖYÜ","zip":"39752"},{"name":"DÜĞÜNCÜBAŞI KÖYÜ","zip":"39752"},{"name":"ERTUĞRUL KÖYÜ","zip":"39752"},{"name":"ESKİBEDİR KÖYÜ","zip":"39752"},{"name":"ESKİTAŞLI KÖYÜ","zip":"39752"},{"name":"HAMİTABAT KÖYÜ","zip":"39752"},{"name":"HAMZABEY KÖYÜ","zip":"39752"},{"name":"HÜRRİYET MAH.","zip":"39752"},{"name":"KARAAĞAÇ KÖYÜ","zip":"39752"},{"name":"KÖYDIŞI MAH.","zip":"39752"},{"name":"MERKEZ MAH.","zip":"39752"},{"name":"MÜSELLİM KÖYÜ","zip":"39752"},{"name":"OKLALI KÖYÜ","zip":"39752"},{"name":"OVACIK KÖYÜ","zip":"39752"},{"name":"SAKIZKÖY KÖYÜ","zip":"39752"},{"name":"SARICAALİ KÖYÜ","zip":"39752"},{"name":"TATARKÖY KÖYÜ","zip":"39752"},{"name":"TURGUTBEY KÖYÜ","zip":"39752"},{"name":"UMURCA KÖYÜ","zip":"39752"},{"name":"YENİBEDİR KÖYÜ","zip":"39752"},{"name":"YENİTAŞLI KÖYÜ","zip":"39752"}]},{"name":"DEREKÖY","cityName":null,"quarters":[{"name":"ÇAĞALAYIK KÖYÜ","zip":"39002"},{"name":"DEREKÖY  BUCAK MERKEZİ KÖYÜ","zip":"39002"},{"name":"DÜZORMAN KÖYÜ","zip":"39002"},{"name":"GEÇİTAĞZI KÖYÜ","zip":"39002"},{"name":"KAPAKLI KÖYÜ","zip":"39002"},{"name":"KARADERE KÖYÜ","zip":"39002"},{"name":"KORUKÖY KÖYÜ","zip":"39002"},{"name":"ŞÜKRÜPAŞA KÖYÜ","zip":"39002"}]},{"name":"İNECE","cityName":null,"quarters":[{"name":"DOKUZHÜYÜK KÖYÜ","zip":"39201"},{"name":"DOLHAN KÖYÜ","zip":"39201"},{"name":"İNECE KÖYÜ","zip":"39201"},{"name":"KAZIMPAŞA MAH.","zip":"39201"},{"name":"KEMALPAŞA MAH.","zip":"39201"},{"name":"KOCAHIDIR KÖYÜ","zip":"39201"},{"name":"KOYUNBABA KÖYÜ","zip":"39201"},{"name":"PAŞAYERİ KÖYÜ","zip":"39201"},{"name":"ULUKONAK MAH.","zip":"39201"},{"name":"ÜRÜNLÜ KÖYÜ","zip":"39201"},{"name":"YENİ MAH.","zip":"39201"}]},{"name":"KIRKLARELİ","cityName":null,"quarters":[{"name":"BADEMLİK MAH.","zip":"39010"},{"name":"CUMHURİYET MAH.","zip":"39010"},{"name":"DEMİRTAŞ MAH.","zip":"39010"},{"name":"DOĞU MAH.","zip":"39010"},{"name":"İSTASYON MAH.","zip":"39010"},{"name":"KARACAİBRAHİM MAH.","zip":"39010"},{"name":"KARAHIDIR MAH.","zip":"39010"},{"name":"KARAKAŞ MAH.","zip":"39010"},{"name":"KOCAHIDIR MAH.","zip":"39010"},{"name":"PINAR MAH.","zip":"39010"},{"name":"YAYLA MAH.","zip":"39010"}]},{"name":"MERKEZKÖYLER","cityName":null,"quarters":[{"name":"ASILBEYLİ KÖYÜ","zip":"39100"},{"name":"BAYRAMDERE KÖYÜ","zip":"39100"},{"name":"CELALİYE MAH.","zip":"39100"},{"name":"ÇARŞI MAH.","zip":"39100"},{"name":"ÇAYIRLI KÖYÜ","zip":"39100"},{"name":"ÇEŞMEKÖY KÖYÜ","zip":"39100"},{"name":"DEĞİRMENCİK KÖYÜ","zip":"39100"},{"name":"DEMİRCİHALİL KÖYÜ","zip":"39100"},{"name":"DEVEÇATAĞI KÖYÜ","zip":"39100"},{"name":"ERİKLER KÖYÜ","zip":"39100"},{"name":"ERİKLİCE KÖYÜ","zip":"39100"},{"name":"KADIKÖY KÖYÜ","zip":"39100"},{"name":"KARAHAMZA KÖYÜ","zip":"39100"},{"name":"KARAKOÇ KÖYÜ","zip":"39100"},{"name":"KARINCAK KÖYÜ","zip":"39100"},{"name":"KAVAKDERE KÖYÜ","zip":"39100"},{"name":"KAVAKLI KÖYÜ","zip":"39100"},{"name":"KAYALI KÖYÜ","zip":"39100"},{"name":"KIZILCIKDERE KÖYÜ","zip":"39100"},{"name":"KIZILCIKDEREOSB MAH.","zip":"39100"},{"name":"KUZULU KÖYÜ","zip":"39100"},{"name":"TURİST MAH.","zip":"39100"},{"name":"YENİ OKULLAR MAH.","zip":"39100"},{"name":"YOĞUNTAŞ BUCAK MERKEZİ KÖYÜ","zip":"39100"},{"name":"YÜRÜKBAYIRI KÖYÜ","zip":"39100"}]},{"name":"ÜSKÜP","cityName":null,"quarters":[{"name":"CEVAT PAŞA MAH.","zip":"39572"},{"name":"ÇUKURPINAR KÖYÜ","zip":"39572"},{"name":"GÜNDOĞDU MAH.","zip":"39572"},{"name":"KEMAL PAŞA MAH.","zip":"39572"},{"name":"MEHMET ÇAVUŞ MAH.","zip":"39572"},{"name":"ÜSKÜP KÖYÜ","zip":"39572"},{"name":"ÜSKÜPDERE KÖYÜ","zip":"39572"},{"name":"YÜNDALAN KÖYÜ","zip":"39572"}]},{"name":"MERKEZKÖYLER","cityName":null,"quarters":[{"name":"DOĞANCA KÖYÜ","zip":"39640"},{"name":"HIDIRCA KÖYÜ","zip":"39640"},{"name":"İMAMPAZARI KÖYÜ","zip":"39640"},{"name":"KUMKÖY KÖYÜ","zip":"39640"},{"name":"KUŞTEPE KÖYÜ","zip":"39640"},{"name":"YEŞİLOVA KÖYÜ","zip":"39640"},{"name":"YEŞİLPINAR KÖYÜ","zip":"39640"}]},{"name":"PEHLİVANKÖY","cityName":null,"quarters":[{"name":"KAZIMDİRİK MAH.","zip":"39600"},{"name":"KURTULUŞ MAH.","zip":"39600"}]},{"name":"MERKEZKÖYLER","cityName":null,"quarters":[{"name":"AKÖREN KÖYÜ","zip":"39302"},{"name":"ATAKÖY KÖYÜ","zip":"39302"},{"name":"CEVİZKÖY KÖYÜ","zip":"39302"},{"name":"CUMHURİYET MAH.","zip":"39302"},{"name":"ÇAYIRDERE KÖYÜ","zip":"39302"},{"name":"ERENLER KÖYÜ","zip":"39302"},{"name":"EVCİLER KÖYÜ","zip":"39302"},{"name":"HACIFAKILI KÖYÜ","zip":"39302"},{"name":"HÜRRİYET MAH.","zip":"39302"},{"name":"IŞIKLAR MAH.","zip":"39302"},{"name":"İSLAMBEYLİ KÖYÜ","zip":"39302"},{"name":"KAYNARCA KÖYÜ","zip":"39302"},{"name":"KURUDERE KÖYÜ","zip":"39302"},{"name":"OSMANCIK KÖYÜ","zip":"39302"},{"name":"POYRALI KÖYÜ","zip":"39302"},{"name":"SÜTLÜCE KÖYÜ","zip":"39302"},{"name":"TOZAKLI KÖYÜ","zip":"39302"},{"name":"YENİCAMİİ MAH.","zip":"39302"},{"name":"YENİCE KÖYÜ","zip":"39302"}]},{"name":"PINARHİSAR","cityName":null,"quarters":[{"name":"CAMİİKEBİR MAH.","zip":"39300"},{"name":"DERE MAH.","zip":"39300"},{"name":"ORTA MAH.","zip":"39300"}]},{"name":"MERKEZKÖYLER","cityName":null,"quarters":[{"name":"AKPINAR KÖYÜ","zip":"39402"},{"name":"AKSİCİM KÖYÜ","zip":"39402"},{"name":"BALKAYA KÖYÜ","zip":"39402"},{"name":"CUMHURİYET MAH.","zip":"39402"},{"name":"ÇAKILLI KÖYÜ","zip":"39402"},{"name":"ÇAVUŞKÖY KÖYÜ","zip":"39402"},{"name":"ÇÜVENLİ KÖYÜ","zip":"39402"},{"name":"DEVELİ KÖYÜ","zip":"39402"},{"name":"DOĞANCA KÖYÜ","zip":"39402"},{"name":"DÜZOVA KÖYÜ","zip":"39402"},{"name":"EVRENLİ KÖYÜ","zip":"39402"},{"name":"GÜVEN MAH.","zip":"39402"},{"name":"HAMİDİYE KÖYÜ","zip":"39402"},{"name":"HASBUĞA KÖYÜ","zip":"39402"},{"name":"HÜRRİYET MAH.","zip":"39402"},{"name":"KALE MAH.","zip":"39402"},{"name":"KIŞLACIK KÖYÜ","zip":"39402"},{"name":"KIYIKÖY KÖYÜ","zip":"39402"},{"name":"KIZILAĞAÇ KÖYÜ","zip":"39402"},{"name":"KÖMÜRKÖY KÖYÜ","zip":"39402"},{"name":"KÜÇÜKYAYLA KÖYÜ","zip":"39402"},{"name":"MÜSELLİM KÖYÜ","zip":"39402"},{"name":"OKÇULAR KÖYÜ","zip":"39402"},{"name":"PAZARLI KÖYÜ","zip":"39402"},{"name":"TOPÇUKÖY KÖYÜ","zip":"39402"},{"name":"ZAFER MAH.","zip":"39402"}]},{"name":"SERGEN","cityName":null,"quarters":[{"name":"EVRENCİK MÜCAVİR MAH.","zip":"39652"},{"name":"FEVZİ ÇAKMAK MAH.","zip":"39652"},{"name":"SAĞLIK MAH.","zip":"39652"},{"name":"SERGEN KÖYÜ","zip":"39652"},{"name":"SOFULAR KÖYÜ","zip":"39652"},{"name":"SOĞUCAK KÖYÜ","zip":"39652"},{"name":"YENİ CAMİ MAH.","zip":"39652"}]},{"name":"VİZE","cityName":null,"quarters":[{"name":"EVREN MAH.","zip":"39400"},{"name":"GAZİ MAH.","zip":"39400"},{"name":"KALE MAH.","zip":"39400"},{"name":"MEHMET AKİF MAH.","zip":"39400"},{"name":"NAMIK KEMAL MAH.","zip":"39400"}]}]}]}