{"id":4,"name":"AĞRI","cities":[{"name":"city","districts":[{"name":"DİYADİN","cityName":null,"quarters":[{"name":"GÖL MAH.","zip":"04900"},{"name":"İSAAĞA MAH.","zip":"04900"},{"name":"KETENPINAR MAH.","zip":"04900"},{"name":"MURAT MAH.","zip":"04900"}]},{"name":"MERKEZKÖYLER","cityName":null,"quarters":[{"name":"ABDULKADİR ÇETİN MAH.","zip":"04902"},{"name":"ADAKENT MAH.","zip":"04902"},{"name":"AHMET IŞIK MAH.","zip":"04902"},{"name":"AKBIYIK MAH.","zip":"04902"},{"name":"AKÇAY MAH.","zip":"04902"},{"name":"AKÇEVRE KÖYÜ","zip":"04902"},{"name":"AKYOLAÇ KÖYÜ","zip":"04902"},{"name":"ALAÇAYIR MAH.","zip":"04902"},{"name":"ALİKOM MAH.","zip":"04902"},{"name":"ALTINKİLİT KÖYÜ","zip":"04902"},{"name":"ALTINKİLİT MAH.","zip":"04902"},{"name":"AMEREŞK MAH.","zip":"04902"},{"name":"APRO MAH.","zip":"04902"},{"name":"AŞAĞI KÖH MAH.","zip":"04902"},{"name":"AŞAĞI UĞUR MAH.","zip":"04902"},{"name":"AŞAĞIAKPAZAR KÖYÜ","zip":"04902"},{"name":"AŞAĞIDALÖREN KÖYÜ","zip":"04902"},{"name":"AŞAĞIKARDEŞLİ KÖYÜ","zip":"04902"},{"name":"AŞAĞITÜTEK KÖYÜ","zip":"04902"},{"name":"ATADAMI KÖYÜ","zip":"04902"},{"name":"ATAYOLU KÖYÜ","zip":"04902"},{"name":"BATIBEYLİ KÖYÜ","zip":"04902"},{"name":"BEŞEVLER MAH.","zip":"04902"},{"name":"BEYAZTAŞ MAH.","zip":"04902"},{"name":"BOYALAN KÖYÜ","zip":"04902"},{"name":"BUDAK KÖYÜ","zip":"04902"},{"name":"BUĞDAYLI MAH.","zip":"04902"},{"name":"BURGULU KÖYÜ","zip":"04902"},{"name":"BÜVETLİ KÖYÜ","zip":"04902"},{"name":"CUMHURİYET MAH.","zip":"04902"},{"name":"ÇİFÇİ MAH.","zip":"04902"},{"name":"DAVUT KÖYÜ","zip":"04902"},{"name":"DEDEBULAK KÖYÜ","zip":"04902"},{"name":"DELİHASAN KÖYÜ","zip":"04902"},{"name":"DİBEKLİ KÖYÜ","zip":"04902"},{"name":"DOKUZTAŞ KÖYÜ","zip":"04902"},{"name":"DURAK MAH.","zip":"04902"},{"name":"GEDİK KÖYÜ","zip":"04902"},{"name":"GÖĞEBAKAN KÖYÜ","zip":"04902"},{"name":"GÖZÜPEK KÖYÜ","zip":"04902"},{"name":"GULEBIST MAH.","zip":"04902"},{"name":"GÜLTEPE MAH.","zip":"04902"},{"name":"GÜNBULDU KÖYÜ","zip":"04902"},{"name":"HACIHALİT KÖYÜ","zip":"04902"},{"name":"HARABE MAH.","zip":"04902"},{"name":"HASI KALİ KOMU MAH.","zip":"04902"},{"name":"HEYBELİYURT KÖYÜ","zip":"04902"},{"name":"İBRAHİM KOMU MAH.","zip":"04902"},{"name":"İPEK MAH.","zip":"04902"},{"name":"İSAAĞA KÖYÜ","zip":"04902"},{"name":"İSASELAM MAH.","zip":"04902"},{"name":"KAMİL IŞIK KOMU MAH.","zip":"04902"},{"name":"KAPANCA KÖYÜ","zip":"04902"},{"name":"KAPLICA MAH.","zip":"04902"},{"name":"KARAPAZAR KÖYÜ","zip":"04902"},{"name":"KARATAŞ KÖYÜ","zip":"04902"},{"name":"KAYNAKLI MAH.","zip":"04902"},{"name":"KEZO MAH.","zip":"04902"},{"name":"KIRMIZI KOM MAH.","zip":"04902"},{"name":"KOCAÇOBAN KÖYÜ","zip":"04902"},{"name":"KOM MAH.","zip":"04902"},{"name":"KOTANCI KÖYÜ","zip":"04902"},{"name":"KURT DERE MAH.","zip":"04902"},{"name":"KUŞBURNU KÖYÜ","zip":"04902"},{"name":"KUŞLU KÖYÜ","zip":"04902"},{"name":"MECBURİYET MAH.","zip":"04902"},{"name":"MOLLAKARA KÖYÜ","zip":"04902"},{"name":"MUTLU KÖYÜ","zip":"04902"},{"name":"OĞULOBA KÖYÜ","zip":"04902"},{"name":"OMUZBAŞI KÖYÜ","zip":"04902"},{"name":"OTLUBAYIR MAH.","zip":"04902"},{"name":"PİRALİ KÖYÜ","zip":"04902"},{"name":"RAHMANKULU KÖYÜ","zip":"04902"},{"name":"SAİTBEY MAH.","zip":"04902"},{"name":"SATICILAR KÖYÜ","zip":"04902"},{"name":"SEYİTLER MAH.","zip":"04902"},{"name":"SOĞUKSU KÖYÜ","zip":"04902"},{"name":"SÜRENKÖK KÖYÜ","zip":"04902"},{"name":"SÜRMELİKOÇ KÖYÜ","zip":"04902"},{"name":"ŞAHİNBEY MAH.","zip":"04902"},{"name":"ŞAHİNŞAH KÖYÜ","zip":"04902"},{"name":"ŞEHİTLER MAH.","zip":"04902"},{"name":"ŞEKERBULAK KÖYÜ","zip":"04902"},{"name":"TARIM MAH.","zip":"04902"},{"name":"TARLABAŞI MAH.","zip":"04902"},{"name":"TAŞBASAMAK KÖYÜ","zip":"04902"},{"name":"TAŞKESEN KÖYÜ","zip":"04902"},{"name":"TAZEKENT KÖYÜ","zip":"04902"},{"name":"TEYİP MAH.","zip":"04902"},{"name":"TOKLUCAK KÖYÜ","zip":"04902"},{"name":"ULUKENT KÖYÜ","zip":"04902"},{"name":"UYSALLI KÖYÜ","zip":"04902"},{"name":"YANIKÇUKUR KÖYÜ","zip":"04902"},{"name":"YENİÇADIR KÖYÜ","zip":"04902"},{"name":"YENİİPEK MAH.","zip":"04902"},{"name":"YEŞİLDURAK KÖYÜ","zip":"04902"},{"name":"YEYİP MAH.","zip":"04902"},{"name":"YILAN MAH.","zip":"04902"},{"name":"YILDIRIM KÖYÜ","zip":"04902"},{"name":"YILDIZ KÖYÜ","zip":"04902"},{"name":"YOL BOYU MAH.","zip":"04902"},{"name":"YOL MAH.","zip":"04902"},{"name":"YOL ÜSTÜ MAH.","zip":"04902"},{"name":"YOLCUPINARI KÖYÜ","zip":"04902"},{"name":"YÖRÜKATLI KÖYÜ","zip":"04902"},{"name":"YUKARI KARDEŞLİ MAH.","zip":"04902"},{"name":"YUKARI KÖH MAH.","zip":"04902"},{"name":"YUKARI MAH.","zip":"04902"},{"name":"YUKARI SATICILAR MAH.","zip":"04902"},{"name":"YUKARI UĞUR MAH.","zip":"04902"},{"name":"YUKARIAKPAZAR KÖYÜ","zip":"04902"},{"name":"YUKARIDALÖREN KÖYÜ","zip":"04902"},{"name":"YUKARITÜTEK KÖYÜ","zip":"04902"},{"name":"YUVA KÖYÜ","zip":"04902"},{"name":"YÜCELER MAH.","zip":"04902"},{"name":"ZORAVA MAH.","zip":"04902"}]},{"name":"DOĞUBAYAZIT","cityName":null,"quarters":[{"name":"AHMEDİHANİ MAH.","zip":"04400"},{"name":"BARIŞ MAH.","zip":"04400"},{"name":"BÜYÜK AĞRI MAH.","zip":"04400"},{"name":"ÇİFTEPINAR MAH.","zip":"04400"},{"name":"HASANKEYF MAH.","zip":"04400"},{"name":"HÜRRİYET MAH.","zip":"04400"},{"name":"İSHAKPAŞA MAH.","zip":"04400"},{"name":"KOÇKIRAN MAH.","zip":"04400"},{"name":"SANAYİ MAH.","zip":"04400"},{"name":"SARIGÜL MAH.","zip":"04400"},{"name":"ULUYOL MAH.","zip":"04400"},{"name":"VATAN MAH.","zip":"04400"},{"name":"YENİ MAH.","zip":"04400"}]},{"name":"MERKEZKÖYLER","cityName":null,"quarters":[{"name":"AKÇUKUR MAH.","zip":"04402"},{"name":"AKTARLA KÖYÜ","zip":"04402"},{"name":"AKTUĞLU KÖYÜ","zip":"04402"},{"name":"ALINTEPE KÖYÜ","zip":"04402"},{"name":"ALTUN TEPE MAH.","zip":"04402"},{"name":"ARPALI MAH.","zip":"04402"},{"name":"AŞ.KÜÇÜK YILANLI MAH.","zip":"04402"},{"name":"AŞAĞI GÜNGÖREN MAH.","zip":"04402"},{"name":"AŞAĞITAVLA KÖYÜ","zip":"04402"},{"name":"ATABAKAN KÖYÜ","zip":"04402"},{"name":"AYDOĞAN MAH.","zip":"04402"},{"name":"AYRANCI KÖYÜ","zip":"04402"},{"name":"BARDAKLI KÖYÜ","zip":"04402"},{"name":"BARINDI KÖYÜ","zip":"04402"},{"name":"BAŞKÖY KÖYÜ","zip":"04402"},{"name":"BEDİR MAH.","zip":"04402"},{"name":"BEKİRAĞIL MAH.","zip":"04402"},{"name":"BEREKET KÖYÜ","zip":"04402"},{"name":"BESLER KÖYÜ","zip":"04402"},{"name":"BEZİRHANE KÖYÜ","zip":"04402"},{"name":"BİNKAYA KÖYÜ","zip":"04402"},{"name":"BOZKURT KÖYÜ","zip":"04402"},{"name":"BOZYAYLA KÖYÜ","zip":"04402"},{"name":"BÖLÜCEK KÖYÜ","zip":"04402"},{"name":"BULAKBAŞI KÖYÜ","zip":"04402"},{"name":"BUYURETTİ KÖYÜ","zip":"04402"},{"name":"CEBEKÜMBET MAH.","zip":"04402"},{"name":"ÇALIKÖY KÖYÜ","zip":"04402"},{"name":"ÇATKIRAN MAH.","zip":"04402"},{"name":"ÇAYIR MAH.","zip":"04402"},{"name":"ÇETENLİ KÖYÜ","zip":"04402"},{"name":"ÇEVİRME MAH.","zip":"04402"},{"name":"ÇİFTLİK KÖYÜ","zip":"04402"},{"name":"ÇÖMÇELİ KÖYÜ","zip":"04402"},{"name":"DAĞDELEN KÖYÜ","zip":"04402"},{"name":"DALBAHÇE KÖYÜ","zip":"04402"},{"name":"DARIK MAH.","zip":"04402"},{"name":"DEMİR KAPI MAH.","zip":"04402"},{"name":"DEMİR KILIÇ MAH.","zip":"04402"},{"name":"DEMİRTEPE KÖYÜ","zip":"04402"},{"name":"DOLAKLI KÖYÜ","zip":"04402"},{"name":"DOSTALİ KÖYÜ","zip":"04402"},{"name":"DURYAN MAH.","zip":"04402"},{"name":"ELLE MAH.","zip":"04402"},{"name":"ESKİSU KÖYÜ","zip":"04402"},{"name":"ESNEMEZ KÖYÜ","zip":"04402"},{"name":"GIR MAH.","zip":"04402"},{"name":"GÖKÇEBULAK MAH.","zip":"04402"},{"name":"GÖKÇEKAYNAK KÖYÜ","zip":"04402"},{"name":"GÖKSÜGÜZEL MAH.","zip":"04402"},{"name":"GÖLLER KÖYÜ","zip":"04402"},{"name":"GÖLYÜZÜ KÖYÜ","zip":"04402"},{"name":"GÖZÜKARA KÖYÜ","zip":"04402"},{"name":"GÜLLÜCE KÖYÜ","zip":"04402"},{"name":"GÜLTEPE KÖYÜ","zip":"04402"},{"name":"GÜNGÖREN KÖYÜ","zip":"04402"},{"name":"GÜNYOLU KÖYÜ","zip":"04402"},{"name":"GÜRBULAK KÖYÜ","zip":"04402"},{"name":"GÜZEL MAH.","zip":"04402"},{"name":"HALAÇ KÖYÜ","zip":"04402"},{"name":"HASO MAH.","zip":"04402"},{"name":"İNCESU KÖYÜ","zip":"04402"},{"name":"KALE MAH.","zip":"04402"},{"name":"KALECİK KÖYÜ","zip":"04402"},{"name":"KALHASAN MAH.","zip":"04402"},{"name":"KARABULAK KÖYÜ","zip":"04402"},{"name":"KARABURUN KÖYÜ","zip":"04402"},{"name":"KARACA KÖYÜ","zip":"04402"},{"name":"KARAKENT KÖYÜ","zip":"04402"},{"name":"KARAŞEYH KÖYÜ","zip":"04402"},{"name":"KARGAKONMAZ KÖYÜ","zip":"04402"},{"name":"KAZAN KÖYÜ","zip":"04402"},{"name":"KESME TAŞ MAH.","zip":"04402"},{"name":"KIZILKAYA KÖYÜ","zip":"04402"},{"name":"KONUT MAH.","zip":"04402"},{"name":"KONUTLAR MAH.","zip":"04402"},{"name":"KÖRÜK MAH.","zip":"04402"},{"name":"KUCAK KÖYÜ","zip":"04402"},{"name":"KURUTEPE MAH.","zip":"04402"},{"name":"KUTLUBULAK KÖYÜ","zip":"04402"},{"name":"KÜÇÜK UZUN YAZI MAH.","zip":"04402"},{"name":"KÜÇÜK YILANLI MAH.","zip":"04402"},{"name":"KÜNÜTEPE MAH.","zip":"04402"},{"name":"KÜPLÜ MAH.","zip":"04402"},{"name":"MELİKŞAH KÖYÜ","zip":"04402"},{"name":"MESCİTKÖY KÖYÜ","zip":"04402"},{"name":"MİRAĞIL MAH.","zip":"04402"},{"name":"ORTACA MAH.","zip":"04402"},{"name":"ORTADİREK KÖYÜ","zip":"04402"},{"name":"ORTAKÖY KÖYÜ","zip":"04402"},{"name":"ÖMERBEY MAH.","zip":"04402"},{"name":"ÖRMELİ KÖYÜ","zip":"04402"},{"name":"ÖRTÜLÜ KÖYÜ","zip":"04402"},{"name":"PULLUTARLA KÖYÜ","zip":"04402"},{"name":"RIZDE MAH.","zip":"04402"},{"name":"SAĞDIÇ KÖYÜ","zip":"04402"},{"name":"SAĞLIKSUYU KÖYÜ","zip":"04402"},{"name":"SAMANLI MAH.","zip":"04402"},{"name":"SARIBIYIK KÖYÜ","zip":"04402"},{"name":"SARIÇAVUŞ KÖYÜ","zip":"04402"},{"name":"SAZOBA KÖYÜ","zip":"04402"},{"name":"SESLİTAŞ KÖYÜ","zip":"04402"},{"name":"SOMKAYA KÖYÜ","zip":"04402"},{"name":"SUBEŞİĞİ KÖYÜ","zip":"04402"},{"name":"SULUÇEM KÖYÜ","zip":"04402"},{"name":"SÜTCÜ MAH.","zip":"04402"},{"name":"ŞEVKET MAH.","zip":"04402"},{"name":"TAB MAH.","zip":"04402"},{"name":"TANIKTEPE KÖYÜ","zip":"04402"},{"name":"TAŞLI MAH.","zip":"04402"},{"name":"TELÇEKER KÖYÜ","zip":"04402"},{"name":"TEPELİ MAH.","zip":"04402"},{"name":"TIMIR MAH.","zip":"04402"},{"name":"TIMIR VE HASO MAH.","zip":"04402"},{"name":"TOPÇATAN KÖYÜ","zip":"04402"},{"name":"TUTAK KÖYÜ","zip":"04402"},{"name":"TUTUMLU KÖYÜ","zip":"04402"},{"name":"TÜRKMEN MAH.","zip":"04402"},{"name":"UĞRAK MAH.","zip":"04402"},{"name":"UZUNYAZI KÖYÜ","zip":"04402"},{"name":"ÜÇGÖZE KÖYÜ","zip":"04402"},{"name":"ÜÇMURAT KÖYÜ","zip":"04402"},{"name":"ÜZENGİLİ KÖYÜ","zip":"04402"},{"name":"YAĞMURDÜŞEN KÖYÜ","zip":"04402"},{"name":"YAKACIK MAH.","zip":"04402"},{"name":"YALINSAZ KÖYÜ","zip":"04402"},{"name":"YANOBA KÖYÜ","zip":"04402"},{"name":"YAYGINYURT KÖYÜ","zip":"04402"},{"name":"YENİHARMAN KÖYÜ","zip":"04402"},{"name":"YENİKÖY MAH.","zip":"04402"},{"name":"YIĞINÇAL KÖYÜ","zip":"04402"},{"name":"YILANLI KÖYÜ","zip":"04402"},{"name":"YİĞİTYATAĞI KÖYÜ","zip":"04402"},{"name":"YOLÜSTÜ MAH.","zip":"04402"},{"name":"YUKARI MELİKŞAH MAH.","zip":"04402"},{"name":"YUKARITAVLA KÖYÜ","zip":"04402"},{"name":"ZİYARET MAH.","zip":"04402"}]},{"name":"ELEŞKİRT","cityName":null,"quarters":[{"name":"FATİH MAH.","zip":"04600"},{"name":"HÜRRİYET MAH.","zip":"04600"},{"name":"İSTİKLAL MAH.","zip":"04600"},{"name":"KARŞIYAKA MAH.","zip":"04600"},{"name":"KAZIM KARABEKİR MAH.","zip":"04600"},{"name":"LOZAN MAH.","zip":"04600"},{"name":"MÜFTÜSELİM MAH.","zip":"04600"}]},{"name":"MERKEZKÖYLER","cityName":null,"quarters":[{"name":"AKYUMAK KÖYÜ","zip":"04602"},{"name":"AKYUMAK MEZRASI MAH.","zip":"04602"},{"name":"ALAGÜN KÖYÜ","zip":"04602"},{"name":"ALİ PAŞA MAH.","zip":"04602"},{"name":"ALKUŞAK KÖYÜ","zip":"04602"},{"name":"ARİFBEY KÖYÜ","zip":"04602"},{"name":"AŞAĞICİHANBEY MAH.","zip":"04602"},{"name":"AŞAĞIKOPUZ KÖYÜ","zip":"04602"},{"name":"AYDOĞDU KÖYÜ","zip":"04602"},{"name":"CUMHURİYET MAH.","zip":"04602"},{"name":"ÇATALPINAR KÖYÜ","zip":"04602"},{"name":"ÇATKÖSEDAĞ KÖYÜ","zip":"04602"},{"name":"ÇELİK MAH.","zip":"04602"},{"name":"ÇETİNSU KÖYÜ","zip":"04602"},{"name":"ÇİFTEPINAR KÖYÜ","zip":"04602"},{"name":"DALKILIÇ KONUTLAR MAH.","zip":"04602"},{"name":"DALKILIÇ KÖYÜ","zip":"04602"},{"name":"DEĞİRMENGEÇİDİ MAH.","zip":"04602"},{"name":"DEĞİRMENOLUĞU KÖYÜ","zip":"04602"},{"name":"DOLUTAŞ KÖYÜ","zip":"04602"},{"name":"DÜZAĞIL KÖYÜ","zip":"04602"},{"name":"DÜZYAYLA KÖYÜ","zip":"04602"},{"name":"ERGÖZÜ KÖYÜ","zip":"04602"},{"name":"ESENTEPE MAH.","zip":"04602"},{"name":"EYÜPKOMU MAH.","zip":"04602"},{"name":"GONCALI KÖYÜ","zip":"04602"},{"name":"GÖKÇAYIR MAH.","zip":"04602"},{"name":"GÖZAYDIN KÖYÜ","zip":"04602"},{"name":"GÜNEYKAYA KÖYÜ","zip":"04602"},{"name":"GÜVENCE KÖYÜ","zip":"04602"},{"name":"HAN MAH.","zip":"04602"},{"name":"HAREBEGÜL MAH.","zip":"04602"},{"name":"HASANPINARI KÖYÜ","zip":"04602"},{"name":"HAYDAROĞLU KÖYÜ","zip":"04602"},{"name":"HAYRANGÖL KÖYÜ","zip":"04602"},{"name":"HÜRRİYET KÖYÜ","zip":"04602"},{"name":"İKİZGEÇE KÖYÜ","zip":"04602"},{"name":"İKİZGÖL KÖYÜ","zip":"04602"},{"name":"İNDERE KÖYÜ","zip":"04602"},{"name":"KANATGEREN KÖYÜ","zip":"04602"},{"name":"KARABACAK KÖYÜ","zip":"04602"},{"name":"KARŞIYAKA MAH.","zip":"04602"},{"name":"KAYAYOLU KÖYÜ","zip":"04602"},{"name":"KOKULUPINAR KÖYÜ","zip":"04602"},{"name":"KÖRPEÇAYIR KÖYÜ","zip":"04602"},{"name":"MOLLAHÜSEYİN KÖYÜ","zip":"04602"},{"name":"MOLLASÜLEYMAN KÖYÜ","zip":"04602"},{"name":"OKLAVALI MAH.","zip":"04602"},{"name":"ÖZTOPRAK KÖYÜ","zip":"04602"},{"name":"PALAKÇAYIRI KÖYÜ","zip":"04602"},{"name":"PİRABAT KÖYÜ","zip":"04602"},{"name":"POSTO MAH.","zip":"04602"},{"name":"RAMAZAN KÖYÜ","zip":"04602"},{"name":"SADAKLI KÖYÜ","zip":"04602"},{"name":"SALKIMLI KÖYÜ","zip":"04602"},{"name":"SARIKÖY KÖYÜ","zip":"04602"},{"name":"SÖBETAŞ KÖYÜ","zip":"04602"},{"name":"SULTANABAT KÖYÜ","zip":"04602"},{"name":"SÜZGEÇLİ KÖYÜ","zip":"04602"},{"name":"ŞEHİT ENGİN MAH.","zip":"04602"},{"name":"TOPRAKKALE KÖYÜ","zip":"04602"},{"name":"TÜRKELİ KÖYÜ","zip":"04602"},{"name":"ULUDAL KÖYÜ","zip":"04602"},{"name":"UZUNYAZI KÖYÜ","zip":"04602"},{"name":"YAĞMURLU KÖYÜ","zip":"04602"},{"name":"YANIKDERE KÖYÜ","zip":"04602"},{"name":"YAYLADÜZÜ KÖYÜ","zip":"04602"},{"name":"YELKESEN KÖYÜ","zip":"04602"},{"name":"YEŞİLOVA KÖYÜ","zip":"04602"},{"name":"YEŞİLYURT MAH.","zip":"04602"},{"name":"YIĞINTAŞ KÖYÜ","zip":"04602"},{"name":"YUKARIKOPUZ KÖYÜ","zip":"04602"},{"name":"YÜCEKAPI KÖYÜ","zip":"04602"},{"name":"ZEYİT YAYLASI MAH.","zip":"04602"}]},{"name":"TAHİR","cityName":null,"quarters":[{"name":"KARŞIYAKA MAH.","zip":"04401"},{"name":"TAHİR KÖYÜ","zip":"04401"},{"name":"YEŞİL MAH.","zip":"04401"}]},{"name":"HAMUR","cityName":null,"quarters":[{"name":"KALE MAH.","zip":"04850"},{"name":"KÜMBET MAH.","zip":"04850"},{"name":"MERKEZ MAH.","zip":"04850"},{"name":"YENİ MAH.","zip":"04850"}]},{"name":"MERKEZKÖYLER","cityName":null,"quarters":[{"name":"ADIMOVA KÖYÜ","zip":"04852"},{"name":"AKÖREN MAH.","zip":"04852"},{"name":"AKYURT MAH.","zip":"04852"},{"name":"ALAKOYUN KÖYÜ","zip":"04852"},{"name":"ALİAĞA MAH.","zip":"04852"},{"name":"ALTIN YURT MAH.","zip":"04852"},{"name":"AŞ KOYUNCU MAH.","zip":"04852"},{"name":"AŞ. MOLLAHASAN MAH.","zip":"04852"},{"name":"AŞAĞI GÖZE MAH.","zip":"04852"},{"name":"AŞAĞI KAYALAR MAH.","zip":"04852"},{"name":"AŞAĞI MOLLAHASAN MAH.","zip":"04852"},{"name":"AŞAĞI YURT MAH.","zip":"04852"},{"name":"AŞAĞIALADAĞ KÖYÜ","zip":"04852"},{"name":"AŞAĞIDEREDİBİ KÖYÜ","zip":"04852"},{"name":"AŞAĞIGÖZLÜCE KÖYÜ","zip":"04852"},{"name":"AŞAĞIKARABAL KÖYÜ","zip":"04852"},{"name":"AŞAĞIYENİGÜN KÖYÜ","zip":"04852"},{"name":"AYDINLAR MAH.","zip":"04852"},{"name":"AYVACIK KÖYÜ","zip":"04852"},{"name":"BALDERE KÖYÜ","zip":"04852"},{"name":"BEKCİLER MEZRASI MAH.","zip":"04852"},{"name":"BEKLEMEZ KÖYÜ","zip":"04852"},{"name":"BOZO ÇAYIRI MAH.","zip":"04852"},{"name":"BOZTEPE MAH.","zip":"04852"},{"name":"CEYLANLI KÖYÜ","zip":"04852"},{"name":"ÇAĞLAYAN KÖYÜ","zip":"04852"},{"name":"ÇEŞME MAH.","zip":"04852"},{"name":"DANACIK MAH.","zip":"04852"},{"name":"DANAKIRAN KÖYÜ","zip":"04852"},{"name":"DARBOĞAZ MAH.","zip":"04852"},{"name":"DEMİRKAPI KÖYÜ","zip":"04852"},{"name":"EKİNCİK KÖYÜ","zip":"04852"},{"name":"ERDOĞAN KÖYÜ","zip":"04852"},{"name":"ESENÖREN KÖYÜ","zip":"04852"},{"name":"GOME MAH.","zip":"04852"},{"name":"GÜLÇİMEN MAH.","zip":"04852"},{"name":"GÜLLÜCE MAH.","zip":"04852"},{"name":"GÜLTEPE KÖYÜ","zip":"04852"},{"name":"GÜMÜŞKUŞAK KÖYÜ","zip":"04852"},{"name":"GÜVEÇ MAH.","zip":"04852"},{"name":"HANİK MAH.","zip":"04852"},{"name":"KAÇMAZ KÖYÜ","zip":"04852"},{"name":"KAMIŞLI KÖYÜ","zip":"04852"},{"name":"KANDİLDAĞI KÖYÜ","zip":"04852"},{"name":"KARADERE MAH.","zip":"04852"},{"name":"KARADOĞU KÖYÜ","zip":"04852"},{"name":"KARAKAZAN KÖYÜ","zip":"04852"},{"name":"KARASEYİTALİ KÖYÜ","zip":"04852"},{"name":"KARDEŞLER MAH.","zip":"04852"},{"name":"KARLICA KÖYÜ","zip":"04852"},{"name":"KAYALAR MAH.","zip":"04852"},{"name":"KAYNAKLI KÖYÜ","zip":"04852"},{"name":"KELEŞKOM MAH.","zip":"04852"},{"name":"KENDALANA MAH.","zip":"04852"},{"name":"KILIÇ KÖYÜ","zip":"04852"},{"name":"KÖŞK KÖYÜ","zip":"04852"},{"name":"KUNCIK MAH.","zip":"04852"},{"name":"MEZRA MAH.","zip":"04852"},{"name":"MUSABEY MAH.","zip":"04852"},{"name":"NALLIKONAK KÖYÜ","zip":"04852"},{"name":"NENİK MAH.","zip":"04852"},{"name":"OLUKLU MAH.","zip":"04852"},{"name":"ORTA MOLLAHASAN MAH.","zip":"04852"},{"name":"ORTAKÖY MAH.","zip":"04852"},{"name":"ÖMERŞABAN MAH.","zip":"04852"},{"name":"ÖRENLİ MAH.","zip":"04852"},{"name":"ÖZDİREK KÖYÜ","zip":"04852"},{"name":"SARIBUĞDAY KÖYÜ","zip":"04852"},{"name":"SELİM MAH.","zip":"04852"},{"name":"SESLİDOĞAN KÖYÜ","zip":"04852"},{"name":"SEYİTHANBEY KÖYÜ","zip":"04852"},{"name":"SOĞANLITEPE KÖYÜ","zip":"04852"},{"name":"SÜLEYMANKÜMBET KÖYÜ","zip":"04852"},{"name":"ŞEHİT MAH.","zip":"04852"},{"name":"ŞİKEFT MAH.","zip":"04852"},{"name":"TATLISU MAH.","zip":"04852"},{"name":"TAZEKÖY MAH.","zip":"04852"},{"name":"TEPECİK MAH.","zip":"04852"},{"name":"TOKLU MAH.","zip":"04852"},{"name":"TUTAK MAH.","zip":"04852"},{"name":"TÜKENMEZ KÖYÜ","zip":"04852"},{"name":"UĞURTAŞ KÖYÜ","zip":"04852"},{"name":"UZUN ÇEŞME MAH.","zip":"04852"},{"name":"ÜÇ EVLER MAH.","zip":"04852"},{"name":"YAMAÇ MAH.","zip":"04852"},{"name":"YAPILI KÖYÜ","zip":"04852"},{"name":"YAZILI MAH.","zip":"04852"},{"name":"YEŞİL MAH.","zip":"04852"},{"name":"YK KUYUNCU MAH.","zip":"04852"},{"name":"YK YURT MAH.","zip":"04852"},{"name":"YK. MOLLAHASAN MAH.","zip":"04852"},{"name":"YOĞUNHİSAR KÖYÜ","zip":"04852"},{"name":"YOĞURTÇU MAH.","zip":"04852"},{"name":"YUKARI DEREDİBİ MAH.","zip":"04852"},{"name":"YUKARI GÖZE MAH.","zip":"04852"},{"name":"YUKARI KAYA MAH.","zip":"04852"},{"name":"YUKARIAĞADEVE KÖYÜ","zip":"04852"},{"name":"YUKARIALADAĞ KÖYÜ","zip":"04852"},{"name":"YUKARIEKİNCİK MAH.","zip":"04852"},{"name":"YUKARIGÖZLÜCE KÖYÜ","zip":"04852"},{"name":"YUKARITEPECİK MAH.","zip":"04852"},{"name":"YUKARIYENİGÜN KÖYÜ","zip":"04852"},{"name":"YUVACIK KÖYÜ","zip":"04852"}]},{"name":"FEVZİÇAKMAK","cityName":null,"quarters":[{"name":"ALPASLAN MAH.","zip":"04200"},{"name":"CUMHURİYET MAH.","zip":"04200"},{"name":"FEVZİ ÇAKMAK MAH.","zip":"04200"},{"name":"FIRAT MAH.","zip":"04200"},{"name":"KURTULUŞ MAH.","zip":"04200"},{"name":"MEHMET AKİF ERSOY MAH.","zip":"04200"},{"name":"MURAT MAH.","zip":"04200"}]},{"name":"KAZIMKARABEKİR","cityName":null,"quarters":[{"name":"AŞAĞIKÜPKIRAN MAH.","zip":"04100"},{"name":"BAHÇELİEVLER MAH.","zip":"04100"},{"name":"FATİH MAH.","zip":"04100"},{"name":"GAZİ MAH.","zip":"04100"},{"name":"HÜRRİYET MAH.","zip":"04100"},{"name":"KAZIM KARABEKİR MAH.","zip":"04100"},{"name":"LEYLEK PINAR MAH.","zip":"04100"},{"name":"SITKIYE MAH.","zip":"04100"},{"name":"YAVUZ MAH.","zip":"04100"}]},{"name":"MERKEZKÖYLER","cityName":null,"quarters":[{"name":"AĞRI OSB MAH.","zip":"04010"},{"name":"AHMETBEY KÖYÜ","zip":"04010"},{"name":"AKBULGUR KÖYÜ","zip":"04010"},{"name":"AKÇAY KÖYÜ","zip":"04010"},{"name":"ALTINÇAYIR MAH.","zip":"04010"},{"name":"ANAKAYA KÖYÜ","zip":"04010"},{"name":"ARAKONAK KÖYÜ","zip":"04010"},{"name":"ARAP MAH.","zip":"04010"},{"name":"ASLANGAZİ KÖYÜ","zip":"04010"},{"name":"AŞAĞI PINAR MAH.","zip":"04010"},{"name":"AŞAĞIAĞADEVE KÖYÜ","zip":"04010"},{"name":"AŞAĞIDÜRMELİ KÖYÜ","zip":"04010"},{"name":"AŞAĞIKENT KÖYÜ","zip":"04010"},{"name":"AŞAĞIPAMUKTAŞ KÖYÜ","zip":"04010"},{"name":"AŞAĞISAKLICA KÖYÜ","zip":"04010"},{"name":"AŞAĞISUBAŞI MAH.","zip":"04010"},{"name":"AŞAĞIYOLDÜZÜ KÖYÜ","zip":"04010"},{"name":"AŞKALE KÖYÜ","zip":"04010"},{"name":"AYRANLI MAH.","zip":"04010"},{"name":"BADILLI KÖYÜ","zip":"04010"},{"name":"BALIKSU KÖYÜ","zip":"04010"},{"name":"BALKAYNAK KÖYÜ","zip":"04010"},{"name":"BALLIBOSTAN KÖYÜ","zip":"04010"},{"name":"BALOLUK KÖYÜ","zip":"04010"},{"name":"BAŞÇAVUŞ KÖYÜ","zip":"04010"},{"name":"BAŞKENT KÖYÜ","zip":"04010"},{"name":"BEŞBULAK KÖYÜ","zip":"04010"},{"name":"BEŞİKTEPE KÖYÜ","zip":"04010"},{"name":"BEZİRHANE KÖYÜ","zip":"04010"},{"name":"BOZTOPRAK KÖYÜ","zip":"04010"},{"name":"BÖLÜKBAŞI KÖYÜ","zip":"04010"},{"name":"CUMAÇAY KÖYÜ","zip":"04010"},{"name":"ÇAKIROBA KÖYÜ","zip":"04010"},{"name":"ÇAMURLU KÖYÜ","zip":"04010"},{"name":"ÇATALİPAŞA KÖYÜ","zip":"04010"},{"name":"ÇAYIR MAH.","zip":"04010"},{"name":"ÇAYIRKÖY KÖYÜ","zip":"04010"},{"name":"ÇOBANBEYİ KÖYÜ","zip":"04010"},{"name":"ÇUKURALAN KÖYÜ","zip":"04010"},{"name":"ÇUKURÇAYIR KÖYÜ","zip":"04010"},{"name":"DARICA MAH.","zip":"04010"},{"name":"DEDEMAKSUT KÖYÜ","zip":"04010"},{"name":"DOĞUTEPE KÖYÜ","zip":"04010"},{"name":"DÖNERDERE KÖYÜ","zip":"04010"},{"name":"DUMANLI KÖYÜ","zip":"04010"},{"name":"EĞRİBELEN KÖYÜ","zip":"04010"},{"name":"ELİAÇIK KÖYÜ","zip":"04010"},{"name":"ESEN KÖY MAH.","zip":"04010"},{"name":"ESENKÖY KÖYÜ","zip":"04010"},{"name":"ESKİHARMAN KÖYÜ","zip":"04010"},{"name":"FERHAT MAH.","zip":"04010"},{"name":"GEÇİTALAN KÖYÜ","zip":"04010"},{"name":"GÖLSEVTİ MAH.","zip":"04010"},{"name":"GÜMÜŞYAZI KÖYÜ","zip":"04010"},{"name":"GÜNEYSU KÖYÜ","zip":"04010"},{"name":"GÜVENDİK KÖYÜ","zip":"04010"},{"name":"GÜVENLİ KÖYÜ","zip":"04010"},{"name":"GÜZELDERE MAH.","zip":"04010"},{"name":"HACISEFER KÖYÜ","zip":"04010"},{"name":"HANOBA KÖYÜ","zip":"04010"},{"name":"HIDIR KÖYÜ","zip":"04010"},{"name":"KALENDER KÖYÜ","zip":"04010"},{"name":"KARASU KÖYÜ","zip":"04010"},{"name":"KAVACIK KÖYÜ","zip":"04010"},{"name":"KAVAKKÖY KÖYÜ","zip":"04010"},{"name":"KAYABEY KÖYÜ","zip":"04010"},{"name":"KAZLI KÖYÜ","zip":"04010"},{"name":"KEMAN MAH.","zip":"04010"},{"name":"KOCATAŞ KÖYÜ","zip":"04010"},{"name":"KOÇBAŞI KÖYÜ","zip":"04010"},{"name":"KOMİK MAH.","zip":"04010"},{"name":"KONAK MAH.","zip":"04010"},{"name":"KONUKTEPE KÖYÜ","zip":"04010"},{"name":"KOVANCIK KÖYÜ","zip":"04010"},{"name":"KUMLUGEÇİT KÖYÜ","zip":"04010"},{"name":"MAMIK MAH.","zip":"04010"},{"name":"MEZRA MAH.","zip":"04010"},{"name":"MOLLAALİ KÖYÜ","zip":"04010"},{"name":"MOLLAOSMAN KÖYÜ","zip":"04010"},{"name":"MURAT KÖYÜ","zip":"04010"},{"name":"MURATHAN KÖYÜ","zip":"04010"},{"name":"OĞLAKLI KÖYÜ","zip":"04010"},{"name":"ORTAKENT KÖYÜ","zip":"04010"},{"name":"ORTAYOKUŞ KÖYÜ","zip":"04010"},{"name":"OTLUBAYIR KÖYÜ","zip":"04010"},{"name":"OZANLAR KÖYÜ","zip":"04010"},{"name":"ÖZBAŞI KÖYÜ","zip":"04010"},{"name":"ÖZVEREN KÖYÜ","zip":"04010"},{"name":"PINARCIK MAH.","zip":"04010"},{"name":"REŞO MAH.","zip":"04010"},{"name":"SABUNCU KÖYÜ","zip":"04010"},{"name":"SAĞIRTAŞ KÖYÜ","zip":"04010"},{"name":"SARICA KÖYÜ","zip":"04010"},{"name":"SARIDOĞAN KÖYÜ","zip":"04010"},{"name":"SARIHARMAN KÖYÜ","zip":"04010"},{"name":"SARITAŞ KÖYÜ","zip":"04010"},{"name":"SOĞANCUMAÇAY KÖYÜ","zip":"04010"},{"name":"SOĞANKÖY KÖYÜ","zip":"04010"},{"name":"SÖĞÜTLÜ KÖYÜ","zip":"04010"},{"name":"SUÇATAĞI KÖYÜ","zip":"04010"},{"name":"TAŞTEKNE KÖYÜ","zip":"04010"},{"name":"TAYPINAR KÖYÜ","zip":"04010"},{"name":"TELLİSIRT KÖYÜ","zip":"04010"},{"name":"TEZEREN KÖYÜ","zip":"04010"},{"name":"UÇARKAYA KÖYÜ","zip":"04010"},{"name":"UZUNVELİ KÖYÜ","zip":"04010"},{"name":"ÜÇ EVLER MAH.","zip":"04010"},{"name":"YAKINCA KÖYÜ","zip":"04010"},{"name":"YALNIZKONAK KÖYÜ","zip":"04010"},{"name":"YAYIKLI MAH.","zip":"04010"},{"name":"YAYLAKÖY KÖYÜ","zip":"04010"},{"name":"YAZICI KÖYÜ","zip":"04010"},{"name":"YAZILI KÖYÜ","zip":"04010"},{"name":"YIĞINTEPE KÖYÜ","zip":"04010"},{"name":"YOLLUYAZI KÖYÜ","zip":"04010"},{"name":"YOLUGÜZEL KÖYÜ","zip":"04010"},{"name":"YONCALI KÖYÜ","zip":"04010"},{"name":"YORGUNSÖĞÜT KÖYÜ","zip":"04010"},{"name":"YUKARI PINAR MAH.","zip":"04010"},{"name":"YUKARI SUBAŞI MAH.","zip":"04010"},{"name":"YUKARIDÜRMELİ KÖYÜ","zip":"04010"},{"name":"YUKARIKÜPKIRAN KÖYÜ","zip":"04010"},{"name":"YUKARIPAMUKTAŞ KÖYÜ","zip":"04010"},{"name":"YUKARISAKLICA KÖYÜ","zip":"04010"},{"name":"YUKARIYOLDÜZÜ KÖYÜ","zip":"04010"},{"name":"YURTPINAR KÖYÜ","zip":"04010"},{"name":"ZİYARET KÖYÜ","zip":"04010"}]},{"name":"DEDELİ","cityName":null,"quarters":[{"name":"BALCILAR MAH.","zip":"04503"},{"name":"BAŞTARLA KÖYÜ","zip":"04503"},{"name":"BOZOĞLAK KÖYÜ","zip":"04503"},{"name":"BUDAK MAH.","zip":"04503"},{"name":"CIZVIZ MAH.","zip":"04503"},{"name":"CUMHURİYET MAH.","zip":"04503"},{"name":"ÇAVUŞ MAH.","zip":"04503"},{"name":"ÇİÇEK MAH.","zip":"04503"},{"name":"ÇİMENLİ KÖYÜ","zip":"04503"},{"name":"ÇUKURBAĞ KÖYÜ","zip":"04503"},{"name":"DAMBAT MAH.","zip":"04503"},{"name":"DEDELİ KÖYÜ","zip":"04503"},{"name":"DEĞİRMEN MAH.","zip":"04503"},{"name":"DEĞİRMENDÜZÜ KÖYÜ","zip":"04503"},{"name":"DERECİK KÖYÜ","zip":"04503"},{"name":"DEREKOMU MAH.","zip":"04503"},{"name":"ERYILMAZ KÖYÜ","zip":"04503"},{"name":"FATİH MAH.","zip":"04503"},{"name":"GÜNDÜZ KÖYÜ","zip":"04503"},{"name":"HASANDOLU KÖYÜ","zip":"04503"},{"name":"HİSAR KÖYÜ","zip":"04503"},{"name":"KARBASAN KÖYÜ","zip":"04503"},{"name":"KAŞ KÖYÜ","zip":"04503"},{"name":"KELEŞLER MEZRASI MAH.","zip":"04503"},{"name":"KIZILAĞIL MAH.","zip":"04503"},{"name":"MERKEZ MAH.","zip":"04503"},{"name":"MEYDANDAĞI KÖYÜ","zip":"04503"},{"name":"ORTADAMLA KÖYÜ","zip":"04503"},{"name":"ÖRENDİK KÖYÜ","zip":"04503"},{"name":"PİRÖMER KÖYÜ","zip":"04503"},{"name":"ŞEYTANOVA MAH.","zip":"04503"},{"name":"TOZBELEN MAH.","zip":"04503"},{"name":"ÜZÜMLÜ MAH.","zip":"04503"},{"name":"YEŞİLÇİMEN MAH.","zip":"04503"},{"name":"YEŞİLHİSAR KÖYÜ","zip":"04503"},{"name":"YEŞİLOVA MAH.","zip":"04503"},{"name":"YK.HIRBE MAH.","zip":"04503"},{"name":"YUKARIDAMLA KÖYÜ","zip":"04503"},{"name":"YUSUF AKBULUT MAH.","zip":"04503"},{"name":"ZALİ MAH.","zip":"04503"},{"name":"ZÜBEYT KOMU MAH.","zip":"04503"}]},{"name":"MERKEZKÖYLER","cityName":null,"quarters":[{"name":"AKDİLEK KÖYÜ","zip":"04502"},{"name":"AKYEMİŞ KÖYÜ","zip":"04502"},{"name":"ALATAY KÖYÜ","zip":"04502"},{"name":"ANDAÇLI KÖYÜ","zip":"04502"},{"name":"AŞAĞI TEPE ÖNÜ MAH.","zip":"04502"},{"name":"AŞAĞIGÖÇMEZ KÖYÜ","zip":"04502"},{"name":"AŞAĞIKAMIŞLI KÖYÜ","zip":"04502"},{"name":"BAHÇELİ MAH.","zip":"04502"},{"name":"BALTACIK KÖYÜ","zip":"04502"},{"name":"BUDAK KÖYÜ","zip":"04502"},{"name":"CUMHURİYET (LİÇ) MAH.","zip":"04502"},{"name":"ÇAKIRBEY KÖYÜ","zip":"04502"},{"name":"ÇAMURLU KÖYÜ","zip":"04502"},{"name":"ÇAVUŞKÖY KÖYÜ","zip":"04502"},{"name":"DEMİRÖREN KÖYÜ","zip":"04502"},{"name":"DERMO MAH.","zip":"04502"},{"name":"DİBEK MAH.","zip":"04502"},{"name":"DİKİLİTAŞ MAH.","zip":"04502"},{"name":"DİNÇER MAH.","zip":"04502"},{"name":"DOĞANSU KÖYÜ","zip":"04502"},{"name":"DÜZCE MAH.","zip":"04502"},{"name":"DÜZCELİ KÖYÜ","zip":"04502"},{"name":"EDREMİT KÖYÜ","zip":"04502"},{"name":"ESKİKONAK KÖYÜ","zip":"04502"},{"name":"EVREN MAH.","zip":"04502"},{"name":"GEÇİT MAH.","zip":"04502"},{"name":"GELEBIZIN MAH.","zip":"04502"},{"name":"GÖKOĞLU KÖYÜ","zip":"04502"},{"name":"GÜL MAH.","zip":"04502"},{"name":"GÜLÇİMEN MAH.","zip":"04502"},{"name":"GÜLDÜZ MAH.","zip":"04502"},{"name":"GÜLLÜCE KÖYÜ","zip":"04502"},{"name":"GÜZELDERE MAH.","zip":"04502"},{"name":"HACILAR KÖYÜ","zip":"04502"},{"name":"HALİFE MAH.","zip":"04502"},{"name":"İNCESU MAH.","zip":"04502"},{"name":"KALE MAH.","zip":"04502"},{"name":"KANIŞEVİTİ MAH.","zip":"04502"},{"name":"KARATOKLU KÖYÜ","zip":"04502"},{"name":"KAYADİBİ MAH.","zip":"04502"},{"name":"KILKA MAH.","zip":"04502"},{"name":"KIZILTEPE KÖYÜ","zip":"04502"},{"name":"KIZKAPAN KÖYÜ","zip":"04502"},{"name":"KOÇAKLAR KÖYÜ","zip":"04502"},{"name":"KONAKBEYİ KÖYÜ","zip":"04502"},{"name":"KURUYAKA KÖYÜ","zip":"04502"},{"name":"KUŞKAYA KÖYÜ","zip":"04502"},{"name":"KÜNCÜK MAH.","zip":"04502"},{"name":"KÜREKLİ KÖYÜ","zip":"04502"},{"name":"MEZRA MAH.","zip":"04502"},{"name":"MOLLAİBRAHİM KÖYÜ","zip":"04502"},{"name":"OYACIK KÖYÜ","zip":"04502"},{"name":"ÖZDEMİR KÖYÜ","zip":"04502"},{"name":"SAĞRICA KÖYÜ","zip":"04502"},{"name":"SALAHANE MAH.","zip":"04502"},{"name":"SULUCA KÖYÜ","zip":"04502"},{"name":"SUSUZ KÖYÜ","zip":"04502"},{"name":"ŞEKEROVA MAH.","zip":"04502"},{"name":"ŞIRIK MAH.","zip":"04502"},{"name":"TANYELİ KÖYÜ","zip":"04502"},{"name":"TAPU MAH.","zip":"04502"},{"name":"TEKİK MAH.","zip":"04502"},{"name":"TEKMAL MAH.","zip":"04502"},{"name":"TEPELİ KÖYÜ","zip":"04502"},{"name":"TURGUT ÖZAL MAH.","zip":"04502"},{"name":"USLUCA KÖYÜ","zip":"04502"},{"name":"UZUNCA KÖYÜ","zip":"04502"},{"name":"UZUNGÜN KÖYÜ","zip":"04502"},{"name":"ÜÇOYMAK KÖYÜ","zip":"04502"},{"name":"VARA MAH.","zip":"04502"},{"name":"VARAN MAH.","zip":"04502"},{"name":"Y.SALAHANA MAH.","zip":"04502"},{"name":"YALÇINKAYA KÖYÜ","zip":"04502"},{"name":"YAYALAR MAH.","zip":"04502"},{"name":"YENİCE MAH.","zip":"04502"},{"name":"YUKARI TEPE ÖNÜ MAH.","zip":"04502"},{"name":"YUKARIGÖÇMEZ KÖYÜ","zip":"04502"},{"name":"YUKARIKAMIŞLI KÖYÜ","zip":"04502"},{"name":"YUKARIKÜLECİK KÖYÜ","zip":"04502"},{"name":"YUKARIMAHALLE MAH.","zip":"04502"},{"name":"YUSUF MAH.","zip":"04502"},{"name":"YÜNCÜLER KÖYÜ","zip":"04502"},{"name":"YÜREKVEREN KÖYÜ","zip":"04502"},{"name":"ZİNCİRKALE KÖYÜ","zip":"04502"},{"name":"ZİYARET KÖYÜ","zip":"04502"}]},{"name":"PATNOS","cityName":null,"quarters":[{"name":"ABDULVEHAP KÜFREVİ MAH.","zip":"04500"},{"name":"AHMED-İ HANİ MAHALLESİ MAH.","zip":"04500"},{"name":"ALPASLAN MAH.","zip":"04500"},{"name":"ATATÜRK MAH.","zip":"04500"},{"name":"BADİŞAN MAH.","zip":"04500"},{"name":"CAMİ MAH.","zip":"04500"},{"name":"CUMHURİYET MAH.","zip":"04500"},{"name":"ÇAY MAH.","zip":"04500"},{"name":"İNÖNÜ MAH.","zip":"04500"},{"name":"SANAYİ MAH.","zip":"04500"},{"name":"SARISU MAH.","zip":"04500"},{"name":"SELAHADDİNİ EYYUBİ MAH.","zip":"04500"},{"name":"SERHAD MAH.","zip":"04500"},{"name":"SÜPHAN DAĞI MAH.","zip":"04500"},{"name":"SÜTLÜ PINAR MAH.","zip":"04500"},{"name":"YENİ MAH.","zip":"04500"},{"name":"YEŞİL ÇİMEN MAH.","zip":"04500"},{"name":"YUNUSEMRE MAH.","zip":"04500"}]},{"name":"SARISU","cityName":null,"quarters":[{"name":"ADALET MAH.","zip":"04510"},{"name":"AKTEPE KÖYÜ","zip":"04510"},{"name":"ARMUTLU KÖYÜ","zip":"04510"},{"name":"BAĞBAŞI KÖYÜ","zip":"04510"},{"name":"BOZO MAH.","zip":"04510"},{"name":"CANİK MAH.","zip":"04510"},{"name":"ÇAPUTLU KÖYÜ","zip":"04510"},{"name":"ÇATMAOLUK KÖYÜ","zip":"04510"},{"name":"ÇEVLİK MAH.","zip":"04510"},{"name":"ÇİÇEK KÖYÜ","zip":"04510"},{"name":"ÇORTALİ MAH.","zip":"04510"},{"name":"ÇUBUKLU MAH.","zip":"04510"},{"name":"DAĞALAN KÖYÜ","zip":"04510"},{"name":"DİZGİNKALE KÖYÜ","zip":"04510"},{"name":"ERGEÇLİ KÖYÜ","zip":"04510"},{"name":"ESENBEL KÖYÜ","zip":"04510"},{"name":"GENÇALİ KÖYÜ","zip":"04510"},{"name":"GÖKÇEALİ KÖYÜ","zip":"04510"},{"name":"GÖL MAH.","zip":"04510"},{"name":"GÖNLÜAÇIK KÖYÜ","zip":"04510"},{"name":"GÜNBELİ KÖYÜ","zip":"04510"},{"name":"GÜVERCİNLİ KÖYÜ","zip":"04510"},{"name":"HARABEKENT MAH.","zip":"04510"},{"name":"HAZNE MAH.","zip":"04510"},{"name":"HIRBA GÜLAN MAH.","zip":"04510"},{"name":"HIRBE MAH.","zip":"04510"},{"name":"KARABULAK MAH.","zip":"04510"},{"name":"KAZANBEY KÖYÜ","zip":"04510"},{"name":"KEÇELBABA KÖYÜ","zip":"04510"},{"name":"KÖSELER KÖYÜ","zip":"04510"},{"name":"KUCAK KÖYÜ","zip":"04510"},{"name":"MALTEPE MAH.","zip":"04510"},{"name":"MECNUNGÖLÜ MAH.","zip":"04510"},{"name":"ONBAŞILAR KÖYÜ","zip":"04510"},{"name":"SARIDİBEK KÖYÜ","zip":"04510"},{"name":"SATIBULAK MAH.","zip":"04510"},{"name":"TAŞKIN KÖYÜ","zip":"04510"},{"name":"ÜRKÜT KÖYÜ","zip":"04510"},{"name":"YAYLA EVİ MAH.","zip":"04510"},{"name":"YEŞİLCE MAH.","zip":"04510"},{"name":"YEŞİLYURT KÖYÜ","zip":"04510"},{"name":"YILANLI MAH.","zip":"04510"},{"name":"YK.DUMANLI MAH.","zip":"04510"},{"name":"YURTÖVEN KÖYÜ","zip":"04510"},{"name":"ZİREKLİ KÖYÜ","zip":"04510"},{"name":"ZORAVA MAH.","zip":"04510"}]},{"name":"MERKEZKÖYLER","cityName":null,"quarters":[{"name":"ALAKOÇLU KÖYÜ","zip":"04802"},{"name":"ARAS KÖYÜ","zip":"04802"},{"name":"AŞAĞIDUMANLI KÖYÜ","zip":"04802"},{"name":"AŞAĞIDÜZMEYDAN KÖYÜ","zip":"04802"},{"name":"AŞAĞIESEN KÖYÜ","zip":"04802"},{"name":"AŞAĞITOKLU KÖYÜ","zip":"04802"},{"name":"BALÇİÇEK KÖYÜ","zip":"04802"},{"name":"BAYIRALTI KÖYÜ","zip":"04802"},{"name":"BAYRAMYAZI KÖYÜ","zip":"04802"},{"name":"BOYUNCAK KÖYÜ","zip":"04802"},{"name":"ÇEKELGE MAH.","zip":"04802"},{"name":"ÇERMİK MAH.","zip":"04802"},{"name":"ÇÖĞÜRLÜ KÖYÜ","zip":"04802"},{"name":"ÇÖKELGE KÖYÜ","zip":"04802"},{"name":"ÇÖKELGE MAH.","zip":"04802"},{"name":"DİLEKYAZI KÖYÜ","zip":"04802"},{"name":"DÖŞEME MAH.","zip":"04802"},{"name":"DÜZGÖREN KÖYÜ","zip":"04802"},{"name":"ESEN MAH.","zip":"04802"},{"name":"GEÇİTVEREN KÖYÜ","zip":"04802"},{"name":"GÖZUCU KÖYÜ","zip":"04802"},{"name":"GÜLTEPE MAH.","zip":"04802"},{"name":"GÜMÜŞLÜ MAH.","zip":"04802"},{"name":"GÜNDOĞDU KÖYÜ","zip":"04802"},{"name":"GÜNEYSÖĞÜT KÖYÜ","zip":"04802"},{"name":"İKİYAMAÇ KÖYÜ","zip":"04802"},{"name":"İNANLI MAH.","zip":"04802"},{"name":"KADO MAH.","zip":"04802"},{"name":"KAĞNILI KÖYÜ","zip":"04802"},{"name":"KAĞNILI MAH.","zip":"04802"},{"name":"KARAGÖZ KÖYÜ","zip":"04802"},{"name":"KAYALIK MAH.","zip":"04802"},{"name":"KUMLUBUCAK KÖYÜ","zip":"04802"},{"name":"KUMLUCA KÖYÜ","zip":"04802"},{"name":"KÜREKLİ MAH.","zip":"04802"},{"name":"SAMANYOLU KÖYÜ","zip":"04802"},{"name":"SATİKOMU MAH.","zip":"04802"},{"name":"SİVRİCE MAH.","zip":"04802"},{"name":"TANRIVERDİ KÖYÜ","zip":"04802"},{"name":"TANYOLU KÖYÜ","zip":"04802"},{"name":"TAŞTEKER KÖYÜ","zip":"04802"},{"name":"YANALYOL KÖYÜ","zip":"04802"},{"name":"YANKAYA KÖYÜ","zip":"04802"},{"name":"YARDIMCILAR KÖYÜ","zip":"04802"},{"name":"YASSIKAYA KÖYÜ","zip":"04802"},{"name":"YAYLACIK MAH.","zip":"04802"},{"name":"YELTEPE KÖYÜ","zip":"04802"},{"name":"YENİKÖY MAH.","zip":"04802"},{"name":"YUKARIDUMANLI KÖYÜ","zip":"04802"},{"name":"YUKARIDÜZMEYDAN KÖYÜ","zip":"04802"},{"name":"YUKARIESEN KÖYÜ","zip":"04802"},{"name":"YUKARITAŞLIÇAY KÖYÜ","zip":"04802"},{"name":"YUKARITOKLU KÖYÜ","zip":"04802"}]},{"name":"TAŞLIÇAY","cityName":null,"quarters":[{"name":"CUMHURİYET MAH.","zip":"04800"},{"name":"HÜRRİYET MAH.","zip":"04800"},{"name":"ŞENTÜRK UZUN MAH.","zip":"04800"}]},{"name":"MERKEZKÖYLER","cityName":null,"quarters":[{"name":"ADAKENT KÖYÜ","zip":"04702"},{"name":"AHMETABAT KÖYÜ","zip":"04702"},{"name":"AKSU MAH.","zip":"04702"},{"name":"AKYELE KÖYÜ","zip":"04702"},{"name":"ALACAHAN KÖYÜ","zip":"04702"},{"name":"ALİHİRCO MAH.","zip":"04702"},{"name":"AŞAĞIKARAHALİT KÖYÜ","zip":"04702"},{"name":"AŞAĞIKARGALIK KÖYÜ","zip":"04702"},{"name":"AŞAĞIKÖŞKKÖY KÖYÜ","zip":"04702"},{"name":"AŞAĞIKÜLECİK KÖYÜ","zip":"04702"},{"name":"AŞAĞIÖZDEK KÖYÜ","zip":"04702"},{"name":"ATABİNDİ KÖYÜ","zip":"04702"},{"name":"ATAKÖY KÖYÜ","zip":"04702"},{"name":"AYDIN MAH.","zip":"04702"},{"name":"AZİZLER KÖYÜ","zip":"04702"},{"name":"BAHÇE KÖYÜ","zip":"04702"},{"name":"BATMIŞ KÖYÜ","zip":"04702"},{"name":"BAYINDIR KÖYÜ","zip":"04702"},{"name":"BEYDAMARLI KÖYÜ","zip":"04702"},{"name":"BİNTOSUN KÖYÜ","zip":"04702"},{"name":"BİŞİ KÖYÜ","zip":"04702"},{"name":"BOLAŞLI KÖYÜ","zip":"04702"},{"name":"BOZKAŞ KÖYÜ","zip":"04702"},{"name":"BULUTPINAR KÖYÜ","zip":"04702"},{"name":"BURNUBULAK KÖYÜ","zip":"04702"},{"name":"ÇELEBAŞI KÖYÜ","zip":"04702"},{"name":"ÇIRPILI KÖYÜ","zip":"04702"},{"name":"ÇOBANOBA KÖYÜ","zip":"04702"},{"name":"ÇUKURKONAK KÖYÜ","zip":"04702"},{"name":"DAĞLICA KÖYÜ","zip":"04702"},{"name":"DALDALIK KÖYÜ","zip":"04702"},{"name":"DAMLAKAYA KÖYÜ","zip":"04702"},{"name":"DAYIPINARI KÖYÜ","zip":"04702"},{"name":"DEĞİRMENDERE MAH.","zip":"04702"},{"name":"DEREKÖY KÖYÜ","zip":"04702"},{"name":"DİBELEK KÖYÜ","zip":"04702"},{"name":"DİKBIYIK KÖYÜ","zip":"04702"},{"name":"DİKME KÖYÜ","zip":"04702"},{"name":"DOĞANGÜN KÖYÜ","zip":"04702"},{"name":"DORUKDİBİ KÖYÜ","zip":"04702"},{"name":"DÖNERTAŞ KÖYÜ","zip":"04702"},{"name":"DÖŞKAYA KÖYÜ","zip":"04702"},{"name":"EDİSLER MAH.","zip":"04702"},{"name":"EKİNCEK KÖYÜ","zip":"04702"},{"name":"ERDAL KÖYÜ","zip":"04702"},{"name":"ERGEÇİDİ KÖYÜ","zip":"04702"},{"name":"ESMER KÖYÜ","zip":"04702"},{"name":"GEÇİMLİ KÖYÜ","zip":"04702"},{"name":"GÜÇİMEN MAH.","zip":"04702"},{"name":"GÜLÇİMEN MAH.","zip":"04702"},{"name":"GÜLTEPE KÖYÜ","zip":"04702"},{"name":"GÜNEŞGÖREN KÖYÜ","zip":"04702"},{"name":"HACI ALİ KOMU MAH.","zip":"04702"},{"name":"HACIYUSUF KÖYÜ","zip":"04702"},{"name":"HURİSAN MAH.","zip":"04702"},{"name":"HURRİYET MAH.","zip":"04702"},{"name":"İKİGÖZÜM KÖYÜ","zip":"04702"},{"name":"İPEKKUŞAK KÖYÜ","zip":"04702"},{"name":"İSAABAT KÖYÜ","zip":"04702"},{"name":"KARAAĞAÇ KÖYÜ","zip":"04702"},{"name":"KARACAN KÖYÜ","zip":"04702"},{"name":"KARAHAN KÖYÜ","zip":"04702"},{"name":"KARAKUYU KÖYÜ","zip":"04702"},{"name":"KAŞÖNÜ KÖYÜ","zip":"04702"},{"name":"KAYADİBİ MAH.","zip":"04702"},{"name":"KAYALAR MAH.","zip":"04702"},{"name":"KESİK KÖYÜ","zip":"04702"},{"name":"KILIÇGEDİĞİ KÖYÜ","zip":"04702"},{"name":"KUŞKAYA MAH.","zip":"04702"},{"name":"LAL YUSUF MAH.","zip":"04702"},{"name":"MERPEZER MAH.","zip":"04702"},{"name":"MIZRAK KÖYÜ","zip":"04702"},{"name":"MOLLAHALİT MAH.","zip":"04702"},{"name":"MOLLAHASAN KÖYÜ","zip":"04702"},{"name":"NÜSRET MAH.","zip":"04702"},{"name":"OCAKBAŞI KÖYÜ","zip":"04702"},{"name":"OĞLAKSUYU KÖYÜ","zip":"04702"},{"name":"ORTAYAMAÇ KÖYÜ","zip":"04702"},{"name":"OTLUCA KÖYÜ","zip":"04702"},{"name":"OZANPINAR KÖYÜ","zip":"04702"},{"name":"ÖNDÜL KÖYÜ","zip":"04702"},{"name":"PALANDÖKEN KÖYÜ","zip":"04702"},{"name":"SARIGÖZE KÖYÜ","zip":"04702"},{"name":"SİNCAN KÖYÜ","zip":"04702"},{"name":"SOFUKACIL MAH.","zip":"04702"},{"name":"SOĞUKPINAR KÖYÜ","zip":"04702"},{"name":"SORGUÇLU KÖYÜ","zip":"04702"},{"name":"SUVAR KÖYÜ","zip":"04702"},{"name":"ŞEKERBULAK KÖYÜ","zip":"04702"},{"name":"TAŞBUDAK KÖYÜ","zip":"04702"},{"name":"TEPEBAŞI MAH.","zip":"04702"},{"name":"TOPİ MAH.","zip":"04702"},{"name":"UZUNÖZ KÖYÜ","zip":"04702"},{"name":"YAYIKLI KÖYÜ","zip":"04702"},{"name":"YAZI BAŞI MAH.","zip":"04702"},{"name":"YENİKENT KÖYÜ","zip":"04702"},{"name":"YENİKÖY KÖYÜ","zip":"04702"},{"name":"YUKARIKARAHALİT KÖYÜ","zip":"04702"},{"name":"YUKARIKARGALIK KÖYÜ","zip":"04702"},{"name":"YUKARIKÖŞK KÖYÜ","zip":"04702"},{"name":"YUKARIÖZDEK KÖYÜ","zip":"04702"},{"name":"ZOZO MAH.","zip":"04702"}]},{"name":"TUTAK","cityName":null,"quarters":[{"name":"KARŞIYAKA MAH.","zip":"04700"},{"name":"MURAT MAH.","zip":"04700"},{"name":"PINAR MAH.","zip":"04700"},{"name":"YENİ MAH.","zip":"04700"}]}]}]}