{"id":40,"name":"KIRŞEHİR","cities":[{"name":"city","districts":[{"name":"AKÇAKENT","cityName":null,"quarters":null},{"name":"KÖSEFAKILI","cityName":null,"quarters":[{"name":"DEREFAKILI KÖYÜ","zip":"40723"},{"name":"GÜNEŞLİ MAH.","zip":"40723"},{"name":"GÜVEMLİ MAH.","zip":"40723"},{"name":"HACIFAKILI KÖYÜ","zip":"40723"},{"name":"HASANALİ KÖYÜ","zip":"40723"},{"name":"KARŞIYAKA MAH.","zip":"40723"},{"name":"KÖSEFAKILI BUCAK MERKEZİ KÖYÜ","zip":"40723"},{"name":"MAHSENLİ KÖYÜ","zip":"40723"},{"name":"POLATLI KÖYÜ","zip":"40723"},{"name":"TAŞLIOLUK KÖYÜ","zip":"40723"},{"name":"TEPE MAH.","zip":"40723"},{"name":"TEPEFAKILI KÖYÜ","zip":"40723"},{"name":"YAYLAÖZÜ KÖYÜ","zip":"40723"},{"name":"YEŞİLDERE KÖYÜ","zip":"40723"},{"name":"YETİKLİ KÖYÜ","zip":"40723"}]},{"name":"MERKEZKÖYLER","cityName":null,"quarters":[{"name":"AYVALI KÖYÜ","zip":"40722"},{"name":"ÇÖKELEK MAH.","zip":"40722"},{"name":"DERE MAH.","zip":"40722"},{"name":"GÜLLÜHÜYÜK KÖYÜ","zip":"40722"},{"name":"HAMZABEY KÖYÜ","zip":"40722"},{"name":"HATUNKARA MAH.","zip":"40722"},{"name":"KİLİMLİ KÖYÜ","zip":"40722"},{"name":"KÜÇÜKABDİUŞAĞI KÖYÜ","zip":"40722"},{"name":"ÖDEMİŞLİ KÖYÜ","zip":"40722"},{"name":"ÖMERUŞAĞI KÖYÜ","zip":"40722"},{"name":"SOLAKUŞAĞI KÖYÜ","zip":"40722"}]},{"name":"AKPINAR","cityName":null,"quarters":[{"name":"CUMHURİYET MAH.","zip":"40320"},{"name":"HACI HÜSEYİN EFENDİ MAH.","zip":"40320"},{"name":"KALEYAZI MAH.","zip":"40320"},{"name":"ŞİRİNEVLER MAH.","zip":"40320"},{"name":"YENİDOĞAN MAH.","zip":"40320"}]},{"name":"MERKEZKÖYLER","cityName":null,"quarters":[{"name":"AŞAĞIHOMURLU KÖYÜ","zip":"40322"},{"name":"BAHÇELİEVLER MAH.","zip":"40322"},{"name":"BERECİK MAH.","zip":"40322"},{"name":"BOYALIK KÖYÜ","zip":"40322"},{"name":"BÜYÜK DERE MEZRASI MAH.","zip":"40322"},{"name":"BÜYÜKABDİUŞAĞI KÖYÜ","zip":"40322"},{"name":"CUMHURİYET MAH.","zip":"40322"},{"name":"ÇALIBURNU KÖYÜ","zip":"40322"},{"name":"ÇAYÖZÜ KIRDÖK MAH.","zip":"40322"},{"name":"ÇAYÖZÜ KÖYÜ","zip":"40322"},{"name":"ÇAYÖZÜ MAH.","zip":"40322"},{"name":"ÇEBİŞLER KÖYÜ","zip":"40322"},{"name":"ÇELEBİUŞAĞI KÖYÜ","zip":"40322"},{"name":"ÇİFTLİKMEHMETAĞA KÖYÜ","zip":"40322"},{"name":"ÇİFTLİKSARIKAYA KÖYÜ","zip":"40322"},{"name":"DEMİRCİ KÖYÜ","zip":"40322"},{"name":"DEVECİ KÖYÜ","zip":"40322"},{"name":"DOĞANCI 2 MAH.","zip":"40322"},{"name":"DOĞANCI MAH.","zip":"40322"},{"name":"DURMUŞLU KÖYÜ","zip":"40322"},{"name":"ELDELEKLİDEMİREL KÖYÜ","zip":"40322"},{"name":"ELDELEKLİORTAOBA KÖYÜ","zip":"40322"},{"name":"EŞREFLİ KÖYÜ","zip":"40322"},{"name":"FATİH MAH.","zip":"40322"},{"name":"GÜLVEREN KÖYÜ","zip":"40322"},{"name":"HACIMİRZA KÖYÜ","zip":"40322"},{"name":"HACISELİMLİ KÖYÜ","zip":"40322"},{"name":"HANYERİSARIKAYA KÖYÜ","zip":"40322"},{"name":"HİMMETUŞAĞI KÖYÜ","zip":"40322"},{"name":"KARAOVA KÖYÜ","zip":"40322"},{"name":"KELİSMAİLUŞAĞI KÖYÜ","zip":"40322"},{"name":"KIRDÖK MAH.","zip":"40322"},{"name":"KIZILAY MAH.","zip":"40322"},{"name":"KÖŞKER KÖYÜ","zip":"40322"},{"name":"PEKMEZCİ KÖYÜ","zip":"40322"},{"name":"SEYMENLİ MAH.","zip":"40322"},{"name":"SOFRAZLI KÖYÜ","zip":"40322"},{"name":"ŞEHİTLER MAH.","zip":"40322"},{"name":"ULUKIŞLA MAH.","zip":"40322"},{"name":"YAYLA MAZRASI MAH.","zip":"40322"},{"name":"YENİ MAH.","zip":"40322"},{"name":"YÜZBAŞIOĞLU MAH.","zip":"40322"}]},{"name":"BOZTEPE","cityName":null,"quarters":[{"name":"ORTA MAH.","zip":"40020"},{"name":"YENİ MAH.","zip":"40020"}]},{"name":"MERKEZKÖYLER","cityName":null,"quarters":[{"name":"BÜYÜKKIŞLA KÖYÜ","zip":"40060"},{"name":"ÇAMALAK KÖYÜ","zip":"40060"},{"name":"ÇEVİRME KÖYÜ","zip":"40060"},{"name":"ÇEVİRME MAH.","zip":"40060"},{"name":"ÇİĞDELİ KÖYÜ","zip":"40060"},{"name":"ÇİMELİ KÖYÜ","zip":"40060"},{"name":"ESKİDOĞANLI KÖYÜ","zip":"40060"},{"name":"HARMANALTI KÖYÜ","zip":"40060"},{"name":"HATUNOĞLU KÖYÜ","zip":"40060"},{"name":"HATUNOĞLU MAH.","zip":"40060"},{"name":"HATUNOĞLU YAYLA MAH.","zip":"40060"},{"name":"HÜSEYİNLİ KÖYÜ","zip":"40060"},{"name":"KARACAÖREN KÖYÜ","zip":"40060"},{"name":"KÜLHÜYÜK KÖYÜ","zip":"40060"},{"name":"MALYA T.İ.M. MAH.","zip":"40060"},{"name":"PINARBAŞI MAH.","zip":"40060"},{"name":"ŞABABZADE ÇİFTLİĞİ MAH.","zip":"40060"},{"name":"UZUNPINAR KÖYÜ","zip":"40060"},{"name":"ÜÇKUYU KÖYÜ","zip":"40060"},{"name":"YENİ DOĞANLI MAH.","zip":"40060"},{"name":"YENİDOĞANLI KÖYÜ","zip":"40060"},{"name":"YEŞİLYURT MAH.","zip":"40060"}]},{"name":"ÇİÇEKDAĞI","cityName":null,"quarters":[{"name":"BOYALIK MAH.","zip":"40700"},{"name":"FATİH MAH.","zip":"40700"},{"name":"FEVZİ ÇAKMAK MAH.","zip":"40700"},{"name":"OSMAN ŞEVKİ MAH.","zip":"40700"},{"name":"YENİ MAH.","zip":"40700"},{"name":"YENİŞEHİR MAH.","zip":"40700"}]},{"name":"MERKEZKÖYLER","cityName":null,"quarters":[{"name":"ACIKÖY KÖYÜ","zip":"40702"},{"name":"AKBIYIKLI KÖYÜ","zip":"40702"},{"name":"ALAHACILI KÖYÜ","zip":"40702"},{"name":"ALANKÖY KÖYÜ","zip":"40702"},{"name":"ALİMPINAR KÖYÜ","zip":"40702"},{"name":"ARMUTLU KÖYÜ","zip":"40702"},{"name":"AŞAĞIHACIAHMETLİ KÖYÜ","zip":"40702"},{"name":"B GRUBU MAH.","zip":"40702"},{"name":"BAĞLARBAŞI MAH.","zip":"40702"},{"name":"BAHÇELİEVLER MAH.","zip":"40702"},{"name":"BAHÇEPINAR KÖYÜ","zip":"40702"},{"name":"BARAKLI KÖYÜ","zip":"40702"},{"name":"BEŞİKLİ KÖYÜ","zip":"40702"},{"name":"BOĞAZEVCİ KÖYÜ","zip":"40702"},{"name":"BOZLAR KÖYÜ","zip":"40702"},{"name":"BOZLAREVCİ MAH.","zip":"40702"},{"name":"BÜYÜKTEFLEK KÖYÜ","zip":"40702"},{"name":"CAMİLİ KÜMESİ MAH.","zip":"40702"},{"name":"CENDERÖZÜ MAH.","zip":"40702"},{"name":"CUMHURİYET MAH.","zip":"40702"},{"name":"ÇANAKPINAR KÖYÜ","zip":"40702"},{"name":"ÇEPNİ KÖYÜ","zip":"40702"},{"name":"ÇİÇEK MAH.","zip":"40702"},{"name":"ÇİÇEKLİ KÖYÜ","zip":"40702"},{"name":"ÇİFTLİK İŞLETMESİ MAH.","zip":"40702"},{"name":"ÇİFTLİK MAH.","zip":"40702"},{"name":"ÇOPRAŞIK KÖYÜ","zip":"40702"},{"name":"ÇUBUKTARLA KÖYÜ","zip":"40702"},{"name":"DEMİRLİ KÖYÜ","zip":"40702"},{"name":"DEVRECELİ MAH.","zip":"40702"},{"name":"DOĞANKAŞ KÖYÜ","zip":"40702"},{"name":"GÖLCÜK KÖYÜ","zip":"40702"},{"name":"GÜZELTEPE MAH.","zip":"40702"},{"name":"HACIDURAKLI KÖYÜ","zip":"40702"},{"name":"HACIHASANLI KÖYÜ","zip":"40702"},{"name":"HACIOĞLU KÖYÜ","zip":"40702"},{"name":"HALAÇLI KÖYÜ","zip":"40702"},{"name":"HARMANPINAR KÖYÜ","zip":"40702"},{"name":"HAYDARLI KÖYÜ","zip":"40702"},{"name":"HÜSEYİNLİ ÇİFTLİĞİ MAH.","zip":"40702"},{"name":"IŞIKLAR KÜMESİ MAH.","zip":"40702"},{"name":"İBİKLİ KÖYÜ","zip":"40702"},{"name":"İĞDELİÖZ MAH.","zip":"40702"},{"name":"KABAKLI KÖYÜ","zip":"40702"},{"name":"KALEEVCİ KÖYÜ","zip":"40702"},{"name":"KALETEPE MAH.","zip":"40702"},{"name":"KARAKIZALANI MAH.","zip":"40702"},{"name":"KARAKUYU KÜMESİ MAH.","zip":"40702"},{"name":"KARAOSMAN KÜMESİ MAH.","zip":"40702"},{"name":"KAVAKLIÖZ KÖYÜ","zip":"40702"},{"name":"KIRDÖK KÖYÜ","zip":"40702"},{"name":"KIZILCALI KÖYÜ","zip":"40702"},{"name":"KONURKALE KÖYÜ","zip":"40702"},{"name":"KÖSELİ KÖYÜ","zip":"40702"},{"name":"KÜÇÜKTEFLEK KÖYÜ","zip":"40702"},{"name":"KÜME 2 MAH.","zip":"40702"},{"name":"KÜME 3 MAH.","zip":"40702"},{"name":"MAHMUTLU KÖYÜ","zip":"40702"},{"name":"MEZRA MAH.","zip":"40702"},{"name":"ORTAHACIAHMETLİ KÖYÜ","zip":"40702"},{"name":"PÖHRENK KÖYÜ","zip":"40702"},{"name":"SAFALI KÖYÜ","zip":"40702"},{"name":"ŞAHİNOĞLU KÖYÜ","zip":"40702"},{"name":"TATBEKİRLİ KÖYÜ","zip":"40702"},{"name":"TEPECİK KÖYÜ","zip":"40702"},{"name":"TOPALALİ KÖYÜ","zip":"40702"},{"name":"YALNIZAĞAÇ KÖYÜ","zip":"40702"},{"name":"YENİ MAH.","zip":"40702"},{"name":"YUKARIHACIAHMETLİ KÖYÜ","zip":"40702"}]},{"name":"KAMAN","cityName":null,"quarters":[{"name":"CUMA MAH.","zip":"40300"},{"name":"CUMHURİYET MAH.","zip":"40300"},{"name":"ÇAĞIRKAN KÖYÜ","zip":"40300"},{"name":"ÇİFTLİKLİ MAH.","zip":"40300"},{"name":"DARIÖZÜ MAH.","zip":"40300"},{"name":"FATİH MAH.","zip":"40300"},{"name":"GAFFAR MAH.","zip":"40300"},{"name":"HACIPINAR MAH.","zip":"40300"},{"name":"KURANCILI KÖYÜ","zip":"40300"},{"name":"MÜDERRİS MAH.","zip":"40300"},{"name":"ORTA MAH.","zip":"40300"},{"name":"SARIUŞAĞI MAH.","zip":"40300"},{"name":"SAVCILIBÜYÜKOBA KÖYÜ","zip":"40300"},{"name":"SIRBELİ MAH.","zip":"40300"},{"name":"YENİ MAH.","zip":"40300"},{"name":"ZİYARETTEPE MAH.","zip":"40300"}]},{"name":"MERKEZKÖYLER","cityName":null,"quarters":[{"name":"AHİEVRAN MAH.","zip":"40302"},{"name":"AYDINLAR KÖYÜ","zip":"40302"},{"name":"BAĞBAŞI MAH.","zip":"40302"},{"name":"BAŞKÖY KÖYÜ","zip":"40302"},{"name":"BAYINDIR KÖYÜ","zip":"40302"},{"name":"BAYRAMÖZÜ KÖYÜ","zip":"40302"},{"name":"BENZER KÖYÜ","zip":"40302"},{"name":"BÜĞÜZ KÖYÜ","zip":"40302"},{"name":"CUMHURİYET MAH.","zip":"40302"},{"name":"ÇADIRLI HACIBAYRAM KÖYÜ","zip":"40302"},{"name":"ÇADIRLI KÖRMEHMET KÖYÜ","zip":"40302"},{"name":"ÇAMSARI MAH.","zip":"40302"},{"name":"DARIÖZÜ KÖYÜ","zip":"40302"},{"name":"DEĞİRMENÖZÜ KÖYÜ","zip":"40302"},{"name":"DEMİRLİ KÖYÜ","zip":"40302"},{"name":"ESENTEPE KÖYÜ","zip":"40302"},{"name":"FAKILI KÖYÜ","zip":"40302"},{"name":"FEVZİ ÇAKMAK MAH.","zip":"40302"},{"name":"GÖKEŞME KÖYÜ","zip":"40302"},{"name":"GÜLTEPE KÖYÜ","zip":"40302"},{"name":"HAMİT KÖYÜ","zip":"40302"},{"name":"HİCRET MAH.","zip":"40302"},{"name":"HİRFANLI BARAJI MAH.","zip":"40302"},{"name":"HİRFANLI KÖYÜ","zip":"40302"},{"name":"HÜRRİYET MAH.","zip":"40302"},{"name":"İBRİŞİM KÖYÜ","zip":"40302"},{"name":"İKİZLER KÖYÜ","zip":"40302"},{"name":"İMANCI KÖYÜ","zip":"40302"},{"name":"İSAHOCALI KÖYÜ","zip":"40302"},{"name":"İSTİKLAL MAH.","zip":"40302"},{"name":"KALE KÖYÜ","zip":"40302"},{"name":"KARAHABALI KÖYÜ","zip":"40302"},{"name":"KARAKAYA KÖYÜ","zip":"40302"},{"name":"KARAKÜTÜK MAH.","zip":"40302"},{"name":"KARGINYENİCE KÖYÜ","zip":"40302"},{"name":"KARKINKIZIKÖZÜ KÖYÜ","zip":"40302"},{"name":"KARKINMEŞE KÖYÜ","zip":"40302"},{"name":"KARKINSELİMAĞA KÖYÜ","zip":"40302"},{"name":"KAYABAŞI MAH.","zip":"40302"},{"name":"KEKİLLİALİ KÖYÜ","zip":"40302"},{"name":"MELEMEZ MAH.","zip":"40302"},{"name":"MEŞEKÖY KÖYÜ","zip":"40302"},{"name":"MEVLANA MAH.","zip":"40302"},{"name":"MOLLAOSMANLAR KÖYÜ","zip":"40302"},{"name":"ORTA MAH.","zip":"40302"},{"name":"ÖMERHACILI KÖYÜ","zip":"40302"},{"name":"ÖMERKAHYA KÖYÜ","zip":"40302"},{"name":"SARIÖMERLİ KÖYÜ","zip":"40302"},{"name":"SAVCILIBAĞBAŞI KÖYÜ","zip":"40302"},{"name":"SAVCILIEBEYİT KÖYÜ","zip":"40302"},{"name":"SAVCILIKIŞLA KÖYÜ","zip":"40302"},{"name":"SAVCILIKURUTLU KÖYÜ","zip":"40302"},{"name":"SAVCILIMERYEMKAŞI KÖYÜ","zip":"40302"},{"name":"ŞEHİT FEDAKAR EROL MAH.","zip":"40302"},{"name":"TATIK KÖYÜ","zip":"40302"},{"name":"TEPEKÖY KÖYÜ","zip":"40302"},{"name":"YAĞMURLU SARIUŞAĞI KÖYÜ","zip":"40302"},{"name":"YAZIYOLU KÖYÜ","zip":"40302"},{"name":"YELEK KÖYÜ","zip":"40302"},{"name":"YENİ MAH.","zip":"40302"},{"name":"YENİKÖY KÖYÜ","zip":"40302"},{"name":"YENİYAPAN KÖYÜ","zip":"40302"},{"name":"YUKARI ÇİFTLİK KÖYÜ","zip":"40302"},{"name":"YUNUS EMRE MAH.","zip":"40302"}]},{"name":"ÇARŞI","cityName":null,"quarters":[{"name":"AŞIKPAŞA MAH.","zip":"40100"},{"name":"BAĞBAŞI MAH.","zip":"40100"},{"name":"BAHÇELİEVLER MAH.","zip":"40100"},{"name":"ÇUKURÇAYIR MAH.","zip":"40100"},{"name":"GÖLHİSAR MAH.","zip":"40100"},{"name":"GÜLDİKEN MAH.","zip":"40100"},{"name":"GÜLDİKENOSB MAH.","zip":"40100"},{"name":"KAYABAŞI MAH.","zip":"40100"},{"name":"KERVANSARAY MAH.","zip":"40100"},{"name":"KINDAM MAH.","zip":"40100"},{"name":"KUŞDİLLİ MAH.","zip":"40100"},{"name":"MEDRESE MAH.","zip":"40100"},{"name":"NASUHDEDE MAH.","zip":"40100"},{"name":"YENİCE MAH.","zip":"40100"}]},{"name":"MERKEZKÖYLER","cityName":null,"quarters":[{"name":"AŞAĞI KÖY MAH.","zip":"40002"},{"name":"BAĞDERESİ MAH.","zip":"40002"},{"name":"BOĞAZİÇİ MAH.","zip":"40002"},{"name":"BORUKLU MAH.","zip":"40002"},{"name":"BÜYÜKCAMİİ MAH.","zip":"40002"},{"name":"CUMHURİYET MAH.","zip":"40002"},{"name":"ÇADIRLIHACIYUSUF KÖYÜ","zip":"40002"},{"name":"ÇAMLIBEL MAH.","zip":"40002"},{"name":"ÇAYAĞZI KÖYÜ","zip":"40002"},{"name":"ÇUĞUN KÖYÜ","zip":"40002"},{"name":"DAVULAĞIL MAH.","zip":"40002"},{"name":"DEDELİ KÖYÜ","zip":"40002"},{"name":"DEĞİRMENKAŞI KÖYÜ","zip":"40002"},{"name":"DULKADİRLİ KÖYÜ","zip":"40002"},{"name":"DULKADİRLİKARAİSA KÖYÜ","zip":"40002"},{"name":"ECİKAĞIL KÖYÜ","zip":"40002"},{"name":"GÖBEKKAYA MAH.","zip":"40002"},{"name":"GÖLLÜ BUCAK MERKEZİ KÖYÜ","zip":"40002"},{"name":"GÜLLÜTARLA MAH.","zip":"40002"},{"name":"GÜZLER KÖYÜ","zip":"40002"},{"name":"HASHÜYÜK KÖYÜ","zip":"40002"},{"name":"HELVACILAR MAH.","zip":"40002"},{"name":"HOMURLU BEŞLER KÖYÜ","zip":"40002"},{"name":"HOMURLU ÜÇLER KÖYÜ","zip":"40002"},{"name":"HÜRRİYET MAH.","zip":"40002"},{"name":"ILICA MAH.","zip":"40002"},{"name":"İNLİ MURAT MAH.","zip":"40002"},{"name":"İSTİKLAL MAH.","zip":"40002"},{"name":"KALANKALDI KÖYÜ","zip":"40002"},{"name":"KARABOĞAZ KÖYÜ","zip":"40002"},{"name":"KARADURAKLI KÖYÜ","zip":"40002"},{"name":"KARAHIDIR KÖYÜ","zip":"40002"},{"name":"KARALAR KÖYÜ","zip":"40002"},{"name":"KARASÜLEYMAN ÇİFTLİĞİ MAH.","zip":"40002"},{"name":"KARINCALI KÖYÜ","zip":"40002"},{"name":"KARŞIYAKA MAH.","zip":"40002"},{"name":"KARTALKAYA KÖYÜ","zip":"40002"},{"name":"KAYABAŞI MAH.","zip":"40002"},{"name":"KESİKKÖPRÜ KÖYÜ","zip":"40002"},{"name":"KIRKPINAR KÖYÜ","zip":"40002"},{"name":"KIŞLAPINAR MAH.","zip":"40002"},{"name":"KIZILCA MAH.","zip":"40002"},{"name":"KİLLİK MAH.","zip":"40002"},{"name":"KOCABEY KÖYÜ","zip":"40002"},{"name":"KORTULU KÖYÜ","zip":"40002"},{"name":"KÖRPINAR KÖYÜ","zip":"40002"},{"name":"KULPAK MAH.","zip":"40002"},{"name":"KURTBELİYENİYAPAN KÖYÜ","zip":"40002"},{"name":"KURUAĞIL KÖYÜ","zip":"40002"},{"name":"KUYTULUK MAH.","zip":"40002"},{"name":"ÖRCÜN MAH.","zip":"40002"},{"name":"ÖZBAĞ KÖYÜ","zip":"40002"},{"name":"SARAYCIK KÖYÜ","zip":"40002"},{"name":"SARAYLAR MAH.","zip":"40002"},{"name":"SEVDİĞİN KÖYÜ","zip":"40002"},{"name":"SEYREKKÖY KÖYÜ","zip":"40002"},{"name":"SIDIKLIBÜYÜKOBA KÖYÜ","zip":"40002"},{"name":"SIDIKLIDARBOĞAZ KÖYÜ","zip":"40002"},{"name":"SIDIKLIİKİZAĞIL KÖYÜ","zip":"40002"},{"name":"SIDIKLIKUMARKAÇ KÖYÜ","zip":"40002"},{"name":"SIDIKLIKÜÇÜKBOĞAZ KÖYÜ","zip":"40002"},{"name":"SIDIKLIKÜÇÜKOBA KÖYÜ","zip":"40002"},{"name":"SIDIKLIORTAOBA KÖYÜ","zip":"40002"},{"name":"ŞEKER FABRİKASI MAH.","zip":"40002"},{"name":"TABUROĞLU KÖYÜ","zip":"40002"},{"name":"TATARİLYASKIŞLA KÖYÜ","zip":"40002"},{"name":"TATARİLYASYAYLA KÖYÜ","zip":"40002"},{"name":"TEPESİDELİK KÖYÜ","zip":"40002"},{"name":"TERZİALİ MAH.","zip":"40002"},{"name":"TOKLÜMEN KÖYÜ","zip":"40002"},{"name":"TOSUNBURNU KÖYÜ","zip":"40002"},{"name":"ULUPINAR KÖYÜ","zip":"40002"},{"name":"UZUNALİUŞAĞI KÖYÜ","zip":"40002"},{"name":"YAĞMURLUARMUTLU KÖYÜ","zip":"40002"},{"name":"YAĞMURLUBÜYÜKOBA KÖYÜ","zip":"40002"},{"name":"YAĞMURLUKALE KÖYÜ","zip":"40002"},{"name":"YAĞMURLUSAYOBASI KÖYÜ","zip":"40002"},{"name":"YARIMKALE MAH.","zip":"40002"},{"name":"YAYLA MAH.","zip":"40002"},{"name":"YENİ MAH.","zip":"40002"},{"name":"YERALTI ŞEHRİ MAH.","zip":"40002"},{"name":"YEŞİLLİ KÖYÜ","zip":"40002"},{"name":"YEŞİLOBA KÖYÜ","zip":"40002"},{"name":"YUKARI HOMURLU KÖYÜ","zip":"40002"},{"name":"YUNUS EMRE MAH.","zip":"40002"},{"name":"AKSAKLI KÖYÜ","zip":"40502"},{"name":"ALTINYAZI KÖYÜ","zip":"40502"},{"name":"ASMA MAH.","zip":"40502"},{"name":"ASMAKARADAM KÖYÜ","zip":"40502"},{"name":"AŞAGI RAHMALAR MAH.","zip":"40502"},{"name":"AVCIKÖY KÖYÜ","zip":"40502"},{"name":"AYDOĞMUŞ KÖYÜ","zip":"40502"},{"name":"BABUR KÖYÜ","zip":"40502"},{"name":"BAHÇECİK MAH.","zip":"40502"},{"name":"BAHÇELİEVLER MAH.","zip":"40502"},{"name":"BAYRAMUŞAĞI KÖYÜ","zip":"40502"},{"name":"BAZLAMAÇ KÖYÜ","zip":"40502"},{"name":"BUDAK KÖYÜ","zip":"40502"},{"name":"BÜYÜKKAYAPA KÖYÜ","zip":"40502"},{"name":"CAVLAKLAR MAH.","zip":"40502"},{"name":"ÇATALARKAÇ KÖYÜ","zip":"40502"},{"name":"DAĞÇİFTLİĞİKÖYÜ KÖYÜ","zip":"40502"},{"name":"DALAKÇI KÖYÜ","zip":"40502"},{"name":"DEVEPINARI KÖYÜ","zip":"40502"},{"name":"ESENTEPE MAH.","zip":"40502"},{"name":"GEYCEK KÖYÜ","zip":"40502"},{"name":"GÜMÜŞKÜMBET KÖYÜ","zip":"40502"},{"name":"GÜZYURDU KÖYÜ","zip":"40502"},{"name":"İNAÇ KÖYÜ","zip":"40502"},{"name":"KARAARKAÇ KÖYÜ","zip":"40502"},{"name":"KARACALI KÖYÜ","zip":"40502"},{"name":"KARADAM MAH.","zip":"40502"},{"name":"KARAKUYU KÖYÜ","zip":"40502"},{"name":"KARKIN KÖYÜ","zip":"40502"},{"name":"KARŞIYAKA MAH.","zip":"40502"},{"name":"KEPEZ KÖYÜ","zip":"40502"},{"name":"KILIÇLI KÖYÜ","zip":"40502"},{"name":"KIRAN KÖYÜ","zip":"40502"},{"name":"KIZILAĞIL KÖYÜ","zip":"40502"},{"name":"KIZILDAĞYENİYAPAN KÖYÜ","zip":"40502"},{"name":"KURUGÖL KÖYÜ","zip":"40502"},{"name":"KUŞAKLI KÖYÜ","zip":"40502"},{"name":"KÜÇÜK KÖPEKLİ MAH.","zip":"40502"},{"name":"KÜÇÜKBURNAĞIL KÖYÜ","zip":"40502"},{"name":"KÜÇÜKKAVAK KÖYÜ","zip":"40502"},{"name":"KÜÇÜKKAYAPA KÖYÜ","zip":"40502"},{"name":"MEDETSİZ KÖYÜ","zip":"40502"},{"name":"OBRUK KÖYÜ","zip":"40502"},{"name":"ORTA MAH.","zip":"40502"},{"name":"PALANGIÇ KÖYÜ","zip":"40502"},{"name":"PINARKAYA KÖYÜ","zip":"40502"},{"name":"RAHMALAR KÖYÜ","zip":"40502"},{"name":"RIŞVAN MAH.","zip":"40502"},{"name":"SEYFE KÖYÜ","zip":"40502"},{"name":"SUSUZ KÖYÜ","zip":"40502"},{"name":"TÜRKTUR MANTAR İŞLETMESİ MAH.","zip":"40502"},{"name":"YAZIKINIK KÖYÜ","zip":"40502"},{"name":"YEĞENAĞA KÖYÜ","zip":"40502"},{"name":"YENİ MAH.","zip":"40502"},{"name":"YENİKÖY KÖYÜ","zip":"40502"},{"name":"YENİYAYLA MAH.","zip":"40502"},{"name":"YEŞİLYURT KÖYÜ","zip":"40502"},{"name":"YUKARI RAHMALAR MAH.","zip":"40502"},{"name":"YÜRÜCEK KÖYÜ","zip":"40502"}]},{"name":"MUCUR","cityName":null,"quarters":[{"name":"HAMİDİYE MAH.","zip":"40500"},{"name":"KARŞIYAKA MAH.","zip":"40500"},{"name":"OSMANGAZİ MAH.","zip":"40500"},{"name":"SOLAKLI MAH.","zip":"40500"},{"name":"ŞATIROĞLU MAH.","zip":"40500"},{"name":"YENİCE MAH.","zip":"40500"}]}]}]}