{"id":41,"name":"KOCAELİ","cities":[{"name":"city","districts":[{"name":"BAHÇECİK","cityName":null,"quarters":[{"name":"YEŞİLKENT MAH.","zip":"41030"}]},{"name":"BAŞİSKELE","cityName":null,"quarters":[{"name":"ALTINKENT MAH.","zip":"41090"},{"name":"BARBAROS MAH.","zip":"41090"},{"name":"CAMİDÜZÜ MAH.","zip":"41090"},{"name":"DOĞANTEPE MAH.","zip":"41090"},{"name":"DÖNGEL MAH.","zip":"41090"},{"name":"KARŞIYAKA MAH.","zip":"41090"},{"name":"KAZANDERE MAH.","zip":"41090"},{"name":"KULLAR TEPECİK MAH.","zip":"41090"},{"name":"KULLAR YAKACIK MAH.","zip":"41090"},{"name":"SAHİL MAH.","zip":"41090"},{"name":"SEPETLİPINAR SB MAH.","zip":"41090"},{"name":"SERİNDERE MAH.","zip":"41090"},{"name":"SERVETİYE CAMİ MAH.","zip":"41090"},{"name":"SERVETİYE KARŞI MAH.","zip":"41090"},{"name":"TEPECİK MAH.","zip":"41090"},{"name":"YENİKÖY MERKEZ MAH.","zip":"41090"},{"name":"YUVACIK YAKACIK MAH.","zip":"41090"}]},{"name":"KULLAR","cityName":null,"quarters":[{"name":"MAHMUTPAŞA MAH.","zip":"41140"},{"name":"MEHMETAĞA MAH.","zip":"41140"},{"name":"OVACIK MAH.","zip":"41140"},{"name":"VEZİRÇİFTLİĞİ MAH.","zip":"41140"},{"name":"YAYLACIK MAH.","zip":"41140"}]},{"name":"SEYMEN","cityName":null,"quarters":[{"name":"KÖRFEZ MAH.","zip":"41245"},{"name":"SEYMEN MAH.","zip":"41245"}]},{"name":"YENİKÖY","cityName":null,"quarters":[{"name":"SEPETLİPINAR MAH.","zip":"41275"}]},{"name":"YUVACIK","cityName":null,"quarters":[{"name":"FATİH MAH.","zip":"41190"},{"name":"PAŞADAĞ MAH.","zip":"41190"},{"name":"SERDAR MAH.","zip":"41190"},{"name":"YEŞİLYURT MAH.","zip":"41190"}]},{"name":"ÇAYIROVA","cityName":null,"quarters":[{"name":"ATATÜRK MAH.","zip":"41420"},{"name":"CUMHURİYET MAH.","zip":"41420"},{"name":"ÇAYIROVA MAH.","zip":"41420"},{"name":"EMEK MAH.","zip":"41420"},{"name":"GEBZE OSB2 MAH.","zip":"41420"},{"name":"İNÖNÜ MAH.","zip":"41420"},{"name":"ÖZGÜRLÜK MAH.","zip":"41420"},{"name":"ŞEKERPINAR MAH.","zip":"41420"},{"name":"TOSB OTOMOTİV (OSB) MAH.","zip":"41420"},{"name":"YENİ MAH.","zip":"41420"}]},{"name":"DARICA","cityName":null,"quarters":[{"name":"BAĞLARBAŞI MAH.","zip":"41700"},{"name":"BAYRAMOĞLU MAH.","zip":"41700"},{"name":"CAMİ MAH.","zip":"41700"},{"name":"EMEK MAH.","zip":"41700"},{"name":"FEVZİÇAKMAK MAH.","zip":"41700"},{"name":"KAZIMKARABEKİR MAH.","zip":"41700"},{"name":"NENEHATUN MAH.","zip":"41700"},{"name":"OSMANGAZİ MAH.","zip":"41700"},{"name":"PİRİ REİS MAH.","zip":"41700"},{"name":"SIRASÖĞÜTLER MAH.","zip":"41700"},{"name":"YALI MAH.","zip":"41700"},{"name":"YENİ MAH.","zip":"41700"},{"name":"ZİNCİRLİKUYU MAH.","zip":"41700"}]},{"name":"DERİNCE","cityName":null,"quarters":[{"name":"ÇENEDAĞ MAH.","zip":"41900"},{"name":"ÇINARLI MAH.","zip":"41900"},{"name":"DENİZ MAH.","zip":"41900"},{"name":"DUMLUPINAR MAH.","zip":"41900"},{"name":"FATİH SULTAN MAH.","zip":"41900"},{"name":"GEREDELİ MAH.","zip":"41900"},{"name":"İBNİSİNA MAH.","zip":"41900"},{"name":"KARAGÖLLÜ MAH.","zip":"41900"},{"name":"KAŞIKÇI MAH.","zip":"41900"},{"name":"MERSİNCİK MAH.","zip":"41900"},{"name":"SIRRIPAŞA MAH.","zip":"41900"},{"name":"TAHTALI MAH.","zip":"41900"},{"name":"TERZİLER MAH.","zip":"41900"},{"name":"TOYLAR MAH.","zip":"41900"},{"name":"YAVUZ SULTAN MAH.","zip":"41900"},{"name":"YENİKENT MAH.","zip":"41900"}]},{"name":"DİLOVASI","cityName":null,"quarters":[{"name":"ÇERKEŞLİ MAH.","zip":"41455"},{"name":"ÇERKEŞLİOSB MAH.","zip":"41455"},{"name":"DEMİRCİLER MAH.","zip":"41455"},{"name":"DEMİRCİLEROSB MAH.","zip":"41455"},{"name":"DİLİSKELESİ MAH.","zip":"41455"},{"name":"DİLOVASIOSB MAH.","zip":"41455"},{"name":"FATİH MAH.","zip":"41455"},{"name":"KAYAPINAR MAH.","zip":"41455"},{"name":"KOCAELİ-GEBZE KÖMÜRCÜLER OSB MAH.","zip":"41455"},{"name":"KÖSELER MAH.","zip":"41455"},{"name":"MİMAR SİNAN MAH.","zip":"41455"},{"name":"ORGANİZE SANAYİ BÖLGESİ MAH.","zip":"41455"},{"name":"ORHANGAZİ MAH.","zip":"41455"},{"name":"TAVŞANCIL MAH.","zip":"41455"},{"name":"TEPECİK MAH.","zip":"41455"},{"name":"TURGUT ÖZAL MAH.","zip":"41455"},{"name":"YENİOSB MAH.","zip":"41455"}]},{"name":"GEBZE","cityName":null,"quarters":[{"name":"AHATLI MAH.","zip":"41400"},{"name":"ARAPÇEŞME MAH.","zip":"41400"},{"name":"BALÇIK MAH.","zip":"41400"},{"name":"BARIŞ MAH.","zip":"41400"},{"name":"BARIŞ SB MAH.","zip":"41400"},{"name":"BEYLİKBAĞI MAH.","zip":"41400"},{"name":"CUMAKÖY MAH.","zip":"41400"},{"name":"CUMHURİYET MAH.","zip":"41400"},{"name":"DENİZLİ MAH.","zip":"41400"},{"name":"DURAKLI MAH.","zip":"41400"},{"name":"ELBİZLİ MAH.","zip":"41400"},{"name":"ESKİHİSAR MAH.","zip":"41400"},{"name":"GAZİLER MAH.","zip":"41400"},{"name":"GEBZE OSB MAH.","zip":"41400"},{"name":"GÜZELLER MAH.","zip":"41400"},{"name":"HACIHALİL MAH.","zip":"41400"},{"name":"HATİPLER MAH.","zip":"41400"},{"name":"HÜRRİYET MAH.","zip":"41400"},{"name":"İNÖNÜ MAH GEBZE PLASTİKÇİLER OSB MAH.","zip":"41400"},{"name":"İNÖNÜ MAH.","zip":"41400"},{"name":"İNÖNÜ MAH.GEBZE GÜZELLER OSB MAH.","zip":"41400"},{"name":"İSTASYON MAH.","zip":"41400"},{"name":"KADILLI MAH.","zip":"41400"},{"name":"KARGALI MAH.","zip":"41400"},{"name":"KİRAZPINAR MAH.","zip":"41400"},{"name":"KÖŞKLÜ ÇEŞME MAH.","zip":"41400"},{"name":"MEVLANA MAH.","zip":"41400"},{"name":"MİMAR SİNAN MAH.","zip":"41400"},{"name":"MOLLAFENARİ MAH.","zip":"41400"},{"name":"MUALLİMKÖY MAH.","zip":"41400"},{"name":"MUDARLI MAH.","zip":"41400"},{"name":"MUSTAFAPAŞA MAH.","zip":"41400"},{"name":"OSMAN YILMAZ MAH.","zip":"41400"},{"name":"OVACIK MAH.","zip":"41400"},{"name":"PELİTLİ MAH.","zip":"41400"},{"name":"SULTAN ORHAN MAH.","zip":"41400"},{"name":"TATLIKUYU MAH.","zip":"41400"},{"name":"TAVŞANLI MAH.","zip":"41400"},{"name":"TEPEMANAYIR MAH.","zip":"41400"},{"name":"ULUS MAH.","zip":"41400"},{"name":"YAĞCILAR MAH.","zip":"41400"},{"name":"YAVUZ SELİM MAH.","zip":"41400"},{"name":"YENİKENT MAH.","zip":"41400"}]},{"name":"DEĞİRMENDERE","cityName":null,"quarters":[{"name":"CUMHURİYET MAH.","zip":"41950"},{"name":"DEĞİRMENDERE MERKEZ MAH.","zip":"41950"},{"name":"DEĞİRMENDERE YALI MAH.","zip":"41950"},{"name":"KÖRFEZ MAH.","zip":"41950"},{"name":"TOPÇULAR MAH.","zip":"41950"},{"name":"YUKARI MAH.","zip":"41950"},{"name":"YÜZBAŞILAR MAH.","zip":"41950"}]},{"name":"GÖLCÜK","cityName":null,"quarters":[{"name":"ÇİFTLİK MAH.","zip":"41650"},{"name":"DENİZ EVLER MAH.","zip":"41650"},{"name":"DONANMA MAH.","zip":"41650"},{"name":"DUMLUPINAR MAH.","zip":"41650"},{"name":"DÜZAĞAÇ MAH.","zip":"41650"},{"name":"ESKİFERHADİYE MAH.","zip":"41650"},{"name":"FERHADİYE MAH.","zip":"41650"},{"name":"HALIDERE YALI MAH.","zip":"41650"},{"name":"HALIDERE YENİ MAH.","zip":"41650"},{"name":"HAMİDİYE MAH.","zip":"41650"},{"name":"HASANEYN MAH.","zip":"41650"},{"name":"HİSAREYN MERKEZ MAH.","zip":"41650"},{"name":"İCADİYE MAH.","zip":"41650"},{"name":"İHSANİYE MERKEZ MAH.","zip":"41650"},{"name":"İPEK YOLU MAH.","zip":"41650"},{"name":"İRŞADİYE MAH.","zip":"41650"},{"name":"KARAKÖPRÜ MAH.","zip":"41650"},{"name":"KAVAKLI MAH.","zip":"41650"},{"name":"LÜTFİYE MAH.","zip":"41650"},{"name":"MAMURİYE MAH.","zip":"41650"},{"name":"MERKEZ MAH.","zip":"41650"},{"name":"MESRURİYE MAH.","zip":"41650"},{"name":"NİMETİYE MAH.","zip":"41650"},{"name":"NÜZHETİYE MAH.","zip":"41650"},{"name":"ÖRCÜN MAH.","zip":"41650"},{"name":"PANAYIR MAH.","zip":"41650"},{"name":"PİYALEPAŞA MAH.","zip":"41650"},{"name":"SARAYLI MAH.","zip":"41650"},{"name":"SELİMİYE MAH.","zip":"41650"},{"name":"SİYRETİYE MAH.","zip":"41650"},{"name":"SOFULAR MAH.","zip":"41650"},{"name":"ŞEHİTLER MAH.","zip":"41650"},{"name":"ŞEVKETİYE MAH.","zip":"41650"},{"name":"ŞİRİNKÖY MAH.","zip":"41650"},{"name":"ULAŞLI YALI MAH.","zip":"41650"},{"name":"ULAŞLI YAVUZ SULTAN SELİM MAH.","zip":"41650"},{"name":"ÜMMİYE MAH.","zip":"41650"},{"name":"YAZLIK MERKEZ MAH.","zip":"41650"},{"name":"YAZLIK YENİ MAH.","zip":"41650"},{"name":"YENİ MAH.","zip":"41650"},{"name":"YUNUS EMRE MAH.","zip":"41650"}]},{"name":"ALİKAHYA","cityName":null,"quarters":[{"name":"AKMEŞE ATATÜRK MAH.","zip":"41310"},{"name":"AKMEŞE CUMHURİYET MAH.","zip":"41310"},{"name":"ALİKAHYA ATATÜRK MAH.","zip":"41310"},{"name":"ALİKAHYA CUMHURİYET MAH.","zip":"41310"},{"name":"ALİKAHYA FATİH MAH.","zip":"41310"},{"name":"ALİKAHYA MERKEZ MAH.","zip":"41310"},{"name":"ALİKAHYA OSB MAH.","zip":"41310"},{"name":"ATATÜRK (OSB) MAH.","zip":"41310"},{"name":"FEVZİ ÇAKMAK MAH.","zip":"41310"},{"name":"KARADENİZLİLER MAH.","zip":"41310"}]},{"name":"ÇARŞI","cityName":null,"quarters":[{"name":"ÇUKURBAĞ MAH.","zip":"41300"},{"name":"ÖMERAĞA MAH.","zip":"41300"},{"name":"TERZİBAYIRI MAH.","zip":"41300"},{"name":"TOPÇULAR MAH.","zip":"41300"}]},{"name":"GÜNDOĞDU","cityName":null,"quarters":[{"name":"AYAZMA MAH.","zip":"41060"},{"name":"BEKİRDERE MAH.","zip":"41060"},{"name":"ERENLER MAH.","zip":"41060"},{"name":"GÜNDOĞDU MAH.","zip":"41060"},{"name":"MALTA MAH.","zip":"41060"},{"name":"TAVŞANTEPE MAH.","zip":"41060"},{"name":"TEPEKÖY MAH.","zip":"41060"},{"name":"YEŞİLOVA MAH.","zip":"41060"}]},{"name":"İZMİT","cityName":null,"quarters":[{"name":"AMBARCI MAH.","zip":"41001"},{"name":"ARIZLI MAH.","zip":"41001"},{"name":"ARPALIKİHSANİYE MAH.","zip":"41001"},{"name":"BAĞLICA MAH.","zip":"41001"},{"name":"BALÖREN MAH.","zip":"41001"},{"name":"BAYRAKTAR MAH.","zip":"41001"},{"name":"BİBEROĞLU MAH.","zip":"41001"},{"name":"BÖĞÜRGEN MAH.","zip":"41001"},{"name":"BULDUK MAH.","zip":"41001"},{"name":"ÇAĞIRGAN MAH.","zip":"41001"},{"name":"ÇAVUŞOĞLU MAH.","zip":"41001"},{"name":"ÇAYIRKÖY MAH.","zip":"41001"},{"name":"ÇUBUKLUBALA MAH.","zip":"41001"},{"name":"ÇUBUKLUOSMANİYE MAH.","zip":"41001"},{"name":"DAĞKÖY MAH.","zip":"41001"},{"name":"DURHASAN MAH.","zip":"41001"},{"name":"DÜĞMECİLER MAH.","zip":"41001"},{"name":"EMİRHAN MAH.","zip":"41001"},{"name":"ESELER MAH.","zip":"41001"},{"name":"FETHİYE MAH.","zip":"41001"},{"name":"GEDİKLİ MAH.","zip":"41001"},{"name":"GÖKÇEÖREN MAH.","zip":"41001"},{"name":"GÜLBAHÇE KADRİYE MAH.","zip":"41001"},{"name":"GÜVERCİNLİK MAH.","zip":"41001"},{"name":"HAKANİYE MAH.","zip":"41001"},{"name":"HASANCIKLAR MAH.","zip":"41001"},{"name":"KABAOĞLU MAH.","zip":"41001"},{"name":"KARAABDÜLBAKİ MAH.","zip":"41001"},{"name":"KAYNARCA MAH.","zip":"41001"},{"name":"KISALAR MAH.","zip":"41001"},{"name":"KOZLUCA MAH.","zip":"41001"},{"name":"KULFALLI MAH.","zip":"41001"},{"name":"KULMAHMUT MAH.","zip":"41001"},{"name":"KURTDERE MAH.","zip":"41001"},{"name":"MECİDİYE MAH.","zip":"41001"},{"name":"NEBİHOCA MAH.","zip":"41001"},{"name":"ORHANİYE MAH.","zip":"41001"},{"name":"ORTABURUN MAH.","zip":"41001"},{"name":"SAPAKPINAR MAH.","zip":"41001"},{"name":"SARIŞEYH MAH.","zip":"41001"},{"name":"SEKBANLI MAH.","zip":"41001"},{"name":"SEPETÇİ MAH.","zip":"41001"},{"name":"SULTANİYE MAH.","zip":"41001"},{"name":"SÜLEYMANİYE MAH.","zip":"41001"},{"name":"SÜVERLER MAH.","zip":"41001"},{"name":"ŞAHİNLER MAH.","zip":"41001"},{"name":"YASSIBAĞ MAH.","zip":"41001"},{"name":"YENİCE MAH.","zip":"41001"},{"name":"ZEYTİNBURNU MAH.","zip":"41001"}]},{"name":"SAHİL","cityName":null,"quarters":[{"name":"KÖRFEZ MAH.","zip":"41040"},{"name":"SANAYİ MAH.","zip":"41040"}]},{"name":"SARAYBAHÇE","cityName":null,"quarters":[{"name":"HACIHASAN MAH.","zip":"41200"},{"name":"HACIHIZIR MAH.","zip":"41200"},{"name":"KEMALPAŞA MAH.","zip":"41200"},{"name":"KOZLUK MAH.","zip":"41200"},{"name":"ORHAN MAH.","zip":"41200"},{"name":"TEPECİK MAH.","zip":"41200"},{"name":"TURGUT MAH.","zip":"41200"},{"name":"VELİAHMET MAH.","zip":"41200"}]},{"name":"YENİDOĞAN","cityName":null,"quarters":[{"name":"DOĞAN MAH.","zip":"41100"},{"name":"FATİH MAH.","zip":"41100"},{"name":"GÜLTEPE MAH.","zip":"41100"},{"name":"HATİPKÖY MAH.","zip":"41100"},{"name":"KOCATEPE MAH.","zip":"41100"},{"name":"KURUÇEŞME FATİH MAH.","zip":"41100"},{"name":"SERDAR MAH.","zip":"41100"},{"name":"ŞİRİNTEPE MAH.","zip":"41100"},{"name":"TÜYSÜZLER MAH.","zip":"41100"},{"name":"YENİ MAH.","zip":"41100"},{"name":"YENİDOĞAN MAH.","zip":"41100"},{"name":"ZABITAN MAH.","zip":"41100"}]},{"name":"YENİŞEHİR","cityName":null,"quarters":[{"name":"M.ALİPAŞA MAH.","zip":"41050"},{"name":"YAHYAKAPTAN MAH.","zip":"41050"},{"name":"YENİŞEHİR MAH.","zip":"41050"}]},{"name":"KANDIRA","cityName":null,"quarters":[{"name":"AHMETHACILAR MAH.","zip":"41600"},{"name":"AKBAL MAH.","zip":"41600"},{"name":"AKÇABEYLİ MAH.","zip":"41600"},{"name":"AKÇAKESE MAH.","zip":"41600"},{"name":"AKÇAOVA MAH.","zip":"41600"},{"name":"AKDURAK MAH.","zip":"41600"},{"name":"AKINCI MAH.","zip":"41600"},{"name":"ALEFLİ MAH.","zip":"41600"},{"name":"ANTAPLI MAH.","zip":"41600"},{"name":"AVDAN MAH.","zip":"41600"},{"name":"AYDINLIK MAH.","zip":"41600"},{"name":"BABAKÖY MAH.","zip":"41600"},{"name":"BABALI MAH.","zip":"41600"},{"name":"BAĞIRGANLI MAH.","zip":"41600"},{"name":"BALABAN MAH.","zip":"41600"},{"name":"BALCI MAH.","zip":"41600"},{"name":"BALLAR MAH.","zip":"41600"},{"name":"BEYCE MAH.","zip":"41600"},{"name":"BEYLERBEYİ MAH.","zip":"41600"},{"name":"BOLU MAH.","zip":"41600"},{"name":"BOZBURUN MAH.","zip":"41600"},{"name":"CEBECİ MAH.","zip":"41600"},{"name":"ÇAKIRCAALİ MAH.","zip":"41600"},{"name":"ÇAKMAKLAR MAH.","zip":"41600"},{"name":"ÇALCA MAH.","zip":"41600"},{"name":"ÇALKÖY MAH.","zip":"41600"},{"name":"ÇALYER MAH.","zip":"41600"},{"name":"ÇAMKONAK MAH.","zip":"41600"},{"name":"ÇARŞI MAH.","zip":"41600"},{"name":"ÇERÇİLİ MAH.","zip":"41600"},{"name":"DALCA MAH.","zip":"41600"},{"name":"DELİVELİ MAH.","zip":"41600"},{"name":"DOĞANCILI MAH.","zip":"41600"},{"name":"DÖNGELLİ MAH.","zip":"41600"},{"name":"DURAÇALİ MAH.","zip":"41600"},{"name":"DURAKLI MAH.","zip":"41600"},{"name":"EĞERCİLİ MAH.","zip":"41600"},{"name":"ELMACIK MAH.","zip":"41600"},{"name":"ESENTEPE MAH.","zip":"41600"},{"name":"FERİZLİ MAH.","zip":"41600"},{"name":"GEBEŞLER MAH.","zip":"41600"},{"name":"GONCAAYDIN MAH.","zip":"41600"},{"name":"HACILAR MAH.","zip":"41600"},{"name":"HACIMAZLI MAH.","zip":"41600"},{"name":"HACIŞEYH MAH.","zip":"41600"},{"name":"HEDİYELİ MAH.","zip":"41600"},{"name":"HIDIRLAR MAH.","zip":"41600"},{"name":"HÜDAVERDİLER MAH.","zip":"41600"},{"name":"İNCECİK MAH.","zip":"41600"},{"name":"KABAAĞAÇ MAH.","zip":"41600"},{"name":"KANATLAR MAH.","zip":"41600"},{"name":"KARAAĞAÇ MAH.","zip":"41600"},{"name":"KARADİVAN MAH.","zip":"41600"},{"name":"KARLI MAH.","zip":"41600"},{"name":"KAYMAZ ERİKLİ MAH.","zip":"41600"},{"name":"KAYMAZ MAH.","zip":"41600"},{"name":"KEFKEN MAH.","zip":"41600"},{"name":"KINCILLI MAH.","zip":"41600"},{"name":"KIRKARMUT MAH.","zip":"41600"},{"name":"KIZILCAPINAR MAH.","zip":"41600"},{"name":"KOCAKAYMAS MAH.","zip":"41600"},{"name":"KUBUZCU MAH.","zip":"41600"},{"name":"KURTYERİ MAH.","zip":"41600"},{"name":"LOKMANLI MAH.","zip":"41600"},{"name":"MANCARLAR MAH.","zip":"41600"},{"name":"MERKEZ ERİKLİ MAH.","zip":"41600"},{"name":"MÜLKÜŞEHSUVAR MAH.","zip":"41600"},{"name":"NASUHLAR MAH.","zip":"41600"},{"name":"ORHAN MAH.","zip":"41600"},{"name":"ÖMERLİ MAH.","zip":"41600"},{"name":"ÖZBEY MAH.","zip":"41600"},{"name":"PELİTPINARI MAH.","zip":"41600"},{"name":"PINARDÜZÜ MAH.","zip":"41600"},{"name":"PINARLI MAH.","zip":"41600"},{"name":"PİRCELER MAH.","zip":"41600"},{"name":"SAFALI MAH.","zip":"41600"},{"name":"SARIAHMETLER MAH.","zip":"41600"},{"name":"SARICAALİ MAH.","zip":"41600"},{"name":"SARIGAZİ MAH.","zip":"41600"},{"name":"SARNIÇLAR MAH.","zip":"41600"},{"name":"SELAMETLİ MAH.","zip":"41600"},{"name":"SELİMKÖY MAH.","zip":"41600"},{"name":"SEPETÇİ MAH.","zip":"41600"},{"name":"SEYİTALİLER MAH.","zip":"41600"},{"name":"SİNANLIBİLALLI MAH.","zip":"41600"},{"name":"SUCUALİ MAH.","zip":"41600"},{"name":"SÜLLÜ MAH.","zip":"41600"},{"name":"ŞEREFSUNGUR MAH.","zip":"41600"},{"name":"TATARAHMET MAH.","zip":"41600"},{"name":"TEKSEN MAH.","zip":"41600"},{"name":"TERZİLER MAH.","zip":"41600"},{"name":"TOPLUCA MAH.","zip":"41600"},{"name":"ÜĞÜMCE MAH.","zip":"41600"},{"name":"YAĞCILAR MAH.","zip":"41600"},{"name":"YUSUFÇA MAH.","zip":"41600"}]},{"name":"KARAMÜRSEL","cityName":null,"quarters":[{"name":"AKÇAT MAH.","zip":"41500"},{"name":"AVCIKÖY MAH.","zip":"41500"},{"name":"ÇAMÇUKUR MAH.","zip":"41500"},{"name":"ÇAMDİBİ MAH.","zip":"41500"},{"name":"DEREKÖY MAH.","zip":"41500"},{"name":"EREĞLİ MAH.","zip":"41500"},{"name":"FULACIK MAH.","zip":"41500"},{"name":"HAYRİYE MAH.","zip":"41500"},{"name":"İHSANİYE MAH.","zip":"41500"},{"name":"İNEBEYLİ MAH.","zip":"41500"},{"name":"KADRİYE MAH.","zip":"41500"},{"name":"KARAAHMETLİ MAH.","zip":"41500"},{"name":"KARAPINAR MAH.","zip":"41500"},{"name":"KAYACIK MAH.","zip":"41500"},{"name":"KIZDERBENT MAH.","zip":"41500"},{"name":"NUSRETİYE MAH.","zip":"41500"},{"name":"OLUKLU MAH.","zip":"41500"},{"name":"OSMANİYE MAH.","zip":"41500"},{"name":"PAZARKÖY MAH.","zip":"41500"},{"name":"SAFİYE MAH.","zip":"41500"},{"name":"SEMETLER MAH.","zip":"41500"},{"name":"SENAİYE MAH.","zip":"41500"},{"name":"SULUDERE MAH.","zip":"41500"},{"name":"TAHTALI MAH.","zip":"41500"},{"name":"TEPEKÖY MAH.","zip":"41500"},{"name":"YALAKDERE MAH.","zip":"41500"}]},{"name":"ARSLANBEY","cityName":null,"quarters":[{"name":"ŞEVKATİYE MAH.","zip":"41285"}]},{"name":"BÜYÜKDERBENT","cityName":null,"quarters":[{"name":"ARSLANBEY MAH.","zip":"41080"},{"name":"ARSLANBEY OSB MAH.","zip":"41080"},{"name":"ATAŞEHİR MAH.","zip":"41080"},{"name":"BALABAN MAH.","zip":"41080"},{"name":"DERBENT MAH.","zip":"41080"},{"name":"EMEKEVLER MAH.","zip":"41080"},{"name":"ERTUĞRUL GAZİ MAH.","zip":"41080"},{"name":"EŞME MAH.","zip":"41080"},{"name":"EŞMEAHMEDİYE MAH.","zip":"41080"},{"name":"FATİH SULTAN MEHMET MAH.","zip":"41080"},{"name":"HAVLUBURUN MAH.","zip":"41080"},{"name":"KARATEPE MAH.","zip":"41080"},{"name":"KETENCİLER MAH.","zip":"41080"},{"name":"KÖSEKÖY MAH.","zip":"41080"},{"name":"NUSRETİYE MAH.","zip":"41080"},{"name":"PAZARÇAYIRI MAH.","zip":"41080"},{"name":"SERİNLİK MAH.","zip":"41080"},{"name":"SUADİYE MAH.","zip":"41080"},{"name":"SULTANİYE MAH.","zip":"41080"},{"name":"ŞİRİNSULHİYE MAH.","zip":"41080"}]},{"name":"KÖSEKÖY","cityName":null,"quarters":[{"name":"İSTASYON MAH.","zip":"41250"},{"name":"SARIMEŞE MAH.","zip":"41250"}]},{"name":"MAŞUKİYE","cityName":null,"quarters":null},{"name":"SUADİYE","cityName":null,"quarters":null},{"name":"UZUNÇİFTLİK","cityName":null,"quarters":[{"name":"UZUNBEY MAH.","zip":"41180"},{"name":"UZUNÇİFTLİK MAH.","zip":"41180"}]},{"name":"UZUNTARLA","cityName":null,"quarters":[{"name":"UZUNTARLA MAH.","zip":"41255"}]},{"name":"HEREKE","cityName":null,"quarters":[{"name":"AGAH ATEŞ MAH.","zip":"41800"},{"name":"CUMHURİYET MAH.","zip":"41800"},{"name":"HACI AKİF MAH.","zip":"41800"},{"name":"KIŞLADÜZÜ MAH.","zip":"41800"},{"name":"ŞİRİNYALI MAH.","zip":"41800"},{"name":"YUKARI HEREKE MAH.","zip":"41800"}]},{"name":"TÜTÜNÇİFTLİK","cityName":null,"quarters":[{"name":"ATALAR MAH.","zip":"41780"},{"name":"BARBAROS MAH.","zip":"41780"},{"name":"BELEN MAH.","zip":"41780"},{"name":"CUMA MAH.","zip":"41780"},{"name":"ÇAMLITEPE MAH.","zip":"41780"},{"name":"ÇIRAKLI MAH.","zip":"41780"},{"name":"DERE MAH.","zip":"41780"},{"name":"DİKENLİ MAH.","zip":"41780"},{"name":"ELMACIK MAH.","zip":"41780"},{"name":"ESENTEPE MAH.","zip":"41780"},{"name":"FATİH MAH.","zip":"41780"},{"name":"GÜNEY MAH.","zip":"41780"},{"name":"HACI OSMAN MAH.","zip":"41780"},{"name":"HİMMETLİ MAH.","zip":"41780"},{"name":"İLİMTEPE MAH.","zip":"41780"},{"name":"KALBURCU MAH.","zip":"41780"},{"name":"KARAYAKUPLU MAH.","zip":"41780"},{"name":"KİRAZLIYALI MAH.","zip":"41780"},{"name":"KUTLUCA MAH.","zip":"41780"},{"name":"KUZEY MAH.","zip":"41780"},{"name":"MİMAR SİNAN MAH.","zip":"41780"},{"name":"NAİP MAH.","zip":"41780"},{"name":"OSMANLI MAH.","zip":"41780"},{"name":"SEVİNDİKLİ MAH.","zip":"41780"},{"name":"SİPAHİLER MAH.","zip":"41780"},{"name":"ŞEMSETTİN MAH.","zip":"41780"},{"name":"YAVUZ SULTAN SELİM MAH.","zip":"41780"},{"name":"YENİYALI MAH.","zip":"41780"}]}]}]}