{"id":42,"name":"KONYA","cities":[{"name":"city","districts":[{"name":"AHIRLI","cityName":null,"quarters":[{"name":"BALIKLAVA MAH.","zip":"42390"},{"name":"BÜYÜKÖZ MAH.","zip":"42390"},{"name":"ÇİFTLİK MAH.","zip":"42390"},{"name":"ÇUKURBUCAK MAH.","zip":"42390"},{"name":"ERDOĞAN MAH.","zip":"42390"},{"name":"HAMZALAR MAH.","zip":"42390"},{"name":"HENGEME MAH.","zip":"42390"},{"name":"KARACAKUYU MAH.","zip":"42390"},{"name":"KAYACIK MAH.","zip":"42390"},{"name":"KURUÇAY MAH.","zip":"42390"},{"name":"KÜÇÜKÖZ MAH.","zip":"42390"},{"name":"MERKEZ MAH.","zip":"42390"}]},{"name":"AKÖREN","cityName":null,"quarters":[{"name":"AHMEDİYE MAH.","zip":"42460"},{"name":"ALANKÖY MAH.","zip":"42460"},{"name":"AVDAN MAH.","zip":"42460"},{"name":"BELKUYU MAH.","zip":"42460"},{"name":"ÇATÖREN MAH.","zip":"42460"},{"name":"DUTLU MAH.","zip":"42460"},{"name":"HACILAR MAH.","zip":"42460"},{"name":"KARAHÜYÜK MAH.","zip":"42460"},{"name":"KAYASU MAH.","zip":"42460"},{"name":"ORHANİYE MAH.","zip":"42460"},{"name":"SÜLEYMANİYE MAH.","zip":"42460"},{"name":"TÜLCE MAH.","zip":"42460"},{"name":"YENİ MAH.","zip":"42460"}]},{"name":"ADSIZ","cityName":null,"quarters":null},{"name":"İSTASYON","cityName":null,"quarters":[{"name":"ALTUNKALEM MAH.","zip":"42550"},{"name":"ANIT MAH.","zip":"42550"},{"name":"ÇAY MAH.","zip":"42550"},{"name":"ÇİMENLİ MAH.","zip":"42550"},{"name":"ESKİKALE MAH.","zip":"42550"},{"name":"İSTASYON MAH.","zip":"42550"},{"name":"KOZAĞAÇ MAH.","zip":"42550"},{"name":"KUŞÇU MAH.","zip":"42550"},{"name":"MEYDAN MAH.","zip":"42550"},{"name":"SELÇUK MAH.","zip":"42550"},{"name":"TİPİ MAH.","zip":"42550"},{"name":"YARENLER MAH.","zip":"42550"},{"name":"YENİ MAH.","zip":"42550"},{"name":"YILDIRIM MAH.","zip":"42550"}]},{"name":"KURUÇAY","cityName":null,"quarters":[{"name":"ALTUNTAŞ MAH.","zip":"42560"},{"name":"ATAKENT MAH.","zip":"42560"},{"name":"BOZLAĞAN MAH.","zip":"42560"},{"name":"CANKURTARAN MAH.","zip":"42560"},{"name":"ÇAKILLAR MAH.","zip":"42560"},{"name":"ÇAMLI MAH.","zip":"42560"},{"name":"ÇİMENDERE MAH.","zip":"42560"},{"name":"DEĞİRMENKÖY MAH.","zip":"42560"},{"name":"DOĞRUGÖZ MAH.","zip":"42560"},{"name":"ENGİLİ MAH.","zip":"42560"},{"name":"GAZİ MAH.","zip":"42560"},{"name":"GEDİL MAH.","zip":"42560"},{"name":"GÖLÇAYIR MAH.","zip":"42560"},{"name":"GÖZPINARI MAH.","zip":"42560"},{"name":"ILICAK MAH.","zip":"42560"},{"name":"KARABULUT MAH.","zip":"42560"},{"name":"KARAHÜYÜK MAH.","zip":"42560"},{"name":"KIZILCA MAH.","zip":"42560"},{"name":"KİLECİ MAH.","zip":"42560"},{"name":"KURUÇAY MAH.","zip":"42560"},{"name":"NASREDDİN MAH.","zip":"42560"},{"name":"ORTACA MAH.","zip":"42560"},{"name":"ORTAKÖY MAH.","zip":"42560"},{"name":"REİS MAH.","zip":"42560"},{"name":"SARAY MAH.","zip":"42560"},{"name":"SAVAŞ MAH.","zip":"42560"},{"name":"SEYRAN MAH.","zip":"42560"},{"name":"SORKUN MAH.","zip":"42560"},{"name":"SÖĞÜTLÜ MAH.","zip":"42560"},{"name":"TEKKEKÖY MAH.","zip":"42560"},{"name":"TİPİKÖY MAH.","zip":"42560"},{"name":"ULUPINAR MAH.","zip":"42560"},{"name":"ÜÇHÜYÜK MAH.","zip":"42560"},{"name":"YAŞARLAR MAH.","zip":"42560"},{"name":"YAYLABELEN MAH.","zip":"42560"},{"name":"YAZLA MAH.","zip":"42560"},{"name":"YENİKÖY MAH.","zip":"42560"},{"name":"YEŞİLKÖY MAH.","zip":"42560"}]},{"name":"ALTINEKİN","cityName":null,"quarters":[{"name":"AKINCILAR MAH.","zip":"42450"},{"name":"AKKÖY MAH.","zip":"42450"},{"name":"AYIŞIĞI MAH.","zip":"42450"},{"name":"BORUKKUYU MAH.","zip":"42450"},{"name":"DEDELER MAH.","zip":"42450"},{"name":"HACINUMAN MAH.","zip":"42450"},{"name":"KALE MAH.","zip":"42450"},{"name":"KARAKAYA MAH.","zip":"42450"},{"name":"KOÇAŞ MAH.","zip":"42450"},{"name":"KOÇYAKA MAH.","zip":"42450"},{"name":"MANTAR MAH.","zip":"42450"},{"name":"OĞUZELİ MAH.","zip":"42450"},{"name":"ÖLMEZ MAH.","zip":"42450"},{"name":"SARNIÇ MAH.","zip":"42450"},{"name":"TOPRAKLIK MAH.","zip":"42450"},{"name":"YENİ ÖLMEZ MAH.","zip":"42450"},{"name":"YENİCE MAH.","zip":"42450"},{"name":"YENİKUYU MAH.","zip":"42450"},{"name":"YENİYAYLA MAH.","zip":"42450"}]},{"name":"BEYŞEHİR","cityName":null,"quarters":[{"name":"AĞILÖNÜ MAH.","zip":"42700"},{"name":"AKBURUN MAH.","zip":"42700"},{"name":"AKÇABELEN MAH.","zip":"42700"},{"name":"AVDANCIK MAH.","zip":"42700"},{"name":"AVŞAR MAH.","zip":"42700"},{"name":"BADEMLİ MAH.","zip":"42700"},{"name":"BAHÇELİEVLER MAH.","zip":"42700"},{"name":"BAŞGÖZE MAH.","zip":"42700"},{"name":"BAYAT MAH.","zip":"42700"},{"name":"BAYAVŞAR MAH.","zip":"42700"},{"name":"BAYINDIR MAH.","zip":"42700"},{"name":"BEKDEMİR MAH.","zip":"42700"},{"name":"BEYTEPE MAH.","zip":"42700"},{"name":"ÇİÇEKLER MAH.","zip":"42700"},{"name":"ÇİFTLİK MAH.","zip":"42700"},{"name":"ÇİVRİL MAH.","zip":"42700"},{"name":"ÇUKURAĞIL MAH.","zip":"42700"},{"name":"DALYAN MAH.","zip":"42700"},{"name":"DAMLAPINAR MAH.","zip":"42700"},{"name":"DOĞANBEY MAH.","zip":"42700"},{"name":"DOĞANCIK MAH.","zip":"42700"},{"name":"DUMANLI MAH.","zip":"42700"},{"name":"EĞİRLER MAH.","zip":"42700"},{"name":"EMEN MAH.","zip":"42700"},{"name":"ESENCE MAH.","zip":"42700"},{"name":"ESENTEPE MAH.","zip":"42700"},{"name":"EVSAT MAH.","zip":"42700"},{"name":"EYLİKLER MAH.","zip":"42700"},{"name":"FASILLAR MAH.","zip":"42700"},{"name":"GÖÇÜ MAH.","zip":"42700"},{"name":"GÖKÇEKUYU MAH.","zip":"42700"},{"name":"GÖKÇİMEN MAH.","zip":"42700"},{"name":"GÖLKAŞI MAH.","zip":"42700"},{"name":"GÖLYAKA MAH.","zip":"42700"},{"name":"GÖNEN MAH.","zip":"42700"},{"name":"GÜNDOĞDU MAH.","zip":"42700"},{"name":"HACIAKİF MAH.","zip":"42700"},{"name":"HACIARMAĞAN MAH.","zip":"42700"},{"name":"HAMİDİYE MAH.","zip":"42700"},{"name":"HUĞLU MAH.","zip":"42700"},{"name":"HÜSEYİNLER MAH.","zip":"42700"},{"name":"İÇERİŞEHİR MAH.","zip":"42700"},{"name":"İSAKÖY MAH.","zip":"42700"},{"name":"KARAALİ MAH.","zip":"42700"},{"name":"KARABAYAT MAH.","zip":"42700"},{"name":"KARADİKEN MAH.","zip":"42700"},{"name":"KARAHİSAR MAH.","zip":"42700"},{"name":"KAYABAŞI MAH.","zip":"42700"},{"name":"KURUCUOVA MAH.","zip":"42700"},{"name":"KUŞLUCA MAH.","zip":"42700"},{"name":"KÜÇÜKAVŞAR MAH.","zip":"42700"},{"name":"MESUTLAR MAH.","zip":"42700"},{"name":"MÜFTÜ MAH.","zip":"42700"},{"name":"SADIKHACI MAH.","zip":"42700"},{"name":"SARIKÖY MAH.","zip":"42700"},{"name":"SEVİNDİK MAH.","zip":"42700"},{"name":"ŞAMLAR MAH.","zip":"42700"},{"name":"ÜÇPINAR MAH.","zip":"42700"},{"name":"ÜSTÜNLER MAH.","zip":"42700"},{"name":"ÜZÜMLÜ MAH.","zip":"42700"},{"name":"YAZYURDU MAH.","zip":"42700"},{"name":"YENİ MAH.","zip":"42700"},{"name":"YENİDOĞAN MAH.","zip":"42700"},{"name":"YEŞİLDAĞ MAH.","zip":"42700"},{"name":"YUKARIESENCE MAH.","zip":"42700"},{"name":"YUNUSLAR MAH.","zip":"42700"}]},{"name":"BOZKIR","cityName":null,"quarters":[{"name":"ARMUTLU MAH.","zip":"42630"},{"name":"ARSLANTAŞ MAH.","zip":"42630"},{"name":"AYDINKIŞLA MAH.","zip":"42630"},{"name":"AYVALCA MAH.","zip":"42630"},{"name":"BAĞYURDU MAH.","zip":"42630"},{"name":"BAYBAĞAN MAH.","zip":"42630"},{"name":"BOZDAM MAH.","zip":"42630"},{"name":"CUMHURİYET MAH.","zip":"42630"},{"name":"ÇAĞLAYAN MAH.","zip":"42630"},{"name":"DEMİRASAF MAH.","zip":"42630"},{"name":"DEREİÇİ MAH.","zip":"42630"},{"name":"DEREKÖY MAH.","zip":"42630"},{"name":"ELMAAĞAÇ MAH.","zip":"42630"},{"name":"HACILAR MAH.","zip":"42630"},{"name":"HACIYUNUSLAR MAH.","zip":"42630"},{"name":"HAMZALAR MAH.","zip":"42630"},{"name":"HARMANPINAR MAH.","zip":"42630"},{"name":"HİSARLIK MAH.","zip":"42630"},{"name":"IŞIKLAR MAH.","zip":"42630"},{"name":"KARABAYIR MAH.","zip":"42630"},{"name":"KARACAARDIÇ MAH.","zip":"42630"},{"name":"KARACAHİSAR MAH.","zip":"42630"},{"name":"KARAYAHYA MAH.","zip":"42630"},{"name":"KAYACILAR MAH.","zip":"42630"},{"name":"KAYAPINAR MAH.","zip":"42630"},{"name":"KINIK MAH.","zip":"42630"},{"name":"KIZILÇAKIR MAH.","zip":"42630"},{"name":"KİLDERE MAH.","zip":"42630"},{"name":"KOVANLIK MAH.","zip":"42630"},{"name":"KOZAĞAÇ MAH.","zip":"42630"},{"name":"KUŞCA MAH.","zip":"42630"},{"name":"KÜÇÜKHİSARLIK MAH.","zip":"42630"},{"name":"PINARCIK MAH.","zip":"42630"},{"name":"SARIOĞLAN MAH.","zip":"42630"},{"name":"SAZLI MAH.","zip":"42630"},{"name":"SOĞUCAK MAH.","zip":"42630"},{"name":"SORKUN MAH.","zip":"42630"},{"name":"SÖĞÜT MAH.","zip":"42630"},{"name":"TARLABAŞI MAH.","zip":"42630"},{"name":"TAŞBAŞI MAH.","zip":"42630"},{"name":"TEPEARASI MAH.","zip":"42630"},{"name":"TEPELİCE MAH.","zip":"42630"},{"name":"ULUPINAR MAH.","zip":"42630"},{"name":"ÜÇPINAR MAH.","zip":"42630"},{"name":"YALNIZCA MAH.","zip":"42630"},{"name":"YAZDAMI MAH.","zip":"42630"},{"name":"YELBEĞİ MAH.","zip":"42630"},{"name":"YENİKÖY MAH.","zip":"42630"},{"name":"YOLÖREN MAH.","zip":"42630"},{"name":"YUKARI MAH.","zip":"42630"}]},{"name":"CİHANBEYLİ","cityName":null,"quarters":[{"name":"AHİRİGÜZEL MAH.","zip":"42850"},{"name":"ATÇEKEN MAH.","zip":"42850"},{"name":"BAHÇELİEVLER MAH.","zip":"42850"},{"name":"BEYLİOVA MAH.","zip":"42850"},{"name":"BÖĞRÜDELİK MAH.","zip":"42850"},{"name":"BULDUK MAH.","zip":"42850"},{"name":"BÜYÜKBEŞKAVAK MAH.","zip":"42850"},{"name":"CUMHURİYET MAH.","zip":"42850"},{"name":"ÇİMEN MAH.","zip":"42850"},{"name":"ÇÖL MAH.","zip":"42850"},{"name":"DAMLAKUYU MAH.","zip":"42850"},{"name":"GEMECİK MAH.","zip":"42850"},{"name":"GÖKTEPE MAH.","zip":"42850"},{"name":"GÖLYAZI MAH.","zip":"42850"},{"name":"GÜNYÜZÜ MAH.","zip":"42850"},{"name":"HODOĞLU MAH.","zip":"42850"},{"name":"İNSUYU MAH.","zip":"42850"},{"name":"KALE MAH.","zip":"42850"},{"name":"KANDİL MAH.","zip":"42850"},{"name":"KARABAĞ MAH.","zip":"42850"},{"name":"KARATEPE MAH.","zip":"42850"},{"name":"KARŞIYAKA MAH.","zip":"42850"},{"name":"KAYI MAH.","zip":"42850"},{"name":"KELHASAN MAH.","zip":"42850"},{"name":"KIRKIŞLA MAH.","zip":"42850"},{"name":"KOCATEPE MAH.","zip":"42850"},{"name":"KORKMAZLAR MAH.","zip":"42850"},{"name":"KÖPRÜBAŞI MAH.","zip":"42850"},{"name":"KUŞÇA MAH.","zip":"42850"},{"name":"KÜÇÜKBEŞKAVAK MAH.","zip":"42850"},{"name":"KÜTÜKUŞAĞI MAH.","zip":"42850"},{"name":"MUTLUKONAK MAH.","zip":"42850"},{"name":"PINARBAŞI MAH.","zip":"42850"},{"name":"SAĞLIK MAH.","zip":"42850"},{"name":"SIĞIRCIK MAH.","zip":"42850"},{"name":"TAŞPINAR MAH.","zip":"42850"},{"name":"TURANLAR MAH.","zip":"42850"},{"name":"TÜFEKÇİPINAR MAH.","zip":"42850"},{"name":"UZUNCAYAYLA MAH.","zip":"42850"},{"name":"ÜZERLİKTEPE MAH.","zip":"42850"},{"name":"YAPALI MAH.","zip":"42850"},{"name":"YENİCEOBA MAH.","zip":"42850"},{"name":"YENİYAYLA MAH.","zip":"42850"},{"name":"YEŞİLÖZ MAH.","zip":"42850"},{"name":"YÜNLÜKUYU MAH.","zip":"42850"},{"name":"ZAFERİYE MAH.","zip":"42850"}]},{"name":"ÇELTİK","cityName":null,"quarters":[{"name":"BAHÇE SARAY MAH.","zip":"42920"},{"name":"BAHÇELİEVLER MAH.","zip":"42920"},{"name":"DOĞANYURT MAH.","zip":"42920"},{"name":"FATİH MAH.","zip":"42920"},{"name":"GÖKPINAR MAH.","zip":"42920"},{"name":"HONAMLI MAH.","zip":"42920"},{"name":"İSHAKUŞAĞI MAH.","zip":"42920"},{"name":"KARŞIYAKA MAH.","zip":"42920"},{"name":"KAŞÖREN MAH.","zip":"42920"},{"name":"KÜÇÜKHASAN MAH.","zip":"42920"},{"name":"SELÇUK MAH.","zip":"42920"},{"name":"TORUNLAR MAH.","zip":"42920"},{"name":"YUKARIALİÇOMAK MAH.","zip":"42920"}]},{"name":"ÇUMRA","cityName":null,"quarters":[{"name":"ADAKALE MAH.","zip":"42500"},{"name":"AFŞAR MAH.","zip":"42500"},{"name":"ALEMDAR MAH.","zip":"42500"},{"name":"ALİBEYHÜYÜĞÜ MAH.","zip":"42500"},{"name":"APA MAH.","zip":"42500"},{"name":"APASARAYCIK MAH.","zip":"42500"},{"name":"ARIKÖREN MAH.","zip":"42500"},{"name":"AVDUL MAH.","zip":"42500"},{"name":"BAĞLAR MAH.","zip":"42500"},{"name":"BAKKALBAŞI MAH.","zip":"42500"},{"name":"BALÇIKHİSAR MAH.","zip":"42500"},{"name":"BARAJ MAH.","zip":"42500"},{"name":"BARDAKÇI MAH.","zip":"42500"},{"name":"BEYLERCE MAH.","zip":"42500"},{"name":"BÜYÜKAŞLAMA MAH.","zip":"42500"},{"name":"CUMHURİYET MAH.","zip":"42500"},{"name":"ÇAYBAŞI MAH.","zip":"42500"},{"name":"ÇİÇEKKÖY MAH.","zip":"42500"},{"name":"ÇUKURKAVAK MAH.","zip":"42500"},{"name":"DEDEMOĞLU MAH.","zip":"42500"},{"name":"DİNEK MAH.","zip":"42500"},{"name":"DİNEKSARAY MAH.","zip":"42500"},{"name":"DİNLENDİK MAH.","zip":"42500"},{"name":"DOĞANLI MAH.","zip":"42500"},{"name":"ERENTEPE MAH.","zip":"42500"},{"name":"FETHİYE MAH.","zip":"42500"},{"name":"GÖKHÜYÜK MAH.","zip":"42500"},{"name":"GÜVERCİNLİK MAH.","zip":"42500"},{"name":"HÜRRİYET MAH.","zip":"42500"},{"name":"İÇERİÇUMRA MAH.","zip":"42500"},{"name":"İNLİ MAH.","zip":"42500"},{"name":"İSTİKLAL MAH.","zip":"42500"},{"name":"İSTİKLAL OSB MAH.","zip":"42500"},{"name":"İZZETBEY MAH.","zip":"42500"},{"name":"KARKIN MAH.","zip":"42500"},{"name":"KUZUCU MAH.","zip":"42500"},{"name":"KÜÇÜKKÖY MAH.","zip":"42500"},{"name":"MEYDAN MAH.","zip":"42500"},{"name":"OKÇU MAH.","zip":"42500"},{"name":"SEÇME MAH.","zip":"42500"},{"name":"SÜRGÜÇ MAH.","zip":"42500"},{"name":"TAHTALI MAH.","zip":"42500"},{"name":"TAŞAĞIL MAH.","zip":"42500"},{"name":"TÜRKMENCAMİLİ MAH.","zip":"42500"},{"name":"TÜRKMENKARAHÜYÜK MAH.","zip":"42500"},{"name":"UZUNKUYU MAH.","zip":"42500"},{"name":"ÜÇHÜYÜK MAH.","zip":"42500"},{"name":"ÜRÜNLÜ MAH.","zip":"42500"},{"name":"YENİ MAH.","zip":"42500"},{"name":"YENİDOĞAN MAH.","zip":"42500"},{"name":"YENİMESCİT MAH.","zip":"42500"},{"name":"YENİSU MAH.","zip":"42500"},{"name":"YÖRÜKCAMİLİ MAH.","zip":"42500"}]},{"name":"DERBENT","cityName":null,"quarters":[{"name":"CAMİİKEBİR MAH.","zip":"42900"},{"name":"ÇİFTLİKÖZÜ MAH.","zip":"42900"},{"name":"DEĞİŞ MAH.","zip":"42900"},{"name":"DERBENTTEKKE MAH.","zip":"42900"},{"name":"GÜNEY MAH.","zip":"42900"},{"name":"GÜNEYKÖY MAH.","zip":"42900"},{"name":"HACI AHMET MAH.","zip":"42900"},{"name":"KARALAR MAH.","zip":"42900"},{"name":"MÜLAYİM MAH.","zip":"42900"},{"name":"SARAYPINAR MAH.","zip":"42900"},{"name":"SÜLEYMAN MAH.","zip":"42900"},{"name":"YUKARI MAH.","zip":"42900"}]},{"name":"DEREBUCAK","cityName":null,"quarters":[{"name":"DURAK MAH.","zip":"42480"},{"name":"GENCEK MAH.","zip":"42480"},{"name":"GÖYNEM MAH.","zip":"42480"},{"name":"KENANKUYU MAH.","zip":"42480"},{"name":"MUSALLA MAH.","zip":"42480"},{"name":"PINARBAŞI MAH.","zip":"42480"},{"name":"SARAYÖNÜ MAH.","zip":"42480"},{"name":"TAŞLIPINAR MAH.","zip":"42480"},{"name":"TEPEARASI MAH.","zip":"42480"},{"name":"UĞURLU MAH.","zip":"42480"},{"name":"YENİ MAH.","zip":"42480"}]},{"name":"DOĞANHİSAR","cityName":null,"quarters":[{"name":"AYASLAR MAH.","zip":"42930"},{"name":"BAŞ MAH.","zip":"42930"},{"name":"BAŞKÖY MAH.","zip":"42930"},{"name":"CUMA MAH.","zip":"42930"},{"name":"ÇINAROBA MAH.","zip":"42930"},{"name":"DEŞTİĞİN MAH.","zip":"42930"},{"name":"FIRINLI MAH.","zip":"42930"},{"name":"GÜVENDİK MAH.","zip":"42930"},{"name":"HARMAN MAH.","zip":"42930"},{"name":"İLYASLAR MAH.","zip":"42930"},{"name":"KARAAĞA MAH.","zip":"42930"},{"name":"KEMER MAH.","zip":"42930"},{"name":"KOÇAŞ MAH.","zip":"42930"},{"name":"KONAKKALE MAH.","zip":"42930"},{"name":"KUZ MAH.","zip":"42930"},{"name":"PAZAR MAH.","zip":"42930"},{"name":"ŞIH MAH.","zip":"42930"},{"name":"TEKKEKÖY MAH.","zip":"42930"},{"name":"UNCULAR MAH.","zip":"42930"},{"name":"YAZIR MAH.","zip":"42930"},{"name":"YAZLICA MAH.","zip":"42930"},{"name":"YEĞİN MAH.","zip":"42930"},{"name":"YENİCE MAH.","zip":"42930"}]},{"name":"EMİRGAZİ","cityName":null,"quarters":[{"name":"BESCİ MAH.","zip":"42910"},{"name":"CAMİKEBİR MAH.","zip":"42910"},{"name":"CUMHURİYET MAH.","zip":"42910"},{"name":"DEMİRCİ MAH.","zip":"42910"},{"name":"EKİZLİ MAH.","zip":"42910"},{"name":"FATİH MAH.","zip":"42910"},{"name":"GÖLÖREN MAH.","zip":"42910"},{"name":"IŞIKLAR MAH.","zip":"42910"},{"name":"KALE MAH.","zip":"42910"},{"name":"KARAÖREN MAH.","zip":"42910"},{"name":"MEŞELİ MAH.","zip":"42910"},{"name":"ÖBEKTAŞ MAH.","zip":"42910"},{"name":"TÜRBE MAH.","zip":"42910"},{"name":"YAMAÇ MAH.","zip":"42910"},{"name":"YENİ MAH.","zip":"42910"}]},{"name":"AYDINLAR","cityName":null,"quarters":[{"name":"BARBAROS MAH.","zip":"42320"},{"name":"CAHI MAH.","zip":"42320"},{"name":"DALMAZ MAH.","zip":"42320"},{"name":"FATİH MAH.","zip":"42320"},{"name":"GÜLBAHÇE MAH.","zip":"42320"},{"name":"HIDIRLI MAH.","zip":"42320"},{"name":"PİRÖMER MAH.","zip":"42320"},{"name":"SÜMER MAH.","zip":"42320"},{"name":"ŞİNASİ MAH.","zip":"42320"},{"name":"ÜÇGÖZ MAH.","zip":"42320"}]},{"name":"EREĞLİ","cityName":null,"quarters":[{"name":"ACIKUYU MAH.","zip":"42310"},{"name":"ACIPINAR MAH.","zip":"42310"},{"name":"ADABAĞ MAH.","zip":"42310"},{"name":"AKHÜYÜK MAH.","zip":"42310"},{"name":"ALHAN MAH.","zip":"42310"},{"name":"ALPASLAN MAH.","zip":"42310"},{"name":"AŞAĞIGÖNDELEN MAH.","zip":"42310"},{"name":"AŞIKLAR MAH.","zip":"42310"},{"name":"ATAKENT MAH.","zip":"42310"},{"name":"AZİZİYE MAH.","zip":"42310"},{"name":"BAHÇELİ MAH.","zip":"42310"},{"name":"BATIALAGÖZLÜ MAH.","zip":"42310"},{"name":"BELCEAĞAÇ MAH.","zip":"42310"},{"name":"BELKAYA MAH.","zip":"42310"},{"name":"BEYKÖY MAH.","zip":"42310"},{"name":"BEYÖREN MAH.","zip":"42310"},{"name":"BOYACIALİ MAH.","zip":"42310"},{"name":"BULGURLUK MAH.","zip":"42310"},{"name":"BURHANİYE MAH.","zip":"42310"},{"name":"BÜYÜKDEDE MAH.","zip":"42310"},{"name":"CAMİKEBİR MAH.","zip":"42310"},{"name":"CİNLER MAH.","zip":"42310"},{"name":"ÇAKMAK MAH.","zip":"42310"},{"name":"ÇAYHAN MAH.","zip":"42310"},{"name":"ÇİLLER MAH.","zip":"42310"},{"name":"ÇİMENCİK MAH.","zip":"42310"},{"name":"ÇÖMLEKÇİ MAH.","zip":"42310"},{"name":"DOGUALAGÖZLÜ MAH.","zip":"42310"},{"name":"ETİ MAH.","zip":"42310"},{"name":"GAYBİ MAH.","zip":"42310"},{"name":"GÖKÇEYAZI MAH.","zip":"42310"},{"name":"GÖKTÖME MAH.","zip":"42310"},{"name":"HACIMEMİŞ MAH.","zip":"42310"},{"name":"HACIMUSTAFA MAH.","zip":"42310"},{"name":"HACIMUTAHİR MAH.","zip":"42310"},{"name":"HAMİDİYE MAH.","zip":"42310"},{"name":"HORTU MAH.","zip":"42310"},{"name":"KAMIŞLIKUYU MAH.","zip":"42310"},{"name":"KARABURUN MAH.","zip":"42310"},{"name":"KARGACI MAH.","zip":"42310"},{"name":"KAZANCI MAH.","zip":"42310"},{"name":"KIZILGEDİK MAH.","zip":"42310"},{"name":"KUSKUNCUK MAH.","zip":"42310"},{"name":"KUTÖREN MAH.","zip":"42310"},{"name":"KUZUKUYU MAH.","zip":"42310"},{"name":"MEHMET AKİF MAH.","zip":"42310"},{"name":"MELİCEK MAH.","zip":"42310"},{"name":"MİMAR SİNAN MAH.","zip":"42310"},{"name":"NAMIK KEMAL MAH.","zip":"42310"},{"name":"ORHANGAZİ MAH.","zip":"42310"},{"name":"ORHANİYE MAH.","zip":"42310"},{"name":"ÖZGÜRLER MAH.","zip":"42310"},{"name":"PINARÖZÜ MAH.","zip":"42310"},{"name":"SARICA MAH.","zip":"42310"},{"name":"SARITOPALLI MAH.","zip":"42310"},{"name":"SELÇUKLU MAH.","zip":"42310"},{"name":"SERVİLİ MAH.","zip":"42310"},{"name":"TALATPAŞA MAH.","zip":"42310"},{"name":"TAŞAĞIL MAH.","zip":"42310"},{"name":"TAŞBUDAK MAH.","zip":"42310"},{"name":"TATLIKUYU MAH.","zip":"42310"},{"name":"TOROS MAH.","zip":"42310"},{"name":"TÜRBE MAH.","zip":"42310"},{"name":"TÜRKMEN MAH.","zip":"42310"},{"name":"ULUMEŞE MAH.","zip":"42310"},{"name":"YAZLIK MAH.","zip":"42310"},{"name":"YELLİCE MAH.","zip":"42310"},{"name":"YENİBAĞLAR MAH.","zip":"42310"},{"name":"YENİKÖY MAH.","zip":"42310"},{"name":"YILDIRIMBEYAZIT MAH.","zip":"42310"},{"name":"YILDIZLI MAH.","zip":"42310"},{"name":"YUKARIGÖNDELEN MAH.","zip":"42310"},{"name":"YUNUSLU MAH.","zip":"42310"},{"name":"ZENGEN MAH.","zip":"42310"},{"name":"ZİYA GÖKALP MAH.","zip":"42310"}]},{"name":"GÜNEYSINIR","cityName":null,"quarters":[{"name":"AVCITEPE MAH.","zip":"42490"},{"name":"AYDOĞMUŞ MAH.","zip":"42490"},{"name":"BARDAS MAH.","zip":"42490"},{"name":"EMİRHAN MAH.","zip":"42490"},{"name":"GÜNEYBAĞ MAH.","zip":"42490"},{"name":"GÜRAĞAÇ MAH.","zip":"42490"},{"name":"HABİLLER MAH.","zip":"42490"},{"name":"KARAGÜNEY MAH.","zip":"42490"},{"name":"KARASINIR MAH.","zip":"42490"},{"name":"KAYAAĞZI MAH.","zip":"42490"},{"name":"KIZILÖZ MAH.","zip":"42490"},{"name":"KURUKAVAK MAH.","zip":"42490"},{"name":"MEHMET ALİ MAH.","zip":"42490"},{"name":"MEVLANA MAH.","zip":"42490"},{"name":"ÖMEROĞLU MAH.","zip":"42490"},{"name":"ÖRENBOYALI MAH.","zip":"42490"},{"name":"SARIHACI MAH.","zip":"42490"}]},{"name":"HADİM","cityName":null,"quarters":[{"name":"AŞAĞI HADİM MAH.","zip":"42830"},{"name":"AŞAĞIEŞENLER MAH.","zip":"42830"},{"name":"AŞAĞIKIZILKAYA MAH.","zip":"42830"},{"name":"BADEMLİ MAH.","zip":"42830"},{"name":"BEYRELİ MAH.","zip":"42830"},{"name":"BOLAT MAH.","zip":"42830"},{"name":"ÇİFTEPINAR MAH.","zip":"42830"},{"name":"DEDEMLİ MAH.","zip":"42830"},{"name":"DOLHANLAR MAH.","zip":"42830"},{"name":"DÜLGERLER MAH.","zip":"42830"},{"name":"EĞİSTE MAH.","zip":"42830"},{"name":"FAKILAR MAH.","zip":"42830"},{"name":"GAZİLER MAH.","zip":"42830"},{"name":"GEREZ MAH.","zip":"42830"},{"name":"GEZLEVİ MAH.","zip":"42830"},{"name":"GÖYNÜKKIŞLA MAH.","zip":"42830"},{"name":"GÜLPINAR MAH.","zip":"42830"},{"name":"HOCALAR MAH.","zip":"42830"},{"name":"İĞDEÖREN MAH.","zip":"42830"},{"name":"KALINAĞIL MAH.","zip":"42830"},{"name":"KAPLANLI MAH.","zip":"42830"},{"name":"KÜPLÜCE MAH.","zip":"42830"},{"name":"ODUNCU MAH.","zip":"42830"},{"name":"SARNIÇ MAH.","zip":"42830"},{"name":"SELAHATTİN MAH.","zip":"42830"},{"name":"TAŞPINAR MAH.","zip":"42830"},{"name":"UMURLAR MAH.","zip":"42830"},{"name":"YAĞCI MAH.","zip":"42830"},{"name":"YELMEZ MAH.","zip":"42830"},{"name":"YENİKONAK MAH.","zip":"42830"},{"name":"YUKARIEŞENLER MAH.","zip":"42830"}]},{"name":"HALKAPINAR","cityName":null,"quarters":[{"name":"BÜYÜKDOĞAN MAH.","zip":"42980"},{"name":"CUMHURİYET MAH.","zip":"42980"},{"name":"ÇAKILLAR MAH.","zip":"42980"},{"name":"DEDELİ MAH.","zip":"42980"},{"name":"DELİMAHMUTLU MAH.","zip":"42980"},{"name":"ESKİHİSAR MAH.","zip":"42980"},{"name":"İVRİZ MAH.","zip":"42980"},{"name":"KARAYUSUFLU MAH.","zip":"42980"},{"name":"KAYASARAY MAH.","zip":"42980"},{"name":"KÖRLÜ MAH.","zip":"42980"},{"name":"KÜSERE MAH.","zip":"42980"},{"name":"NERNEK MAH.","zip":"42980"},{"name":"OSMANKÖSELİ MAH.","zip":"42980"},{"name":"SEYDİFAKILI MAH.","zip":"42980"},{"name":"YASSIKAYA MAH.","zip":"42980"},{"name":"YEŞİLYURT MAH.","zip":"42980"}]},{"name":"HÜYÜK","cityName":null,"quarters":[{"name":"BAHÇELİ EVLER MAH.","zip":"42690"},{"name":"BAŞLAMIŞ MAH.","zip":"42690"},{"name":"BUDAK MAH.","zip":"42690"},{"name":"BURUNSUZ MAH.","zip":"42690"},{"name":"CUMHURİYET MAH.","zip":"42690"},{"name":"ÇAMLICA MAH.","zip":"42690"},{"name":"ÇAVUŞ MAH.","zip":"42690"},{"name":"ÇUKURKENT MAH.","zip":"42690"},{"name":"DEĞİRMENALTI MAH.","zip":"42690"},{"name":"GÖÇERİ MAH.","zip":"42690"},{"name":"GÖRÜNMEZ MAH.","zip":"42690"},{"name":"İLMEN MAH.","zip":"42690"},{"name":"İMRENLER MAH.","zip":"42690"},{"name":"KIRELİ MAH.","zip":"42690"},{"name":"KÖŞK MAH.","zip":"42690"},{"name":"MUTLU MAH.","zip":"42690"},{"name":"PINARBAŞI MAH.","zip":"42690"},{"name":"SELKİ MAH.","zip":"42690"},{"name":"SULUDERE MAH.","zip":"42690"},{"name":"TOLCA MAH.","zip":"42690"},{"name":"ULUPINAR MAH.","zip":"42690"},{"name":"YENİCE MAH.","zip":"42690"}]},{"name":"ILGIN","cityName":null,"quarters":[{"name":"ARGITHANI MAH.","zip":"42600"},{"name":"AVDAN MAH.","zip":"42600"},{"name":"AYVATDEDE MAH.","zip":"42600"},{"name":"BALKI MAH.","zip":"42600"},{"name":"BARAKMUSLU MAH.","zip":"42600"},{"name":"BEHLÜLBEY MAH.","zip":"42600"},{"name":"BELEKLER MAH.","zip":"42600"},{"name":"BEYKONAK MAH.","zip":"42600"},{"name":"BOĞAZKENT MAH.","zip":"42600"},{"name":"BULCUK MAH.","zip":"42600"},{"name":"BÜYÜKOBA MAH.","zip":"42600"},{"name":"CAMİİATİK MAH.","zip":"42600"},{"name":"ÇATAK MAH.","zip":"42600"},{"name":"ÇAVUŞÇUGÖL MAH.","zip":"42600"},{"name":"ÇİĞİL MAH.","zip":"42600"},{"name":"ÇOBANKAYA MAH.","zip":"42600"},{"name":"ÇÖMLEKÇİ MAH.","zip":"42600"},{"name":"DEREKÖY MAH.","zip":"42600"},{"name":"DIĞRAK MAH.","zip":"42600"},{"name":"DÜĞER MAH.","zip":"42600"},{"name":"ELDEŞ MAH.","zip":"42600"},{"name":"ESENTEPE MAH.","zip":"42600"},{"name":"FAHRETTİN ALTAY MAH.","zip":"42600"},{"name":"FATİH MAH.","zip":"42600"},{"name":"GEÇİTKÖY MAH.","zip":"42600"},{"name":"GEDİKÖREN MAH.","zip":"42600"},{"name":"GÖKBUDAK MAH.","zip":"42600"},{"name":"GÖKÇEYURT MAH.","zip":"42600"},{"name":"GÖLYAKA MAH.","zip":"42600"},{"name":"GÖSTERE MAH.","zip":"42600"},{"name":"GÜNEYPINAR MAH.","zip":"42600"},{"name":"HARMANYAZI MAH.","zip":"42600"},{"name":"ILICA MAH.","zip":"42600"},{"name":"İHSANİYE MAH.","zip":"42600"},{"name":"İSTASYON MAH.","zip":"42600"},{"name":"KALEKÖY MAH.","zip":"42600"},{"name":"KAPAKLI MAH.","zip":"42600"},{"name":"KARAKÖY MAH.","zip":"42600"},{"name":"MAHMUTHİSAR MAH.","zip":"42600"},{"name":"MECİDİYE MAH.","zip":"42600"},{"name":"MİLLİ EGEMENLİK MAH.","zip":"42600"},{"name":"MİSAFİRLİ MAH.","zip":"42600"},{"name":"OLUKPINAR MAH.","zip":"42600"},{"name":"ORHANİYE MAH.","zip":"42600"},{"name":"ORMANÖZÜ MAH.","zip":"42600"},{"name":"SADIKKÖY MAH.","zip":"42600"},{"name":"SAHİP ATA MAH.","zip":"42600"},{"name":"SEBİLLER MAH.","zip":"42600"},{"name":"ŞIHBEDRETTİN MAH.","zip":"42600"},{"name":"ŞIHCARULLAH MAH.","zip":"42600"},{"name":"TEKELER MAH.","zip":"42600"},{"name":"UCARI MAH.","zip":"42600"},{"name":"YORAZLAR MAH.","zip":"42600"},{"name":"YUKARIÇİĞİL MAH.","zip":"42600"},{"name":"ZAFERİYE MAH.","zip":"42600"}]},{"name":"KADINHANI","cityName":null,"quarters":[{"name":"ALABAĞ MAH.","zip":"42800"},{"name":"ATLANTI MAH.","zip":"42800"},{"name":"BAKIRPINAR MAH.","zip":"42800"},{"name":"BAŞKUYU MAH.","zip":"42800"},{"name":"BAYRAMLI MAH.","zip":"42800"},{"name":"BEYKAVAĞI MAH.","zip":"42800"},{"name":"BULGURPINARI MAH.","zip":"42800"},{"name":"ÇAVDAR MAH.","zip":"42800"},{"name":"ÇEŞMECİK MAH.","zip":"42800"},{"name":"ÇUBUK MAH.","zip":"42800"},{"name":"DEMİROLUK MAH.","zip":"42800"},{"name":"DOĞANLAR MAH.","zip":"42800"},{"name":"GÜNGÖREN MAH.","zip":"42800"},{"name":"HACIMEHMETLİ MAH.","zip":"42800"},{"name":"HACIOFLAZLAR MAH.","zip":"42800"},{"name":"HACIPİRLİ MAH.","zip":"42800"},{"name":"İSTİKLAL MAH.","zip":"42800"},{"name":"KABACALI MAH.","zip":"42800"},{"name":"KAMIŞLIÖZÜ MAH.","zip":"42800"},{"name":"KARAHİSARLI MAH.","zip":"42800"},{"name":"KARAKAYA MAH.","zip":"42800"},{"name":"KARAKURTLU MAH.","zip":"42800"},{"name":"KARASEVİNÇ MAH.","zip":"42800"},{"name":"KARAYÜRÜKLÜ MAH.","zip":"42800"},{"name":"KAYABAŞI MAH.","zip":"42800"},{"name":"KIZILKUYU MAH.","zip":"42800"},{"name":"KOLUKISA MAH.","zip":"42800"},{"name":"KONURÖREN MAH.","zip":"42800"},{"name":"KÖKEZ MAH.","zip":"42800"},{"name":"KÖYLÜTOLU MAH.","zip":"42800"},{"name":"KURTHASANLI MAH.","zip":"42800"},{"name":"KÜÇÜKKUYU MAH.","zip":"42800"},{"name":"MAHMUDİYE MAH.","zip":"42800"},{"name":"MEYDANLI MAH.","zip":"42800"},{"name":"OSMANCIK MAH.","zip":"42800"},{"name":"ÖRNEK MAH.","zip":"42800"},{"name":"PINARBAŞI MAH.","zip":"42800"},{"name":"PİRALİ MAH.","zip":"42800"},{"name":"PUSAT MAH.","zip":"42800"},{"name":"SAÇIKARA MAH.","zip":"42800"},{"name":"SARIKAYA MAH.","zip":"42800"},{"name":"SÖĞÜTÖZÜ MAH.","zip":"42800"},{"name":"ŞAHÖREN MAH.","zip":"42800"},{"name":"TEPEBAŞI MAH.","zip":"42800"},{"name":"TOSUNOĞLU MAH.","zip":"42800"},{"name":"TURGUTLU MAH.","zip":"42800"},{"name":"ÜNVEREN MAH.","zip":"42800"},{"name":"YAĞLICA MAH.","zip":"42800"},{"name":"YAYLAYAKA MAH.","zip":"42800"}]},{"name":"MERKEZKÖYLER","cityName":null,"quarters":[{"name":"ZAFER MAH.","zip":"42802"}]},{"name":"KARAPINAR","cityName":null,"quarters":[{"name":"AKÇAYAZI MAH.","zip":"42400"},{"name":"AKÖREN MAH.","zip":"42400"},{"name":"ALAADDİN MAH.","zip":"42400"},{"name":"APAK MAH.","zip":"42400"},{"name":"CUMHURİYET MAH.","zip":"42400"},{"name":"ÇETMİ MAH.","zip":"42400"},{"name":"ÇİĞİL MAH.","zip":"42400"},{"name":"FATİH MAH.","zip":"42400"},{"name":"FEVZİ PAŞA MAH.","zip":"42400"},{"name":"GAZİ OSMAN PAŞA MAH.","zip":"42400"},{"name":"HACI İSA MAH.","zip":"42400"},{"name":"HACI ÖMERLİ MAH.","zip":"42400"},{"name":"HANKAPI MAH.","zip":"42400"},{"name":"HASANOBA MAH.","zip":"42400"},{"name":"HOTAMIŞ MAH.","zip":"42400"},{"name":"İPEKÇİ MAH.","zip":"42400"},{"name":"İPEKÇİOSB MAH.","zip":"42400"},{"name":"İSLİK MAH.","zip":"42400"},{"name":"İSMET PAŞA MAH.","zip":"42400"},{"name":"KALE MAH.","zip":"42400"},{"name":"KARAKIŞLA MAH.","zip":"42400"},{"name":"KAYACIK MAH.","zip":"42400"},{"name":"KAYALI MAH.","zip":"42400"},{"name":"KAZANHÜYÜĞÜ MAH.","zip":"42400"},{"name":"KESMEZ MAH.","zip":"42400"},{"name":"KÜÇÜKAŞLAMA MAH.","zip":"42400"},{"name":"KÜLLÜ MAH.","zip":"42400"},{"name":"ORTAOBA MAH.","zip":"42400"},{"name":"OYMALI MAH.","zip":"42400"},{"name":"PINARBAŞI MAH.","zip":"42400"},{"name":"REŞADİYE MAH.","zip":"42400"},{"name":"SANDIKLI MAH.","zip":"42400"},{"name":"SAZLIPINAR MAH.","zip":"42400"},{"name":"SELİMİYE MAH.","zip":"42400"},{"name":"TÜRÜDİYE MAH.","zip":"42400"},{"name":"ULUS MAH.","zip":"42400"},{"name":"YAĞMAPINAR MAH.","zip":"42400"},{"name":"YENİ MAH.","zip":"42400"},{"name":"YENİKUYU MAH.","zip":"42400"},{"name":"YEŞİLYURT MAH.","zip":"42400"},{"name":"YUNUS EMRE MAH.","zip":"42400"},{"name":"ZAFER MAH.","zip":"42400"}]},{"name":"ERENLER","cityName":null,"quarters":[{"name":"BÜYÜK SİNAN MAH.","zip":"42050"},{"name":"DOĞANLAR MAH.","zip":"42050"},{"name":"ERENLER MAH.","zip":"42050"},{"name":"FEVZİÇAKMAK MAH.","zip":"42050"},{"name":"KALENDERHANE MAH.","zip":"42050"},{"name":"KARACİĞAN MAH.","zip":"42050"},{"name":"KAYACIKARAPLAR MAH.","zip":"42050"},{"name":"KEÇECİLER MAH.","zip":"42050"},{"name":"KEYKUBAT MAH.","zip":"42050"},{"name":"KUZGUNKAVAK MAH.","zip":"42050"},{"name":"ULUBATLIHASAN MAH.","zip":"42050"},{"name":"YEDİLER MAH.","zip":"42050"}]},{"name":"KARATAY","cityName":null,"quarters":[{"name":"AĞSAKLI MAH.","zip":"42290"},{"name":"AKBAŞ MAH.","zip":"42290"},{"name":"AKÖRENKIŞLA MAH.","zip":"42290"},{"name":"BAKIRTOLU MAH.","zip":"42290"},{"name":"BAŞGÖTÜREN MAH.","zip":"42290"},{"name":"BEŞAĞIL MAH.","zip":"42290"},{"name":"BÜYÜKBURNAK MAH.","zip":"42290"},{"name":"ÇENGİLTİ MAH.","zip":"42290"},{"name":"DİVANLAR MAH.","zip":"42290"},{"name":"ESENTEPE MAH.","zip":"42290"},{"name":"GÖÇÜ MAH.","zip":"42290"},{"name":"HAYIROĞLU MAH.","zip":"42290"},{"name":"İPEKLER MAH.","zip":"42290"},{"name":"İSMİL MAH.","zip":"42290"},{"name":"KARADONA MAH.","zip":"42290"},{"name":"KARAKAYA MAH.","zip":"42290"},{"name":"KATRANCI MAH.","zip":"42290"},{"name":"KIZÖREN MAH.","zip":"42290"},{"name":"KÖSEALİ MAH.","zip":"42290"},{"name":"OBRUK MAH.","zip":"42290"},{"name":"ORTAKONAK MAH.","zip":"42290"},{"name":"OVAKAVAĞI MAH.","zip":"42290"},{"name":"SAKYATAN MAH.","zip":"42290"},{"name":"SÜRÜÇ MAH.","zip":"42290"},{"name":"ŞATIR MAH.","zip":"42290"},{"name":"YAĞLIBAYAT MAH.","zip":"42290"},{"name":"YARMA MAH.","zip":"42290"},{"name":"YAVŞANKUYU MAH.","zip":"42290"},{"name":"YENİCE MAH.","zip":"42290"},{"name":"YENİKENT MAH.","zip":"42290"},{"name":"ZİNCİRLİ MAH.","zip":"42290"}]},{"name":"MEVLANA","cityName":null,"quarters":[{"name":"ÇELEBİ MAH.","zip":"42030"},{"name":"ÇİMENLİK MAH.","zip":"42030"},{"name":"EMİRGAZİ MAH.","zip":"42030"},{"name":"FETİH MAH.","zip":"42030"},{"name":"HACI HASAN MAH.","zip":"42030"},{"name":"HACISADIK MAH.","zip":"42030"},{"name":"HACIVEYİSZADE MAH.","zip":"42030"},{"name":"HACIYUSUFMESCİT MAH.","zip":"42030"},{"name":"HASANDEDEMESCİT MAH.","zip":"42030"},{"name":"KÖPRÜBAŞI MAH.","zip":"42030"},{"name":"NAKİPOĞLU MAH.","zip":"42030"},{"name":"ŞEMSİTEBRİZİ MAH.","zip":"42030"},{"name":"TATLICAK MAH.","zip":"42030"},{"name":"YENİMAHALLE MAH.","zip":"42030"}]},{"name":"SELİMİYE","cityName":null,"quarters":[{"name":"AKÇEŞME MAH.","zip":"42020"},{"name":"BAŞAK MAH.","zip":"42020"},{"name":"ÇATALHÜYÜK MAH.","zip":"42020"},{"name":"ÇATALTÖMEK MAH.","zip":"42020"},{"name":"DOĞUŞ MAH.","zip":"42020"},{"name":"ELMACI MAH.","zip":"42020"},{"name":"ERLER MAH.","zip":"42020"},{"name":"GAZİOSMANPAŞA MAH.","zip":"42020"},{"name":"HACIİBALI MAH.","zip":"42020"},{"name":"HAMZAOĞLU MAH.","zip":"42020"},{"name":"İSTİKLAL MAH.","zip":"42020"},{"name":"KARAASLANDEDE MAH.","zip":"42020"},{"name":"KARAASLANÜZÜMCÜ MAH.","zip":"42020"},{"name":"KARAKULAK MAH.","zip":"42020"},{"name":"KERİM DEDE MAH.","zip":"42020"},{"name":"KUMKÖPRÜ MAH.","zip":"42020"},{"name":"MENGENE MAH.","zip":"42020"},{"name":"ORHANGAZİ MAH.","zip":"42020"},{"name":"SARAÇOĞLU MAH.","zip":"42020"},{"name":"SARIYAKUP MAH.","zip":"42020"},{"name":"SELİMSULTAN MAH.","zip":"42020"}]},{"name":"KULU","cityName":null,"quarters":[{"name":"AĞILBAŞI MAH.","zip":"42770"},{"name":"ALPARSLAN MAH.","zip":"42770"},{"name":"ALTILAR MAH.","zip":"42770"},{"name":"ARŞINCI MAH.","zip":"42770"},{"name":"BAHADIRLI MAH.","zip":"42770"},{"name":"BEŞKARDEŞ MAH.","zip":"42770"},{"name":"BOZAN MAH.","zip":"42770"},{"name":"BURUNAĞIL MAH.","zip":"42770"},{"name":"CAMİKEBİR MAH.","zip":"42770"},{"name":"CANIMANA MAH.","zip":"42770"},{"name":"CELEP MAH.","zip":"42770"},{"name":"CUMHURİYET MAH.","zip":"42770"},{"name":"DEĞİRMENÖZÜ MAH.","zip":"42770"},{"name":"DİNEK MAH.","zip":"42770"},{"name":"DİPDEDE MAH.","zip":"42770"},{"name":"DOĞUTEPE MAH.","zip":"42770"},{"name":"FATİH SULTAN MEHMET MAH.","zip":"42770"},{"name":"FEVZİYE MAH.","zip":"42770"},{"name":"GÖKLER MAH.","zip":"42770"},{"name":"GÜZELYAYLA MAH.","zip":"42770"},{"name":"HİSARKÖY MAH.","zip":"42770"},{"name":"KARACADAĞ MAH.","zip":"42770"},{"name":"KARACADERE MAH.","zip":"42770"},{"name":"KARAPINAR MAH.","zip":"42770"},{"name":"KARŞIYAKA MAH.","zip":"42770"},{"name":"KEMALİYE MAH.","zip":"42770"},{"name":"KIRKKUYU MAH.","zip":"42770"},{"name":"KIRKPINAR MAH.","zip":"42770"},{"name":"KOZANLI MAH.","zip":"42770"},{"name":"KÖMÜŞİNİ MAH.","zip":"42770"},{"name":"KÖSTENGİL MAH.","zip":"42770"},{"name":"KÖŞKER MAH.","zip":"42770"},{"name":"ÖMERANLI MAH.","zip":"42770"},{"name":"SARIYAYLA MAH.","zip":"42770"},{"name":"SEYİTAHMETLİ MAH.","zip":"42770"},{"name":"SOĞUKKUYU MAH.","zip":"42770"},{"name":"ŞEREFLİ MAH.","zip":"42770"},{"name":"TAVLIÖREN MAH.","zip":"42770"},{"name":"TUZYAKA MAH.","zip":"42770"},{"name":"YARAŞLI MAH.","zip":"42770"},{"name":"YAZIÇAYIR MAH.","zip":"42770"},{"name":"YENİ MAH.","zip":"42770"},{"name":"YEŞİLTEPE MAH.","zip":"42770"},{"name":"YEŞİLYURT MAH.","zip":"42770"},{"name":"ZİNCİRLİKUYU MAH.","zip":"42770"}]},{"name":"ALAADDİN","cityName":null,"quarters":[{"name":"AKSİNNE MAH.","zip":"42040"},{"name":"ÇAYBAŞI MAH.","zip":"42040"},{"name":"HACI FETTAH MAH.","zip":"42040"},{"name":"MAMURİYE MAH.","zip":"42040"},{"name":"ÖĞRETMENEVLERİ MAH.","zip":"42040"},{"name":"PİREBİ MAH.","zip":"42040"},{"name":"SAADET MAH.","zip":"42040"},{"name":"SAHİBİATA MAH.","zip":"42040"},{"name":"ŞEYH SADRETTİN MAH.","zip":"42040"},{"name":"ŞÜKRAN MAH.","zip":"42040"}]},{"name":"LALEBAHÇE","cityName":null,"quarters":[{"name":"ALİ ULVİ KURUCU MAH.","zip":"42140"},{"name":"BEYBES MAH.","zip":"42140"},{"name":"BORUKTOLU MAH.","zip":"42140"},{"name":"BOYALI MAH.","zip":"42140"},{"name":"ÇANDIR MAH.","zip":"42140"},{"name":"ÇARIKLAR FATİH MAH.","zip":"42140"},{"name":"ÇAYIRBAĞI MAH.","zip":"42140"},{"name":"ÇOMAKLAR MAH.","zip":"42140"},{"name":"ÇOMAKLI MAH.","zip":"42140"},{"name":"DURUNDAY MAH.","zip":"42140"},{"name":"GÖDENE MAH.","zip":"42140"},{"name":"GÜLBAHÇE MAH.","zip":"42140"},{"name":"HATIP MAH.","zip":"42140"},{"name":"KARADİĞİN MAH.","zip":"42140"},{"name":"KARAHÜYÜK MAH.","zip":"42140"},{"name":"KAŞINHANI YENİ MAH.","zip":"42140"},{"name":"KAŞINHANIİSTASYON MAH.","zip":"42140"},{"name":"KOZAĞAÇ MAH.","zip":"42140"},{"name":"LALEBAHÇE MAH.","zip":"42140"},{"name":"OSMAN GAZİ MAH.","zip":"42140"},{"name":"PAMUKCU MAH.","zip":"42140"},{"name":"SELVER MAH.","zip":"42140"},{"name":"TOPRAK SARNIÇ MAH.","zip":"42140"},{"name":"YENİBAHÇE MAH.","zip":"42140"},{"name":"YORGANCI MAH.","zip":"42140"}]},{"name":"MERAM","cityName":null,"quarters":[{"name":"ARMAĞAN MAH.","zip":"42090"},{"name":"AŞKAN MAH.","zip":"42090"},{"name":"ATEŞBAZ-I VELİ MAH.","zip":"42090"},{"name":"AYANBEY MAH.","zip":"42090"},{"name":"BAYAT MAH.","zip":"42090"},{"name":"BOTSA MAH.","zip":"42090"},{"name":"ÇUKURÇİMEN MAH.","zip":"42090"},{"name":"DEDEKORKUT MAH.","zip":"42090"},{"name":"DERE AŞIKLAR MAH.","zip":"42090"},{"name":"DERECAMİKEBİR MAH.","zip":"42090"},{"name":"ERENKAYA MAH.","zip":"42090"},{"name":"EVLİYATEKKE MAH.","zip":"42090"},{"name":"GÖKYURT MAH.","zip":"42090"},{"name":"HACIŞABAN MAH.","zip":"42090"},{"name":"HASANŞEYH MAH.","zip":"42090"},{"name":"HATUNSARAY MAH.","zip":"42090"},{"name":"HAVZAN MAH.","zip":"42090"},{"name":"İKİPINAR MAH.","zip":"42090"},{"name":"İLYASBABA MAH.","zip":"42090"},{"name":"İNLİCE MAH.","zip":"42090"},{"name":"KARAAĞAÇ MAH.","zip":"42090"},{"name":"KARADİĞİNDERESİ MAH.","zip":"42090"},{"name":"KAVAK MAH.","zip":"42090"},{"name":"KAYADİBİ MAH.","zip":"42090"},{"name":"KAYALI MAH.","zip":"42090"},{"name":"KAYIHÜYÜK MAH.","zip":"42090"},{"name":"KIZILÖREN MAH.","zip":"42090"},{"name":"KİRAZLI MAH.","zip":"42090"},{"name":"KÖYCEĞİZ MAH.","zip":"42090"},{"name":"KUMRALI MAH.","zip":"42090"},{"name":"KÜRDEN MAH.","zip":"42090"},{"name":"MELİKŞAH MAH.","zip":"42090"},{"name":"NECİP FAZIL MAH.","zip":"42090"},{"name":"SADIKLAR MAH.","zip":"42090"},{"name":"SAĞLIK MAH.","zip":"42090"},{"name":"SARIKIZ MAH.","zip":"42090"},{"name":"SEFAKÖY MAH.","zip":"42090"},{"name":"SELAM MAH.","zip":"42090"},{"name":"SÜLEYMAN ŞAH MAH.","zip":"42090"},{"name":"YAKA MAH.","zip":"42090"},{"name":"YATAĞAN MAH.","zip":"42090"},{"name":"YEŞİLDERE MAH.","zip":"42090"},{"name":"YEŞİLTEKKE MAH.","zip":"42090"},{"name":"YUNUS EMRE MAH.","zip":"42090"}]},{"name":"TAŞCAMİ","cityName":null,"quarters":[{"name":"ARİFBİLGE MAH.","zip":"42010"},{"name":"BATI HADİMİ MAH.","zip":"42010"},{"name":"BÜYÜK KOVANAĞZI MAH.","zip":"42010"},{"name":"BÜYÜKAYMANAS MAH.","zip":"42010"},{"name":"DOĞUHADİMİ MAH.","zip":"42010"},{"name":"DR.ZİYA BARLAS MAH.","zip":"42010"},{"name":"EKMEKKOÇU MAH.","zip":"42010"},{"name":"FAHRÜNNİSA MAH.","zip":"42010"},{"name":"GAZANFER MAH.","zip":"42010"},{"name":"HACI İSA EFENDİ MAH.","zip":"42010"},{"name":"HARMANCIK MAH.","zip":"42010"},{"name":"HASANKÖY MAH.","zip":"42010"},{"name":"KALFALAR MAH.","zip":"42010"},{"name":"KARAASLAN AYBAHÇE MAH.","zip":"42010"},{"name":"KURTULUŞ MAH.","zip":"42010"},{"name":"KÜÇÜK AYMANAS MAH.","zip":"42010"},{"name":"KÜÇÜK KOVANAĞZI MAH.","zip":"42010"},{"name":"LADİKLİ MAH.","zip":"42010"},{"name":"LORAS MAH.","zip":"42010"},{"name":"MEHMET VEHBİ MAH.","zip":"42010"},{"name":"MURADİYE MAH.","zip":"42010"},{"name":"TELAFER MAH.","zip":"42010"},{"name":"TIRILIRMAK MAH.","zip":"42010"},{"name":"TURGUT REİS MAH.","zip":"42010"},{"name":"ULUIRMAK ALİ HOCA MAH.","zip":"42010"},{"name":"ULUIRMAK SAKA MAH.","zip":"42010"},{"name":"UZUNHARMANLAR MAH.","zip":"42010"},{"name":"YAYLAPINAR KAŞ MAH.","zip":"42010"},{"name":"YAYLAPINAR SÜLEYMANİYE MAH.","zip":"42010"},{"name":"YAYLAPINAR UHUD MAH.","zip":"42010"},{"name":"YENİCE MAH.","zip":"42010"},{"name":"ZAFER MAH.","zip":"42010"}]},{"name":"SARAYÖNÜ","cityName":null,"quarters":[{"name":"BAŞHÜYÜK MAH.","zip":"42430"},{"name":"BATI İSTASYON MAH.","zip":"42430"},{"name":"BOYALI MAH.","zip":"42430"},{"name":"BÜYÜKZENGİ MAH.","zip":"42430"},{"name":"ÇEŞMELİSEBİL MAH.","zip":"42430"},{"name":"DEĞİRMENLİ MAH.","zip":"42430"},{"name":"DOĞU İSTASYON MAH.","zip":"42430"},{"name":"ERTUĞRUL MAH.","zip":"42430"},{"name":"FATİH MAH.","zip":"42430"},{"name":"GÖZLÜ MAH.","zip":"42430"},{"name":"HATİP MAH.","zip":"42430"},{"name":"İNLİ MAH.","zip":"42430"},{"name":"KADIOĞLU MAH.","zip":"42430"},{"name":"KARABIYIK MAH.","zip":"42430"},{"name":"KARATEPE MAH.","zip":"42430"},{"name":"KAYIÖREN MAH.","zip":"42430"},{"name":"KONAR MAH.","zip":"42430"},{"name":"KURŞUNLU MAH.","zip":"42430"},{"name":"KUYULUSEBİL MAH.","zip":"42430"},{"name":"LADİK MAH.","zip":"42430"},{"name":"ÖZKENT MAH.","zip":"42430"},{"name":"SARAÇ MAH.","zip":"42430"},{"name":"SELİMİYE MAH.","zip":"42430"},{"name":"YENİCEKAYA MAH.","zip":"42430"},{"name":"YUKARI MAH.","zip":"42430"}]},{"name":"AYDINLIK","cityName":null,"quarters":[{"name":"AYDINLIKEVLER MAH.","zip":"42100"},{"name":"BEDİR MAH.","zip":"42100"},{"name":"ERENKÖY MAH.","zip":"42100"},{"name":"HÜSAMETTİN ÇELEBİ MAH.","zip":"42100"},{"name":"KÜÇÜKMUHSİNE MAH.","zip":"42100"},{"name":"MEHMET AKİF MAH.","zip":"42100"},{"name":"SAKARYA MAH.","zip":"42100"},{"name":"SİLLE AK MAH.","zip":"42100"},{"name":"SULUTAS MAH.","zip":"42100"}]},{"name":"BOSNA","cityName":null,"quarters":[{"name":"BOSNA HERSEK MAH.","zip":"42250"},{"name":"BÜYÜKKAYACIK MAH.","zip":"42250"},{"name":"BÜYÜKKAYACIKOSB MAH.","zip":"42250"},{"name":"DOKUZ MAH.","zip":"42250"},{"name":"KOSOVA MAH.","zip":"42250"},{"name":"SANCAK MAH.","zip":"42250"},{"name":"TÖMEK MAH.","zip":"42250"},{"name":"YUKARIPINARBAŞI MAH.","zip":"42250"}]},{"name":"CUMHURİYET","cityName":null,"quarters":[{"name":"BUHARA MAH.","zip":"42070"},{"name":"CUMHURİYET MAH.","zip":"42070"},{"name":"DUMLUPINAR MAH.","zip":"42070"},{"name":"MALAZGİRT MAH.","zip":"42070"},{"name":"ŞEYH ŞAMİL MAH.","zip":"42070"}]},{"name":"FATİH","cityName":null,"quarters":[{"name":"FERİTPAŞA MAH.","zip":"42110"},{"name":"IŞIKLAR MAH.","zip":"42110"},{"name":"MUSALLA BAĞLARI MAH.","zip":"42110"}]},{"name":"HOROZLUHAN","cityName":null,"quarters":[{"name":"HOROZLUHANOSB MAH.","zip":"42120"}]},{"name":"MİMARSİNAN","cityName":null,"quarters":[{"name":"ESENLER MAH.","zip":"42080"},{"name":"HACIKAYMAK MAH.","zip":"42080"},{"name":"HANAYBAŞI MAH.","zip":"42080"},{"name":"HOCACİHAN MAH.","zip":"42080"},{"name":"KILINÇARSLAN MAH.","zip":"42080"},{"name":"SARAYKÖY MAH.","zip":"42080"},{"name":"SELÇUK MAH.","zip":"42080"},{"name":"SİLLE MAH.","zip":"42080"},{"name":"ŞEKER MAH.","zip":"42080"}]},{"name":"NALÇACI","cityName":null,"quarters":[{"name":"İHSANİYE MAH.","zip":"42060"},{"name":"NİŞANTAŞ MAH.","zip":"42060"}]},{"name":"SELÇUKLU","cityName":null,"quarters":[{"name":"BAĞRIKURT MAH.","zip":"42280"},{"name":"BAŞARAKAVAK MAH.","zip":"42280"},{"name":"BİÇER MAH.","zip":"42280"},{"name":"ÇALDERE MAH.","zip":"42280"},{"name":"ÇALTI MAH.","zip":"42280"},{"name":"ÇANDIR MAH.","zip":"42280"},{"name":"DAĞDERE MAH.","zip":"42280"},{"name":"EĞRİBAYAT MAH.","zip":"42280"},{"name":"GÜVENÇ MAH.","zip":"42280"},{"name":"KALEKÖY MAH.","zip":"42280"},{"name":"KARAÖMERLER MAH.","zip":"42280"},{"name":"KERVAN MAH.","zip":"42280"},{"name":"KINIK MAH.","zip":"42280"},{"name":"KIZILCAKUYU MAH.","zip":"42280"},{"name":"MEYDANKÖY MAH.","zip":"42280"},{"name":"SALAHATTİN MAH.","zip":"42280"},{"name":"SARICALAR MAH.","zip":"42280"},{"name":"SIZMA MAH.","zip":"42280"},{"name":"TEPEKENT MAH.","zip":"42280"},{"name":"ULUMUHSİNE MAH.","zip":"42280"},{"name":"YAZIBELEN MAH.","zip":"42280"},{"name":"YÜKSELEN MAH.","zip":"42280"}]},{"name":"YAZIR","cityName":null,"quarters":[{"name":"ARDIÇLI MAH.","zip":"42130"},{"name":"BEYHEKİM MAH.","zip":"42130"},{"name":"PARSANA MAH.","zip":"42130"},{"name":"SELAHADDİNİ EYYUBİ MAH.","zip":"42130"},{"name":"TATKÖY MAH.","zip":"42130"},{"name":"YAZIR MAH.","zip":"42130"}]},{"name":"SEYDISEHIR","cityName":null,"quarters":[{"name":"AKTAŞ MAH.","zip":"42002"},{"name":"ALAYLAR BİR MAH.","zip":"42002"},{"name":"ALAYLAR İKİ MAH.","zip":"42002"},{"name":"ANABAĞLAR MAH.","zip":"42002"},{"name":"AŞAĞIKARAÖREN MAH.","zip":"42002"},{"name":"BAHÇELİEVLER MAH.","zip":"42002"},{"name":"BAŞKARAÖREN MAH.","zip":"42002"},{"name":"BOSTANDERE MAH.","zip":"42002"},{"name":"BOYALI MAH.","zip":"42002"},{"name":"BÜKÇE MAH.","zip":"42002"},{"name":"ÇAT MAH.","zip":"42002"},{"name":"ÇATMAKAYA MAH.","zip":"42002"},{"name":"ÇAVUŞ MAH.","zip":"42002"},{"name":"DEĞİRMENCİ MAH.","zip":"42002"},{"name":"DİKİLİTAŞ MAH.","zip":"42002"},{"name":"GEVREKLİ MAH.","zip":"42002"},{"name":"GÖKÇEHÜYÜK MAH.","zip":"42002"},{"name":"GÖKHÜYÜK MAH.","zip":"42002"},{"name":"GÖLYÜZÜ MAH.","zip":"42002"},{"name":"HACISEYİTALİ MAH.","zip":"42002"},{"name":"IRMAKLI MAH.","zip":"42002"},{"name":"İNCESU MAH.","zip":"42002"},{"name":"KARABULAK MAH.","zip":"42002"},{"name":"KARACAÖREN MAH.","zip":"42002"},{"name":"KARAKAVAK MAH.","zip":"42002"},{"name":"KAVAK MAH.","zip":"42002"},{"name":"KESECİK MAH.","zip":"42002"},{"name":"KETENLİ MAH.","zip":"42002"},{"name":"KIZILCA MAH.","zip":"42002"},{"name":"KIZILCALAR MAH.","zip":"42002"},{"name":"KOZLU MAH.","zip":"42002"},{"name":"KUMLUCA MAH.","zip":"42002"},{"name":"KURAN MAH.","zip":"42002"},{"name":"MADENLİ MAH.","zip":"42002"},{"name":"MESUDİYE MAH.","zip":"42002"},{"name":"MURADİYE MAH.","zip":"42002"},{"name":"OĞLAKÇI MAH.","zip":"42002"},{"name":"ORTAKARAÖREN MAH.","zip":"42002"},{"name":"PINARBAŞI MAH.","zip":"42002"},{"name":"SAADETLER MAH.","zip":"42002"},{"name":"SARAYCIK MAH.","zip":"42002"},{"name":"SEYDİŞEHİR OSB MAH.","zip":"42002"},{"name":"SEYİTHARUN MAH.","zip":"42002"},{"name":"SOFUHANE MAH.","zip":"42002"},{"name":"STAT MAH.","zip":"42002"},{"name":"SUSUZ MAH.","zip":"42002"},{"name":"TARAŞCI MAH.","zip":"42002"},{"name":"TAŞAĞIL MAH.","zip":"42002"},{"name":"TEPECİK MAH.","zip":"42002"},{"name":"TOL MAH.","zip":"42002"},{"name":"UFACIK MAH.","zip":"42002"},{"name":"ULUKAPI MAH.","zip":"42002"},{"name":"YAYLACIK MAH.","zip":"42002"},{"name":"YENİCAMİ MAH.","zip":"42002"},{"name":"YENİCE MAH.","zip":"42002"}]},{"name":"TAŞKENT","cityName":null,"quarters":[{"name":"AFŞAR YUKARI MAH.","zip":"42960"},{"name":"BALCILAR ORTA MAH.","zip":"42960"},{"name":"BALCILAR VELİLER MAH.","zip":"42960"},{"name":"BALCILAR YUKARI MAH.","zip":"42960"},{"name":"BEKTAŞ MAH.","zip":"42960"},{"name":"BOLAY MAH.","zip":"42960"},{"name":"ÇETMİ CÖMEŞPINAR MAH.","zip":"42960"},{"name":"ÇETMİ YENİ MAH.","zip":"42960"},{"name":"HIRA MAH.","zip":"42960"},{"name":"ILICAPINAR MAH.","zip":"42960"},{"name":"KECİMEN MAH.","zip":"42960"},{"name":"KONGUL MAH.","zip":"42960"},{"name":"SAZAK MAH.","zip":"42960"},{"name":"ŞIHLAR MAH.","zip":"42960"}]},{"name":"TUZLUKÇU","cityName":null,"quarters":[{"name":"ÇÖĞÜRLÜ MAH.","zip":"42970"},{"name":"ERDOĞDU MAH.","zip":"42970"},{"name":"GÜRSU MAH.","zip":"42970"},{"name":"KONARI MAH.","zip":"42970"},{"name":"KORAŞI MAH.","zip":"42970"},{"name":"KÖKLÜCE MAH.","zip":"42970"},{"name":"KUNDULLU MAH.","zip":"42970"},{"name":"MEVLÜTLÜ MAH.","zip":"42970"},{"name":"ORTA MAH.","zip":"42970"},{"name":"PAZAR MAH.","zip":"42970"},{"name":"PAZARKAYA MAH.","zip":"42970"},{"name":"SUBATAN MAH.","zip":"42970"},{"name":"TURSUNLU MAH.","zip":"42970"},{"name":"YUKARI MAH.","zip":"42970"}]},{"name":"YALIHÜYÜK","cityName":null,"quarters":[{"name":"AŞAĞI MAH.","zip":"42470"},{"name":"SARAYKÖY MAH.","zip":"42470"},{"name":"YUKARI MAH.","zip":"42470"}]},{"name":"YUNAK","cityName":null,"quarters":[{"name":"AYRITEPE MAH.","zip":"42530"},{"name":"BEŞIŞIKLI MAH.","zip":"42530"},{"name":"BÖĞRÜDELİK MAH.","zip":"42530"},{"name":"CEBRAİL MAH.","zip":"42530"},{"name":"ÇAYIRBAŞI MAH.","zip":"42530"},{"name":"EĞRİKUYU MAH.","zip":"42530"},{"name":"ESENTEPE MAH.","zip":"42530"},{"name":"EŞME MAH.","zip":"42530"},{"name":"FATİH MAH.","zip":"42530"},{"name":"HACIFAKILI MAH.","zip":"42530"},{"name":"HACIÖMEROĞLU MAH.","zip":"42530"},{"name":"HARUNLAR MAH.","zip":"42530"},{"name":"HATIRLI MAH.","zip":"42530"},{"name":"HURSUNLU MAH.","zip":"42530"},{"name":"İMAMOĞLU MAH.","zip":"42530"},{"name":"KARATAŞ MAH.","zip":"42530"},{"name":"KARAYAYLA MAH.","zip":"42530"},{"name":"KARGALI MAH.","zip":"42530"},{"name":"KILLAR MAH.","zip":"42530"},{"name":"KOÇYAZI MAH.","zip":"42530"},{"name":"KURTUŞAĞI MAH.","zip":"42530"},{"name":"KUYUBAŞI MAH.","zip":"42530"},{"name":"KUZÖREN MAH.","zip":"42530"},{"name":"MEŞELİK MAH.","zip":"42530"},{"name":"ODABAŞI MAH.","zip":"42530"},{"name":"ORTAKIŞLA MAH.","zip":"42530"},{"name":"ÖZYAYLA MAH.","zip":"42530"},{"name":"PİRİBEYLİ MAH.","zip":"42530"},{"name":"SARAY MAH.","zip":"42530"},{"name":"SELÇUK MAH.","zip":"42530"},{"name":"SERTLER MAH.","zip":"42530"},{"name":"SEVİNÇ MAH.","zip":"42530"},{"name":"SIRAM MAH.","zip":"42530"},{"name":"SİNANLI MAH.","zip":"42530"},{"name":"SÜLÜKLÜ MAH.","zip":"42530"},{"name":"TURGUT MAH.","zip":"42530"},{"name":"YAVAŞLI MAH.","zip":"42530"},{"name":"YENİ MAH.","zip":"42530"},{"name":"YEŞİLOBA MAH.","zip":"42530"},{"name":"YEŞİLYAYLA MAH.","zip":"42530"},{"name":"YIĞAR MAH.","zip":"42530"}]}]}]}