{"id":43,"name":"KÜTAHYA","cities":[{"name":"city","districts":[{"name":"ALTINTAŞ","cityName":null,"quarters":[{"name":"HÜRRİYET MAH.","zip":"43800"},{"name":"İSTİKLAL MAH.","zip":"43800"},{"name":"YENİ MAH.","zip":"43800"},{"name":"ZAFER MAH.","zip":"43800"},{"name":"ZAFERTEPEÇALKÖY KÖYÜ","zip":"43800"}]},{"name":"MERKEZKÖYLER","cityName":null,"quarters":[{"name":"ALINCIK KÖYÜ","zip":"43802"},{"name":"ALİBEY KÖYÜ","zip":"43802"},{"name":"ALTINTAŞ KÖYÜ","zip":"43802"},{"name":"AŞAĞI MAH.","zip":"43802"},{"name":"AYDINLAR KÖYÜ","zip":"43802"},{"name":"AYKIRIKÇI KÖYÜ","zip":"43802"},{"name":"BEŞKARIŞ KÖYÜ","zip":"43802"},{"name":"ÇAKIRSAZ KÖYÜ","zip":"43802"},{"name":"ERENKÖY KÖYÜ","zip":"43802"},{"name":"EYMİR KÖYÜ","zip":"43802"},{"name":"GECEK KÖYÜ","zip":"43802"},{"name":"GENİŞLER KÖYÜ","zip":"43802"},{"name":"GÖKÇELER KÖYÜ","zip":"43802"},{"name":"IŞIKLAR KÖYÜ","zip":"43802"},{"name":"KARAAĞAÇ KÖYÜ","zip":"43802"},{"name":"KUYUCAK KÖYÜ","zip":"43802"},{"name":"MECİDİYE KÖYÜ","zip":"43802"},{"name":"MURATHANLAR KÖYÜ","zip":"43802"},{"name":"OSMANİYE KÖYÜ","zip":"43802"},{"name":"OYSU KÖYÜ","zip":"43802"},{"name":"PINARCIK KÖYÜ","zip":"43802"},{"name":"PUSAN KÖYÜ","zip":"43802"},{"name":"SADIKKIRI KÖYÜ","zip":"43802"},{"name":"SARAYCIK KÖYÜ","zip":"43802"},{"name":"SEVDİĞİN KÖYÜ","zip":"43802"},{"name":"ŞANLIYURT KÖYÜ","zip":"43802"},{"name":"ÜÇHÜYÜK KÖYÜ","zip":"43802"},{"name":"YALNIZSARAY KÖYÜ","zip":"43802"},{"name":"YAPILCAN KÖYÜ","zip":"43802"},{"name":"YAYLA KÖYÜ","zip":"43802"},{"name":"YENİKARAAĞAÇ KÖYÜ","zip":"43802"},{"name":"YEŞİLYURT KÖYÜ","zip":"43802"},{"name":"YOLÇATI KÖYÜ","zip":"43802"},{"name":"YUKARI MAH.","zip":"43802"}]},{"name":"ASLANAPA","cityName":null,"quarters":[{"name":"HÜRRİYET MAH.","zip":"43210"},{"name":"PINARBAŞI MAH.","zip":"43210"},{"name":"YALNIZSARAY MAH.","zip":"43210"}]},{"name":"MERKEZKÖYLER","cityName":null,"quarters":[{"name":"ADA KÖYÜ","zip":"43212"},{"name":"AHMET ÇAVUŞLAR MAH.","zip":"43212"},{"name":"ALTINTAŞ MAH.","zip":"43212"},{"name":"ASLIHANLAR KÖYÜ","zip":"43212"},{"name":"BALLIBABA KÖYÜ","zip":"43212"},{"name":"BAYAT KÖYÜ","zip":"43212"},{"name":"BAYRAMŞAH KÖYÜ","zip":"43212"},{"name":"BEZİRGAN KÖYÜ","zip":"43212"},{"name":"ÇAKMAK KÖYÜ","zip":"43212"},{"name":"ÇAL KÖYÜ","zip":"43212"},{"name":"ÇALKÖY YAYLASI MAH.","zip":"43212"},{"name":"ÇAMDİBİ KÖYÜ","zip":"43212"},{"name":"ÇAMIRDIK KÖYÜ","zip":"43212"},{"name":"ÇÖMLEKÇİ KÖYÜ","zip":"43212"},{"name":"ÇUKURCA KÖYÜ","zip":"43212"},{"name":"DERE KÖYÜ","zip":"43212"},{"name":"EMREZ KÖYÜ","zip":"43212"},{"name":"ESEN KÖYÜ","zip":"43212"},{"name":"GÖLBAŞI KÖYÜ","zip":"43212"},{"name":"GÖYNÜKÖREN KÖYÜ","zip":"43212"},{"name":"HARLEK YAYLASI MAH.","zip":"43212"},{"name":"HAYDARLAR KÖYÜ","zip":"43212"},{"name":"KARADİĞİN KÖYÜ","zip":"43212"},{"name":"KARAKAYA MAH.","zip":"43212"},{"name":"KETENOVA MAH.","zip":"43212"},{"name":"KOCA OLUK MAH.","zip":"43212"},{"name":"KUREYŞLER KÖYÜ","zip":"43212"},{"name":"KÜMBET MAH.","zip":"43212"},{"name":"MEVLANA MAH.","zip":"43212"},{"name":"MUSA KÖYÜ","zip":"43212"},{"name":"NUHÖREN KÖYÜ","zip":"43212"},{"name":"ORTACA KÖYÜ","zip":"43212"},{"name":"OSMAN ÇAVUŞLAR MAH.","zip":"43212"},{"name":"ÖREN KÖYÜ","zip":"43212"},{"name":"PAZARCIK KÖYÜ","zip":"43212"},{"name":"SARAY KÖYÜ","zip":"43212"},{"name":"ŞENİŞLER KÖYÜ","zip":"43212"},{"name":"ŞENİŞLER KÖYÜ KETENOVA YAYLASI MAH.","zip":"43212"},{"name":"TERZİLER KÖYÜ","zip":"43212"},{"name":"TOKUL KÖYÜ","zip":"43212"},{"name":"YAĞCILAR KÖYÜ","zip":"43212"},{"name":"YUNUS EMRE MAH.","zip":"43212"}]},{"name":"ÇAVDARHİSAR","cityName":null,"quarters":[{"name":"KEMALLER MAH.","zip":"43710"},{"name":"MEYDAN MAH.","zip":"43710"},{"name":"YUKARI MAH.","zip":"43710"}]},{"name":"MERKEZKÖYLER","cityName":null,"quarters":[{"name":"AĞARI KÖYÜ","zip":"43712"},{"name":"AKPINAR KÖYÜ","zip":"43712"},{"name":"BARAĞI KÖYÜ","zip":"43712"},{"name":"CAMİİ KEBİR MAH.","zip":"43712"},{"name":"ÇAMKÖY KÖYÜ","zip":"43712"},{"name":"ÇATKÖY KÖYÜ","zip":"43712"},{"name":"DEMİROLUK KÖYÜ","zip":"43712"},{"name":"DOĞANCILAR KÖYÜ","zip":"43712"},{"name":"EFELER KÖYÜ","zip":"43712"},{"name":"EFENDİKÖPRÜSÜ KÖYÜ","zip":"43712"},{"name":"ESENTEPE MAH.","zip":"43712"},{"name":"GÖKAĞAÇ KÖYÜ","zip":"43712"},{"name":"GÖKLER KÖYÜ","zip":"43712"},{"name":"HACIKEBİR KÖYÜ","zip":"43712"},{"name":"HACIMAHMUT KÖYÜ","zip":"43712"},{"name":"İLCİKÖREN KÖYÜ","zip":"43712"},{"name":"KIZIK KÖYÜ","zip":"43712"},{"name":"PUSATLAR KÖYÜ","zip":"43712"},{"name":"SUSUZKAYA KÖYÜ","zip":"43712"},{"name":"TEPECİK KÖYÜ","zip":"43712"},{"name":"YAĞDIĞIN KÖYÜ","zip":"43712"},{"name":"YENİCEARMUTCUK KÖYÜ","zip":"43712"},{"name":"YEŞİLDERE KÖYÜ","zip":"43712"},{"name":"ZOBU KÖYÜ","zip":"43712"}]},{"name":"DOMANİÇ","cityName":null,"quarters":[{"name":"HASANTEPE MAH.","zip":"43850"},{"name":"HİSAR MAH.","zip":"43850"},{"name":"KARŞIYAKA MAH.","zip":"43850"}]},{"name":"MERKEZKÖYLER","cityName":null,"quarters":[{"name":"AKSU KÖYÜ","zip":"43852"},{"name":"BAHÇELİEVLER MAH.","zip":"43852"},{"name":"BERÇİN KÖYÜ","zip":"43852"},{"name":"BÖÇEN KÖYÜ","zip":"43852"},{"name":"BÜKERLER KÖYÜ","zip":"43852"},{"name":"CUMHURİYET MAH.","zip":"43852"},{"name":"ÇAKILKÖY KÖYÜ","zip":"43852"},{"name":"ÇAMLICA KÖYÜ","zip":"43852"},{"name":"ÇARŞAMBA KÖYÜ","zip":"43852"},{"name":"ÇİFTLİKKÖY KÖYÜ","zip":"43852"},{"name":"ÇOKKÖY KÖYÜ","zip":"43852"},{"name":"ÇUKURCA KÖYÜ","zip":"43852"},{"name":"DOMUR KÖYÜ","zip":"43852"},{"name":"DURABEY KÖYÜ","zip":"43852"},{"name":"ERİKLİ KÖYÜ","zip":"43852"},{"name":"FINDICAK KÖYÜ","zip":"43852"},{"name":"FIRANLAR KÖYÜ","zip":"43852"},{"name":"GÖÇEMEN MAH.","zip":"43852"},{"name":"GÜNEY KÖYÜ","zip":"43852"},{"name":"ILICAKSU MAH.","zip":"43852"},{"name":"KARABURUN MAH.","zip":"43852"},{"name":"KARAKÖY KÖYÜ","zip":"43852"},{"name":"KARAMANLAR KÖYÜ","zip":"43852"},{"name":"KIRIK KÖYÜ","zip":"43852"},{"name":"KOZCAĞIZ KÖYÜ","zip":"43852"},{"name":"KOZCAĞIZ MAH.","zip":"43852"},{"name":"KOZLUCA KÖYÜ","zip":"43852"},{"name":"KÜÇÜKKÖY KÖYÜ","zip":"43852"},{"name":"KÜÇÜKLER MAH.","zip":"43852"},{"name":"MUHACİRLER KÖYÜ","zip":"43852"},{"name":"MURATLI KÖYÜ","zip":"43852"},{"name":"ORTACA KÖYÜ","zip":"43852"},{"name":"OSMANLI MAH.","zip":"43852"},{"name":"SAFA KÖYÜ","zip":"43852"},{"name":"SAKIZLIK MAH.","zip":"43852"},{"name":"SARIOT KÖYÜ","zip":"43852"},{"name":"SARUHANLAR KÖYÜ","zip":"43852"},{"name":"SEYDİKUZU KÖYÜ","zip":"43852"},{"name":"SOĞUCAK KÖYÜ","zip":"43852"},{"name":"TIRAZ KÖYÜ","zip":"43852"},{"name":"ÜSTÜBEŞ MAH.","zip":"43852"},{"name":"YEŞİLKÖY KÖYÜ","zip":"43852"}]},{"name":"DUMLUPINAR","cityName":null,"quarters":[{"name":"CUMHURİYET MAH.","zip":"43820"},{"name":"TURGUT ÖZAL MAH.","zip":"43820"},{"name":"ZAFER MAH.","zip":"43820"}]},{"name":"MERKEZKÖYLER","cityName":null,"quarters":[{"name":"ALLIÖREN KÖYÜ","zip":"43822"},{"name":"ARPALI KÖYÜ","zip":"43822"},{"name":"BÜYÜKASLIHANLAR KÖYÜ","zip":"43822"},{"name":"EYİDEMİR KÖYÜ","zip":"43822"},{"name":"HAMUR KÖYÜ","zip":"43822"},{"name":"KIZILCA KÖYÜ","zip":"43822"},{"name":"KÜÇÜKASLIHANLAR KÖYÜ","zip":"43822"},{"name":"SELKİSARAY KÖYÜ","zip":"43822"},{"name":"YÜYLÜK KÖYÜ","zip":"43822"}]},{"name":"EMET","cityName":null,"quarters":[{"name":"CUMHURİYET MAH.","zip":"43700"},{"name":"DERE MAH.","zip":"43700"},{"name":"ESENTEPE MAH.","zip":"43700"},{"name":"HAMAM MAH.","zip":"43700"},{"name":"KAPAKLICA MAH.","zip":"43700"},{"name":"KAYNARCA MAH.","zip":"43700"}]},{"name":"MERKEZKÖYLER","cityName":null,"quarters":[{"name":"ALİPAŞA MAH.","zip":"43702"},{"name":"AYDINCIK KÖYÜ","zip":"43702"},{"name":"BAHATLAR KÖYÜ","zip":"43702"},{"name":"CUMHURİYET MAH.","zip":"43702"},{"name":"ÇALCAĞIL MAH.","zip":"43702"},{"name":"ÇAMLICA MAH.","zip":"43702"},{"name":"ÇARŞI MAH.","zip":"43702"},{"name":"ÇERTE KÖYÜ","zip":"43702"},{"name":"ÇİMENLİ MAH.","zip":"43702"},{"name":"ÇİMENLİK MAH.","zip":"43702"},{"name":"DERELİ KÖYÜ","zip":"43702"},{"name":"DOĞANLAR KÖYÜ","zip":"43702"},{"name":"DÜŞECEK KÖYÜ","zip":"43702"},{"name":"EĞRİGÖZ KÖYÜ","zip":"43702"},{"name":"ESATLAR KÖYÜ","zip":"43702"},{"name":"ESELER KÖYÜ","zip":"43702"},{"name":"FATİH MAH.","zip":"43702"},{"name":"GENCER MAH.","zip":"43702"},{"name":"GÖNCEK KÖYÜ","zip":"43702"},{"name":"GÜNLÜCE KÖYÜ","zip":"43702"},{"name":"GÜRPINAR KÖYÜ","zip":"43702"},{"name":"IŞIKLI KÖYÜ","zip":"43702"},{"name":"İĞDEKÖY KÖYÜ","zip":"43702"},{"name":"İKİBAŞLI KÖYÜ","zip":"43702"},{"name":"KABAKLAR KÖYÜ","zip":"43702"},{"name":"KALEHİSAR MAH.","zip":"43702"},{"name":"KALFALAR KÖYÜ","zip":"43702"},{"name":"KATRANDAĞI KÖYÜ","zip":"43702"},{"name":"KAYI KÖYÜ","zip":"43702"},{"name":"KIRGIL KÖYÜ","zip":"43702"},{"name":"KONUŞ KÖYÜ","zip":"43702"},{"name":"KÖPRÜCEK KÖYÜ","zip":"43702"},{"name":"KÜRECİ KÖYÜ","zip":"43702"},{"name":"MERKEZ MAH.","zip":"43702"},{"name":"MEYDAN MAH.","zip":"43702"},{"name":"MUSALAR KÖYÜ","zip":"43702"},{"name":"ÖMERFAKI KÖYÜ","zip":"43702"},{"name":"ÖRENCİK KÖYÜ","zip":"43702"},{"name":"ÖRÜCE MAH.","zip":"43702"},{"name":"SAMRIK KÖYÜ","zip":"43702"},{"name":"SARIAYAK KÖYÜ","zip":"43702"},{"name":"SUBAK KÖYÜ","zip":"43702"},{"name":"ŞEHİTLER MAH.","zip":"43702"},{"name":"UMUTLU KÖYÜ","zip":"43702"},{"name":"UZUNÇAM KÖYÜ","zip":"43702"},{"name":"YAĞCIK KÖYÜ","zip":"43702"},{"name":"YARIŞ KÖYÜ","zip":"43702"},{"name":"YAYLAYOLU KÖYÜ","zip":"43702"},{"name":"YENİ MAH.","zip":"43702"},{"name":"YENİCE KÖYÜ","zip":"43702"},{"name":"YENİKÖY KÖYÜ","zip":"43702"},{"name":"YILDIRIM MAH.","zip":"43702"}]},{"name":"GEDİZ","cityName":null,"quarters":[{"name":"ERGENEKON MAH.","zip":"43600"},{"name":"GAZİKEMAL MAH.","zip":"43600"},{"name":"GEDİZOSB MAH.","zip":"43600"},{"name":"HACIBABA MAH.","zip":"43600"},{"name":"KIZILTEPE MAH.","zip":"43600"},{"name":"KUMTAŞ MAH.","zip":"43600"},{"name":"MUHİPLER MAH.","zip":"43600"},{"name":"ÖZYURT MAH.","zip":"43600"},{"name":"SALUR MAH.","zip":"43600"},{"name":"SAYGILAR MAH.","zip":"43600"},{"name":"ULUOYMAK MAH.","zip":"43600"},{"name":"UMURBEY MAH.","zip":"43600"}]},{"name":"MERKEZKÖYLER","cityName":null,"quarters":[{"name":"AKÇAALAN MAH.","zip":"43602"},{"name":"AKKAYA KÖYÜ","zip":"43602"},{"name":"AKSAKLAR KÖYÜ","zip":"43602"},{"name":"AKSAKLAR MAH.","zip":"43602"},{"name":"ALİAĞA KÖYÜ","zip":"43602"},{"name":"ALİKAHYA KÖYÜ","zip":"43602"},{"name":"ALTINKENT KÖYÜ","zip":"43602"},{"name":"ARICA KÖYÜ","zip":"43602"},{"name":"AŞIKPAŞA KÖYÜ","zip":"43602"},{"name":"ATATÜRK MAH.","zip":"43602"},{"name":"CAMİKEBİR MAH.","zip":"43602"},{"name":"CEBRAİL KÖYÜ","zip":"43602"},{"name":"ÇAMLIK MAH.","zip":"43602"},{"name":"ÇANDIR MAH.","zip":"43602"},{"name":"ÇAY MAH.","zip":"43602"},{"name":"ÇELTİKÇİ KÖYÜ","zip":"43602"},{"name":"ÇİFTLİK MAH.","zip":"43602"},{"name":"ÇİMENTEPE MAH.","zip":"43602"},{"name":"ÇOMAKLAR KÖYÜ","zip":"43602"},{"name":"ÇUKURÖREN KÖYÜ","zip":"43602"},{"name":"DEDEKÖY KÖYÜ","zip":"43602"},{"name":"DEĞİRMENKÖY KÖYÜ","zip":"43602"},{"name":"DELİAĞA MAH.","zip":"43602"},{"name":"DERE MAH.","zip":"43602"},{"name":"DEREKÖY KÖYÜ","zip":"43602"},{"name":"DÖRTDEĞİRMEN KÖYÜ","zip":"43602"},{"name":"ECE KÖYÜ","zip":"43602"},{"name":"ERDOĞMUŞ KÖYÜ","zip":"43602"},{"name":"ERGENEKON MAH.","zip":"43602"},{"name":"ESKİ MAH.","zip":"43602"},{"name":"ESKİGEDİZ KÖYÜ","zip":"43602"},{"name":"FATİH MAH.","zip":"43602"},{"name":"FATİH SULTAN MEHMET MAH.","zip":"43602"},{"name":"FIRDAN KÖYÜ","zip":"43602"},{"name":"GENÇLER MAH.","zip":"43602"},{"name":"GÖKLER KÖYÜ","zip":"43602"},{"name":"GÖLCÜK MAH.","zip":"43602"},{"name":"GÖYNÜK KÖYÜ","zip":"43602"},{"name":"GÖYNÜKÖREN KÖYÜ","zip":"43602"},{"name":"GÖYNÜKÖREN MAH.","zip":"43602"},{"name":"GÜMELE KÖYÜ","zip":"43602"},{"name":"GÜMÜŞLÜ KÖYÜ","zip":"43602"},{"name":"GÜNEY MAH.","zip":"43602"},{"name":"GÜRLEK KÖYÜ","zip":"43602"},{"name":"GÜRSU MAH.","zip":"43602"},{"name":"GÜZÜNGÜLÜ KÖYÜ","zip":"43602"},{"name":"HACI ZEYBEKLER MAH.","zip":"43602"},{"name":"HAMZABEY MAH.","zip":"43602"},{"name":"HANİFECİKLER MAH.","zip":"43602"},{"name":"HİSAR MAH.","zip":"43602"},{"name":"ILICASU KÖYÜ","zip":"43602"},{"name":"IŞIKLAR KÖYÜ","zip":"43602"},{"name":"İBRAHİMKAHYA MAH.","zip":"43602"},{"name":"İKİPINAR MAH.","zip":"43602"},{"name":"İNCESU MAH.","zip":"43602"},{"name":"İNCİKLER MAH.","zip":"43602"},{"name":"İSMETPAŞA MAH.","zip":"43602"},{"name":"KARAAĞAÇ KÖYÜ","zip":"43602"},{"name":"KARABACAKLAR KÖYÜ","zip":"43602"},{"name":"KARABACAKLAR KÖYÜ MAH.","zip":"43602"},{"name":"KAYA DÜZÜ MAH.","zip":"43602"},{"name":"KAYACIK KÖYÜ","zip":"43602"},{"name":"KAYAKÖY KÖYÜ","zip":"43602"},{"name":"KIRAN KÖY MAH.","zip":"43602"},{"name":"KIRAN KÖYÜ","zip":"43602"},{"name":"KÖPENEZ KÖYÜ","zip":"43602"},{"name":"KÖY MAH.","zip":"43602"},{"name":"KURTÇAM KÖYÜ","zip":"43602"},{"name":"KURTÇAM KÖYÜ MAH.","zip":"43602"},{"name":"KURTULUŞ MAH.","zip":"43602"},{"name":"KUZEY MAH.","zip":"43602"},{"name":"MANDIRA MAH.","zip":"43602"},{"name":"ORTA MAH.","zip":"43602"},{"name":"OVA MAH.","zip":"43602"},{"name":"ÖZYURT MAH.","zip":"43602"},{"name":"PARK MAH.","zip":"43602"},{"name":"PINARBAŞI KÖYÜ","zip":"43602"},{"name":"PULAT KÖYÜ","zip":"43602"},{"name":"SABIRGAZİ MAH.","zip":"43602"},{"name":"SAMRALAR KÖYÜ","zip":"43602"},{"name":"SANDIKLI KÖYÜ","zip":"43602"},{"name":"SARUHANLAR KÖYÜ","zip":"43602"},{"name":"SAZ KÖYÜ","zip":"43602"},{"name":"SAZ MAH.","zip":"43602"},{"name":"SAZAK KÖYÜ","zip":"43602"},{"name":"SOĞUKSU KÖYÜ","zip":"43602"},{"name":"SUMAKLI KÖYÜ","zip":"43602"},{"name":"TEPEPINAR KÖYÜ","zip":"43602"},{"name":"UĞURLUCA KÖYÜ","zip":"43602"},{"name":"ÜLKÜ MAH.","zip":"43602"},{"name":"ÜZÜMLÜ KÖYÜ","zip":"43602"},{"name":"VAKIF KÖYÜ","zip":"43602"},{"name":"YAĞMURLAR KÖYÜ","zip":"43602"},{"name":"YAVUZ MAH.","zip":"43602"},{"name":"YAYLAKÖY KÖYÜ","zip":"43602"},{"name":"YEĞİNLER KÖYÜ","zip":"43602"},{"name":"YELKİ KÖYÜ","zip":"43602"},{"name":"YENİ MAH.","zip":"43602"},{"name":"YENİGÜNEY KÖYÜ","zip":"43602"},{"name":"YENİKENT KÖYÜ","zip":"43602"},{"name":"YENİMAHALLE MAH.","zip":"43602"},{"name":"YEŞİLÇAY KÖYÜ","zip":"43602"},{"name":"YEŞİLOVA KÖYÜ","zip":"43602"},{"name":"YEŞİLOVA KÖYÜ MAH.","zip":"43602"},{"name":"YUKARIARICA MAH.","zip":"43602"},{"name":"YUKARISUSUZ KÖYÜ","zip":"43602"},{"name":"YUMRUTAŞ KÖYÜ","zip":"43602"},{"name":"YUNUSEMRE MAH.","zip":"43602"},{"name":"YUNUSLAR KÖYÜ","zip":"43602"}]},{"name":"HİSARCIK","cityName":null,"quarters":[{"name":"CUMHURİYET MAH.","zip":"43780"},{"name":"KARBASAN KÖYÜ","zip":"43780"},{"name":"KARŞIYAKA MAH.","zip":"43780"},{"name":"ŞEHİTLER MAH.","zip":"43780"},{"name":"YENİDOĞAN MAH.","zip":"43780"},{"name":"YEŞİLHİSAR MAH.","zip":"43780"}]},{"name":"MERKEZKÖYLER","cityName":null,"quarters":[{"name":"ALINÖREN KÖYÜ","zip":"43782"},{"name":"AŞAĞI BEYKÖY MAH.","zip":"43782"},{"name":"AŞAĞIYONCAAĞAÇ KÖYÜ","zip":"43782"},{"name":"BAHÇELİEVLER MAH.","zip":"43782"},{"name":"BAKILAR DAMLARI MAH.","zip":"43782"},{"name":"BEYKÖY KÖYÜ","zip":"43782"},{"name":"ÇATAK KÖYÜ","zip":"43782"},{"name":"DEREKÖY KÖYÜ","zip":"43782"},{"name":"EMİRSULTAN MAH.","zip":"43782"},{"name":"GAZİ MAH.","zip":"43782"},{"name":"GÜLDÜREN KÖYÜ","zip":"43782"},{"name":"HAKSIZHASAN MAH.","zip":"43782"},{"name":"HALİFELER KÖYÜ","zip":"43782"},{"name":"HAMAMKÖY KÖYÜ","zip":"43782"},{"name":"HASANLAR KÖYÜ","zip":"43782"},{"name":"HOCALAR KÖYÜ","zip":"43782"},{"name":"İNKAYA MAH.","zip":"43782"},{"name":"KARAAĞIL KÖYÜ","zip":"43782"},{"name":"KIZILÇUKUR KÖYÜ","zip":"43782"},{"name":"KURTDERE KÖYÜ","zip":"43782"},{"name":"KUTLUBEYLER KÖYÜ","zip":"43782"},{"name":"KUTLUHALLAR KÖYÜ","zip":"43782"},{"name":"ÖRENKÖY KÖYÜ","zip":"43782"},{"name":"SAKLAR KÖYÜ","zip":"43782"},{"name":"SEFAKÖY KÖYÜ","zip":"43782"},{"name":"ŞEYHÇAKIR KÖYÜ","zip":"43782"},{"name":"ŞEYHLER KÖYÜ","zip":"43782"},{"name":"TEKKE MAH.","zip":"43782"},{"name":"TOKAT KÖYÜ","zip":"43782"},{"name":"ULAŞLAR KÖYÜ","zip":"43782"},{"name":"YENİPINAR KÖYÜ","zip":"43782"},{"name":"YUKARIYONCAAĞAÇ KÖYÜ","zip":"43782"},{"name":"YUNUSEMRE MAH.","zip":"43782"}]},{"name":"ALİPAŞA","cityName":null,"quarters":[{"name":"CUMHURİYET MAH.","zip":"43020"},{"name":"DUMLUPINAR MAH.","zip":"43020"},{"name":"FATİH MAH.","zip":"43020"},{"name":"VEFA MAH.","zip":"43020"},{"name":"YENİDOĞAN MAH.","zip":"43020"},{"name":"YILDIRIM BEYAZIT MAH.","zip":"43020"},{"name":"YUNUSEMRE MAH.","zip":"43020"},{"name":"ZAFERTEPE MAH.","zip":"43020"}]},{"name":"BÖREKÇİLER","cityName":null,"quarters":[{"name":"BÖREKÇİLER MAH.","zip":"43050"},{"name":"CEMALETTİN MAH.","zip":"43050"},{"name":"FUATPAŞA MAH.","zip":"43050"},{"name":"GAYBİEFENDİ MAH.","zip":"43050"},{"name":"MEYDAN MAH.","zip":"43050"},{"name":"PİRLER MAH.","zip":"43050"},{"name":"SERVİ MAH.","zip":"43050"}]},{"name":"HAMİDİYE","cityName":null,"quarters":[{"name":"30 AĞUSTOS MAH.","zip":"43100"},{"name":"75. YIL MAH.","zip":"43100"},{"name":"AĞAÇKÖY MAH.","zip":"43100"},{"name":"AKKENT MAH.","zip":"43100"},{"name":"ALAYUNT MAH.","zip":"43100"},{"name":"ANDIZ MAH.","zip":"43100"},{"name":"AYDOĞDU MAH.","zip":"43100"},{"name":"BAHÇELİEVLER MAH.","zip":"43100"},{"name":"BÖLÜCEK MAH.","zip":"43100"},{"name":"CEDİT MAH.","zip":"43100"},{"name":"CİVLİ MAH.","zip":"43100"},{"name":"ÇALCA MAH.","zip":"43100"},{"name":"ÇALCA OSB MAH.","zip":"43100"},{"name":"ENNE MAH.","zip":"43100"},{"name":"EVLİYA ÇELEBİ MAH.","zip":"43100"},{"name":"G. KEMAL MAH.","zip":"43100"},{"name":"GEVEN MAH.","zip":"43100"},{"name":"GÜVEÇÇİ MAH.","zip":"43100"},{"name":"HACIAZİZLER MAH.","zip":"43100"},{"name":"HAMİDİYE MAH.","zip":"43100"},{"name":"İKİZÜYÜK MAH.","zip":"43100"},{"name":"İNKÖY MAH.","zip":"43100"},{"name":"İSTİKLAL MAH.","zip":"43100"},{"name":"KIRGILLI MAH.","zip":"43100"},{"name":"KİRAZPINAR MAH.","zip":"43100"},{"name":"KUMARI MAH.","zip":"43100"},{"name":"LALA HÜSEYİN PAŞA MAH.","zip":"43100"},{"name":"MALTEPE MAH.","zip":"43100"},{"name":"MARUF MAH.","zip":"43100"},{"name":"MECİDİYE MAH.","zip":"43100"},{"name":"MEHMET AKİF ERSOY MAH.","zip":"43100"},{"name":"MÜDERRİS MAH.","zip":"43100"},{"name":"OK MEYDANI MAH.","zip":"43100"},{"name":"OKÇU MAH.","zip":"43100"},{"name":"ORGANİZE SANAYİ BÖLGESİ MAH.","zip":"43100"},{"name":"OSMANGAZİ MAH.","zip":"43100"},{"name":"PARMAKÖREN MAH.","zip":"43100"},{"name":"PAŞAM SULTAN MAH.","zip":"43100"},{"name":"PERLİ MAH.","zip":"43100"},{"name":"SARAY MAH.","zip":"43100"},{"name":"SİNER MAH.","zip":"43100"},{"name":"SOFU MAH.","zip":"43100"},{"name":"SULTANBAĞI MAH.","zip":"43100"},{"name":"ŞAİR ŞEYHİ DUMLUPINAR MAH.","zip":"43100"},{"name":"YENİ BOSNA MAH.","zip":"43100"},{"name":"YONCALI MAH.","zip":"43100"},{"name":"ZİĞRA MAH.","zip":"43100"},{"name":"ZİRAAT MAH.","zip":"43100"}]},{"name":"MERKEZKÖYLER","cityName":null,"quarters":[{"name":"AĞIZÖREN KÖYÜ","zip":"43270"},{"name":"AHİLER KÖYÜ","zip":"43270"},{"name":"AHMETOLUĞU KÖYÜ","zip":"43270"},{"name":"AKÇAMESCİT KÖYÜ","zip":"43270"},{"name":"AKOLUK KÖYÜ","zip":"43270"},{"name":"AKPINAR KÖYÜ","zip":"43270"},{"name":"ALOĞLU KÖYÜ","zip":"43270"},{"name":"ANASULTAN KÖYÜ","zip":"43270"},{"name":"ARSLANLI KÖYÜ","zip":"43270"},{"name":"AYVALI KÖYÜ","zip":"43270"},{"name":"BAŞÖREN KÖYÜ","zip":"43270"},{"name":"BAYAT KÖYÜ","zip":"43270"},{"name":"BAYRAMŞAH KÖYÜ","zip":"43270"},{"name":"BELKAVAK KÖYÜ","zip":"43270"},{"name":"BEŞDERİRME ÇİFTLİĞİ MAH.","zip":"43270"},{"name":"BOZCAHÖYÜK MAH.","zip":"43270"},{"name":"BÜYÜKSAKA KÖYÜ","zip":"43270"},{"name":"BÜYÜKSAKA MÜCAVİR MAH.","zip":"43270"},{"name":"CENNETOĞLU MAH.","zip":"43270"},{"name":"ÇAVUŞÇİFTLİĞİ KÖYÜ","zip":"43270"},{"name":"ÇAYCA KÖYÜ","zip":"43270"},{"name":"ÇİFTEOLUKLAR KÖYÜ","zip":"43270"},{"name":"ÇOBANLAR KÖYÜ","zip":"43270"},{"name":"ÇÖĞÜRLER KÖYÜ","zip":"43270"},{"name":"ÇUBUKİÇİ KÖYÜ","zip":"43270"},{"name":"ÇUBUKİÇİ MÜCAVİR MAH.","zip":"43270"},{"name":"DAMLALIKARAAĞAÇ KÖYÜ","zip":"43270"},{"name":"DARICA KÖYÜ","zip":"43270"},{"name":"DEDİK KÖYÜ","zip":"43270"},{"name":"DEĞİRMENÖNÜ MAH.","zip":"43270"},{"name":"DEĞİRMENÖZÜ MAH.","zip":"43270"},{"name":"DEMİRCİÖREN KÖYÜ","zip":"43270"},{"name":"DEMİRÖZÜ KÖYÜ","zip":"43270"},{"name":"DEREKÖY KÖYÜ","zip":"43270"},{"name":"DOĞA KÖYÜ","zip":"43270"},{"name":"DOĞALAR KÖYÜ","zip":"43270"},{"name":"DOĞARSLAN KÖYÜ","zip":"43270"},{"name":"DOĞLUŞAH KÖYÜ","zip":"43270"},{"name":"ELMACIK KÖYÜ","zip":"43270"},{"name":"ELMALI KÖYÜ","zip":"43270"},{"name":"ESKİ MAH.","zip":"43270"},{"name":"ESKİYÜREĞİL KÖYÜ","zip":"43270"},{"name":"EYNEGAZİ KÖYÜ","zip":"43270"},{"name":"FATİHLER MAH.","zip":"43270"},{"name":"FINDIK KÖYÜ","zip":"43270"},{"name":"FİNCANBURNU KÖYÜ","zip":"43270"},{"name":"GEDİKOĞLUÇİFTLİĞİ KÖYÜ","zip":"43270"},{"name":"GELİNKAYA KÖYÜ","zip":"43270"},{"name":"GEVREKSEYDİ KÖYÜ","zip":"43270"},{"name":"GÖÇERİ KÖYÜ","zip":"43270"},{"name":"GÖYNÜKÖREN KÖYÜ","zip":"43270"},{"name":"GÖYNÜKÖREN MÜCAVİR MAH.","zip":"43270"},{"name":"GÜLLÜDERE KÖYÜ","zip":"43270"},{"name":"GÜLTEPE MAH.","zip":"43270"},{"name":"GÜMÜŞKÖY KÖYÜ","zip":"43270"},{"name":"GÜMÜŞKÖY MAH.","zip":"43270"},{"name":"GÜRLEK MAH.","zip":"43270"},{"name":"GÜVEM KÖYÜ","zip":"43270"},{"name":"HAMİDİYEKIZILCAÖREN KÖYÜ","zip":"43270"},{"name":"HAYMANA KÖYÜ","zip":"43270"},{"name":"IŞIKKARA KÖYÜ","zip":"43270"},{"name":"IŞIKKARA MAH.","zip":"43270"},{"name":"İHSANİYE KÖYÜ","zip":"43270"},{"name":"İNCİK KÖYÜ","zip":"43270"},{"name":"İNLİ KÖYÜ","zip":"43270"},{"name":"İNLİCE MAH.","zip":"43270"},{"name":"İSHAKÇILAR KÖYÜ","zip":"43270"},{"name":"İSTASYON MAH.","zip":"43270"},{"name":"KALBURCU ÇİFTLİĞİ MAH.","zip":"43270"},{"name":"KARAAĞAÇ KÖYÜ","zip":"43270"},{"name":"KARACAÖREN KÖYÜ","zip":"43270"},{"name":"KARAÖZ KÖYÜ","zip":"43270"},{"name":"KARSAK KÖYÜ","zip":"43270"},{"name":"KAYNARCA KÖYÜ","zip":"43270"},{"name":"KEPEZ KÖYÜ","zip":"43270"},{"name":"KINIK KÖYÜ","zip":"43270"},{"name":"KIRANŞEYH KÖYÜ","zip":"43270"},{"name":"KIZIK KÖYÜ","zip":"43270"},{"name":"KIZILCAKAYA KÖYÜ","zip":"43270"},{"name":"KIZILCAÖREN KÖYÜ","zip":"43270"},{"name":"KİRAZLIYAYLASI KÖYÜ","zip":"43270"},{"name":"KİREÇ KÖYÜ","zip":"43270"},{"name":"KOÇAK KÖYÜ","zip":"43270"},{"name":"KOZLUCA KÖYÜ","zip":"43270"},{"name":"KÖPRÜÖREN KÖYÜ","zip":"43270"},{"name":"KÖRPE KÖYÜ","zip":"43270"},{"name":"KÖRS KÖYÜ","zip":"43270"},{"name":"KUMLUYURT KÖYÜ","zip":"43270"},{"name":"KUYUSİNİR KÖYÜ","zip":"43270"},{"name":"KÜKÜRT KÖYÜ","zip":"43270"},{"name":"LÜTFİYE KÖYÜ","zip":"43270"},{"name":"MAHMUDİYE KÖYÜ","zip":"43270"},{"name":"MAKASALANI KÖYÜ","zip":"43270"},{"name":"MERKEZ MAH.","zip":"43270"},{"name":"MUHATBOĞAZI KÖYÜ","zip":"43270"},{"name":"MUSTAFALAR KÖYÜ","zip":"43270"},{"name":"NUSRET KÖYÜ","zip":"43270"},{"name":"ORTACA KÖYÜ","zip":"43270"},{"name":"OVACIK KÖYÜ","zip":"43270"},{"name":"PORSUK ÇİFTLİĞİ MAH.","zip":"43270"},{"name":"PULLAR KÖYÜ","zip":"43270"},{"name":"SABUNCUPINAR KÖYÜ","zip":"43270"},{"name":"SAĞIRLAR KÖYÜ","zip":"43270"},{"name":"SAKAÇİFTLİĞİ KÖYÜ","zip":"43270"},{"name":"SEKİÖREN KÖYÜ","zip":"43270"},{"name":"SEKİÖREN MÜCAVİR MAH.","zip":"43270"},{"name":"SEYDİKÖY KÖYÜ","zip":"43270"},{"name":"SEYİTLER MAH.","zip":"43270"},{"name":"SEYİTÖMER KÖYÜ","zip":"43270"},{"name":"SIRÖREN KÖYÜ","zip":"43270"},{"name":"SOBRAN KÖYÜ","zip":"43270"},{"name":"SOFÇA KÖYÜ","zip":"43270"},{"name":"SOĞUKÇEŞME KÖYÜ","zip":"43270"},{"name":"SÖĞÜT KÖYÜ","zip":"43270"},{"name":"SÖĞÜTYAYLASI KÖYÜ","zip":"43270"},{"name":"SÖKMEN KÖYÜ","zip":"43270"},{"name":"SULU KÖYÜ","zip":"43270"},{"name":"SÜNNETYENİCE KÖYÜ","zip":"43270"},{"name":"TEPEKÖY KÖYÜ","zip":"43270"},{"name":"TEŞVİKİYE KÖYÜ","zip":"43270"},{"name":"TURGUTLAR KÖYÜ","zip":"43270"},{"name":"TURGUTLAR MÜCAVİR MAH.","zip":"43270"},{"name":"ULU KÖYÜ","zip":"43270"},{"name":"ÜRÜNLÜÇİFTLİĞİ KÖYÜ","zip":"43270"},{"name":"YAKACA KÖYÜ","zip":"43270"},{"name":"YAYLABABA KÖYÜ","zip":"43270"},{"name":"YAZLICA KÖYÜ","zip":"43270"},{"name":"YENİ MAH.","zip":"43270"},{"name":"YENİCE ÇİFTLİĞİ MAH.","zip":"43270"},{"name":"YENİCE KÖYÜ","zip":"43270"},{"name":"YENİDOĞAN MAH.","zip":"43270"},{"name":"YENİKARACAÖREN KÖYÜ","zip":"43270"},{"name":"YENİKIZILCAÖREN KÖYÜ","zip":"43270"},{"name":"YEŞİLBAYIR KÖYÜ","zip":"43270"},{"name":"YEŞİLYAYLA MAH.","zip":"43270"},{"name":"YUMAKLI KÖYÜ","zip":"43270"}]},{"name":"SEYİTÖMER","cityName":null,"quarters":null},{"name":"MERKEZKÖYLER","cityName":null,"quarters":[{"name":"ATATÜRK MAH.","zip":"43532"},{"name":"KEPEZ MAH.","zip":"43532"},{"name":"MENDERES MAH.","zip":"43532"},{"name":"ORHANLAR KÖYÜ","zip":"43532"},{"name":"ÖREY KÖYÜ","zip":"43532"},{"name":"SARAYKÖY KÖYÜ","zip":"43532"},{"name":"SOFULAR KÖYÜ","zip":"43532"},{"name":"TEPEKÖY KÖYÜ","zip":"43532"},{"name":"YAPAK MAH.","zip":"43532"},{"name":"YENİCE KÖYÜ","zip":"43532"}]},{"name":"PAZARLAR","cityName":null,"quarters":[{"name":"ATATÜRK MAH.","zip":"43530"},{"name":"AYVALI MAH.","zip":"43530"},{"name":"FATİH MAH.","zip":"43530"},{"name":"HOCAAHMETYESEVİ MAH.","zip":"43530"},{"name":"TURGUT ÖZAL MAH.","zip":"43530"},{"name":"YAKUPLAR ATATÜRK MAH.","zip":"43530"},{"name":"YAKUPLAR FATİH MAH.","zip":"43530"}]},{"name":"MERKEZKÖYLER","cityName":null,"quarters":[{"name":"AHMETLİ KÖYÜ","zip":"43502"},{"name":"AKDAĞ KÖYÜ","zip":"43502"},{"name":"AKPINAR KÖYÜ","zip":"43502"},{"name":"AKSAZ KÖYÜ","zip":"43502"},{"name":"AKSAZ-MEVKİ MAH.","zip":"43502"},{"name":"AKSAZ-OBA MAH.","zip":"43502"},{"name":"ALAN MAH.","zip":"43502"},{"name":"AŞAĞI MAH.","zip":"43502"},{"name":"AŞAĞIDOLAYLAR KÖYÜ","zip":"43502"},{"name":"ATATÜRK MAH.","zip":"43502"},{"name":"AZİZLER MAH.","zip":"43502"},{"name":"BADEMLİ KÖYÜ","zip":"43502"},{"name":"BAHTILLI KÖYÜ","zip":"43502"},{"name":"BAŞKONAK KÖYÜ","zip":"43502"},{"name":"BECİLER KÖYÜ","zip":"43502"},{"name":"BEDİRLER KÖYÜ","zip":"43502"},{"name":"BEYCE KÖYÜ","zip":"43502"},{"name":"BEYLİKLER MAH.","zip":"43502"},{"name":"BOĞAZKÖY KÖYÜ","zip":"43502"},{"name":"BÜDÜZ MAH.","zip":"43502"},{"name":"CAMİİ KEBİR MAH.","zip":"43502"},{"name":"CEVİZLİK MAH.","zip":"43502"},{"name":"CUMA MAH.","zip":"43502"},{"name":"CUMHURİYET MAH.","zip":"43502"},{"name":"ÇAKIRLAR KÖYÜ","zip":"43502"},{"name":"ÇAMLIK KÖYÜ","zip":"43502"},{"name":"ÇAYSİMAV MAH.","zip":"43502"},{"name":"ÇINARLIDERE KÖYÜ","zip":"43502"},{"name":"ÇİTGÖL KÖYÜ","zip":"43502"},{"name":"ÇOBANLAR MAH.","zip":"43502"},{"name":"ÇULHALAR KÖYÜ","zip":"43502"},{"name":"DARICI MAH.","zip":"43502"},{"name":"DEMİRCİ KÖYÜ","zip":"43502"},{"name":"DEMİRCİ MAH.","zip":"43502"},{"name":"DERE MAH.","zip":"43502"},{"name":"DEREKÖY KÖYÜ","zip":"43502"},{"name":"DEREYÜZÜDERE KÖYÜ","zip":"43502"},{"name":"EFEDAMLAR MAH.","zip":"43502"},{"name":"EFİR KÖYÜ","zip":"43502"},{"name":"EĞDEMİR KÖYÜ","zip":"43502"},{"name":"EĞİRLER KÖYÜ","zip":"43502"},{"name":"ESENBAĞ KÖYÜ","zip":"43502"},{"name":"EVCİLER KÖYÜ","zip":"43502"},{"name":"FATİH MAH.","zip":"43502"},{"name":"GAZİ MAH.","zip":"43502"},{"name":"GILMANLAR KÖYÜ","zip":"43502"},{"name":"GÖKÇELER KÖYÜ","zip":"43502"},{"name":"GÖKÇEPINAR MAH.","zip":"43502"},{"name":"GÖLKÖY KÖYÜ","zip":"43502"},{"name":"GURBETLER MAH.","zip":"43502"},{"name":"GÜMÜŞSU KÖYÜ","zip":"43502"},{"name":"GÜNEY KÖYÜ","zip":"43502"},{"name":"GÜNEY MAH.","zip":"43502"},{"name":"GÜZELYURT KÖYÜ","zip":"43502"},{"name":"HACIHÜSEYİNEFENDİ KÖYÜ","zip":"43502"},{"name":"HAMZABEY MAH.","zip":"43502"},{"name":"HASANÖREN KÖYÜ","zip":"43502"},{"name":"HIDIRDİVANI KÖYÜ","zip":"43502"},{"name":"HİSAR MAH.","zip":"43502"},{"name":"HİSARBEY KÖYÜ","zip":"43502"},{"name":"HİSARBEY MAH.","zip":"43502"},{"name":"HÜRRİYET MAH.","zip":"43502"},{"name":"IHLAMUR KÖYÜ","zip":"43502"},{"name":"İMRANLAR KÖYÜ","zip":"43502"},{"name":"İNKAYA KÖYÜ","zip":"43502"},{"name":"İNLİCE KÖYÜ","zip":"43502"},{"name":"KABAŞLAR MAH.","zip":"43502"},{"name":"KADILAR MAH.","zip":"43502"},{"name":"KAİLİ MAH.","zip":"43502"},{"name":"KALKAN KÖYÜ","zip":"43502"},{"name":"KAPIKAYA KÖYÜ","zip":"43502"},{"name":"KARACAHİSAR KÖYÜ","zip":"43502"},{"name":"KARACALAR MAH.","zip":"43502"},{"name":"KARACAÖREN KÖYÜ","zip":"43502"},{"name":"KARAKOCA KÖYÜ","zip":"43502"},{"name":"KARAPINAR KÖYÜ","zip":"43502"},{"name":"KAYA MAH.","zip":"43502"},{"name":"KAYAIŞIK KÖYÜ","zip":"43502"},{"name":"KAYALIDERE KÖYÜ","zip":"43502"},{"name":"KESTEL KÖYÜ","zip":"43502"},{"name":"KINIK MAH.","zip":"43502"},{"name":"KIZILCIK KÖYÜ","zip":"43502"},{"name":"KİÇİR KÖYÜ","zip":"43502"},{"name":"KOYUNOBA KÖYÜ","zip":"43502"},{"name":"KOZANLAR MAH.","zip":"43502"},{"name":"KÖSELER KÖYÜ","zip":"43502"},{"name":"KURDUMAN KÖYÜ","zip":"43502"},{"name":"KUSUMLAR KÖYÜ","zip":"43502"},{"name":"KUŞU KÖYÜ","zip":"43502"},{"name":"KÜLCÜ KÖYÜ","zip":"43502"},{"name":"KÜPLÜCE KÖYÜ","zip":"43502"},{"name":"MADEN KÖYÜ","zip":"43502"},{"name":"MADEN MAH.","zip":"43502"},{"name":"MAHMUTLAR MAH.","zip":"43502"},{"name":"MAMAK KÖYÜ","zip":"43502"},{"name":"MERCANLAR MAH.","zip":"43502"},{"name":"MEVLANA MAH.","zip":"43502"},{"name":"MUSTAFAEFENDİ MAH.","zip":"43502"},{"name":"NAŞA KÖYÜ","zip":"43502"},{"name":"ORTACI KÖYÜ","zip":"43502"},{"name":"ÖREN MAH.","zip":"43502"},{"name":"ÖRENCİK KÖYÜ","zip":"43502"},{"name":"ÖRENLİ KÖYÜ","zip":"43502"},{"name":"ÖREYLER MAH.","zip":"43502"},{"name":"ÖZDERE MAH.","zip":"43502"},{"name":"PULLUCA KÖYÜ","zip":"43502"},{"name":"RAHİMLER MAH.","zip":"43502"},{"name":"SAMAT KÖYÜ","zip":"43502"},{"name":"SARIÇAM KÖYÜ","zip":"43502"},{"name":"SARIKAYA KÖYÜ","zip":"43502"},{"name":"SARKATLAR KÖYÜ","zip":"43502"},{"name":"SAVCILAR MAH.","zip":"43502"},{"name":"SAYA MAH.","zip":"43502"},{"name":"SÖĞÜT KÖYÜ","zip":"43502"},{"name":"SUDÖŞEĞİ KÖYÜ","zip":"43502"},{"name":"SÜNNETÇİLER KÖYÜ","zip":"43502"},{"name":"ŞENBİRLİK MAH.","zip":"43502"},{"name":"ŞENKÖY KÖYÜ","zip":"43502"},{"name":"TAŞKÖY KÖYÜ","zip":"43502"},{"name":"TAŞLIK KÖYÜ","zip":"43502"},{"name":"TEPEBAŞI MAH.","zip":"43502"},{"name":"TOKLAR KÖYÜ","zip":"43502"},{"name":"TOKLAR MAH.","zip":"43502"},{"name":"YAĞILLAR KÖYÜ","zip":"43502"},{"name":"YAĞMURLAR KÖYÜ","zip":"43502"},{"name":"YASSIEYNİHAN KÖYÜ","zip":"43502"},{"name":"YAVI KÖYÜ","zip":"43502"},{"name":"YAYKIN KÖYÜ","zip":"43502"},{"name":"YAYLA EVLERİ-ANITLI MAH.","zip":"43502"},{"name":"YAYLA EVLERİ-KORUCUK MAH.","zip":"43502"},{"name":"YEMİŞLİ KÖYÜ","zip":"43502"},{"name":"YENİ MAH.","zip":"43502"},{"name":"YENİKÖY KÖYÜ","zip":"43502"},{"name":"YENİLER KÖYÜ","zip":"43502"},{"name":"YEŞİLÇAM KÖYÜ","zip":"43502"},{"name":"YEŞİLDERE KÖYÜ","zip":"43502"},{"name":"YEŞİLKÖY KÖYÜ","zip":"43502"},{"name":"YEŞİLYAYLA KÖYÜ","zip":"43502"},{"name":"YEŞİLYAYLA MAH.","zip":"43502"},{"name":"YUKARI MAH.","zip":"43502"},{"name":"YUKARIDOLAYLAR KÖYÜ","zip":"43502"}]},{"name":"SİMAV","cityName":null,"quarters":[{"name":"4 EYLÜL MAH.","zip":"43500"},{"name":"CUMA MAH.","zip":"43500"},{"name":"ÇAVDIR MAH.","zip":"43500"},{"name":"DEĞİRMENCİLER MAH.","zip":"43500"},{"name":"ESENEVLER MAH.","zip":"43500"},{"name":"FATİH MAH.","zip":"43500"},{"name":"HACIAHMETOĞLU MAH.","zip":"43500"},{"name":"HİSARARDI MAH.","zip":"43500"},{"name":"KARAKÜR MAH.","zip":"43500"},{"name":"KARŞIYAKA MAH.","zip":"43500"},{"name":"KEKLİKTEPE MAH.","zip":"43500"},{"name":"MURADINLAR MAH.","zip":"43500"},{"name":"SIRAPAYAM MAH.","zip":"43500"},{"name":"TABAKHANE MAH.","zip":"43500"},{"name":"TEPECİK MAH.","zip":"43500"},{"name":"YEŞİLOVA MAH.","zip":"43500"}]},{"name":"MERKEZKÖYLER","cityName":null,"quarters":[{"name":"ATATÜRK MAH.","zip":"43952"},{"name":"AYVACIK KÖYÜ","zip":"43952"},{"name":"CUMHURİYET MAH.","zip":"43952"},{"name":"ÇAM KÖYÜ","zip":"43952"},{"name":"ÇATAK MAH.","zip":"43952"},{"name":"DEĞİRMENDERE KÖYÜ","zip":"43952"},{"name":"DOKTOR OSMAN MAH.","zip":"43952"},{"name":"GAİPLER KÖYÜ","zip":"43952"},{"name":"GAZİVELİ MAH.","zip":"43952"},{"name":"GÜRKUYU KÖYÜ","zip":"43952"},{"name":"İNCEĞİZ KÖYÜ","zip":"43952"},{"name":"KARAKAYA MAH.","zip":"43952"},{"name":"KARAKÜR KÖYÜ","zip":"43952"},{"name":"KARAMANCA KÖYÜ","zip":"43952"},{"name":"KARAMUSTAFALAR KÖYÜ","zip":"43952"},{"name":"KAYRAKLI MAH.","zip":"43952"},{"name":"KIZILKOLTUK KÖYÜ","zip":"43952"},{"name":"TOPALAHMETLER MAH.","zip":"43952"},{"name":"UĞURLUGÜME KÖYÜ","zip":"43952"},{"name":"ÜÇBAŞ KÖYÜ","zip":"43952"},{"name":"YEŞİLALAN MAH.","zip":"43952"}]},{"name":"ŞAPHANE","cityName":null,"quarters":[{"name":"KALABAK MAH.","zip":"43950"},{"name":"KARAAĞIL MAH.","zip":"43950"},{"name":"KARACADERBENT MAH.","zip":"43950"},{"name":"PAZAR MAH.","zip":"43950"},{"name":"SUBAŞI MAH.","zip":"43950"},{"name":"TÜREGÜN MAH.","zip":"43950"}]},{"name":"MERKEZKÖYLER","cityName":null,"quarters":[{"name":"2 MAH.","zip":"43302"},{"name":"3 MAH.","zip":"43302"},{"name":"4 MAH.","zip":"43302"},{"name":"AĞAKÖY KÖYÜ","zip":"43302"},{"name":"AKÇAKÖY KÖYÜ","zip":"43302"},{"name":"AKÇAŞEHİR KÖYÜ","zip":"43302"},{"name":"AKKAŞ DEDE MAH.","zip":"43302"},{"name":"ALİ EFENDİ MAH.","zip":"43302"},{"name":"ALİKÖY KÖYÜ","zip":"43302"},{"name":"ALİKÖY-KEMALSULTAN MAH.","zip":"43302"},{"name":"ALİKÖY-ZAFER MAH.","zip":"43302"},{"name":"ALPAGUT MAH.","zip":"43302"},{"name":"ALTINOVA KÖYÜ","zip":"43302"},{"name":"ARAP DEDE MAH.","zip":"43302"},{"name":"ARİFLER KÖYÜ","zip":"43302"},{"name":"ARTIRANLAR KÖYÜ","zip":"43302"},{"name":"AVCILAR KÖYÜ","zip":"43302"},{"name":"AYDINLAR KÖYÜ","zip":"43302"},{"name":"AYVALI KÖYÜ","zip":"43302"},{"name":"BALIKÖY KÖYÜ","zip":"43302"},{"name":"BALIKÖY-ÇIVGALAR MAH.","zip":"43302"},{"name":"BALIKÖY-KADI MAH.","zip":"43302"},{"name":"BALIKÖY-KARAŞEHİR MAH.","zip":"43302"},{"name":"BALIKÖY-KIŞLA MAH.","zip":"43302"},{"name":"BALIKÖY-MERKEZ MAH.","zip":"43302"},{"name":"BARAJ KENARI MAH.","zip":"43302"},{"name":"BAŞKÖY KÖYÜ","zip":"43302"},{"name":"BEKİR EFENDİ MAH.","zip":"43302"},{"name":"BENAH MAH.","zip":"43302"},{"name":"BOZBELEN KÖYÜ","zip":"43302"},{"name":"BURHAN KÖYÜ","zip":"43302"},{"name":"BÜYÜK PINAR MAH.","zip":"43302"},{"name":"CEVCELLER MAH.","zip":"43302"},{"name":"CUMHURİYET MAH.","zip":"43302"},{"name":"ÇAKILLI KÖYÜ","zip":"43302"},{"name":"ÇALDİBİ KÖYÜ","zip":"43302"},{"name":"ÇALTILI KÖYÜ","zip":"43302"},{"name":"ÇAMALAN KÖYÜ","zip":"43302"},{"name":"ÇAYIRKÖY KÖYÜ","zip":"43302"},{"name":"ÇAYIROLUK KÖYÜ","zip":"43302"},{"name":"ÇIKRICAK KÖYÜ","zip":"43302"},{"name":"ÇINARCIK KÖYÜ","zip":"43302"},{"name":"ÇOBANKÖY KÖYÜ","zip":"43302"},{"name":"ÇOBANKÖY OSB MAH.","zip":"43302"},{"name":"ÇOBANLAR KÖYÜ","zip":"43302"},{"name":"ÇUKURCA MAH.","zip":"43302"},{"name":"DAĞDEMİRLİ KÖYÜ","zip":"43302"},{"name":"DEĞİRMİSAZ KÖYÜ","zip":"43302"},{"name":"DERBENT KÖYÜ","zip":"43302"},{"name":"DERECİK KÖYÜ","zip":"43302"},{"name":"DEVEKAYASI KÖYÜ","zip":"43302"},{"name":"DOĞANLAR KÖYÜ","zip":"43302"},{"name":"DONULGAÇ MAH.","zip":"43302"},{"name":"DORUK MAH.","zip":"43302"},{"name":"DUDAŞ KÖYÜ","zip":"43302"},{"name":"DULKADİR MAH.","zip":"43302"},{"name":"DUTLAR KÖYÜ","zip":"43302"},{"name":"DÜMREKHÜSEYİNPAŞA KÖYÜ","zip":"43302"},{"name":"DÜMREKORTA KÖYÜ","zip":"43302"},{"name":"DÜMREKULUKÖY KÖYÜ","zip":"43302"},{"name":"EĞRİÖZ KÖYÜ","zip":"43302"},{"name":"ELMAAĞACI KÖYÜ","zip":"43302"},{"name":"ELMALI KÖYÜ","zip":"43302"},{"name":"EMİR DEDE MAH.","zip":"43302"},{"name":"EMİRLER KÖYÜ","zip":"43302"},{"name":"ERİKLİ KÖYÜ","zip":"43302"},{"name":"EŞEN KÖYÜ","zip":"43302"},{"name":"GAZELYAKUP KÖYÜ","zip":"43302"},{"name":"GEVREKLER KÖYÜ","zip":"43302"},{"name":"GÖBEL KÖYÜ","zip":"43302"},{"name":"GÖKÇEYURT KÖYÜ","zip":"43302"},{"name":"GÖLCÜK KÖYÜ","zip":"43302"},{"name":"GÜMÜŞGÖLCÜK KÖYÜ","zip":"43302"},{"name":"GÜMÜŞYENİKÖY KÖYÜ","zip":"43302"},{"name":"GÜRAĞAÇ CEVİZLİ MAH.","zip":"43302"},{"name":"GÜRAĞAÇ ÇINAR MAH.","zip":"43302"},{"name":"GÜREPINAR MAH.","zip":"43302"},{"name":"HALİL İBRAHİMLER MAH.","zip":"43302"},{"name":"HAŞHAŞLIK (ÇİFTLİK) MAH.","zip":"43302"},{"name":"İSAKÖY KÖYÜ","zip":"43302"},{"name":"İSTASYON ALTI MAH.","zip":"43302"},{"name":"İSTASYON MAH.","zip":"43302"},{"name":"KARAALİ MAH.","zip":"43302"},{"name":"KARACAKAŞ KÖYÜ","zip":"43302"},{"name":"KARAKAYA KÖYÜ","zip":"43302"},{"name":"KARAKİŞİ KÖYÜ","zip":"43302"},{"name":"KARAKÖY KÖYÜ","zip":"43302"},{"name":"KARAPELİT KÖYÜ","zip":"43302"},{"name":"KARCIK KÖYÜ","zip":"43302"},{"name":"KARGILI KÖYÜ","zip":"43302"},{"name":"KARLI KÖYÜ","zip":"43302"},{"name":"KAVAKLI KÖYÜ","zip":"43302"},{"name":"KAYAARASI KÖYÜ","zip":"43302"},{"name":"KAYI KÖYÜ","zip":"43302"},{"name":"KELEŞ MAH.","zip":"43302"},{"name":"KIRKKAVAK KÖYÜ","zip":"43302"},{"name":"KIŞLADEMİRLİ KÖYÜ","zip":"43302"},{"name":"KIZILARMAN (TABAKLI) MAH.","zip":"43302"},{"name":"KIZILBÜK KÖYÜ","zip":"43302"},{"name":"KIZILÇUKUR KÖYÜ","zip":"43302"},{"name":"KOCAYERİ KÖYÜ","zip":"43302"},{"name":"KOZLUCA KÖYÜ","zip":"43302"},{"name":"KÖMÜR İŞLETMESİ MAH.","zip":"43302"},{"name":"KÖPRÜCEK KÖYÜ","zip":"43302"},{"name":"KÖREKEN KÖYÜ","zip":"43302"},{"name":"KÖSELER KÖYÜ","zip":"43302"},{"name":"KURUÇAY KÖYÜ","zip":"43302"},{"name":"KURUÇAY-GÜZELYURT MAH.","zip":"43302"},{"name":"KURUÇAY-KOCAPINAR MAH.","zip":"43302"},{"name":"KURUÇAY-ÖREN MAH.","zip":"43302"},{"name":"KUYUBAŞI MAH.","zip":"43302"},{"name":"MADANLAR KÖYÜ","zip":"43302"},{"name":"MADANLAR MAH.","zip":"43302"},{"name":"MAH. 1 MAH.","zip":"43302"},{"name":"MAH. 2 MAH.","zip":"43302"},{"name":"MEHMET EMİNLER MAH.","zip":"43302"},{"name":"NUSRETLER KÖYÜ","zip":"43302"},{"name":"OKUL MAH.","zip":"43302"},{"name":"OPANÖZÜ KÖYÜ","zip":"43302"},{"name":"OVACIK KÖYÜ","zip":"43302"},{"name":"ÖKSÜZLER KÖYÜ","zip":"43302"},{"name":"ÖREN KÖYÜ","zip":"43302"},{"name":"PAÇASIZLAR MAH.","zip":"43302"},{"name":"SAMAKLI MAH.","zip":"43302"},{"name":"SEKBANDEMİRLİ KÖYÜ","zip":"43302"},{"name":"SOLUGANLAR MAH.","zip":"43302"},{"name":"ŞAHİN KÖYÜ","zip":"43302"},{"name":"ŞAHMELEK KÖYÜ","zip":"43302"},{"name":"ŞAPÇI KÖYÜ","zip":"43302"},{"name":"ŞAPÇIDEDE KÖYÜ","zip":"43302"},{"name":"ŞENLİK KÖYÜ","zip":"43302"},{"name":"TAŞDİBİ MAH.","zip":"43302"},{"name":"TAVŞANLI ÇIKMAZI MAH.","zip":"43302"},{"name":"TAVŞANLI MAH.","zip":"43302"},{"name":"TEPECİK KÖYÜ","zip":"43302"},{"name":"TEPECİK-AŞAĞI MAH.","zip":"43302"},{"name":"TEPECİK-ORTA MAH.","zip":"43302"},{"name":"TEPECİK-YUKARI MAH.","zip":"43302"},{"name":"TOPALLAR MAH.","zip":"43302"},{"name":"TUNÇBİLEK KÖYÜ","zip":"43302"},{"name":"TUNÇBİLEK MERKEZ MAH.","zip":"43302"},{"name":"TUNÇBİLEK-ÇAMALTI MAH.","zip":"43302"},{"name":"TUNÇBİLEK-DEMİRBİLEK MAH.","zip":"43302"},{"name":"TUNÇBİLEK-HAMİTABAT MAH.","zip":"43302"},{"name":"TUNÇBİLEK-IŞIK MAH.","zip":"43302"},{"name":"TUNÇBİLEK-KÖPRÜBAŞI MAH.","zip":"43302"},{"name":"TUNÇBİLEK-MADENCİLER MAH.","zip":"43302"},{"name":"ULUÇAM KÖYÜ","zip":"43302"},{"name":"ÜYÜCEK KÖYÜ","zip":"43302"},{"name":"VAKIF KÖYÜ","zip":"43302"},{"name":"YAĞMURLU KÖYÜ","zip":"43302"},{"name":"YATAKLI KÖYÜ","zip":"43302"},{"name":"YENİKÖY KÖYÜ","zip":"43302"},{"name":"YÖRGÜÇ KÖYÜ","zip":"43302"}]},{"name":"TAVŞANLI","cityName":null,"quarters":[{"name":"BAĞLIK MAH.","zip":"43300"},{"name":"BEYKÖY MAH.","zip":"43300"},{"name":"ÇARDAKLI MAH.","zip":"43300"},{"name":"ÇIRÇIRÇEŞME MAH.","zip":"43300"},{"name":"ÇUKURKÖY MAH.","zip":"43300"},{"name":"DAĞÇEŞME MAH.","zip":"43300"},{"name":"DEDELER MAH.","zip":"43300"},{"name":"DURAK MAH.","zip":"43300"},{"name":"HANIMÇEŞME MAH.","zip":"43300"},{"name":"İSTASYON MAH.","zip":"43300"},{"name":"KARAKOVA MAH.","zip":"43300"},{"name":"KAVAKLI MAH.","zip":"43300"},{"name":"MOYMUL MAH.","zip":"43300"},{"name":"ÖMERBEY MAH.","zip":"43300"},{"name":"SUBAŞI MAH.","zip":"43300"},{"name":"ULUCAMİ MAH.","zip":"43300"},{"name":"YENİ MAH.","zip":"43300"},{"name":"YILDIRIM BEYAZIT MAH.","zip":"43300"}]}]}]}