{"id":44,"name":"MALATYA","cities":[{"name":"city","districts":[{"name":"AKÇADAĞ","cityName":null,"quarters":[{"name":"ALİÇERİ MAH.","zip":"44600"},{"name":"ALTUNLU MAH.","zip":"44600"},{"name":"ANCAR MAH.","zip":"44600"},{"name":"AŞAĞIÖRÜKÇÜ MAH.","zip":"44600"},{"name":"AYDINLAR MAH.","zip":"44600"},{"name":"BAĞKÖY MAH.","zip":"44600"},{"name":"BAHRİ MAH.","zip":"44600"},{"name":"BAŞPINAR MAH.","zip":"44600"},{"name":"BAYRAMUŞAĞI MAH.","zip":"44600"},{"name":"BEKİRUŞAĞI MAH.","zip":"44600"},{"name":"BÖLÜKLÜ MAH.","zip":"44600"},{"name":"BÜYÜKÇİMİŞ MAH.","zip":"44600"},{"name":"BÜYÜKKÖY MAH.","zip":"44600"},{"name":"ÇAKILLIPINAR MAH.","zip":"44600"},{"name":"ÇATALBAHÇE MAH.","zip":"44600"},{"name":"ÇEVİRME MAH.","zip":"44600"},{"name":"ÇOBANUŞAĞI MAH.","zip":"44600"},{"name":"DARICA MAH.","zip":"44600"},{"name":"DEDEKÖY MAH.","zip":"44600"},{"name":"DEMİRCİLER MAH.","zip":"44600"},{"name":"DEVELİ MAH.","zip":"44600"},{"name":"DOĞANLAR MAH.","zip":"44600"},{"name":"DOĞANTEPE MAH.","zip":"44600"},{"name":"DOĞU MAH.","zip":"44600"},{"name":"DURULOVA MAH.","zip":"44600"},{"name":"DUTLU MAH.","zip":"44600"},{"name":"DÜMÜKLÜ MAH.","zip":"44600"},{"name":"EĞİN MAH.","zip":"44600"},{"name":"ESENBEY MAH.","zip":"44600"},{"name":"ESENLİ MAH.","zip":"44600"},{"name":"FATİH MAH.","zip":"44600"},{"name":"GÖLPINAR MAH.","zip":"44600"},{"name":"GÜNEŞLİ MAH.","zip":"44600"},{"name":"GÜRKAYNAK MAH.","zip":"44600"},{"name":"HANÇERLİ MAH.","zip":"44600"},{"name":"HARTUT MAH.","zip":"44600"},{"name":"HARUNUŞAĞI MAH.","zip":"44600"},{"name":"ILICAK MAH.","zip":"44600"},{"name":"İKİNCİLER MAH.","zip":"44600"},{"name":"KADIİBRAHİM MAH.","zip":"44600"},{"name":"KAHYALI MAH.","zip":"44600"},{"name":"KARAMAĞARA MAH.","zip":"44600"},{"name":"KARAPINAR MAH.","zip":"44600"},{"name":"KASIMUŞAĞI MAH.","zip":"44600"},{"name":"KAYADİBİ MAH.","zip":"44600"},{"name":"KEKLİKPINARI MAH.","zip":"44600"},{"name":"KELLER MAH.","zip":"44600"},{"name":"KEPEZ MAH.","zip":"44600"},{"name":"KOLKÖY MAH.","zip":"44600"},{"name":"KOTANGÖLÜ MAH.","zip":"44600"},{"name":"KOZLUCA MAH.","zip":"44600"},{"name":"KÖMEKAVAK MAH.","zip":"44600"},{"name":"KURTUŞAĞI MAH.","zip":"44600"},{"name":"KÜÇÜKKÜRNE MAH.","zip":"44600"},{"name":"KÜLTÜR MAH.","zip":"44600"},{"name":"LEVENT MAH.","zip":"44600"},{"name":"MEZRA MAH.","zip":"44600"},{"name":"MİHMANLI MAH.","zip":"44600"},{"name":"MURATLI MAH.","zip":"44600"},{"name":"ORTAKÖY MAH.","zip":"44600"},{"name":"ÖREN MAH.","zip":"44600"},{"name":"RESULUŞAĞI MAH.","zip":"44600"},{"name":"SAHİLKÖY MAH.","zip":"44600"},{"name":"SAKALIUZUN MAH.","zip":"44600"},{"name":"SARIHACI MAH.","zip":"44600"},{"name":"ŞEYHLER MAH.","zip":"44600"},{"name":"TAŞEVLER MAH.","zip":"44600"},{"name":"TAŞOLAR MAH.","zip":"44600"},{"name":"TATARUŞAĞI MAH.","zip":"44600"},{"name":"YAĞMURLU MAH.","zip":"44600"},{"name":"YALINBUDAK MAH.","zip":"44600"},{"name":"YALINKAYA MAH.","zip":"44600"},{"name":"YAYLIMLI MAH.","zip":"44600"},{"name":"YUKARIÖRÜKÇÜ MAH.","zip":"44600"}]},{"name":"ARAPGİR","cityName":null,"quarters":[{"name":"ALIÇLI MAH.","zip":"44800"},{"name":"AŞAĞIÇÖRENGE MAH.","zip":"44800"},{"name":"AŞAĞIULUPINAR MAH.","zip":"44800"},{"name":"AŞAĞIYENİCE MAH.","zip":"44800"},{"name":"BERENGE MAH.","zip":"44800"},{"name":"BOĞAZLI MAH.","zip":"44800"},{"name":"BOSTANCIK MAH.","zip":"44800"},{"name":"BUDAK MAH.","zip":"44800"},{"name":"CÖMERTLİ MAH.","zip":"44800"},{"name":"ÇAKIRSU MAH.","zip":"44800"},{"name":"ÇARŞI MAH.","zip":"44800"},{"name":"ÇAYBAŞI MAH.","zip":"44800"},{"name":"ÇİĞNİR MAH.","zip":"44800"},{"name":"ÇİMEN MAH.","zip":"44800"},{"name":"ÇOBANLI MAH.","zip":"44800"},{"name":"DEREGEZEN MAH.","zip":"44800"},{"name":"DÜZCE MAH.","zip":"44800"},{"name":"EĞNİR MAH.","zip":"44800"},{"name":"ESİKLİ MAH.","zip":"44800"},{"name":"ESKİARAPGİR MAH.","zip":"44800"},{"name":"GEBELİ MAH.","zip":"44800"},{"name":"GÖZ MAH.","zip":"44800"},{"name":"GÖZELİ MAH.","zip":"44800"},{"name":"GÜNYÜZÜ MAH.","zip":"44800"},{"name":"HEZENEK MAH.","zip":"44800"},{"name":"HOCAALİ MAH.","zip":"44800"},{"name":"KAYAKESEN MAH.","zip":"44800"},{"name":"KAYNAK MAH.","zip":"44800"},{"name":"KAZANÇ MAH.","zip":"44800"},{"name":"KILIÇLI MAH.","zip":"44800"},{"name":"KONDUCAK MAH.","zip":"44800"},{"name":"KORU MAH.","zip":"44800"},{"name":"KÖSEOĞLU MAH.","zip":"44800"},{"name":"MEHMETAKİF MAH.","zip":"44800"},{"name":"MEŞELİ MAH.","zip":"44800"},{"name":"ONAR MAH.","zip":"44800"},{"name":"ORMANSIRTI MAH.","zip":"44800"},{"name":"OSMANPAŞA MAH.","zip":"44800"},{"name":"PACALI MAH.","zip":"44800"},{"name":"PİRALİ MAH.","zip":"44800"},{"name":"SEKİZSU MAH.","zip":"44800"},{"name":"SELAMLI MAH.","zip":"44800"},{"name":"SERGE MAH.","zip":"44800"},{"name":"SİNİKLİ MAH.","zip":"44800"},{"name":"SİPAHİUŞAĞI MAH.","zip":"44800"},{"name":"SUCEYİN MAH.","zip":"44800"},{"name":"SUGEÇTİ MAH.","zip":"44800"},{"name":"ŞAĞILUŞAĞI MAH.","zip":"44800"},{"name":"ŞIHLAR MAH.","zip":"44800"},{"name":"TARHAN MAH.","zip":"44800"},{"name":"TAŞDELEN MAH.","zip":"44800"},{"name":"TAŞDİBEK MAH.","zip":"44800"},{"name":"ULAÇLI MAH.","zip":"44800"},{"name":"YAYLACIK MAH.","zip":"44800"},{"name":"YAZILI MAH.","zip":"44800"},{"name":"YENİ MAH.","zip":"44800"},{"name":"YEŞİLYAYLA MAH.","zip":"44800"},{"name":"YUKARIÇÖRENGE MAH.","zip":"44800"},{"name":"YUKARIULUPINAR MAH.","zip":"44800"},{"name":"YUKARIYABANLI MAH.","zip":"44800"},{"name":"YUKARIYENİCE MAH.","zip":"44800"},{"name":"ZÖHRAP MAH.","zip":"44800"}]},{"name":"ARGUVAN","cityName":null,"quarters":[{"name":"ALHASUŞAĞI MAH.","zip":"44960"},{"name":"ARMUTLU MAH.","zip":"44960"},{"name":"ASAR MAH.","zip":"44960"},{"name":"ASMACA MAH.","zip":"44960"},{"name":"AŞAĞISÜLMENLİ MAH.","zip":"44960"},{"name":"BAHÇELİ MAH.","zip":"44960"},{"name":"BAHÇELİEVLER MAH.","zip":"44960"},{"name":"BOZAN MAH.","zip":"44960"},{"name":"ÇAKMAK MAH.","zip":"44960"},{"name":"ÇAVUŞKÖY MAH.","zip":"44960"},{"name":"ÇAYIRLI MAH.","zip":"44960"},{"name":"ÇEVRELİ MAH.","zip":"44960"},{"name":"ÇİFTLİK MAH.","zip":"44960"},{"name":"DOLAYLI MAH.","zip":"44960"},{"name":"DOYDUM MAH.","zip":"44960"},{"name":"ERMİŞLİ MAH.","zip":"44960"},{"name":"EYMİR MAH.","zip":"44960"},{"name":"GÖÇERUŞAĞI MAH.","zip":"44960"},{"name":"GÖKAĞAÇ MAH.","zip":"44960"},{"name":"GÜMÜŞLÜ MAH.","zip":"44960"},{"name":"GÜNGÖREN MAH.","zip":"44960"},{"name":"GÜVEÇLİ MAH.","zip":"44960"},{"name":"HAKVERDİ MAH.","zip":"44960"},{"name":"İÇMECE MAH.","zip":"44960"},{"name":"İSAKÖY MAH.","zip":"44960"},{"name":"KARABABA MAH.","zip":"44960"},{"name":"KARAHÜYÜK MAH.","zip":"44960"},{"name":"KIZIK MAH.","zip":"44960"},{"name":"KIZILUŞAĞI MAH.","zip":"44960"},{"name":"KOÇAK MAH.","zip":"44960"},{"name":"KONAKBAŞI MAH.","zip":"44960"},{"name":"KOYUNCU MAH.","zip":"44960"},{"name":"KÖMÜRLÜK MAH.","zip":"44960"},{"name":"KURUTTAŞ MAH.","zip":"44960"},{"name":"KUYUDERE MAH.","zip":"44960"},{"name":"MORHAMAM MAH.","zip":"44960"},{"name":"NARMİKAN MAH.","zip":"44960"},{"name":"PARÇİKAN MAH.","zip":"44960"},{"name":"ŞOTİK MAH.","zip":"44960"},{"name":"TARLACIK MAH.","zip":"44960"},{"name":"TATKINIK MAH.","zip":"44960"},{"name":"TEPEBAĞ MAH.","zip":"44960"},{"name":"YAMAÇ MAH.","zip":"44960"},{"name":"YENİ MAH.","zip":"44960"},{"name":"YENİKÖY MAH.","zip":"44960"},{"name":"YONCALI MAH.","zip":"44960"},{"name":"YUKARISÜLMENLİ MAH.","zip":"44960"},{"name":"YÜREKTAŞI MAH.","zip":"44960"}]},{"name":"BATTALGAZİ","cityName":null,"quarters":[{"name":"AĞILYAZI MAH.","zip":"44210"},{"name":"ALACAKAPI MAH.","zip":"44210"},{"name":"ALHANUŞAĞI MAH.","zip":"44210"},{"name":"ALİŞAR MAH.","zip":"44210"},{"name":"ASLANBEY MAH.","zip":"44210"},{"name":"ATAKÖY MAH.","zip":"44210"},{"name":"B.HÜSEYİNBEY MAH.","zip":"44210"},{"name":"BAĞTEPE MAH.","zip":"44210"},{"name":"BAHÇELİEVLER MAH.","zip":"44210"},{"name":"BAHRİ MAH.","zip":"44210"},{"name":"BATTALGAZİ MAH.","zip":"44210"},{"name":"BEYLERBAŞI MAH.","zip":"44210"},{"name":"BORAN MAH.","zip":"44210"},{"name":"BULGURLU MAH.","zip":"44210"},{"name":"BULUTLU MAH.","zip":"44210"},{"name":"CEVHERİZADE MAH.","zip":"44210"},{"name":"CİRİKPINAR MAH.","zip":"44210"},{"name":"ÇAMURLU MAH.","zip":"44210"},{"name":"ÇOLAKLI MAH.","zip":"44210"},{"name":"ÇOLAKOĞLU MAH.","zip":"44210"},{"name":"DOLAMANTEPE MAH.","zip":"44210"},{"name":"DÜZYOL MAH.","zip":"44210"},{"name":"FERHADİYE MAH.","zip":"44210"},{"name":"FIRINCI MAH.","zip":"44210"},{"name":"GÖLLER MAH.","zip":"44210"},{"name":"GÖZTEPE MAH.","zip":"44210"},{"name":"GÜLÜMUŞAĞI MAH.","zip":"44210"},{"name":"HACIHALİLOĞLUÇİFTLİĞİ MAH.","zip":"44210"},{"name":"HACIYUSUFLAR MAH.","zip":"44210"},{"name":"HAMİDİYE MAH.","zip":"44210"},{"name":"HASIRCILAR MAH.","zip":"44210"},{"name":"HATUNSUYU MAH.","zip":"44210"},{"name":"HİSARTEPE MAH.","zip":"44210"},{"name":"İZZETİYE MAH.","zip":"44210"},{"name":"K.HÜSEYİNBEY MAH.","zip":"44210"},{"name":"KADIÇAYIRI MAH.","zip":"44210"},{"name":"KAMIŞTAŞ MAH.","zip":"44210"},{"name":"KAPIKAYA MAH.","zip":"44210"},{"name":"KARABAĞLAR MAH.","zip":"44210"},{"name":"KARAGÖZ MAH.","zip":"44210"},{"name":"KARAHAN MAH.","zip":"44210"},{"name":"KARAKAŞÇİFTLİĞİKÖYÜ MAH.","zip":"44210"},{"name":"KARAKÖY MAH.","zip":"44210"},{"name":"KARATEPE MAH.","zip":"44210"},{"name":"KEMERKÖPRÜ MAH.","zip":"44210"},{"name":"KULUŞAĞI MAH.","zip":"44210"},{"name":"MERDİVENLER MAH.","zip":"44210"},{"name":"MERKEZ BEYDAĞI MAH.","zip":"44210"},{"name":"MEYDANBAŞI MAH.","zip":"44210"},{"name":"MEYDANCIK MAH.","zip":"44210"},{"name":"PELİTLİ MAH.","zip":"44210"},{"name":"SEVİLDAĞ MAH.","zip":"44210"},{"name":"ŞEHİTFEVZİ MAH.","zip":"44210"},{"name":"ŞIKŞIK MAH.","zip":"44210"},{"name":"TANIŞIK MAH.","zip":"44210"},{"name":"TOKLUCA MAH.","zip":"44210"},{"name":"TOPTAŞ MAH.","zip":"44210"},{"name":"TOYGAR MAH.","zip":"44210"},{"name":"ULUKÖY MAH.","zip":"44210"},{"name":"ÜÇBAĞLAR MAH.","zip":"44210"},{"name":"ÜZÜMLÜ MAH.","zip":"44210"},{"name":"YAMAÇ MAH.","zip":"44210"},{"name":"YARIMCAHAN MAH.","zip":"44210"},{"name":"YAYGIN MAH.","zip":"44210"},{"name":"YENİ MAH.","zip":"44210"},{"name":"YENİCE MAH.","zip":"44210"},{"name":"YENİKÖY MAH.","zip":"44210"}]},{"name":"BEYDAĞI","cityName":null,"quarters":[{"name":"ÇÖŞNÜK MAH.","zip":"44320"},{"name":"FIRAT MAH.","zip":"44320"}]},{"name":"DABAKHANE","cityName":null,"quarters":[{"name":"DABAKHANE MAH.","zip":"44100"},{"name":"HALFETTİN MAH.","zip":"44100"},{"name":"İSMETİYE MAH.","zip":"44100"},{"name":"KAVAKLIBAĞ MAH.","zip":"44100"},{"name":"KIRÇUVAL MAH.","zip":"44100"},{"name":"NİYAZİ MAH.","zip":"44100"},{"name":"SANCAKTAR MAH.","zip":"44100"},{"name":"ŞİFA MAH.","zip":"44100"},{"name":"ŞİŞMAN MAH.","zip":"44100"},{"name":"YENİHAMAM MAH.","zip":"44100"}]},{"name":"HANIMINÇİFTLİĞİ","cityName":null,"quarters":[{"name":"SELÇUKLU MAH.","zip":"44050"},{"name":"TANDOĞAN MAH.","zip":"44050"},{"name":"YILDIZTEPE MAH.","zip":"44050"}]},{"name":"KANALBOYU","cityName":null,"quarters":[{"name":"SARAY MAH.","zip":"44300"},{"name":"ZAFER MAH.","zip":"44300"}]},{"name":"KAPALIÇARŞI","cityName":null,"quarters":[{"name":"HASAN VAROL MAH.","zip":"44200"},{"name":"İSTİKLAL MAH.","zip":"44200"},{"name":"PAŞAKÖŞKÜ MAH.","zip":"44200"}]},{"name":"ORDUZU","cityName":null,"quarters":null},{"name":"SITMAPINARI","cityName":null,"quarters":[{"name":"HACI ABDİ MAH.","zip":"44120"},{"name":"K.MUSTAFA PAŞA MAH.","zip":"44120"},{"name":"NURİYE MAH.","zip":"44120"}]},{"name":"TAŞTEPE","cityName":null,"quarters":[{"name":"İSKENDER MAH.","zip":"44060"},{"name":"SARICIOĞLU MAH.","zip":"44060"},{"name":"TAŞTEPE MAH.","zip":"44060"}]},{"name":"DARENDE","cityName":null,"quarters":[{"name":"AĞILYAZI MAH.","zip":"44700"},{"name":"AKBABA MAH.","zip":"44700"},{"name":"AKÇATOPRAK MAH.","zip":"44700"},{"name":"AKOVA MAH.","zip":"44700"},{"name":"AŞAĞIULUPINAR MAH.","zip":"44700"},{"name":"AYVALI MAH.","zip":"44700"},{"name":"BALABAN MAH.","zip":"44700"},{"name":"BARINDIR MAH.","zip":"44700"},{"name":"BAŞDİREK MAH.","zip":"44700"},{"name":"BAŞKAYA MAH.","zip":"44700"},{"name":"BAYTARBAĞI MAH.","zip":"44700"},{"name":"BEYBAĞI MAH.","zip":"44700"},{"name":"ÇAYBAŞI MAH.","zip":"44700"},{"name":"ÇAYBAŞI OSB MAH.","zip":"44700"},{"name":"ÇINAR MAH.","zip":"44700"},{"name":"ÇUKURKAYA MAH.","zip":"44700"},{"name":"GAZİKÖY MAH.","zip":"44700"},{"name":"GÖKÇEÖREN MAH.","zip":"44700"},{"name":"GÖKYAR MAH.","zip":"44700"},{"name":"GÖLLÜCE MAH.","zip":"44700"},{"name":"GÜDÜL MAH.","zip":"44700"},{"name":"GÜNERLİ MAH.","zip":"44700"},{"name":"GÜNPINAR MAH.","zip":"44700"},{"name":"HACIDERVİŞ MAH.","zip":"44700"},{"name":"HACILAR SIRAGÖZ MAH.","zip":"44700"},{"name":"HACILAR ŞEYHLİ MAH.","zip":"44700"},{"name":"HACOLAR MAH.","zip":"44700"},{"name":"HEYİKETEĞİ MAH.","zip":"44700"},{"name":"HİSARCIK MAH.","zip":"44700"},{"name":"HİSARKALE MAH.","zip":"44700"},{"name":"ILICA MAH.","zip":"44700"},{"name":"IRMAKLI MAH.","zip":"44700"},{"name":"İBRAHİMPAŞA MAH.","zip":"44700"},{"name":"KALDIRIM MAH.","zip":"44700"},{"name":"KARABACAK MAH.","zip":"44700"},{"name":"KARABAYIR MAH.","zip":"44700"},{"name":"KARAOĞUZ MAH.","zip":"44700"},{"name":"KAVAK MAH.","zip":"44700"},{"name":"KAYNAK MAH.","zip":"44700"},{"name":"KERİMLİ MAH.","zip":"44700"},{"name":"KILIÇBAĞI MAH.","zip":"44700"},{"name":"KÖLÜKLER MAH.","zip":"44700"},{"name":"KURUDERE MAH.","zip":"44700"},{"name":"KUZPINAR MAH.","zip":"44700"},{"name":"MEDİŞEYH MAH.","zip":"44700"},{"name":"MEHMET PAŞA MAH.","zip":"44700"},{"name":"MOLLAUŞAĞI MAH.","zip":"44700"},{"name":"NADİR MAH.","zip":"44700"},{"name":"NURKUYUSU MAH.","zip":"44700"},{"name":"OZAN MAH.","zip":"44700"},{"name":"SAKARYA MAH.","zip":"44700"},{"name":"SANDIKKAYA MAH.","zip":"44700"},{"name":"SAYFİYE MAH.","zip":"44700"},{"name":"SUNGUR MAH.","zip":"44700"},{"name":"ŞENDERE MAH.","zip":"44700"},{"name":"ŞUĞUL MAH.","zip":"44700"},{"name":"UZUNHASAN MAH.","zip":"44700"},{"name":"ÜÇPINAR MAH.","zip":"44700"},{"name":"YARIMCA MAH.","zip":"44700"},{"name":"YAVUZLAR MAH.","zip":"44700"},{"name":"YAZIKÖY MAH.","zip":"44700"},{"name":"YENİCE MAH.","zip":"44700"},{"name":"YENİKÖY MAH.","zip":"44700"},{"name":"YENİPINAR MAH.","zip":"44700"},{"name":"YEŞİLTAŞ MAH.","zip":"44700"},{"name":"YUKARIULUPINAR MAH.","zip":"44700"},{"name":"ZAVİYE MAH.","zip":"44700"}]},{"name":"DOĞANŞEHİR","cityName":null,"quarters":[{"name":"BEĞRE MAH.","zip":"44500"},{"name":"BIÇAKÇI MAH.","zip":"44500"},{"name":"ÇAVUŞLU MAH.","zip":"44500"},{"name":"ÇIĞLIK MAH.","zip":"44500"},{"name":"ÇÖMLEKOBA MAH.","zip":"44500"},{"name":"DEDEYAZI MAH.","zip":"44500"},{"name":"DOĞU MAH.","zip":"44500"},{"name":"ELMALI MAH.","zip":"44500"},{"name":"ERKENEK MAH.","zip":"44500"},{"name":"ESENTEPE MAH.","zip":"44500"},{"name":"ESKİKÖY MAH.","zip":"44500"},{"name":"FINDIK MAH.","zip":"44500"},{"name":"GÖVDELİ MAH.","zip":"44500"},{"name":"GÜNEDOĞRU MAH.","zip":"44500"},{"name":"GÜROBASI MAH.","zip":"44500"},{"name":"GÜZELKÖY MAH.","zip":"44500"},{"name":"HUDUT MAH.","zip":"44500"},{"name":"KADILI MAH.","zip":"44500"},{"name":"KAPIDERE MAH.","zip":"44500"},{"name":"KARANLIKDERE MAH.","zip":"44500"},{"name":"KARATERZİ MAH.","zip":"44500"},{"name":"KARŞIYAKA MAH.","zip":"44500"},{"name":"KELHALİL MAH.","zip":"44500"},{"name":"KURUCAOVA MAH.","zip":"44500"},{"name":"KÜÇÜKLÜ MAH.","zip":"44500"},{"name":"ÖRENCİK MAH.","zip":"44500"},{"name":"POLAT MAH.","zip":"44500"},{"name":"POLATDERE MAH.","zip":"44500"},{"name":"REŞADİYE MAH.","zip":"44500"},{"name":"SAVAKLI MAH.","zip":"44500"},{"name":"SÖĞÜT MAH.","zip":"44500"},{"name":"SUÇATI MAH.","zip":"44500"},{"name":"SÜRGÜ MAH.","zip":"44500"},{"name":"ŞATIROBA MAH.","zip":"44500"},{"name":"TOPRAKTEPE MAH.","zip":"44500"},{"name":"YENİ MAH.","zip":"44500"},{"name":"YOLKORU MAH.","zip":"44500"},{"name":"YUVALI MAH.","zip":"44500"}]},{"name":"DOĞANYOL","cityName":null,"quarters":[{"name":"BEHRAMLI MAH.","zip":"44880"},{"name":"BURÇKÖY MAH.","zip":"44880"},{"name":"ÇOLAK MAH.","zip":"44880"},{"name":"DAMLI MAH.","zip":"44880"},{"name":"GEVHERUŞAĞI MAH.","zip":"44880"},{"name":"GÖKÇE MAH.","zip":"44880"},{"name":"GÜMÜŞSU MAH.","zip":"44880"},{"name":"İSAK MAH.","zip":"44880"},{"name":"KOLDERE MAH.","zip":"44880"},{"name":"KONURTAY MAH.","zip":"44880"},{"name":"MEZRAA MAH.","zip":"44880"},{"name":"POYRAZ MAH.","zip":"44880"},{"name":"ULUTAŞ MAH.","zip":"44880"},{"name":"YALINCA MAH.","zip":"44880"},{"name":"YEŞİLKÖY MAH.","zip":"44880"}]},{"name":"HEKİMHAN","cityName":null,"quarters":[{"name":"AKSÜTLÜ MAH.","zip":"44400"},{"name":"AŞAĞISAZLICA MAH.","zip":"44400"},{"name":"BAĞYOLU MAH.","zip":"44400"},{"name":"BAHÇEDAMI MAH.","zip":"44400"},{"name":"BAHÇELİEVLER MAH.","zip":"44400"},{"name":"BALLIKAYA MAH.","zip":"44400"},{"name":"BASAK MAH.","zip":"44400"},{"name":"BAŞKAVAK MAH.","zip":"44400"},{"name":"BAŞKINIK MAH.","zip":"44400"},{"name":"BEYKENT MAH.","zip":"44400"},{"name":"BOĞAZGÖREN MAH.","zip":"44400"},{"name":"BUDAKLI MAH.","zip":"44400"},{"name":"ÇANAKPINAR MAH.","zip":"44400"},{"name":"ÇİMENLİK MAH.","zip":"44400"},{"name":"ÇULHALI MAH.","zip":"44400"},{"name":"DAVULGU MAH.","zip":"44400"},{"name":"DELİHASANYURDU MAH.","zip":"44400"},{"name":"DEREKÖY MAH.","zip":"44400"},{"name":"DEVECİ MAH.","zip":"44400"},{"name":"DİKENLİ MAH.","zip":"44400"},{"name":"DİKİLİ MAH.","zip":"44400"},{"name":"DUMLU MAH.","zip":"44400"},{"name":"DURSUNLU MAH.","zip":"44400"},{"name":"FATİH MAH.","zip":"44400"},{"name":"GİRMANA MAH.","zip":"44400"},{"name":"GÜÇLÜ MAH.","zip":"44400"},{"name":"GÜVENÇ MAH.","zip":"44400"},{"name":"GÜZELYAYLA MAH.","zip":"44400"},{"name":"GÜZELYURT MAH.","zip":"44400"},{"name":"HACILAR MAH.","zip":"44400"},{"name":"HASANÇELEBİ MAH.","zip":"44400"},{"name":"HAYDAROĞLU MAH.","zip":"44400"},{"name":"IŞIKLI MAH.","zip":"44400"},{"name":"İĞDİR MAH.","zip":"44400"},{"name":"KARADERE MAH.","zip":"44400"},{"name":"KARAKÖÇEK MAH.","zip":"44400"},{"name":"KARAPINAR MAH.","zip":"44400"},{"name":"KARSLILAR MAH.","zip":"44400"},{"name":"KARŞIYAKA MAH.","zip":"44400"},{"name":"KAVACIK MAH.","zip":"44400"},{"name":"KOCAÖZÜ MAH.","zip":"44400"},{"name":"KOZDERE MAH.","zip":"44400"},{"name":"KÖPRÜLÜ MEHMET PAŞA MAH.","zip":"44400"},{"name":"KÖYLÜKÖYÜ MAH.","zip":"44400"},{"name":"KURŞUNLU MAH.","zip":"44400"},{"name":"MİMAR SİNAN MAH.","zip":"44400"},{"name":"MOLLAİBRAHİM MAH.","zip":"44400"},{"name":"SALICIK MAH.","zip":"44400"},{"name":"SARAYLI MAH.","zip":"44400"},{"name":"SARIKIZ MAH.","zip":"44400"},{"name":"SAZLICA MAH.","zip":"44400"},{"name":"SÖĞÜT MAH.","zip":"44400"},{"name":"ŞEHİT MEHMET FETHİ AKYÜZ MAH.","zip":"44400"},{"name":"TAŞBAŞI MAH.","zip":"44400"},{"name":"TAŞOLUK MAH.","zip":"44400"},{"name":"TURGUT ÖZAL MAH.","zip":"44400"},{"name":"UĞURLU MAH.","zip":"44400"},{"name":"YAĞCA MAH.","zip":"44400"},{"name":"YAYLADAM MAH.","zip":"44400"},{"name":"YENİ MAH.","zip":"44400"},{"name":"YEŞİLKALE MAH.","zip":"44400"},{"name":"YEŞİLKÖY MAH.","zip":"44400"},{"name":"YEŞİLPINAR MAH.","zip":"44400"},{"name":"YUKARISELİMLİ MAH.","zip":"44400"}]},{"name":"KALE","cityName":null,"quarters":[{"name":"AKÇA MAH.","zip":"44370"},{"name":"AKUŞAĞI MAH.","zip":"44370"},{"name":"BAĞLICA MAH.","zip":"44370"},{"name":"BENTKÖY MAH.","zip":"44370"},{"name":"ÇANAKÇI MAH.","zip":"44370"},{"name":"DARIPINAR MAH.","zip":"44370"},{"name":"DEDEKÖY MAH.","zip":"44370"},{"name":"DÜZTARLA MAH.","zip":"44370"},{"name":"ERDEMLİ MAH.","zip":"44370"},{"name":"GÜLENKÖY MAH.","zip":"44370"},{"name":"GÜNEYCE MAH.","zip":"44370"},{"name":"İKİZPINAR MAH.","zip":"44370"},{"name":"KALEKÖY MAH.","zip":"44370"},{"name":"KARAAĞAÇ MAH.","zip":"44370"},{"name":"KARAHÜSEYİN MAH.","zip":"44370"},{"name":"KIYICAK MAH.","zip":"44370"},{"name":"KOZLUK MAH.","zip":"44370"},{"name":"KUMLUYAZI MAH.","zip":"44370"},{"name":"MAHMUT DURSUN MAH.","zip":"44370"},{"name":"SALKIMLI MAH.","zip":"44370"},{"name":"SARIOT MAH.","zip":"44370"},{"name":"SOĞUKPINAR MAH.","zip":"44370"},{"name":"TEPEBAŞI MAH.","zip":"44370"},{"name":"UYANIK MAH.","zip":"44370"},{"name":"UZUNHÜSEYİN MAH.","zip":"44370"},{"name":"ÜÇDEĞİRMEN MAH.","zip":"44370"},{"name":"YENİDAMLAR MAH.","zip":"44370"}]},{"name":"KULUNCAK","cityName":null,"quarters":[{"name":"AŞAĞISELİMLİ MAH.","zip":"44760"},{"name":"BAHÇELİEVLER MAH.","zip":"44760"},{"name":"BAŞÖREN MAH.","zip":"44760"},{"name":"BIYIKBOĞAZI MAH.","zip":"44760"},{"name":"BİCİR MAH.","zip":"44760"},{"name":"BOĞAZİÇİ MAH.","zip":"44760"},{"name":"CİRİTBELEN MAH.","zip":"44760"},{"name":"ÇAYKÖY MAH.","zip":"44760"},{"name":"ÇÖRMÜ MAH.","zip":"44760"},{"name":"GÖĞEBAKAN MAH.","zip":"44760"},{"name":"İLİSULUK MAH.","zip":"44760"},{"name":"İSMETPAŞA MAH.","zip":"44760"},{"name":"İSTİKLAL MAH.","zip":"44760"},{"name":"KARABÜK MAH.","zip":"44760"},{"name":"KARAÇAYIR MAH.","zip":"44760"},{"name":"KARINCALIK MAH.","zip":"44760"},{"name":"KARLIK MAH.","zip":"44760"},{"name":"KAYNARCA MAH.","zip":"44760"},{"name":"KIZILHİSAR MAH.","zip":"44760"},{"name":"KIZILMAĞARA MAH.","zip":"44760"},{"name":"KONAKTEPE MAH.","zip":"44760"},{"name":"KÖMÜKLÜ MAH.","zip":"44760"},{"name":"ORTAPINAR MAH.","zip":"44760"},{"name":"SOFULAR MAH.","zip":"44760"},{"name":"SULTANLI MAH.","zip":"44760"},{"name":"TEMÜKLÜ MAH.","zip":"44760"},{"name":"YENİ MAH.","zip":"44760"}]},{"name":"PÖTÜRGE","cityName":null,"quarters":[{"name":"AKTARLA MAH.","zip":"44850"},{"name":"ALİÇERİ MAH.","zip":"44850"},{"name":"ALİHAN MAH.","zip":"44850"},{"name":"ARINLI MAH.","zip":"44850"},{"name":"ARITOPRAK MAH.","zip":"44850"},{"name":"ARSLANKENT MAH.","zip":"44850"},{"name":"BAKIMLI MAH.","zip":"44850"},{"name":"BALPINARI MAH.","zip":"44850"},{"name":"BAŞMEZRA MAH.","zip":"44850"},{"name":"BAYIRKÖY MAH.","zip":"44850"},{"name":"BELENKÖY MAH.","zip":"44850"},{"name":"BÖLÜKKAYA MAH.","zip":"44850"},{"name":"BÖLÜNMEZ MAH.","zip":"44850"},{"name":"BÜYÜKÖZ MAH.","zip":"44850"},{"name":"ÇAMLIDERE MAH.","zip":"44850"},{"name":"ÇAYKÖY MAH.","zip":"44850"},{"name":"ÇENGELLİ MAH.","zip":"44850"},{"name":"ÇIĞIRLI MAH.","zip":"44850"},{"name":"ÇUKUROYMAĞI MAH.","zip":"44850"},{"name":"DEREDÜZÜ MAH.","zip":"44850"},{"name":"ERDEMLER MAH.","zip":"44850"},{"name":"ERSELE MAH.","zip":"44850"},{"name":"ESENCİK MAH.","zip":"44850"},{"name":"ESENLİK MAH.","zip":"44850"},{"name":"GERTAN MAH.","zip":"44850"},{"name":"GÖZLÜCE MAH.","zip":"44850"},{"name":"GÜNDEĞER MAH.","zip":"44850"},{"name":"GÜNDÜZ MAH.","zip":"44850"},{"name":"HATİP MAH.","zip":"44850"},{"name":"KARAKAYA MAH.","zip":"44850"},{"name":"KARŞIYAKA MAH.","zip":"44850"},{"name":"KAVAKLIDERE MAH.","zip":"44850"},{"name":"KAYADERE MAH.","zip":"44850"},{"name":"KOÇKÖY MAH.","zip":"44850"},{"name":"KORUCAK MAH.","zip":"44850"},{"name":"KOZLUK MAH.","zip":"44850"},{"name":"KÖKLÜKAYA MAH.","zip":"44850"},{"name":"KÖRME MAH.","zip":"44850"},{"name":"KÖYLÜ MAH.","zip":"44850"},{"name":"MEŞEDİBİ MAH.","zip":"44850"},{"name":"NOHUTLU MAH.","zip":"44850"},{"name":"ORMANİÇİ MAH.","zip":"44850"},{"name":"ÖRENCİK MAH.","zip":"44850"},{"name":"ÖRMELİ MAH.","zip":"44850"},{"name":"ÖRNEKKÖY MAH.","zip":"44850"},{"name":"PAZARCIK MAH.","zip":"44850"},{"name":"POSKIRAN MAH.","zip":"44850"},{"name":"SAHİLKÖY MAH.","zip":"44850"},{"name":"SÖĞÜTLÜ MAH.","zip":"44850"},{"name":"ŞİRO TARAKSU MAH.","zip":"44850"},{"name":"ŞÜKAN MAH.","zip":"44850"},{"name":"TAŞBAŞI MAH.","zip":"44850"},{"name":"TAŞMIŞ MAH.","zip":"44850"},{"name":"TAŞTEPE MAH.","zip":"44850"},{"name":"TATLICAK MAH.","zip":"44850"},{"name":"TEKEDERESİ MAH.","zip":"44850"},{"name":"TELUŞAĞI MAH.","zip":"44850"},{"name":"TEPEHAN MAH.","zip":"44850"},{"name":"ULUTAŞ MAH.","zip":"44850"},{"name":"UZUNKORU MAH.","zip":"44850"},{"name":"UZUNTAŞ MAH.","zip":"44850"},{"name":"ÜÇYAKA MAH.","zip":"44850"},{"name":"YAMAÇ MAH.","zip":"44850"},{"name":"YANDERE MAH.","zip":"44850"},{"name":"YAZICA MAH.","zip":"44850"},{"name":"YEDİYOL MAH.","zip":"44850"},{"name":"YEŞİLDERE MAH.","zip":"44850"}]},{"name":"YAZIHAN","cityName":null,"quarters":[{"name":"ALİCAN MAH.","zip":"44350"},{"name":"AMBARCIK MAH.","zip":"44350"},{"name":"BAHÇELİEVLER MAH.","zip":"44350"},{"name":"BALABAN MAH.","zip":"44350"},{"name":"BEREKETLİ MAH.","zip":"44350"},{"name":"BOYACA MAH.","zip":"44350"},{"name":"BOZTEPE MAH.","zip":"44350"},{"name":"BÖĞÜRTLEN MAH.","zip":"44350"},{"name":"BUZLUK MAH.","zip":"44350"},{"name":"ÇAVUŞ MAH.","zip":"44350"},{"name":"ÇİVRİL MAH.","zip":"44350"},{"name":"DEDEKARGIN MAH.","zip":"44350"},{"name":"DOĞUŞ MAH.","zip":"44350"},{"name":"DURUCASU MAH.","zip":"44350"},{"name":"EĞRİBÜK MAH.","zip":"44350"},{"name":"EPREME MAH.","zip":"44350"},{"name":"ERECEK MAH.","zip":"44350"},{"name":"FETHİYE MAH.","zip":"44350"},{"name":"GAYRET MAH.","zip":"44350"},{"name":"GÖVÜK MAH.","zip":"44350"},{"name":"HAMİDİYE MAH.","zip":"44350"},{"name":"İRİAĞAÇ MAH.","zip":"44350"},{"name":"KARACA MAH.","zip":"44350"},{"name":"KOŞAR MAH.","zip":"44350"},{"name":"KÖMÜŞHAN MAH.","zip":"44350"},{"name":"MISIRDERE MAH.","zip":"44350"},{"name":"SADIKLI MAH.","zip":"44350"},{"name":"SİNANLI MAH.","zip":"44350"},{"name":"SÜRÜR MAH.","zip":"44350"},{"name":"TAHTALI MAH.","zip":"44350"},{"name":"TECİRLİ MAH.","zip":"44350"},{"name":"YENİ MAH.","zip":"44350"}]},{"name":"BOSTANBAŞI","cityName":null,"quarters":null},{"name":"ÇAVUŞOĞLU","cityName":null,"quarters":[{"name":"ÇAVUŞOĞLU MAH.","zip":"44070"},{"name":"İNÖNÜ MAH.","zip":"44070"},{"name":"SALKÖPRÜ MAH.","zip":"44070"}]},{"name":"DİLEK","cityName":null,"quarters":null},{"name":"GÜNDÜZBEY","cityName":null,"quarters":null},{"name":"KARAKAVAK","cityName":null,"quarters":null},{"name":"ÖZALPER","cityName":null,"quarters":[{"name":"ÇİLESİZ MAH.","zip":"44090"},{"name":"ÖZALPER MAH.","zip":"44090"},{"name":"ŞEYH BAYRAM MAH.","zip":"44090"},{"name":"TECDE MAH.","zip":"44090"},{"name":"TURGUT ÖZAL MAH.","zip":"44090"}]},{"name":"ŞAHNAHAN","cityName":null,"quarters":null},{"name":"TOPSÖĞÜT","cityName":null,"quarters":null},{"name":"YAKINCA","cityName":null,"quarters":null},{"name":"YEŞİLTEPE","cityName":null,"quarters":[{"name":"SEYRAN MAH.","zip":"44080"},{"name":"YEŞİLKAYNAK MAH.","zip":"44080"}]},{"name":"YEŞİLYURT","cityName":null,"quarters":[{"name":"2.OSB MAH.","zip":"44900"},{"name":"ABDULGAFFAR MAH.","zip":"44900"},{"name":"AŞAĞIKÖY MAH.","zip":"44900"},{"name":"ATALAR MAH.","zip":"44900"},{"name":"ATATÜRK MAH.","zip":"44900"},{"name":"BAHÇEBAŞI MAH.","zip":"44900"},{"name":"BENTBAŞI MAH.","zip":"44900"},{"name":"BİNDAL MAH.","zip":"44900"},{"name":"CEMALGÜRSEL MAH.","zip":"44900"},{"name":"CEVATPAŞA MAH.","zip":"44900"},{"name":"CUMHURİYET (YEŞİLYURT) MAH.","zip":"44900"},{"name":"CUMHURİYET MAH.","zip":"44900"},{"name":"ÇAYIRKÖY MAH.","zip":"44900"},{"name":"ÇUKURDERE MAH.","zip":"44900"},{"name":"DURANLAR MAH.","zip":"44900"},{"name":"DURULDU MAH.","zip":"44900"},{"name":"FATİH MAH.","zip":"44900"},{"name":"GEDİK MAH.","zip":"44900"},{"name":"GÖKTARLA MAH.","zip":"44900"},{"name":"GÖRGÜ MAH.","zip":"44900"},{"name":"GÖZENE MAH.","zip":"44900"},{"name":"HAMİDİYE MAH.","zip":"44900"},{"name":"HIROĞLU MAH.","zip":"44900"},{"name":"HOCA AHMET YESEVİ MAH.","zip":"44900"},{"name":"IŞIKLI MAH.","zip":"44900"},{"name":"İKİZCE MAH.","zip":"44900"},{"name":"İLYAS MAH.","zip":"44900"},{"name":"KADİRUŞAĞI MAH.","zip":"44900"},{"name":"KARAHAN MAH.","zip":"44900"},{"name":"KAYNARCA MAH.","zip":"44900"},{"name":"KENDİRLİ MAH.","zip":"44900"},{"name":"KIRKPINAR MAH.","zip":"44900"},{"name":"KIRLANGIÇ MAH.","zip":"44900"},{"name":"KİLTEPE MAH.","zip":"44900"},{"name":"KOŞU MAH.","zip":"44900"},{"name":"KOYUNOĞLU MAH.","zip":"44900"},{"name":"KOZLUK MAH.","zip":"44900"},{"name":"KUŞDOĞAN MAH.","zip":"44900"},{"name":"KUYULU MAH.","zip":"44900"},{"name":"MAHMUTLU MAH.","zip":"44900"},{"name":"MELEKBABA MAH.","zip":"44900"},{"name":"MERKEZ FATİH MAH.","zip":"44900"},{"name":"MULLAKASIM MAH.","zip":"44900"},{"name":"OLUKLU MAH.","zip":"44900"},{"name":"ORTAKÖY MAH.","zip":"44900"},{"name":"ÖNCÜ MAH.","zip":"44900"},{"name":"ÖZAL MAH.","zip":"44900"},{"name":"SALKONAK MAH.","zip":"44900"},{"name":"SAMANKÖY MAH.","zip":"44900"},{"name":"SAMANLI MAH.","zip":"44900"},{"name":"SEYİTUŞAĞI MAH.","zip":"44900"},{"name":"SU MAH.","zip":"44900"},{"name":"SULUKÖY MAH.","zip":"44900"},{"name":"SÜTLÜCE MAH.","zip":"44900"},{"name":"TEPEKÖY MAH.","zip":"44900"},{"name":"TOHMA MAH.","zip":"44900"},{"name":"TOPRAKTEPE MAH.","zip":"44900"},{"name":"ÜÇGÖZE MAH.","zip":"44900"},{"name":"YAKA MAH.","zip":"44900"},{"name":"YALINKAYA MAH.","zip":"44900"},{"name":"YAVUZ SELİM MAH.","zip":"44900"},{"name":"YENİ MAH.","zip":"44900"},{"name":"ZAVİYE MAH.","zip":"44900"}]}]}]}