{"id":45,"name":"MANİSA","cities":[{"name":"city","districts":[{"name":"AHMETLİ","cityName":null,"quarters":[{"name":"BAHÇECİK MAH.","zip":"45450"},{"name":"BARBAROS MAH.","zip":"45450"},{"name":"CAMBAZLI MAH.","zip":"45450"},{"name":"DEREKÖY MAH.","zip":"45450"},{"name":"DERİCİ MAH.","zip":"45450"},{"name":"DİBEKDERE MAH.","zip":"45450"},{"name":"GÜLDEDE MAH.","zip":"45450"},{"name":"HACIKÖSELİ MAH.","zip":"45450"},{"name":"HALİLKAHYA MAH.","zip":"45450"},{"name":"KARAKÖY MAH.","zip":"45450"},{"name":"KARGIN MAH.","zip":"45450"},{"name":"KENDİRLİK MAH.","zip":"45450"},{"name":"KESTELLİ MAH.","zip":"45450"},{"name":"KURTULUŞ MAH.","zip":"45450"},{"name":"MANDALLI MAH.","zip":"45450"},{"name":"SEYDİKÖY MAH.","zip":"45450"},{"name":"ULU CAMİ MAH.","zip":"45450"},{"name":"YARAŞLI MAH.","zip":"45450"},{"name":"ZAFER MAH.","zip":"45450"}]},{"name":"GÖKKAYA","cityName":null,"quarters":null},{"name":"AKHİSAR","cityName":null,"quarters":[{"name":"AKÇEŞME MAH.","zip":"45200"},{"name":"AKKOCALI MAH.","zip":"45200"},{"name":"AKSELENDİ MAH.","zip":"45200"},{"name":"ARABACIBOZKÖY MAH.","zip":"45200"},{"name":"AŞAĞIDOLMA MAH.","zip":"45200"},{"name":"ATATÜRK MAH.","zip":"45200"},{"name":"BALLICA MAH.","zip":"45200"},{"name":"BAŞLAMIŞ MAH.","zip":"45200"},{"name":"BEKİRLER MAH.","zip":"45200"},{"name":"BOYALILAR MAH.","zip":"45200"},{"name":"BÜKNÜŞ MAH.","zip":"45200"},{"name":"BÜNYANOSMANİYE MAH.","zip":"45200"},{"name":"CUMHURİYET MAH.","zip":"45200"},{"name":"ÇAMÖNÜ MAH.","zip":"45200"},{"name":"ÇANAKÇI MAH.","zip":"45200"},{"name":"ÇITAK MAH.","zip":"45200"},{"name":"ÇOBANHASAN MAH.","zip":"45200"},{"name":"ÇORUK MAH.","zip":"45200"},{"name":"DAĞDERE MAH.","zip":"45200"},{"name":"DAYIOĞLU MAH.","zip":"45200"},{"name":"DEREKÖY MAH.","zip":"45200"},{"name":"DİNGİLLER MAH.","zip":"45200"},{"name":"DOĞANKAYA MAH.","zip":"45200"},{"name":"DOĞUCA MAH.","zip":"45200"},{"name":"DOLMADEĞİRMEN MAH.","zip":"45200"},{"name":"DURASIL MAH.","zip":"45200"},{"name":"EFENDİ MAH.","zip":"45200"},{"name":"ERDELLİ MAH.","zip":"45200"},{"name":"EROĞLU MAH.","zip":"45200"},{"name":"EVKAFTEKE MAH.","zip":"45200"},{"name":"GÖCEK MAH.","zip":"45200"},{"name":"GÖKÇEAHMET MAH.","zip":"45200"},{"name":"GÖKÇELER MAH.","zip":"45200"},{"name":"HACI İSHAK MAH.","zip":"45200"},{"name":"HACIİBRAHİMLER MAH.","zip":"45200"},{"name":"HACIOSMANLAR MAH.","zip":"45200"},{"name":"HAMİDİYE MAH.","zip":"45200"},{"name":"HAMİTKÖY MAH.","zip":"45200"},{"name":"HANPAŞA MAH.","zip":"45200"},{"name":"HARMANDALI MAH.","zip":"45200"},{"name":"HAS HOCA MAH.","zip":"45200"},{"name":"HASKÖY MAH.","zip":"45200"},{"name":"HÜRRİYET MAH.","zip":"45200"},{"name":"IŞIKKÖY MAH.","zip":"45200"},{"name":"İNÖNÜ MAH.","zip":"45200"},{"name":"İSACA MAH.","zip":"45200"},{"name":"KABAAĞAÇKIRAN MAH.","zip":"45200"},{"name":"KADIDAĞI MAH.","zip":"45200"},{"name":"KAPAKLI MAH.","zip":"45200"},{"name":"KARABÖRKLÜ MAH.","zip":"45200"},{"name":"KARAKÖY MAH.","zip":"45200"},{"name":"KARAYAĞCI MAH.","zip":"45200"},{"name":"KAVAKALAN MAH.","zip":"45200"},{"name":"KAYALIOĞLU MAH.","zip":"45200"},{"name":"KAYGANLI MAH.","zip":"45200"},{"name":"KETHÜDA MAH.","zip":"45200"},{"name":"KIZLARALANI MAH.","zip":"45200"},{"name":"KOBAŞDERE MAH.","zip":"45200"},{"name":"KOCAKAĞAN MAH.","zip":"45200"},{"name":"KÖMÜRCÜ MAH.","zip":"45200"},{"name":"KULAKSIZLAR MAH.","zip":"45200"},{"name":"KURTULMUŞ MAH.","zip":"45200"},{"name":"MECİDİYE MAH.","zip":"45200"},{"name":"MEDAR MAH.","zip":"45200"},{"name":"MORALILAR MAH.","zip":"45200"},{"name":"MUSACA MAH.","zip":"45200"},{"name":"MUSALAR MAH.","zip":"45200"},{"name":"MUŞTULLAR MAH.","zip":"45200"},{"name":"PAŞA MAH.","zip":"45200"},{"name":"PEKMEZCİ MAH.","zip":"45200"},{"name":"PINARCIK MAH.","zip":"45200"},{"name":"RAGIP BEY MAH.","zip":"45200"},{"name":"RAHMİYE MAH.","zip":"45200"},{"name":"REŞAT BEY MAH.","zip":"45200"},{"name":"SABANCILAR MAH.","zip":"45200"},{"name":"SAĞRAKÇI MAH.","zip":"45200"},{"name":"SAKARKAYA MAH.","zip":"45200"},{"name":"SARIÇALI MAH.","zip":"45200"},{"name":"SARILAR MAH.","zip":"45200"},{"name":"SARNIÇKÖY MAH.","zip":"45200"},{"name":"SAZOBA MAH.","zip":"45200"},{"name":"SEĞİRDİM MAH.","zip":"45200"},{"name":"SELÇİKLİ MAH.","zip":"45200"},{"name":"SELVİLİ MAH.","zip":"45200"},{"name":"SEYİT AHMET MAH.","zip":"45200"},{"name":"SIRTKÖY MAH.","zip":"45200"},{"name":"SİNDELLİ MAH.","zip":"45200"},{"name":"SÖĞÜTLÜ MAH.","zip":"45200"},{"name":"SÜLEYMANKÖY MAH.","zip":"45200"},{"name":"SÜLEYMANLI MAH.","zip":"45200"},{"name":"SÜNNETÇİLER MAH.","zip":"45200"},{"name":"ŞEHİTLER MAH.","zip":"45200"},{"name":"ŞEYHİSA MAH.","zip":"45200"},{"name":"TAŞÇILAR MAH.","zip":"45200"},{"name":"TOPLUCA MAH.","zip":"45200"},{"name":"TÜTENLİ MAH.","zip":"45200"},{"name":"ULU CAMİİ MAH.","zip":"45200"},{"name":"ULUPINAR MAH.","zip":"45200"},{"name":"ÜÇAVLU MAH.","zip":"45200"},{"name":"YATAĞAN MAH.","zip":"45200"},{"name":"YAYAKIRILDIK MAH.","zip":"45200"},{"name":"YAYKIN MAH.","zip":"45200"},{"name":"YEĞENOBA MAH.","zip":"45200"},{"name":"YENİCE MAH.","zip":"45200"},{"name":"YENİDOĞAN MAH.","zip":"45200"},{"name":"ZEYTİNLİBAĞ MAH.","zip":"45200"},{"name":"ZEYTİNLİOVA MAH.","zip":"45200"}]},{"name":"BEYOBA","cityName":null,"quarters":null},{"name":"MERKEZKÖYLER","cityName":null,"quarters":null},{"name":"ALAŞEHİR","cityName":null,"quarters":[{"name":"ALHAN MAH.","zip":"45600"},{"name":"AYDOĞDU MAH.","zip":"45600"},{"name":"AZITEPE MAH.","zip":"45600"},{"name":"BADINCA MAH.","zip":"45600"},{"name":"BAHADIR MAH.","zip":"45600"},{"name":"BAHÇEDERE MAH.","zip":"45600"},{"name":"BAHÇELİKÖY MAH.","zip":"45600"},{"name":"BAKLACI MAH.","zip":"45600"},{"name":"BARIŞ MAH.","zip":"45600"},{"name":"BELENYAKA MAH.","zip":"45600"},{"name":"BEŞEYLÜL MAH.","zip":"45600"},{"name":"CABERBURHAN MAH.","zip":"45600"},{"name":"CABERFAKILI MAH.","zip":"45600"},{"name":"CABERKAMARA MAH.","zip":"45600"},{"name":"ÇAĞLAYAN MAH.","zip":"45600"},{"name":"ÇAKIRCAALİ MAH.","zip":"45600"},{"name":"ÇAMLIBEL MAH.","zip":"45600"},{"name":"ÇARIKBOZDAĞ MAH.","zip":"45600"},{"name":"ÇARIKKARALAR MAH.","zip":"45600"},{"name":"ÇARIKTEKKE MAH.","zip":"45600"},{"name":"ÇEŞNELİ MAH.","zip":"45600"},{"name":"DAĞARLAR MAH.","zip":"45600"},{"name":"DAĞHACIYUSUF MAH.","zip":"45600"},{"name":"DELEMENLER MAH.","zip":"45600"},{"name":"ERENKÖY MAH.","zip":"45600"},{"name":"ESEN TEPE MAH.","zip":"45600"},{"name":"EVRENLİ MAH.","zip":"45600"},{"name":"FATİH MAH.","zip":"45600"},{"name":"GİRELLİ MAH.","zip":"45600"},{"name":"GÖBEKLİ MAH.","zip":"45600"},{"name":"GÜLENYAKA MAH.","zip":"45600"},{"name":"GÜLPINAR MAH.","zip":"45600"},{"name":"GÜMÜŞÇAY MAH.","zip":"45600"},{"name":"GÜRSU MAH.","zip":"45600"},{"name":"HACIALİLER MAH.","zip":"45600"},{"name":"HACIBEY MAH.","zip":"45600"},{"name":"HORZUMALAYAKA MAH.","zip":"45600"},{"name":"HORZUMEMBELLİ MAH.","zip":"45600"},{"name":"HORZUMKESERLER MAH.","zip":"45600"},{"name":"HORZUMSAZDERE MAH.","zip":"45600"},{"name":"ILGIN MAH.","zip":"45600"},{"name":"ILICA MAH.","zip":"45600"},{"name":"IŞIKLAR MAH.","zip":"45600"},{"name":"İSMAİLBEY MAH.","zip":"45600"},{"name":"İSMETİYE MAH.","zip":"45600"},{"name":"İSTASYON MAH.","zip":"45600"},{"name":"KARACALAR MAH.","zip":"45600"},{"name":"KARADAĞ MAH.","zip":"45600"},{"name":"KASAPLI MAH.","zip":"45600"},{"name":"KESTANEDERESİ MAH.","zip":"45600"},{"name":"KOZLUCA MAH.","zip":"45600"},{"name":"KURTULUŞ MAH.","zip":"45600"},{"name":"KURUDERE MAH.","zip":"45600"},{"name":"MATARLI MAH.","zip":"45600"},{"name":"MENDERES MAH.","zip":"45600"},{"name":"NARLIDERE MAH.","zip":"45600"},{"name":"OSMANİYE MAH.","zip":"45600"},{"name":"ÖRENCİK MAH.","zip":"45600"},{"name":"ÖRNEKKÖY MAH.","zip":"45600"},{"name":"SAKARYA MAH.","zip":"45600"},{"name":"SARIPINAR MAH.","zip":"45600"},{"name":"SARISU MAH.","zip":"45600"},{"name":"SELCE MAH.","zip":"45600"},{"name":"SERİNKÖY MAH.","zip":"45600"},{"name":"SERİNYAYLA MAH.","zip":"45600"},{"name":"SOBRAN MAH.","zip":"45600"},{"name":"SOĞANLI MAH.","zip":"45600"},{"name":"SOĞUKSU MAH.","zip":"45600"},{"name":"SOĞUKYURT MAH.","zip":"45600"},{"name":"SUBAŞI MAH.","zip":"45600"},{"name":"ŞAHYAR MAH.","zip":"45600"},{"name":"ŞEYH SİNAN MAH.","zip":"45600"},{"name":"TEPEKÖY MAH.","zip":"45600"},{"name":"TOYGAR MAH.","zip":"45600"},{"name":"TÜRKMEN MAH.","zip":"45600"},{"name":"ÜZÜMLÜ MAH.","zip":"45600"},{"name":"YENİ MAH.","zip":"45600"},{"name":"YENİCE MAH.","zip":"45600"},{"name":"YENİKÖY MAH.","zip":"45600"},{"name":"YUVACALI MAH.","zip":"45600"}]},{"name":"KAVAKLIDERE","cityName":null,"quarters":null},{"name":"KEMALİYE","cityName":null,"quarters":null},{"name":"KİLLİK","cityName":null,"quarters":null},{"name":"PİYADELER","cityName":null,"quarters":null},{"name":"ULUDERBENT","cityName":null,"quarters":null},{"name":"YEŞİLYURT","cityName":null,"quarters":null},{"name":"DEMİRCİ","cityName":null,"quarters":[{"name":"AHMETLER MAH.","zip":"45900"},{"name":"AKDERE MAH.","zip":"45900"},{"name":"AKINCILAR MAH.","zip":"45900"},{"name":"ALAAĞAÇ MAH.","zip":"45900"},{"name":"ARMUTLU MAH.","zip":"45900"},{"name":"AYVAALAN MAH.","zip":"45900"},{"name":"AZİZBEY MAH.","zip":"45900"},{"name":"BAHÇELER MAH.","zip":"45900"},{"name":"BARDAKÇI MAH.","zip":"45900"},{"name":"BAYRAMŞAH MAH.","zip":"45900"},{"name":"BEYAZIT MAH.","zip":"45900"},{"name":"BOYACIK MAH.","zip":"45900"},{"name":"BOZÇATLI MAH.","zip":"45900"},{"name":"BOZKÖY MAH.","zip":"45900"},{"name":"BÜYÜKKIRAN MAH.","zip":"45900"},{"name":"CAMİİ ATİK MAH.","zip":"45900"},{"name":"CUMHURİYET MAH.","zip":"45900"},{"name":"ÇAĞILLAR MAH.","zip":"45900"},{"name":"ÇAMKÖY MAH.","zip":"45900"},{"name":"ÇAMLICA MAH.","zip":"45900"},{"name":"ÇANAKÇI MAH.","zip":"45900"},{"name":"ÇANDIR MAH.","zip":"45900"},{"name":"ÇARDAKLI MAH.","zip":"45900"},{"name":"ÇATALOLUK MAH.","zip":"45900"},{"name":"DANİŞMENTLER MAH.","zip":"45900"},{"name":"DEMİRCİ MAH.","zip":"45900"},{"name":"DOKTOR MEHMET AKARSU MAH.","zip":"45900"},{"name":"ELEK MAH.","zip":"45900"},{"name":"ESENYURT MAH.","zip":"45900"},{"name":"ESKİHİSAR MAH.","zip":"45900"},{"name":"FATİH MAH.","zip":"45900"},{"name":"GÖMEÇLER MAH.","zip":"45900"},{"name":"GÜMELE MAH.","zip":"45900"},{"name":"GÜRÇEŞME MAH.","zip":"45900"},{"name":"GÜVELİ MAH.","zip":"45900"},{"name":"HACIBABA MAH.","zip":"45900"},{"name":"HACIHAMZA MAH.","zip":"45900"},{"name":"HACIHASAN MAH.","zip":"45900"},{"name":"HACITÜRBEK MAH.","zip":"45900"},{"name":"HIRKALI MAH.","zip":"45900"},{"name":"HOŞÇALAR MAH.","zip":"45900"},{"name":"HÜDÜK MAH.","zip":"45900"},{"name":"IKLIKÇI MAH.","zip":"45900"},{"name":"İCİKLER MAH.","zip":"45900"},{"name":"İÇHİSAR MAH.","zip":"45900"},{"name":"İMCELER MAH.","zip":"45900"},{"name":"İMRENLER MAH.","zip":"45900"},{"name":"İRİŞLER MAH.","zip":"45900"},{"name":"İSMAİLLER MAH.","zip":"45900"},{"name":"KARAİSALAR MAH.","zip":"45900"},{"name":"KARGINIŞIKLAR MAH.","zip":"45900"},{"name":"KASIMFAKI MAH.","zip":"45900"},{"name":"KAYAKÖY MAH.","zip":"45900"},{"name":"KAYRANOKÇULAR MAH.","zip":"45900"},{"name":"KAZANCI MAH.","zip":"45900"},{"name":"KERPİÇLİK MAH.","zip":"45900"},{"name":"KILAVUZLAR MAH.","zip":"45900"},{"name":"KIŞLAK MAH.","zip":"45900"},{"name":"KOVANCI MAH.","zip":"45900"},{"name":"KÖYLÜCE MAH.","zip":"45900"},{"name":"KULALAR MAH.","zip":"45900"},{"name":"KUZEYİR MAH.","zip":"45900"},{"name":"KUZUKÖY MAH.","zip":"45900"},{"name":"KÜÇÜKKIRAN MAH.","zip":"45900"},{"name":"KÜÇÜKOBA MAH.","zip":"45900"},{"name":"KÜPELER MAH.","zip":"45900"},{"name":"MARMARACIK MAH.","zip":"45900"},{"name":"MEZİTLER MAH.","zip":"45900"},{"name":"MİNNETLER MAH.","zip":"45900"},{"name":"MİTHATPAŞA MAH.","zip":"45900"},{"name":"ÖKSÜZLÜ MAH.","zip":"45900"},{"name":"ÖREN MAH.","zip":"45900"},{"name":"ÖRÜCÜLER MAH.","zip":"45900"},{"name":"PAZAR MAH.","zip":"45900"},{"name":"RAHMANLAR MAH.","zip":"45900"},{"name":"SAĞNIÇ MAH.","zip":"45900"},{"name":"SAYIK MAH.","zip":"45900"},{"name":"SECAATTİN MAH.","zip":"45900"},{"name":"SERÇELER MAH.","zip":"45900"},{"name":"SEVİŞLER MAH.","zip":"45900"},{"name":"SİNAN MAH.","zip":"45900"},{"name":"SOFULAR MAH.","zip":"45900"},{"name":"SÖĞÜTÇÜK MAH.","zip":"45900"},{"name":"ŞEHREKÜSTÜ MAH.","zip":"45900"},{"name":"TALAS MAH.","zip":"45900"},{"name":"TAŞOKÇULAR MAH.","zip":"45900"},{"name":"TEKELER MAH.","zip":"45900"},{"name":"TEPERİK MAH.","zip":"45900"},{"name":"ULACIK MAH.","zip":"45900"},{"name":"ÜŞÜMÜŞ MAH.","zip":"45900"},{"name":"YAĞMUR MAH.","zip":"45900"},{"name":"YARBASAN MAH.","zip":"45900"},{"name":"YAVAŞLAR MAH.","zip":"45900"},{"name":"YENİCE MAH.","zip":"45900"},{"name":"YEŞİLDERE MAH.","zip":"45900"},{"name":"YEŞİLOBA MAH.","zip":"45900"},{"name":"YİĞENLER MAH.","zip":"45900"},{"name":"YİĞİTLER MAH.","zip":"45900"}]},{"name":"DURHASAN","cityName":null,"quarters":null},{"name":"MAHMUTLAR","cityName":null,"quarters":null},{"name":"GÖLMARMARA","cityName":null,"quarters":[{"name":"AYANLAR MAH.","zip":"45580"},{"name":"BEYLER MAH.","zip":"45580"},{"name":"ÇAMKÖY MAH.","zip":"45580"},{"name":"ÇÖMLEKÇİ MAH.","zip":"45580"},{"name":"DEĞNEKLER MAH.","zip":"45580"},{"name":"ESKİ CAMİİ MAH.","zip":"45580"},{"name":"HACIBAŞTANLAR MAH.","zip":"45580"},{"name":"HACIVELİLER MAH.","zip":"45580"},{"name":"HIROĞLU MAH.","zip":"45580"},{"name":"İHSANİYE MAH.","zip":"45580"},{"name":"İSMETPAŞA MAH.","zip":"45580"},{"name":"KAYAALTI MAH.","zip":"45580"},{"name":"KAYAPINAR MAH.","zip":"45580"},{"name":"KILCANLAR MAH.","zip":"45580"},{"name":"OZANCA MAH.","zip":"45580"},{"name":"TAŞKUYUCAK MAH.","zip":"45580"},{"name":"TİYENLİ MAH.","zip":"45580"},{"name":"YENİ CAMİİ MAH.","zip":"45580"},{"name":"YENİKÖY MAH.","zip":"45580"},{"name":"YUNUSLAR MAH.","zip":"45580"}]},{"name":"ÇİÇEKLİ","cityName":null,"quarters":null},{"name":"GÖRDES","cityName":null,"quarters":[{"name":"AKPINAR MAH.","zip":"45750"},{"name":"ATATÜRK MAH.","zip":"45750"},{"name":"BALIKLI MAH.","zip":"45750"},{"name":"BAYAT MAH.","zip":"45750"},{"name":"BEĞEL MAH.","zip":"45750"},{"name":"BEĞENLER MAH.","zip":"45750"},{"name":"BENLİELİ MAH.","zip":"45750"},{"name":"BEŞEYLÜL MAH.","zip":"45750"},{"name":"BOYALI MAH.","zip":"45750"},{"name":"BÖREZ MAH.","zip":"45750"},{"name":"CUMA MAH.","zip":"45750"},{"name":"ÇAĞLAYAN MAH.","zip":"45750"},{"name":"ÇATALARMUT MAH.","zip":"45750"},{"name":"ÇİĞİLLER MAH.","zip":"45750"},{"name":"DALKARA MAH.","zip":"45750"},{"name":"DARGIL MAH.","zip":"45750"},{"name":"DELİÇOBAN MAH.","zip":"45750"},{"name":"DEREÇİFTLİK MAH.","zip":"45750"},{"name":"DİKİLİTAŞ MAH.","zip":"45750"},{"name":"DİVAN MAH.","zip":"45750"},{"name":"DOĞANPINAR MAH.","zip":"45750"},{"name":"DUTLUCA MAH.","zip":"45750"},{"name":"EFENDİLİ MAH.","zip":"45750"},{"name":"FUNDACIK MAH.","zip":"45750"},{"name":"GÜLPINAR MAH.","zip":"45750"},{"name":"HÜSEYNİ BABA MAH.","zip":"45750"},{"name":"KABAKOZ MAH.","zip":"45750"},{"name":"KALEMOĞLU MAH.","zip":"45750"},{"name":"KARAAĞAÇ MAH.","zip":"45750"},{"name":"KARAKEÇİLİ MAH.","zip":"45750"},{"name":"KARAYAĞCI MAH.","zip":"45750"},{"name":"KARAYAKUP MAH.","zip":"45750"},{"name":"KAŞIKÇI MAH.","zip":"45750"},{"name":"KILCANLAR MAH.","zip":"45750"},{"name":"KIRAN MAH.","zip":"45750"},{"name":"KIYMIK MAH.","zip":"45750"},{"name":"KIZILDAM MAH.","zip":"45750"},{"name":"KOBAKLAR MAH.","zip":"45750"},{"name":"KORUBAŞI MAH.","zip":"45750"},{"name":"KÖSELER MAH.","zip":"45750"},{"name":"KUŞLUK MAH.","zip":"45750"},{"name":"KUYUCAKKARAPINAR MAH.","zip":"45750"},{"name":"KÜREKÇİ MAH.","zip":"45750"},{"name":"MALAZ MAH.","zip":"45750"},{"name":"MALKOCA MAH.","zip":"45750"},{"name":"MERKEZ TEPE MAH.","zip":"45750"},{"name":"NAKIPAĞA MAH.","zip":"45750"},{"name":"OĞULDURUK MAH.","zip":"45750"},{"name":"PINARBAŞI MAH.","zip":"45750"},{"name":"SALUR MAH.","zip":"45750"},{"name":"SARIALİLER MAH.","zip":"45750"},{"name":"ŞAHİNKAYA MAH.","zip":"45750"},{"name":"ŞEYHYAYLA MAH.","zip":"45750"},{"name":"TÜPÜLER MAH.","zip":"45750"},{"name":"ULGAR MAH.","zip":"45750"},{"name":"UZUNÇAM MAH.","zip":"45750"},{"name":"YAKAKÖY MAH.","zip":"45750"},{"name":"YENİKÖY MAH.","zip":"45750"},{"name":"YEŞİLYURT MAH.","zip":"45750"}]},{"name":"GÜNEŞLİ","cityName":null,"quarters":[{"name":"GÜNEŞLİ MAH.","zip":"45760"}]},{"name":"KAYACIK","cityName":null,"quarters":null},{"name":"BAKIR","cityName":null,"quarters":null},{"name":"GELENBE","cityName":null,"quarters":null},{"name":"İLYASLAR","cityName":null,"quarters":null},{"name":"KARAKURT","cityName":null,"quarters":null},{"name":"KIRKAĞAÇ","cityName":null,"quarters":[{"name":"ALİFAKI MAH.","zip":"45700"},{"name":"BADEMLİ MAH.","zip":"45700"},{"name":"BODUROĞLU MAH.","zip":"45700"},{"name":"BOSTANCI MAH.","zip":"45700"},{"name":"CİNOSMAN MAH.","zip":"45700"},{"name":"ÇALTICAK MAH.","zip":"45700"},{"name":"ÇİFTLİK MAH.","zip":"45700"},{"name":"ÇOBANLAR MAH.","zip":"45700"},{"name":"DEMİRTAŞ MAH.","zip":"45700"},{"name":"DUALAR MAH.","zip":"45700"},{"name":"FIRDANLAR MAH.","zip":"45700"},{"name":"GEBELER MAH.","zip":"45700"},{"name":"GÖKÇUKUR MAH.","zip":"45700"},{"name":"GÜVENDİK MAH.","zip":"45700"},{"name":"HACET MAH.","zip":"45700"},{"name":"HACIHİMMET MAH.","zip":"45700"},{"name":"HALKAHAVLU MAH.","zip":"45700"},{"name":"HAMİDİYE MAH.","zip":"45700"},{"name":"HAMİTLİ MAH.","zip":"45700"},{"name":"HIDIRAĞA MAH.","zip":"45700"},{"name":"IŞIKLAR MAH.","zip":"45700"},{"name":"KADRİYE MAH.","zip":"45700"},{"name":"KARAALİ MAH.","zip":"45700"},{"name":"KAYADİBİ MAH.","zip":"45700"},{"name":"KINIK MAH.","zip":"45700"},{"name":"KOCAİSKAN MAH.","zip":"45700"},{"name":"KOCAMEHMETAĞA MAH.","zip":"45700"},{"name":"KUYUCAK MAH.","zip":"45700"},{"name":"KÜÇÜKYAYA MAH.","zip":"45700"},{"name":"MEMİŞ MAH.","zip":"45700"},{"name":"MUSAHOCA MAH.","zip":"45700"},{"name":"MUSALAR MAH.","zip":"45700"},{"name":"ÖĞEÇLİ MAH.","zip":"45700"},{"name":"SAKARLI MAH.","zip":"45700"},{"name":"SARIAĞA MAH.","zip":"45700"},{"name":"SİLEDİK MAH.","zip":"45700"},{"name":"SÖĞÜTALAN MAH.","zip":"45700"},{"name":"ŞAİR EŞREF MAH.","zip":"45700"},{"name":"TEVFİKİYE MAH.","zip":"45700"},{"name":"YAĞMURLU MAH.","zip":"45700"},{"name":"YENİ MAH.","zip":"45700"},{"name":"ZORAĞA MAH.","zip":"45700"}]},{"name":"KÖPRÜBAŞI","cityName":null,"quarters":[{"name":"ALANYOLU MAH.","zip":"45930"},{"name":"ARMAĞAN MAH.","zip":"45930"},{"name":"ARPACI MAH.","zip":"45930"},{"name":"ATATÜRK MAH.","zip":"45930"},{"name":"AZİMLİ MAH.","zip":"45930"},{"name":"BORLU MAH.","zip":"45930"},{"name":"BOZBURUN MAH.","zip":"45930"},{"name":"CICIKLI MAH.","zip":"45930"},{"name":"ÇARIKLAR MAH.","zip":"45930"},{"name":"ÇAVULLAR MAH.","zip":"45930"},{"name":"ÇAYKÖY MAH.","zip":"45930"},{"name":"DÖĞÜŞEREN MAH.","zip":"45930"},{"name":"ESAT MAH.","zip":"45930"},{"name":"GÖKVELİLER MAH.","zip":"45930"},{"name":"GÖLBAŞI MAH.","zip":"45930"},{"name":"GÜLPINAR MAH.","zip":"45930"},{"name":"GÜNDOĞDU MAH.","zip":"45930"},{"name":"İKİZKUYU MAH.","zip":"45930"},{"name":"KARAELMACIK MAH.","zip":"45930"},{"name":"KARYAĞDI MAH.","zip":"45930"},{"name":"KASAR MAH.","zip":"45930"},{"name":"KAVAKYERİ MAH.","zip":"45930"},{"name":"KEMHALLI MAH.","zip":"45930"},{"name":"KIDIRCIK MAH.","zip":"45930"},{"name":"KINIK MAH.","zip":"45930"},{"name":"KIRANŞEYH MAH.","zip":"45930"},{"name":"KİLLİK MAH.","zip":"45930"},{"name":"KOZAKLI MAH.","zip":"45930"},{"name":"KULALI MAH.","zip":"45930"},{"name":"KURTLAR MAH.","zip":"45930"},{"name":"MEHMET AKİF ERSOY MAH.","zip":"45930"},{"name":"MESTANLI MAH.","zip":"45930"},{"name":"NAMIK KEMAL MAH.","zip":"45930"},{"name":"RAĞILLAR MAH.","zip":"45930"},{"name":"SARAYCIK MAH.","zip":"45930"},{"name":"SARGAÇ MAH.","zip":"45930"},{"name":"SELVİLER MAH.","zip":"45930"},{"name":"TEMREK MAH.","zip":"45930"},{"name":"TOKMAKLI MAH.","zip":"45930"},{"name":"UĞURLU MAH.","zip":"45930"},{"name":"YABACI MAH.","zip":"45930"},{"name":"YARDERE MAH.","zip":"45930"},{"name":"YENİCE MAH.","zip":"45930"},{"name":"YEŞİLKÖY MAH.","zip":"45930"},{"name":"YUMUKLAR MAH.","zip":"45930"}]},{"name":"KULA","cityName":null,"quarters":[{"name":"AHMETLİ MAH.","zip":"45170"},{"name":"AKGÜN MAH.","zip":"45170"},{"name":"AKTAŞ MAH.","zip":"45170"},{"name":"AYAZÖREN MAH.","zip":"45170"},{"name":"AYVATLAR MAH.","zip":"45170"},{"name":"BALIBEY MAH.","zip":"45170"},{"name":"BAŞIBÜYÜK MAH.","zip":"45170"},{"name":"BATTALMUSTAFA MAH.","zip":"45170"},{"name":"BAYRAMŞAH MAH.","zip":"45170"},{"name":"BEBEKLİ MAH.","zip":"45170"},{"name":"BEY MAH.","zip":"45170"},{"name":"BÖRTLÜCE MAH.","zip":"45170"},{"name":"CAMİİ CEDİT MAH.","zip":"45170"},{"name":"ÇARIKBALLI MAH.","zip":"45170"},{"name":"ÇARIKMAHMUTLU MAH.","zip":"45170"},{"name":"ÇİFTÇİİBRAHİM MAH.","zip":"45170"},{"name":"DEREKÖY MAH.","zip":"45170"},{"name":"EMRE MAH.","zip":"45170"},{"name":"ENCEKLER MAH.","zip":"45170"},{"name":"ERENBAĞI MAH.","zip":"45170"},{"name":"EROĞLU MAH.","zip":"45170"},{"name":"ESENYAZI MAH.","zip":"45170"},{"name":"EVCİLER MAH.","zip":"45170"},{"name":"GÖKÇEÖREN MAH.","zip":"45170"},{"name":"GÖKDERE MAH.","zip":"45170"},{"name":"GÖLBAŞI MAH.","zip":"45170"},{"name":"GÜVERCİNLİK MAH.","zip":"45170"},{"name":"HACITUFAN MAH.","zip":"45170"},{"name":"HAMİDİYE MAH.","zip":"45170"},{"name":"HAYALLİ MAH.","zip":"45170"},{"name":"İBRAHİMAĞA MAH.","zip":"45170"},{"name":"İNCESU MAH.","zip":"45170"},{"name":"KALINHARMAN MAH.","zip":"45170"},{"name":"KARAOBA MAH.","zip":"45170"},{"name":"KAVACIK MAH.","zip":"45170"},{"name":"KENGER MAH.","zip":"45170"},{"name":"KIZILKAYA MAH.","zip":"45170"},{"name":"KONURCA MAH.","zip":"45170"},{"name":"KÖREZ MAH.","zip":"45170"},{"name":"NARINCALIPITRAK MAH.","zip":"45170"},{"name":"NARINCALISÜLEYMAN MAH.","zip":"45170"},{"name":"ORTAKÖY MAH.","zip":"45170"},{"name":"PAPUÇLU MAH.","zip":"45170"},{"name":"SANDAL MAH.","zip":"45170"},{"name":"SARAÇLAR MAH.","zip":"45170"},{"name":"SARNIÇ MAH.","zip":"45170"},{"name":"SEYİTALİ MAH.","zip":"45170"},{"name":"SÖĞÜTDERE MAH.","zip":"45170"},{"name":"ŞEHİTLİOĞLU MAH.","zip":"45170"},{"name":"ŞEREMET MAH.","zip":"45170"},{"name":"ŞERİTLİ MAH.","zip":"45170"},{"name":"ŞIHLI MAH.","zip":"45170"},{"name":"TATLIÇEŞME MAH.","zip":"45170"},{"name":"TOPUZDAMLARI MAH.","zip":"45170"},{"name":"YAĞBASTI MAH.","zip":"45170"},{"name":"YENİKÖY MAH.","zip":"45170"},{"name":"YEŞİLYAYLA MAH.","zip":"45170"},{"name":"YURTBAŞI MAH.","zip":"45170"},{"name":"ZAFERİYE MAH.","zip":"45170"}]},{"name":"SAĞLIK","cityName":null,"quarters":[{"name":"BARIŞ MAH.","zip":"45310"},{"name":"KELİ MAH.","zip":"45310"},{"name":"KURTULUŞ MAH.","zip":"45310"},{"name":"ÖZYURT MAH.","zip":"45310"},{"name":"SAĞLIK MAH.","zip":"45310"},{"name":"SEYRANTEPE MAH.","zip":"45310"},{"name":"YEŞİLYURT MAH.","zip":"45310"}]},{"name":"SALİHLİ","cityName":null,"quarters":[{"name":"AKÇAKÖY MAH.","zip":"45300"},{"name":"AKÖREN MAH.","zip":"45300"},{"name":"AKYAR MAH.","zip":"45300"},{"name":"ALLAHDİYEN MAH.","zip":"45300"},{"name":"ATATÜRK MAH.","zip":"45300"},{"name":"BAĞCILAR MAH.","zip":"45300"},{"name":"BAHÇECİK MAH.","zip":"45300"},{"name":"BAŞLIOĞLU MAH.","zip":"45300"},{"name":"BEŞEYLÜL MAH.","zip":"45300"},{"name":"BEYLİKLİ MAH.","zip":"45300"},{"name":"BURHAN MAH.","zip":"45300"},{"name":"CAFERBEY MAH.","zip":"45300"},{"name":"CUMHURİYET MAH.","zip":"45300"},{"name":"ÇAKALDOĞANLAR MAH.","zip":"45300"},{"name":"ÇALTILI MAH.","zip":"45300"},{"name":"ÇAMURHAMAMI MAH.","zip":"45300"},{"name":"ÇAPAKLI MAH.","zip":"45300"},{"name":"ÇAVLU MAH.","zip":"45300"},{"name":"ÇAYKÖY MAH.","zip":"45300"},{"name":"ÇAYPINAR MAH.","zip":"45300"},{"name":"ÇELİKLİ MAH.","zip":"45300"},{"name":"ÇÖKELEK MAH.","zip":"45300"},{"name":"ÇUKUROBA MAH.","zip":"45300"},{"name":"DAMATLI MAH.","zip":"45300"},{"name":"DEDETAŞI MAH.","zip":"45300"},{"name":"DELİBAŞLI MAH.","zip":"45300"},{"name":"DERBENT MAH.","zip":"45300"},{"name":"DOMBAYLI MAH.","zip":"45300"},{"name":"DURASILLI MAH.","zip":"45300"},{"name":"ELDELEK MAH.","zip":"45300"},{"name":"EMİNBEY MAH.","zip":"45300"},{"name":"EMİRHACILI MAH.","zip":"45300"},{"name":"ESKİ CAMİ MAH.","zip":"45300"},{"name":"GAFFAR OKKAN MAH.","zip":"45300"},{"name":"GAZİLER MAH.","zip":"45300"},{"name":"GÖKÇEKÖY MAH.","zip":"45300"},{"name":"GÖKEYÜP MAH.","zip":"45300"},{"name":"GÖKKÖY MAH.","zip":"45300"},{"name":"GÜMÜŞ MAH.","zip":"45300"},{"name":"GÜNEŞ MAH.","zip":"45300"},{"name":"HACIBEKTAŞLI MAH.","zip":"45300"},{"name":"HACIHIDIR MAH.","zip":"45300"},{"name":"HACIKÖSELİ MAH.","zip":"45300"},{"name":"HACILI MAH.","zip":"45300"},{"name":"HASALAN MAH.","zip":"45300"},{"name":"İĞDECİK MAH.","zip":"45300"},{"name":"KABAZLI MAH.","zip":"45300"},{"name":"KALE MAH.","zip":"45300"},{"name":"KAPANCI MAH.","zip":"45300"},{"name":"KAPLAN MAH.","zip":"45300"},{"name":"KARAAĞAÇ MAH.","zip":"45300"},{"name":"KARAOĞLANLI MAH.","zip":"45300"},{"name":"KARAPINAR MAH.","zip":"45300"},{"name":"KARASAVCI MAH.","zip":"45300"},{"name":"KARAYAHŞİ MAH.","zip":"45300"},{"name":"KEMER MAH.","zip":"45300"},{"name":"KEMERDAMLARI MAH.","zip":"45300"},{"name":"KIRDAMLARI MAH.","zip":"45300"},{"name":"KIRVELİ MAH.","zip":"45300"},{"name":"KIZILHAVLU MAH.","zip":"45300"},{"name":"KOCAÇEŞME MAH.","zip":"45300"},{"name":"KORDON MAH.","zip":"45300"},{"name":"KÖSEALİ MAH.","zip":"45300"},{"name":"KURTTUTAN MAH.","zip":"45300"},{"name":"MAMATLI MAH.","zip":"45300"},{"name":"MERSİNDERE MAH.","zip":"45300"},{"name":"MERSİNLİ MAH.","zip":"45300"},{"name":"MEVLUTLU MAH.","zip":"45300"},{"name":"MİTATPAŞA MAH.","zip":"45300"},{"name":"NAMIK KEMAL MAH.","zip":"45300"},{"name":"ORAKLAR MAH.","zip":"45300"},{"name":"ORTAKÖY MAH.","zip":"45300"},{"name":"PAZARKÖY MAH.","zip":"45300"},{"name":"POYRAZ MAH.","zip":"45300"},{"name":"POYRAZDAMLARI MAH.","zip":"45300"},{"name":"SALİHLİ OSB MAH.","zip":"45300"},{"name":"SARIPINAR MAH.","zip":"45300"},{"name":"SART MAH.","zip":"45300"},{"name":"SİNDEL MAH.","zip":"45300"},{"name":"SÜLEYMANİYE MAH.","zip":"45300"},{"name":"ŞEHİTLER MAH.","zip":"45300"},{"name":"ŞİRİNYER MAH.","zip":"45300"},{"name":"TAYTAN MAH.","zip":"45300"},{"name":"TEKELİOĞLU MAH.","zip":"45300"},{"name":"TORUNLU MAH.","zip":"45300"},{"name":"ÜÇTEPE MAH.","zip":"45300"},{"name":"YAĞBASAN MAH.","zip":"45300"},{"name":"YAĞMURLAR MAH.","zip":"45300"},{"name":"YENİKÖY MAH.","zip":"45300"},{"name":"YENİPAZAR MAH.","zip":"45300"},{"name":"YEŞİLKAVAK MAH.","zip":"45300"},{"name":"YEŞİLOVA MAH.","zip":"45300"},{"name":"YILMAZ MAH.","zip":"45300"},{"name":"YÖRÜK MAH.","zip":"45300"},{"name":"ZAFER MAH.","zip":"45300"}]},{"name":"SARIGÖL","cityName":null,"quarters":[{"name":"AHMETAĞA MAH.","zip":"45470"},{"name":"ALEMŞAHLI MAH.","zip":"45470"},{"name":"AŞAĞI KOÇAKLAR MAH.","zip":"45470"},{"name":"AYAN MAH.","zip":"45470"},{"name":"BAĞLICA MAH.","zip":"45470"},{"name":"BAHADIRLAR MAH.","zip":"45470"},{"name":"BAHARLAR MAH.","zip":"45470"},{"name":"BEREKETLİ MAH.","zip":"45470"},{"name":"BEYHARMANI MAH.","zip":"45470"},{"name":"CUMHURİYET MAH.","zip":"45470"},{"name":"ÇANAKÇI MAH.","zip":"45470"},{"name":"ÇAVUŞLAR MAH.","zip":"45470"},{"name":"ÇİMENTEPE MAH.","zip":"45470"},{"name":"DADAĞLI MAH.","zip":"45470"},{"name":"DİNDARLI MAH.","zip":"45470"},{"name":"DOĞUŞLAR MAH.","zip":"45470"},{"name":"EMCELLİ MAH.","zip":"45470"},{"name":"GÜNEYDAMLARI MAH.","zip":"45470"},{"name":"GÜNYAKA MAH.","zip":"45470"},{"name":"KAHRAMANLAR MAH.","zip":"45470"},{"name":"KARACAALİ MAH.","zip":"45470"},{"name":"KIZILÇUKUR MAH.","zip":"45470"},{"name":"KONAK MAH.","zip":"45470"},{"name":"MİMAR SİNAN MAH.","zip":"45470"},{"name":"ÖZPINAR MAH.","zip":"45470"},{"name":"SELİMİYE MAH.","zip":"45470"},{"name":"SIĞIRTMAÇLI MAH.","zip":"45470"},{"name":"SİTELER MAH.","zip":"45470"},{"name":"ŞEYHDAVUTLAR MAH.","zip":"45470"},{"name":"TIRAZLAR MAH.","zip":"45470"},{"name":"YENİKÖY MAH.","zip":"45470"},{"name":"YEŞİLTEPE MAH.","zip":"45470"},{"name":"YUKARIKOÇAKLAR MAH.","zip":"45470"},{"name":"ZİYANLAR MAH.","zip":"45470"}]},{"name":"ALİBEYLİ","cityName":null,"quarters":null},{"name":"BÜYÜKBELEN","cityName":null,"quarters":null},{"name":"DİLEK","cityName":null,"quarters":null},{"name":"GÖKÇEKÖY","cityName":null,"quarters":null},{"name":"GÜMÜLCELİ","cityName":null,"quarters":null},{"name":"HACIRAHMANLI","cityName":null,"quarters":null},{"name":"HALİTPAŞA","cityName":null,"quarters":null},{"name":"İSHAKÇELEBİ","cityName":null,"quarters":null},{"name":"KOLDERE","cityName":null,"quarters":null},{"name":"KUMKUYUCAK","cityName":null,"quarters":null},{"name":"MÜTEVELLİ","cityName":null,"quarters":null},{"name":"NURİYE","cityName":null,"quarters":null},{"name":"PAŞAKÖY","cityName":null,"quarters":null},{"name":"SARUHANLI","cityName":null,"quarters":[{"name":"APAK MAH.","zip":"45800"},{"name":"ATATÜRK MAH.","zip":"45800"},{"name":"AYDINLAR MAH.","zip":"45800"},{"name":"AZİMLİ MAH.","zip":"45800"},{"name":"BAHADIR MAH.","zip":"45800"},{"name":"BEDELLER MAH.","zip":"45800"},{"name":"CENGİZ TOPEL MAH.","zip":"45800"},{"name":"CUMHURİYET MAH.","zip":"45800"},{"name":"ÇAKMAKLI MAH.","zip":"45800"},{"name":"ÇALTEPE MAH.","zip":"45800"},{"name":"ÇAMLIYURT MAH.","zip":"45800"},{"name":"ÇERKEZ OSMANİYE MAH.","zip":"45800"},{"name":"ÇINAROBA MAH.","zip":"45800"},{"name":"ÇULLUGÖRECE MAH.","zip":"45800"},{"name":"DEVELİ MAH.","zip":"45800"},{"name":"GÖZLET MAH.","zip":"45800"},{"name":"HACIMUSA MAH.","zip":"45800"},{"name":"HATIPLAR MAH.","zip":"45800"},{"name":"HEYBELİ MAH.","zip":"45800"},{"name":"İSTASYON MAH.","zip":"45800"},{"name":"KAYIŞLAR MAH.","zip":"45800"},{"name":"KEMİKLİDERE MAH.","zip":"45800"},{"name":"KEPENEKLİ MAH.","zip":"45800"},{"name":"KOYUNCU MAH.","zip":"45800"},{"name":"KURTULUŞ MAH.","zip":"45800"},{"name":"LÜTFİYE MAH.","zip":"45800"},{"name":"PINARBAŞI MAH.","zip":"45800"},{"name":"SARIÇAM MAH.","zip":"45800"},{"name":"SARISIĞIRLI MAH.","zip":"45800"},{"name":"SARUHAN MAH.","zip":"45800"},{"name":"SEYİTOBA MAH.","zip":"45800"},{"name":"ŞATIRLAR MAH.","zip":"45800"},{"name":"ŞEHİTLER MAH.","zip":"45800"},{"name":"TAŞDİBİ MAH.","zip":"45800"},{"name":"TİRKEŞ MAH.","zip":"45800"},{"name":"YILMAZ MAH.","zip":"45800"}]},{"name":"SELENDİ","cityName":null,"quarters":[{"name":"ALTINKÖY MAH.","zip":"45970"},{"name":"AŞAĞIGÜLLÜCE MAH.","zip":"45970"},{"name":"AVLAŞA MAH.","zip":"45970"},{"name":"BEKİRAĞALAR MAH.","zip":"45970"},{"name":"BEYPINAR MAH.","zip":"45970"},{"name":"ÇALIKLI MAH.","zip":"45970"},{"name":"ÇAMKÖY MAH.","zip":"45970"},{"name":"ÇAMLICA MAH.","zip":"45970"},{"name":"ÇAMPINAR MAH.","zip":"45970"},{"name":"ÇAMYAYLA MAH.","zip":"45970"},{"name":"ÇANŞA MAH.","zip":"45970"},{"name":"ÇIKRIKÇI MAH.","zip":"45970"},{"name":"ÇİNAN MAH.","zip":"45970"},{"name":"ÇORTAK MAH.","zip":"45970"},{"name":"DEDELER MAH.","zip":"45970"},{"name":"DUMANLAR MAH.","zip":"45970"},{"name":"ESKİCAMİ MAH.","zip":"45970"},{"name":"ESKİN MAH.","zip":"45970"},{"name":"FATİH MAH.","zip":"45970"},{"name":"GÖLBAŞI MAH.","zip":"45970"},{"name":"HACIHALİLLER MAH.","zip":"45970"},{"name":"HACILAR MAH.","zip":"45970"},{"name":"HALILAR MAH.","zip":"45970"},{"name":"HAVAOĞLU MAH.","zip":"45970"},{"name":"İNNİCE MAH.","zip":"45970"},{"name":"KABAKLAR MAH.","zip":"45970"},{"name":"KARABEYLER MAH.","zip":"45970"},{"name":"KARAKOZAN MAH.","zip":"45970"},{"name":"KARASELENDİ MAH.","zip":"45970"},{"name":"KARATAŞTERZİLER MAH.","zip":"45970"},{"name":"KARŞIOVA MAH.","zip":"45970"},{"name":"KAYRANLAR MAH.","zip":"45970"},{"name":"KAZIKLI MAH.","zip":"45970"},{"name":"KINIK MAH.","zip":"45970"},{"name":"KURŞUNLU MAH.","zip":"45970"},{"name":"KURTULUŞ MAH.","zip":"45970"},{"name":"KÜRKÇÜ MAH.","zip":"45970"},{"name":"MIDIKLI MAH.","zip":"45970"},{"name":"MOLLAAHMETLER MAH.","zip":"45970"},{"name":"OMURLAR MAH.","zip":"45970"},{"name":"PINARLAR MAH.","zip":"45970"},{"name":"RAHMANLAR MAH.","zip":"45970"},{"name":"SELMANHACILAR MAH.","zip":"45970"},{"name":"ŞEHİRLİOĞLU MAH.","zip":"45970"},{"name":"ŞEREFİYE MAH.","zip":"45970"},{"name":"TAVAK MAH.","zip":"45970"},{"name":"TEPEYNİHAN MAH.","zip":"45970"},{"name":"TURPÇU MAH.","zip":"45970"},{"name":"YAĞCI MAH.","zip":"45970"},{"name":"YENİCAMİ MAH.","zip":"45970"},{"name":"YENİCE MAH.","zip":"45970"},{"name":"YEŞİL MAH.","zip":"45970"},{"name":"YILDIZ MAH.","zip":"45970"},{"name":"YUKARIGÜLLÜCE MAH.","zip":"45970"},{"name":"ZAFER MAH.","zip":"45970"},{"name":"ZIRAMANLAR MAH.","zip":"45970"}]},{"name":"AVDAN","cityName":null,"quarters":null},{"name":"CENKYERİ","cityName":null,"quarters":null},{"name":"SOMA","cityName":null,"quarters":[{"name":"AKÇAAVLU MAH.","zip":"45500"},{"name":"ATATÜRK MAH.","zip":"45500"},{"name":"BAYAT MAH.","zip":"45500"},{"name":"BEYCE MAH.","zip":"45500"},{"name":"BONCUKLU MAH.","zip":"45500"},{"name":"BOZARMUT MAH.","zip":"45500"},{"name":"BÜYÜK GÜNEY MAH.","zip":"45500"},{"name":"BÜYÜK IŞIKLAR MAH.","zip":"45500"},{"name":"CUMA MAH.","zip":"45500"},{"name":"CUMHURİYET MAH.","zip":"45500"},{"name":"ÇATALÇAM MAH.","zip":"45500"},{"name":"ÇAVDIR MAH.","zip":"45500"},{"name":"ÇEVİRCEK MAH.","zip":"45500"},{"name":"DARKALE MAH.","zip":"45500"},{"name":"DENİŞ MAH.","zip":"45500"},{"name":"DEREKÖY MAH.","zip":"45500"},{"name":"DEVLETHAN MAH.","zip":"45500"},{"name":"DUALAR MAH.","zip":"45500"},{"name":"DUĞLA MAH.","zip":"45500"},{"name":"EĞNEZ MAH.","zip":"45500"},{"name":"EVCİLER MAH.","zip":"45500"},{"name":"GÖKTAŞ MAH.","zip":"45500"},{"name":"HACIYUSUF MAH.","zip":"45500"},{"name":"HAMİDİYE (MERKEZ) MAH.","zip":"45500"},{"name":"HAMİDİYE MAH.","zip":"45500"},{"name":"HATUN MAH.","zip":"45500"},{"name":"HECİZ MAH.","zip":"45500"},{"name":"HÜRRİYET MAH.","zip":"45500"},{"name":"İNÖNÜ MAH.","zip":"45500"},{"name":"İSTASYON MAH.","zip":"45500"},{"name":"KAPLAN MAH.","zip":"45500"},{"name":"KARACAHİSAR MAH.","zip":"45500"},{"name":"KARACAKAŞ MAH.","zip":"45500"},{"name":"KARAÇAM MAH.","zip":"45500"},{"name":"KARAMANLI MAH.","zip":"45500"},{"name":"KAYRAKALTI MAH.","zip":"45500"},{"name":"KIZILÖREN MAH.","zip":"45500"},{"name":"KİRAZ MAH.","zip":"45500"},{"name":"KOBAKLAR MAH.","zip":"45500"},{"name":"KOYUNDERE MAH.","zip":"45500"},{"name":"KOZANLI MAH.","zip":"45500"},{"name":"KOZLUÖREN MAH.","zip":"45500"},{"name":"KUM MAH.","zip":"45500"},{"name":"KURTULUŞ MAH.","zip":"45500"},{"name":"KÜÇÜK GÜNEY MAH.","zip":"45500"},{"name":"MENTEŞE MAH.","zip":"45500"},{"name":"NALDÖKEN MAH.","zip":"45500"},{"name":"NAMAZGAH MAH.","zip":"45500"},{"name":"NİHAT DANIŞMAN MAH.","zip":"45500"},{"name":"ONÜÇ EYLÜL MAH.","zip":"45500"},{"name":"PİRAHMET MAH.","zip":"45500"},{"name":"SAMSACI MAH.","zip":"45500"},{"name":"SARIKAYA MAH.","zip":"45500"},{"name":"SEVİŞLER MAH.","zip":"45500"},{"name":"SÖĞÜTÇÜK MAH.","zip":"45500"},{"name":"SULTANİYE MAH.","zip":"45500"},{"name":"TABANLAR MAH.","zip":"45500"},{"name":"TEKELİ IŞIKLAR MAH.","zip":"45500"},{"name":"TÜRKALİ MAH.","zip":"45500"},{"name":"TÜRKPİYALA MAH.","zip":"45500"},{"name":"ULARCA MAH.","zip":"45500"},{"name":"URUZLAR MAH.","zip":"45500"},{"name":"VAKIFLI MAH.","zip":"45500"},{"name":"YAYLADALI MAH.","zip":"45500"},{"name":"YIRCA MAH.","zip":"45500"},{"name":"ZAFER MAH.","zip":"45500"}]},{"name":"TURGUTALP","cityName":null,"quarters":null},{"name":"YAĞCILI","cityName":null,"quarters":null},{"name":"AŞAĞIÇOBANİSA","cityName":null,"quarters":null},{"name":"ÇARŞI","cityName":null,"quarters":[{"name":"2.ANAFARTALAR MAH.","zip":"45020"},{"name":"ALAYBEY MAH.","zip":"45020"},{"name":"ARDA MAH.","zip":"45020"},{"name":"DİNÇER MAH.","zip":"45020"},{"name":"NİŞANCIPAŞA MAH.","zip":"45020"},{"name":"PEKER MAH.","zip":"45020"},{"name":"SAKARYA MAH.","zip":"45020"},{"name":"ŞEHİTLER MAH.","zip":"45020"},{"name":"YARHASANLAR MAH.","zip":"45020"}]},{"name":"HACIHALİLLER","cityName":null,"quarters":null},{"name":"KARAAĞAÇLI","cityName":null,"quarters":null},{"name":"KARAKÖY","cityName":null,"quarters":[{"name":"AKINCILAR MAH.","zip":"45010"},{"name":"BAYINDIRLIK MAH.","zip":"45010"},{"name":"ÇARŞI MAH.","zip":"45010"},{"name":"DERE MAH.","zip":"45010"},{"name":"DİLŞİKAR MAH.","zip":"45010"},{"name":"EGE MAH.","zip":"45010"},{"name":"GEDİZ MAH.","zip":"45010"},{"name":"GÖKTAŞLI MAH.","zip":"45010"},{"name":"İBRAHİMÇELEBİ MAH.","zip":"45010"},{"name":"İSHAKÇELEBI MAH.","zip":"45010"},{"name":"KOCATEPE MAH.","zip":"45010"},{"name":"MİMARSİNAN MAH.","zip":"45010"},{"name":"SARUHAN MAH.","zip":"45010"},{"name":"TUNCA MAH.","zip":"45010"},{"name":"UTKU MAH.","zip":"45010"}]},{"name":"KARAOĞLANLI","cityName":null,"quarters":null},{"name":"KUZEY","cityName":null,"quarters":[{"name":"AHMET BEDEVİ MAH.","zip":"45040"},{"name":"AKPINAR MAH.","zip":"45040"},{"name":"KAZIM KARABEKİR MAH.","zip":"45040"},{"name":"KUŞLUBAHÇE MAH.","zip":"45040"},{"name":"NURLUPINAR MAH.","zip":"45040"},{"name":"TURGUT ÖZAL MAH.","zip":"45040"}]},{"name":"SANCAKLIBOZKÖY","cityName":null,"quarters":null},{"name":"ŞEHZADELER","cityName":null,"quarters":[{"name":"BELENYENİCE MAH.","zip":"45050"},{"name":"ÇAMKÖY MAH.","zip":"45050"},{"name":"ÇAVUŞOĞLU MAH.","zip":"45050"},{"name":"ÇINARLIKUYU MAH.","zip":"45050"},{"name":"GÜZELKÖY MAH.","zip":"45050"},{"name":"HALITLI MAH.","zip":"45050"},{"name":"HAMZABEYLİ MAH.","zip":"45050"},{"name":"KAĞAN MAH.","zip":"45050"},{"name":"KALEMLİ MAH.","zip":"45050"},{"name":"KARAYENİCE MAH.","zip":"45050"},{"name":"KIRANÇİFTLİĞİ MAH.","zip":"45050"},{"name":"SANCAKLIÇEŞMEBAŞI MAH.","zip":"45050"},{"name":"SANCAKLIİĞDECİK MAH.","zip":"45050"},{"name":"SANCAKLIKAYADİBİ MAH.","zip":"45050"},{"name":"SANCAKLIUZUNÇINAR MAH.","zip":"45050"},{"name":"SARIALAN MAH.","zip":"45050"},{"name":"SELİMŞAHLAR MAH.","zip":"45050"},{"name":"TEKELİLER MAH.","zip":"45050"},{"name":"TEPECİK MAH.","zip":"45050"},{"name":"TİLKİSÜLEYMANİYE MAH.","zip":"45050"},{"name":"VEZİROĞLU MAH.","zip":"45050"},{"name":"YENİHARMANDALI MAH.","zip":"45050"},{"name":"YENİKÖY MAH.","zip":"45050"},{"name":"YENİMAHMUDİYE MAH.","zip":"45050"},{"name":"YEŞİLKÖY MAH.","zip":"45050"},{"name":"YUKARIÇOBANİSA MAH.","zip":"45050"}]},{"name":"DERBENT","cityName":null,"quarters":null},{"name":"TURGUTLU","cityName":null,"quarters":[{"name":"AKÇAPINAR MAH.","zip":"45400"},{"name":"AKKÖY MAH.","zip":"45400"},{"name":"ALBAYRAK MAH.","zip":"45400"},{"name":"ALTAY MAH.","zip":"45400"},{"name":"AŞAĞIBOZKIR MAH.","zip":"45400"},{"name":"ATATÜRK MAH.","zip":"45400"},{"name":"AVŞAR MAH.","zip":"45400"},{"name":"AYVACIK MAH.","zip":"45400"},{"name":"BAKTIRLI MAH.","zip":"45400"},{"name":"BOZKIR MAH.","zip":"45400"},{"name":"BOZKURT MAH.","zip":"45400"},{"name":"CUMHURİYET MAH.","zip":"45400"},{"name":"ÇAMPINAR MAH.","zip":"45400"},{"name":"ÇATALKÖPRÜ MAH.","zip":"45400"},{"name":"ÇEPNİBEKTAŞ MAH.","zip":"45400"},{"name":"ÇEPNİDERE MAH.","zip":"45400"},{"name":"ÇIKRIKÇI MAH.","zip":"45400"},{"name":"DAĞYENİKÖY MAH.","zip":"45400"},{"name":"DALBAHÇE MAH.","zip":"45400"},{"name":"ERGENEKON MAH.","zip":"45400"},{"name":"GÖKGEDİK MAH.","zip":"45400"},{"name":"GÜNEY MAH.","zip":"45400"},{"name":"HACIİSALAR MAH.","zip":"45400"},{"name":"IRLAMAZ MAH.","zip":"45400"},{"name":"İSTASYONALTI MAH.","zip":"45400"},{"name":"İSTİKLAL MAH.","zip":"45400"},{"name":"İZZETTİN MAH.","zip":"45400"},{"name":"KABAÇINAR MAH.","zip":"45400"},{"name":"KARAKÖY MAH.","zip":"45400"},{"name":"KARAOLUK MAH.","zip":"45400"},{"name":"KAYRAK MAH.","zip":"45400"},{"name":"KURTULUŞ MAH.","zip":"45400"},{"name":"KURUDERE MAH.","zip":"45400"},{"name":"KUŞLAR MAH.","zip":"45400"},{"name":"MUSACALI MAH.","zip":"45400"},{"name":"MUSALARYENİKÖY MAH.","zip":"45400"},{"name":"MUSTAFA KEMAL MAH.","zip":"45400"},{"name":"OSMANCIK MAH.","zip":"45400"},{"name":"ÖREN MAH.","zip":"45400"},{"name":"ÖZYURT MAH.","zip":"45400"},{"name":"SARIBEY MAH.","zip":"45400"},{"name":"SELVİLİTEPE MAH.","zip":"45400"},{"name":"SELVİLİTEPEOSB MAH.","zip":"45400"},{"name":"SİNİRLİ MAH.","zip":"45400"},{"name":"SİVRİCE MAH.","zip":"45400"},{"name":"SUBAŞI MAH.","zip":"45400"},{"name":"ŞEHİTLER MAH.","zip":"45400"},{"name":"TEMREK MAH.","zip":"45400"},{"name":"TURAN MAH.","zip":"45400"},{"name":"TURGUTLAR MAH.","zip":"45400"},{"name":"YAKUPLAR MAH.","zip":"45400"},{"name":"YAYLA MAH.","zip":"45400"},{"name":"YEDİ EYLÜL MAH.","zip":"45400"},{"name":"YENİ MAH.","zip":"45400"},{"name":"YENİKÖY MAH.","zip":"45400"},{"name":"YILDIRIM MAH.","zip":"45400"},{"name":"YILMAZLAR MAH.","zip":"45400"},{"name":"YİĞİTLER MAH.","zip":"45400"},{"name":"YUNUSDERE MAH.","zip":"45400"}]},{"name":"URGANLI","cityName":null,"quarters":null},{"name":"50.YIL","cityName":null,"quarters":[{"name":"ATATÜRK MAH.","zip":"45125"},{"name":"BARBAROS MAH.","zip":"45125"},{"name":"MAREŞAL FEVZİ ÇAKMAK MAH.","zip":"45125"},{"name":"SPİL MAH.","zip":"45125"}]},{"name":"LALELİ","cityName":null,"quarters":[{"name":"CUMHURİYET MAH.","zip":"45030"},{"name":"FATİH MAH.","zip":"45030"},{"name":"GÜZELYURT MAH.","zip":"45030"},{"name":"HAFSA SULTAN MAH.","zip":"45030"},{"name":"KEÇİLİ KÖY MAH.","zip":"45030"},{"name":"KEÇİLİKÖYOSB MAH.","zip":"45030"},{"name":"LALELİ MAH.","zip":"45030"},{"name":"MESİR MAH.","zip":"45030"},{"name":"UNCUBOZKÖY MAH.","zip":"45030"},{"name":"YENİ MAHALLE MAH.","zip":"45030"}]},{"name":"MURADİYE","cityName":null,"quarters":null},{"name":"TEVFİKİYE","cityName":null,"quarters":[{"name":"MERKEZ EFENDİ MAH.","zip":"45120"},{"name":"TEVFİKİYE MAH.","zip":"45120"}]},{"name":"ÜÇPINAR","cityName":null,"quarters":null},{"name":"YUNUSEMRE","cityName":null,"quarters":[{"name":"AKGEDİK MAH.","zip":"45110"},{"name":"AKMESCİT MAH.","zip":"45110"},{"name":"ASMACIK MAH.","zip":"45110"},{"name":"AVDAL MAH.","zip":"45110"},{"name":"BAĞYOLU MAH.","zip":"45110"},{"name":"BEYDERE MAH.","zip":"45110"},{"name":"BOSTANLAR MAH.","zip":"45110"},{"name":"BÜYÜKSÜMBÜLLER MAH.","zip":"45110"},{"name":"ÇAMLICA MAH.","zip":"45110"},{"name":"DAVUTLAR MAH.","zip":"45110"},{"name":"DAZYURT MAH.","zip":"45110"},{"name":"DEMİRCİ MAH.","zip":"45110"},{"name":"DURASILLI MAH.","zip":"45110"},{"name":"DÜZLEN MAH.","zip":"45110"},{"name":"EMLAKDERE MAH.","zip":"45110"},{"name":"EVRENOS MAH.","zip":"45110"},{"name":"GÖKBEL MAH.","zip":"45110"},{"name":"GÖKÇELER MAH.","zip":"45110"},{"name":"GÜLBAHÇE MAH.","zip":"45110"},{"name":"GÜRLE MAH.","zip":"45110"},{"name":"İLYASÇILAR MAH.","zip":"45110"},{"name":"KALEKÖY MAH.","zip":"45110"},{"name":"KARAAHMETLİ MAH.","zip":"45110"},{"name":"KARAALİ MAH.","zip":"45110"},{"name":"KARAHÜSEYİNLİ MAH.","zip":"45110"},{"name":"KARAKILIÇLI MAH.","zip":"45110"},{"name":"KARAKOCA MAH.","zip":"45110"},{"name":"KARAVELİLER MAH.","zip":"45110"},{"name":"KARAYAĞCIHACILAR MAH.","zip":"45110"},{"name":"KAYAPINAR MAH.","zip":"45110"},{"name":"KAYNAK MAH.","zip":"45110"},{"name":"KIŞLAKÖY MAH.","zip":"45110"},{"name":"KOCAKORU MAH.","zip":"45110"},{"name":"KORUKÖY MAH.","zip":"45110"},{"name":"KOZAKLAR MAH.","zip":"45110"},{"name":"KUYUALAN MAH.","zip":"45110"},{"name":"KÜÇÜKBELEN MAH.","zip":"45110"},{"name":"KÜÇÜKSÜMBÜLLER MAH.","zip":"45110"},{"name":"LALAPAŞA MAH.","zip":"45110"},{"name":"MALDAN MAH.","zip":"45110"},{"name":"MOLLASÜLEYMANLI MAH.","zip":"45110"},{"name":"MUTLU MAH.","zip":"45110"},{"name":"MÜSLİH MAH.","zip":"45110"},{"name":"ORTAKÖY MAH.","zip":"45110"},{"name":"OSMANCALI MAH.","zip":"45110"},{"name":"OTMANLAR MAH.","zip":"45110"},{"name":"ÖRENCİK MAH.","zip":"45110"},{"name":"ÖRSELLİ MAH.","zip":"45110"},{"name":"PELİTALAN MAH.","zip":"45110"},{"name":"PINARKÖY MAH.","zip":"45110"},{"name":"RECEPLİ MAH.","zip":"45110"},{"name":"SAKALLI MAH.","zip":"45110"},{"name":"SARIAHMETLİ MAH.","zip":"45110"},{"name":"SARINASUHLAR MAH.","zip":"45110"},{"name":"SARMA MAH.","zip":"45110"},{"name":"SEYİTLİ MAH.","zip":"45110"},{"name":"SÜMBÜLTEPE MAH.","zip":"45110"},{"name":"SÜNGÜLLÜ MAH.","zip":"45110"},{"name":"ŞAMAR MAH.","zip":"45110"},{"name":"TOPÇUASIM MAH.","zip":"45110"},{"name":"TURGUTALP MAH.","zip":"45110"},{"name":"TÜRKMEN MAH.","zip":"45110"},{"name":"UZUNBURUN MAH.","zip":"45110"},{"name":"UZUNLAR MAH.","zip":"45110"},{"name":"YAĞCILAR MAH.","zip":"45110"},{"name":"YAYLAKÖY MAH.","zip":"45110"},{"name":"YUNTDAĞIKÖSELER MAH.","zip":"45110"},{"name":"YUNTDAĞYENİCE MAH.","zip":"45110"}]}]}]}