{"id":46,"name":"KAHRAMANMARAŞ","cities":[{"name":"city","districts":[{"name":"AFŞİN","cityName":null,"quarters":[{"name":"ALİMPINAR MAH.","zip":"46500"},{"name":"ALPASLAN MAH.","zip":"46500"},{"name":"ALTAŞ MAH.","zip":"46500"},{"name":"ALTINELMA MAH.","zip":"46500"},{"name":"ANZOREY MAH.","zip":"46500"},{"name":"ARITAŞ MAH.","zip":"46500"},{"name":"ARMUTALAN MAH.","zip":"46500"},{"name":"BAKRAÇ MAH.","zip":"46500"},{"name":"BAŞÜSTÜ MAH.","zip":"46500"},{"name":"BERÇENEK MAH.","zip":"46500"},{"name":"BEYCEĞİZ MAH.","zip":"46500"},{"name":"BİNBOĞA MAH.","zip":"46500"},{"name":"BÜGET MAH.","zip":"46500"},{"name":"BÜYÜKSEVİN MAH.","zip":"46500"},{"name":"BÜYÜKTATLI MAH.","zip":"46500"},{"name":"ÇAĞILHAN MAH.","zip":"46500"},{"name":"ÇOBANBEYLİ MAH.","zip":"46500"},{"name":"ÇOĞULHAN MAH.","zip":"46500"},{"name":"ÇOMUDÜZ MAH.","zip":"46500"},{"name":"ÇUKURPINAR MAH.","zip":"46500"},{"name":"DAĞLICA MAH.","zip":"46500"},{"name":"DEDEBABA MAH.","zip":"46500"},{"name":"DEVEBOYNU MAH.","zip":"46500"},{"name":"DOKUZTAY MAH.","zip":"46500"},{"name":"EFSUS TURAN MAH.","zip":"46500"},{"name":"EMİRİLYAS MAH.","zip":"46500"},{"name":"EMİRLİ MAH.","zip":"46500"},{"name":"ERÇENE MAH.","zip":"46500"},{"name":"ESENCE MAH.","zip":"46500"},{"name":"GAZİOSMANPAŞA MAH.","zip":"46500"},{"name":"GERGER MAH.","zip":"46500"},{"name":"GÖZPINARI MAH.","zip":"46500"},{"name":"HATİCEPINARI MAH.","zip":"46500"},{"name":"HURMAN MAH.","zip":"46500"},{"name":"HÜYÜKLÜ MAH.","zip":"46500"},{"name":"İĞDEMLİK MAH.","zip":"46500"},{"name":"İNCİ MAH.","zip":"46500"},{"name":"İNCİRLİ MAH.","zip":"46500"},{"name":"KABAAĞAÇ MAH.","zip":"46500"},{"name":"KALE MAH.","zip":"46500"},{"name":"KANGAL MAH.","zip":"46500"},{"name":"KARAGÖZ MAH.","zip":"46500"},{"name":"KAŞANLI MAH.","zip":"46500"},{"name":"KOÇOVASI MAH.","zip":"46500"},{"name":"KÖTÜRE MAH.","zip":"46500"},{"name":"KUŞKAYASI MAH.","zip":"46500"},{"name":"NADIR MAH.","zip":"46500"},{"name":"OĞLAKKAYASI MAH.","zip":"46500"},{"name":"ORTAKLI MAH.","zip":"46500"},{"name":"ÖRDEK MAH.","zip":"46500"},{"name":"ÖRENDERESİ MAH.","zip":"46500"},{"name":"ÖRENLİ MAH.","zip":"46500"},{"name":"PINARBAŞI MAH.","zip":"46500"},{"name":"SOĞUCAK MAH.","zip":"46500"},{"name":"SÖĞÜTDERESİ MAH.","zip":"46500"},{"name":"TANIR MAH.","zip":"46500"},{"name":"TATLAR MAH.","zip":"46500"},{"name":"TOPAKTAŞ MAH.","zip":"46500"},{"name":"TÜRKÇAYIRI MAH.","zip":"46500"},{"name":"TÜRKSEVİN MAH.","zip":"46500"},{"name":"YAZIDERE MAH.","zip":"46500"},{"name":"YAZIKÖY MAH.","zip":"46500"},{"name":"YEŞİLYURT MAH.","zip":"46500"}]},{"name":"ANDIRIN","cityName":null,"quarters":[{"name":"AKGÜMÜŞ MAH.","zip":"46400"},{"name":"AKİFİYE MAH.","zip":"46400"},{"name":"ALAMEŞE MAH.","zip":"46400"},{"name":"ALANLI MAH.","zip":"46400"},{"name":"ALINOLUK MAH.","zip":"46400"},{"name":"ALTINBOĞA MAH.","zip":"46400"},{"name":"ALTINYAYLA MAH.","zip":"46400"},{"name":"ANACIK MAH.","zip":"46400"},{"name":"ARIKLAR MAH.","zip":"46400"},{"name":"BAŞDOĞAN MAH.","zip":"46400"},{"name":"BEKTAŞLI MAH.","zip":"46400"},{"name":"BEŞBUCAK MAH.","zip":"46400"},{"name":"BOĞAZÖREN MAH.","zip":"46400"},{"name":"BOSTANLI MAH.","zip":"46400"},{"name":"BOYNUYOĞUNLU MAH.","zip":"46400"},{"name":"BOZTOPRAKLI MAH.","zip":"46400"},{"name":"BULGURKAYA MAH.","zip":"46400"},{"name":"CAMUZLUK MAH.","zip":"46400"},{"name":"ÇİÇEKLİ MAH.","zip":"46400"},{"name":"ÇUHADARLI MAH.","zip":"46400"},{"name":"DARIOVASI MAH.","zip":"46400"},{"name":"EFİRAĞIZLI MAH.","zip":"46400"},{"name":"EMİRLER MAH.","zip":"46400"},{"name":"ERENLER MAH.","zip":"46400"},{"name":"GEBEN MAH.","zip":"46400"},{"name":"GÖKAHMETLİ MAH.","zip":"46400"},{"name":"GÖKÇELİ MAH.","zip":"46400"},{"name":"GÖKGEDİK MAH.","zip":"46400"},{"name":"HACIVELİUŞAĞI MAH.","zip":"46400"},{"name":"KABAAĞAÇ MAH.","zip":"46400"},{"name":"KABAKLAR MAH.","zip":"46400"},{"name":"KALEBOYNU MAH.","zip":"46400"},{"name":"KARAPINAR MAH.","zip":"46400"},{"name":"KARGAÇAYIRI MAH.","zip":"46400"},{"name":"KIYIKÇI MAH.","zip":"46400"},{"name":"KIZIK MAH.","zip":"46400"},{"name":"KÖKLÜ MAH.","zip":"46400"},{"name":"KÖLELİ MAH.","zip":"46400"},{"name":"KUMARLI MAH.","zip":"46400"},{"name":"KUZGUN MAH.","zip":"46400"},{"name":"PINARBAŞI MAH.","zip":"46400"},{"name":"SUMAKLI MAH.","zip":"46400"},{"name":"TATARLI MAH.","zip":"46400"},{"name":"TORUN MAH.","zip":"46400"},{"name":"TUFAN PAŞA MAH.","zip":"46400"},{"name":"YENİ MAH.","zip":"46400"},{"name":"YENİKÖY MAH.","zip":"46400"},{"name":"YEŞİLOVA MAH.","zip":"46400"},{"name":"YEŞİLYURT MAH.","zip":"46400"}]},{"name":"ÇOKAK","cityName":null,"quarters":[{"name":"ÇİĞŞAR MAH.","zip":"46430"},{"name":"ÇOKAK MAH.","zip":"46430"},{"name":"ORHANİYE MAH.","zip":"46430"},{"name":"OSMANCIK MAH.","zip":"46430"},{"name":"RİFATİYE MAH.","zip":"46430"},{"name":"YEŞİLTEPE MAH.","zip":"46430"}]},{"name":"ÇAĞLAYANCERİT","cityName":null,"quarters":[{"name":"AKSU MAH.","zip":"46720"},{"name":"BOYLU MAH.","zip":"46720"},{"name":"BOZLAR MAH.","zip":"46720"},{"name":"BÖLÜKDAMLAR MAH.","zip":"46720"},{"name":"EMİRUŞAĞI MAH.","zip":"46720"},{"name":"ENGİZEK MAH.","zip":"46720"},{"name":"FATİH MAH.","zip":"46720"},{"name":"HELETE MAH.","zip":"46720"},{"name":"İSTİKLAL MAH.","zip":"46720"},{"name":"KALE MAH.","zip":"46720"},{"name":"KÜÇÜKCERİT MAH.","zip":"46720"},{"name":"KÜÇÜKÜNGÜT MAH.","zip":"46720"},{"name":"ORUÇPINAR MAH.","zip":"46720"},{"name":"SOĞUKPINAR MAH.","zip":"46720"},{"name":"ZEYNEPUŞAĞI MAH.","zip":"46720"}]},{"name":"ADLİYE","cityName":null,"quarters":[{"name":"EKMEKÇİ MAH.","zip":"46100"},{"name":"İSA DİVANLI MAH.","zip":"46100"},{"name":"İSMET PAŞA MAH.","zip":"46100"},{"name":"KARACASU FERHUŞ MAH.","zip":"46100"},{"name":"KARACASU KARAZİYARET MAH.","zip":"46100"},{"name":"KARACASU KARŞIYAKA MAH.","zip":"46100"},{"name":"KARACASU KIRIM MAH.","zip":"46100"},{"name":"KARACASU MAMARAŞ MAH.","zip":"46100"},{"name":"KURTULUŞ MAH.","zip":"46100"},{"name":"MENDERES MAH.","zip":"46100"},{"name":"SAKARYA MAH.","zip":"46100"},{"name":"TURAN MAH.","zip":"46100"},{"name":"YENİ ŞEHİR MAH.","zip":"46100"}]},{"name":"AĞABEYLİ","cityName":null,"quarters":[{"name":"BAHÇELİ MAH.","zip":"46130"},{"name":"BAŞDEVRİŞLİ MAH.","zip":"46130"},{"name":"BOYALI MAH.","zip":"46130"},{"name":"BUDAKLI MAH.","zip":"46130"},{"name":"ÇATMAYAYLA MAH.","zip":"46130"},{"name":"ÇOBANLI MAH.","zip":"46130"},{"name":"HACIEYÜPLÜ MAH.","zip":"46130"},{"name":"KABASAKAL MAH.","zip":"46130"},{"name":"KARAMANLI MAH.","zip":"46130"},{"name":"KEMALLI MAH.","zip":"46130"},{"name":"KILAĞLI MAH.","zip":"46130"},{"name":"YENİPINAR MAH.","zip":"46130"}]},{"name":"BAYDEMİRLİ","cityName":null,"quarters":null},{"name":"SANAYİ","cityName":null,"quarters":[{"name":"ASLAN BEY MAH.","zip":"46080"},{"name":"BAĞLARBAŞI MAH.","zip":"46080"},{"name":"BAHÇELİ EVLER MAH.","zip":"46080"},{"name":"BALLICA MAH.","zip":"46080"},{"name":"BAYAZITLI MAH.","zip":"46080"},{"name":"DOĞU KENT MAH.","zip":"46080"},{"name":"DULKADİROĞLU MAH.","zip":"46080"},{"name":"DURAKLI MAH.","zip":"46080"},{"name":"EGEMENLİK MAH.","zip":"46080"},{"name":"ERKENEZ MAH.","zip":"46080"},{"name":"EYÜP SULTAN MAH.","zip":"46080"},{"name":"FEVZİ PAŞA MAH.","zip":"46080"},{"name":"GAZİ PAŞA MAH.","zip":"46080"},{"name":"GENÇ OSMAN MAH.","zip":"46080"},{"name":"İSTASYON MAH.","zip":"46080"},{"name":"KANUNİ MAH.","zip":"46080"},{"name":"KAYABAŞI MAH.","zip":"46080"},{"name":"MEHMET AKİF MAH.","zip":"46080"},{"name":"NAMIK KEMAL MAH.","zip":"46080"},{"name":"PINARBAŞI MAH.","zip":"46080"},{"name":"SENEM AYŞE MAH.","zip":"46080"},{"name":"SÜMER MAH.","zip":"46080"},{"name":"SÜTÇÜ İMAM MAH.","zip":"46080"},{"name":"ŞEYH ADİL MAH.","zip":"46080"},{"name":"ŞEYH ŞAMİL MAH.","zip":"46080"},{"name":"YAHYA KEMAL MAH.","zip":"46080"},{"name":"YAVUZ SELİM MAH.","zip":"46080"},{"name":"YEŞİLTEPE MAH.","zip":"46080"}]},{"name":"SÜTÇÜİMAM","cityName":null,"quarters":[{"name":"AKYAR MAH.","zip":"46030"},{"name":"ALİBEYUŞAĞI MAH.","zip":"46030"},{"name":"ARSLANBEY ÇİFTLİĞİ MAH.","zip":"46030"},{"name":"AYAKLICAOLUK MAH.","zip":"46030"},{"name":"BEŞENLİ MAH.","zip":"46030"},{"name":"BULANIK MAH.","zip":"46030"},{"name":"ÇINARLI MAH.","zip":"46030"},{"name":"ÇİĞLİ MAH.","zip":"46030"},{"name":"ÇOKYAŞAR MAH.","zip":"46030"},{"name":"DEMİRCİLER MAH.","zip":"46030"},{"name":"DENİZLİ MAH.","zip":"46030"},{"name":"DEREKÖY MAH.","zip":"46030"},{"name":"DERELİ MAH.","zip":"46030"},{"name":"DOĞANLIKARAHASAN MAH.","zip":"46030"},{"name":"EKBEROĞLU MAH.","zip":"46030"},{"name":"ELMALAR MAH.","zip":"46030"},{"name":"ESKİNARLI MAH.","zip":"46030"},{"name":"GAFFARLI MAH.","zip":"46030"},{"name":"GÖLLÜ MAH.","zip":"46030"},{"name":"GÜZELYURT MAH.","zip":"46030"},{"name":"HALKAÇAYIRI MAH.","zip":"46030"},{"name":"KAPIÇAM MAH.","zip":"46030"},{"name":"KARTAL MAH.","zip":"46030"},{"name":"KAZANLIPINAR MAH.","zip":"46030"},{"name":"KOCOLAR MAH.","zip":"46030"},{"name":"KOZLUDERE MAH.","zip":"46030"},{"name":"KUZUCAK MAH.","zip":"46030"},{"name":"KÜÇÜKNACAR MAH.","zip":"46030"},{"name":"KÜPELİKIZ MAH.","zip":"46030"},{"name":"MAKSUTUŞAĞI MAH.","zip":"46030"},{"name":"NAVRUZLU MAH.","zip":"46030"},{"name":"OSMANBEY MAH.","zip":"46030"},{"name":"ÖKSÜZLÜ MAH.","zip":"46030"},{"name":"PEYNİRDERE MAH.","zip":"46030"},{"name":"SARIKAYA MAH.","zip":"46030"},{"name":"SEYRANTEPE MAH.","zip":"46030"},{"name":"SİVRİCEHÜYÜK MAH.","zip":"46030"},{"name":"SÖĞÜTLÜ MAH.","zip":"46030"},{"name":"ŞEREFOĞLU MAH.","zip":"46030"},{"name":"TEVEKKELLİ MAH.","zip":"46030"},{"name":"ULUTAŞ MAH.","zip":"46030"},{"name":"YENİYURT MAH.","zip":"46030"},{"name":"YUSUFHACILI MAH.","zip":"46030"}]},{"name":"EKİNÖZÜ","cityName":null,"quarters":[{"name":"ALİŞAR MAH.","zip":"46360"},{"name":"ALTUNYAPRAK MAH.","zip":"46360"},{"name":"ANBAR MAH.","zip":"46360"},{"name":"ATAKÖY MAH.","zip":"46360"},{"name":"ÇİFTLİK MAH.","zip":"46360"},{"name":"ÇİFTLİKKALE MAH.","zip":"46360"},{"name":"DEMİRLİK MAH.","zip":"46360"},{"name":"GAZİLER MAH.","zip":"46360"},{"name":"GÖZPINAR MAH.","zip":"46360"},{"name":"İÇMELER MAH.","zip":"46360"},{"name":"KABAKTEPE MAH.","zip":"46360"},{"name":"KANDİL MAH.","zip":"46360"},{"name":"KÜRTÜL MAH.","zip":"46360"},{"name":"MAARİF MAH.","zip":"46360"},{"name":"ORTAÖREN MAH.","zip":"46360"},{"name":"ÖZTÜRK MAH.","zip":"46360"},{"name":"SOYSALLI MAH.","zip":"46360"},{"name":"TÜRKELİ MAH.","zip":"46360"},{"name":"TÜRKMENLER MAH.","zip":"46360"},{"name":"YENİKÖY MAH.","zip":"46360"}]},{"name":"ELBİSTAN","cityName":null,"quarters":[{"name":"AKARCA MAH.","zip":"46300"},{"name":"AKBAYIR MAH.","zip":"46300"},{"name":"AKÖREN MAH.","zip":"46300"},{"name":"AKSAKAL MAH.","zip":"46300"},{"name":"ALEMBEY MAH.","zip":"46300"},{"name":"ALKAYAOĞLU MAH.","zip":"46300"},{"name":"ARMUTALAN MAH.","zip":"46300"},{"name":"ATMALIKAŞANLI MAH.","zip":"46300"},{"name":"BAHÇELİEVLER MAH.","zip":"46300"},{"name":"BAKIŞ MAH.","zip":"46300"},{"name":"BALIKÇIL MAH.","zip":"46300"},{"name":"BATTALGAZİ MAH.","zip":"46300"},{"name":"BEŞTEPE MAH.","zip":"46300"},{"name":"BEYYURDU MAH.","zip":"46300"},{"name":"BÜYÜKYAPALAK MAH.","zip":"46300"},{"name":"CEYHAN MAH.","zip":"46300"},{"name":"CUMHURİYET MAH.","zip":"46300"},{"name":"ÇALIŞ MAH.","zip":"46300"},{"name":"ÇATOVA MAH.","zip":"46300"},{"name":"ÇITLIK MAH.","zip":"46300"},{"name":"ÇİÇEK MAH.","zip":"46300"},{"name":"ÇİÇEK OSB MAH.","zip":"46300"},{"name":"DEMİRCİLİK MAH.","zip":"46300"},{"name":"DERVİŞÇİMLİ MAH.","zip":"46300"},{"name":"DOĞAN MAH.","zip":"46300"},{"name":"ELDELEK MAH.","zip":"46300"},{"name":"ELMALI MAH.","zip":"46300"},{"name":"ESENTEPE MAH.","zip":"46300"},{"name":"EVCİHÜYÜK MAH.","zip":"46300"},{"name":"FAKIOĞLU MAH.","zip":"46300"},{"name":"GÖKÇEK MAH.","zip":"46300"},{"name":"GÜBLÜCE MAH.","zip":"46300"},{"name":"GÜCÜK MAH.","zip":"46300"},{"name":"GÜMÜŞDÖVEN MAH.","zip":"46300"},{"name":"GÜNALTI MAH.","zip":"46300"},{"name":"GÜNDERE MAH.","zip":"46300"},{"name":"GÜNEŞLİ MAH.","zip":"46300"},{"name":"GÜVERCİNLİK MAH.","zip":"46300"},{"name":"HACIHASANLI MAH.","zip":"46300"},{"name":"HASANALİLİ MAH.","zip":"46300"},{"name":"HASANKENDİ MAH.","zip":"46300"},{"name":"HORHOR MAH.","zip":"46300"},{"name":"IZGIN MAH.","zip":"46300"},{"name":"İĞDE MAH.","zip":"46300"},{"name":"İKİZPINAR MAH.","zip":"46300"},{"name":"İNCECİK MAH.","zip":"46300"},{"name":"KALAYCIK MAH.","zip":"46300"},{"name":"KALEALTI MAH.","zip":"46300"},{"name":"KANGAL MAH.","zip":"46300"},{"name":"KANTARMA MAH.","zip":"46300"},{"name":"KARAELBİSTAN MAH.","zip":"46300"},{"name":"KARAHASANUŞAĞI MAH.","zip":"46300"},{"name":"KARAHÜYÜK MAH.","zip":"46300"},{"name":"KARAMAĞARA MAH.","zip":"46300"},{"name":"KAVAKTEPE MAH.","zip":"46300"},{"name":"KAYAGEÇİT MAH.","zip":"46300"},{"name":"KEÇEMAĞARA MAH.","zip":"46300"},{"name":"KIŞLA MAH.","zip":"46300"},{"name":"KIZILCAOBA MAH.","zip":"46300"},{"name":"KÖPRÜBAŞI MAH.","zip":"46300"},{"name":"KÖRÜCEK MAH.","zip":"46300"},{"name":"KÖSEYAHYA MAH.","zip":"46300"},{"name":"KÖŞK MAH.","zip":"46300"},{"name":"KÜÇÜKYAPALAK MAH.","zip":"46300"},{"name":"KÜMBET MAH.","zip":"46300"},{"name":"ORHANGAZİ MAH.","zip":"46300"},{"name":"OVACIK MAH.","zip":"46300"},{"name":"ÖZBEK MAH.","zip":"46300"},{"name":"ÖZCANLI MAH.","zip":"46300"},{"name":"PINARBAŞI MAH.","zip":"46300"},{"name":"SARIYATAK MAH.","zip":"46300"},{"name":"SEVDİLLİ MAH.","zip":"46300"},{"name":"SÖĞÜTLÜ MAH.","zip":"46300"},{"name":"SÜNNET MAH.","zip":"46300"},{"name":"TAPKIRAN MAH.","zip":"46300"},{"name":"TAPKIRANKALE MAH.","zip":"46300"},{"name":"TAŞBURUN MAH.","zip":"46300"},{"name":"TEPEBAŞI (GÜCÜK) MAH.","zip":"46300"},{"name":"TEPEBAŞI MAH.","zip":"46300"},{"name":"TOPALLI MAH.","zip":"46300"},{"name":"TOPRAKHİSAR MAH.","zip":"46300"},{"name":"TÜRKÖREN MAH.","zip":"46300"},{"name":"UNCULAR MAH.","zip":"46300"},{"name":"UZUNPINAR MAH.","zip":"46300"},{"name":"YALAK MAH.","zip":"46300"},{"name":"YALINTAŞ MAH.","zip":"46300"},{"name":"YAPILI MAH.","zip":"46300"},{"name":"YAPILIPINAR MAH.","zip":"46300"},{"name":"YAPRAKLI MAH.","zip":"46300"},{"name":"YEŞİLYURT MAH.","zip":"46300"},{"name":"YOĞUNSÖĞÜT MAH.","zip":"46300"},{"name":"YUNUS EMRE MAH.","zip":"46300"}]},{"name":"GÖKSUN","cityName":null,"quarters":[{"name":"AHMETCİK MAH.","zip":"46600"},{"name":"ALIÇLIBUCAK MAH.","zip":"46600"},{"name":"ALTINOBA MAH.","zip":"46600"},{"name":"ASLANBEYÇİFTLİĞİ MAH.","zip":"46600"},{"name":"BOZHÜYÜK MAH.","zip":"46600"},{"name":"BÜYÜKÇAMURLU MAH.","zip":"46600"},{"name":"BÜYÜKKIZILCIK MAH.","zip":"46600"},{"name":"CUMHURİYET MAH.","zip":"46600"},{"name":"ÇAĞLAYAN MAH.","zip":"46600"},{"name":"ÇAMDERE MAH.","zip":"46600"},{"name":"ÇARDAK MAH.","zip":"46600"},{"name":"DEĞİRMENDERE MAH.","zip":"46600"},{"name":"DOĞANKONAK MAH.","zip":"46600"},{"name":"ELMALI MAH.","zip":"46600"},{"name":"ERİCEK MAH.","zip":"46600"},{"name":"ESENKÖY MAH.","zip":"46600"},{"name":"FINDIK MAH.","zip":"46600"},{"name":"FINDIKLIKOYAK MAH.","zip":"46600"},{"name":"GÖLPINAR MAH.","zip":"46600"},{"name":"GÖYNÜK MAH.","zip":"46600"},{"name":"GÜCÜKSU MAH.","zip":"46600"},{"name":"HACIKODAL MAH.","zip":"46600"},{"name":"HACIMİRZA MAH.","zip":"46600"},{"name":"HACIÖMER MAH.","zip":"46600"},{"name":"HARBİYE MAH.","zip":"46600"},{"name":"HUĞTAŞ MAH.","zip":"46600"},{"name":"KALE MAH.","zip":"46600"},{"name":"KALEBOYNU MAH.","zip":"46600"},{"name":"KAMIŞCIK MAH.","zip":"46600"},{"name":"KANLIKAVAK MAH.","zip":"46600"},{"name":"KARAAHMET MAH.","zip":"46600"},{"name":"KARAÖMER MAH.","zip":"46600"},{"name":"KARATUT MAH.","zip":"46600"},{"name":"KAVŞUT MAH.","zip":"46600"},{"name":"KAYABAŞI MAH.","zip":"46600"},{"name":"KAZANDERE MAH.","zip":"46600"},{"name":"KEKLİKOLUK MAH.","zip":"46600"},{"name":"KEMALPAŞA MAH.","zip":"46600"},{"name":"KINIKKOZ MAH.","zip":"46600"},{"name":"KIZILÖZ MAH.","zip":"46600"},{"name":"KİREÇ MAH.","zip":"46600"},{"name":"KORKMAZ MAH.","zip":"46600"},{"name":"KÖMÜR MAH.","zip":"46600"},{"name":"KÖPRÜBAŞI MAH.","zip":"46600"},{"name":"KURTULUŞ MAH.","zip":"46600"},{"name":"KÜÇÜKÇAMURLU MAH.","zip":"46600"},{"name":"MAHMUTBEY MAH.","zip":"46600"},{"name":"MEHMETBEY MAH.","zip":"46600"},{"name":"MÜRSEL MAH.","zip":"46600"},{"name":"ORTATEPE MAH.","zip":"46600"},{"name":"PAYAMBURNU MAH.","zip":"46600"},{"name":"PINARBAŞI MAH.","zip":"46600"},{"name":"SARAYCIK MAH.","zip":"46600"},{"name":"SIRMALI MAH.","zip":"46600"},{"name":"SOĞUKPINAR MAH.","zip":"46600"},{"name":"TAHİRBEY MAH.","zip":"46600"},{"name":"TAŞOLUK MAH.","zip":"46600"},{"name":"TEMÜRAĞA MAH.","zip":"46600"},{"name":"TEPEBAŞI MAH.","zip":"46600"},{"name":"TOMBAK MAH.","zip":"46600"},{"name":"YAĞMURLU MAH.","zip":"46600"},{"name":"YANTEPE MAH.","zip":"46600"},{"name":"YENİ MAH.","zip":"46600"},{"name":"YENİYAPAN MAH.","zip":"46600"},{"name":"YEŞİLKÖY MAH.","zip":"46600"},{"name":"YİRİCEK MAH.","zip":"46600"},{"name":"YOĞUNOLUK MAH.","zip":"46600"}]},{"name":"NURHAK","cityName":null,"quarters":[{"name":"ALÇİÇEK DEĞİRMENKAYA MAH.","zip":"46370"},{"name":"BARIŞ MAH.","zip":"46370"},{"name":"BİÇİN MAH.","zip":"46370"},{"name":"ESKİKÖY MAH.","zip":"46370"},{"name":"GÜRSEL MAH.","zip":"46370"},{"name":"HÜYÜK MAH.","zip":"46370"},{"name":"KARAÇAR MAH.","zip":"46370"},{"name":"KARŞIYAKA MAH.","zip":"46370"},{"name":"KIYILAR MAH.","zip":"46370"},{"name":"KULLAR MAH.","zip":"46370"},{"name":"PINARBAŞI MAH.","zip":"46370"},{"name":"SEYİTALİLER MAH.","zip":"46370"},{"name":"TATLAR MAH.","zip":"46370"},{"name":"UMUTLU MAH.","zip":"46370"},{"name":"YENİ MAH.","zip":"46370"}]},{"name":"BİNEVLER","cityName":null,"quarters":[{"name":"ABDÜLHAMİD HAN MAH.","zip":"46050"},{"name":"AĞCALI MAH.","zip":"46050"},{"name":"AKÇAKOYUNLU MAH.","zip":"46050"},{"name":"AKİF İNAN MAH.","zip":"46050"},{"name":"BEŞBAĞLAR MAH.","zip":"46050"},{"name":"CEYHAN MAH.","zip":"46050"},{"name":"CUMHURİYET MAH.","zip":"46050"},{"name":"ÇAMLIK MAH.","zip":"46050"},{"name":"DÖNGEL MAH.","zip":"46050"},{"name":"DÖNGELE MAH.","zip":"46050"},{"name":"DÖNÜKLÜ MAH.","zip":"46050"},{"name":"FATİH MAH.","zip":"46050"},{"name":"GEDEMEN MAH.","zip":"46050"},{"name":"HAYDAR BEY MAH.","zip":"46050"},{"name":"HÜRRİYET MAH.","zip":"46050"},{"name":"İSTİKLAL MAH.","zip":"46050"},{"name":"KARAMANLI MAH.","zip":"46050"},{"name":"KAVLAKLI MAH.","zip":"46050"},{"name":"KAZIM KARABEKİR MAH.","zip":"46050"},{"name":"KILAVUZLU MAH.","zip":"46050"},{"name":"MAARİF MAH.","zip":"46050"},{"name":"MAĞRALI MAH.","zip":"46050"},{"name":"MERCİMEKTEPE MAH.","zip":"46050"},{"name":"NECİP FAZIL MAH.","zip":"46050"},{"name":"ORGANİZE SANAYİ BÖLGESİ MAH.","zip":"46050"},{"name":"ORHANGAZİ MAH.","zip":"46050"},{"name":"SAÇAKLIZADE MAH.","zip":"46050"},{"name":"SELÇUKLU MAH.","zip":"46050"},{"name":"SERİNTEPE MAH.","zip":"46050"},{"name":"SÜLEYMANŞAH MAH.","zip":"46050"},{"name":"ŞEHİT ABDULLAH ÇAVUŞ MAH.","zip":"46050"},{"name":"ŞEHİT EVLİYA MAH.","zip":"46050"},{"name":"TAVŞAN TEPE MAH.","zip":"46050"},{"name":"TEKEREK MAH.","zip":"46050"},{"name":"ÜNGÜT MAH.","zip":"46050"},{"name":"YAMAÇTEPE MAH.","zip":"46050"},{"name":"YİRMİİKİGÜN MAH.","zip":"46050"},{"name":"YUNUS EMRE MAH.","zip":"46050"},{"name":"YÜRÜKSELİM MAH.","zip":"46050"}]},{"name":"HACIBAYRAM","cityName":null,"quarters":[{"name":"AVŞAR MAH.","zip":"46040"},{"name":"BARBAROS MAH.","zip":"46040"},{"name":"BİN EVLER MAH.","zip":"46040"},{"name":"BOĞAZİÇİ MAH.","zip":"46040"},{"name":"BULUTOĞLU MAH.","zip":"46040"},{"name":"BÜYÜKSIR MAH.","zip":"46040"},{"name":"CÜCELİ MAH.","zip":"46040"},{"name":"ÇAĞIRKAN MAH.","zip":"46040"},{"name":"ÇAĞLAYAN MAH.","zip":"46040"},{"name":"ÇAKIRLAR MAH.","zip":"46040"},{"name":"ÇEVREPINAR MAH.","zip":"46040"},{"name":"ÇINARPINAR MAH.","zip":"46040"},{"name":"ÇOKRAN MAH.","zip":"46040"},{"name":"ÇUKURHİSAR MAH.","zip":"46040"},{"name":"DADAĞLI MAH.","zip":"46040"},{"name":"DEREBOĞAZI MAH.","zip":"46040"},{"name":"DUMLUPINAR MAH.","zip":"46040"},{"name":"ERTUĞRUL GAZİ MAH.","zip":"46040"},{"name":"FATMALI MAH.","zip":"46040"},{"name":"GAYBERLİ MAH.","zip":"46040"},{"name":"GÖLPINAR MAH.","zip":"46040"},{"name":"HACI BAYRAM VELİ MAH.","zip":"46040"},{"name":"HACIAĞLAR MAH.","zip":"46040"},{"name":"HACILAR MAH.","zip":"46040"},{"name":"HACIMUSTAFA MAH.","zip":"46040"},{"name":"HARTLAP MAH.","zip":"46040"},{"name":"HASANCIKLI MAH.","zip":"46040"},{"name":"HAYRULLAH MAH.","zip":"46040"},{"name":"ILICA MAH.","zip":"46040"},{"name":"İSMAİLLİ MAH.","zip":"46040"},{"name":"KALAKAYA MAH.","zip":"46040"},{"name":"KALE MAH.","zip":"46040"},{"name":"KARACAOĞLAN MAH.","zip":"46040"},{"name":"KARADERE MAH.","zip":"46040"},{"name":"KAYNAR MAH.","zip":"46040"},{"name":"KIZILDAMLAR MAH.","zip":"46040"},{"name":"KIZILSEKİ MAH.","zip":"46040"},{"name":"KÖSELİ MAH.","zip":"46040"},{"name":"KUMARLI MAH.","zip":"46040"},{"name":"KUMAŞIR MAH.","zip":"46040"},{"name":"KURTLAR MAH.","zip":"46040"},{"name":"KURUCAOVA MAH.","zip":"46040"},{"name":"KÜÇÜKSIR MAH.","zip":"46040"},{"name":"KÜMPERLİ MAH.","zip":"46040"},{"name":"KÜRTÜL MAH.","zip":"46040"},{"name":"MAKSUTLU MAH.","zip":"46040"},{"name":"MALİK EJDER MAH.","zip":"46040"},{"name":"MEVLANA MAH.","zip":"46040"},{"name":"MİMAR SİNAN MAH.","zip":"46040"},{"name":"MOLLA GÜRANİ MAH.","zip":"46040"},{"name":"ORUÇ REİS MAH.","zip":"46040"},{"name":"OSMAN GAZİ MAH.","zip":"46040"},{"name":"ÖNSEN MAH.","zip":"46040"},{"name":"ÖŞLÜ MAH.","zip":"46040"},{"name":"ÖZTÜRK MAH.","zip":"46040"},{"name":"PİRİ REİS MAH.","zip":"46040"},{"name":"SADIKLI MAH.","zip":"46040"},{"name":"SARIÇUKUR MAH.","zip":"46040"},{"name":"SELİMİYE MAH.","zip":"46040"},{"name":"SUÇATI MAH.","zip":"46040"},{"name":"ŞAHİNKAYASI MAH.","zip":"46040"},{"name":"ŞAZİ BEY MAH.","zip":"46040"},{"name":"TEKİR MAH.","zip":"46040"},{"name":"VADİ MAH.","zip":"46040"},{"name":"YUSUFLAR MAH.","zip":"46040"},{"name":"ZEYTİNDERE MAH.","zip":"46040"}]},{"name":"SÜLEYMANLI","cityName":null,"quarters":[{"name":"BEŞEN MAH.","zip":"46140"},{"name":"ÇAKIRDERE MAH.","zip":"46140"},{"name":"ÇAMLIBEL MAH.","zip":"46140"},{"name":"ÇAMLICA MAH.","zip":"46140"},{"name":"HACIBUDAK MAH.","zip":"46140"},{"name":"HACIİBRAHİMUŞAĞI MAH.","zip":"46140"},{"name":"HACININOĞLU MAH.","zip":"46140"},{"name":"KAPIKAYA MAH.","zip":"46140"},{"name":"KERTMEN MAH.","zip":"46140"},{"name":"KOZCAĞIZ MAH.","zip":"46140"},{"name":"PAYAMLI MAH.","zip":"46140"},{"name":"SARIGÜZEL MAH.","zip":"46140"},{"name":"SÜLEYMANLI MAH.","zip":"46140"}]},{"name":"YENİCEKALE","cityName":null,"quarters":[{"name":"DEMREK MAH.","zip":"46102"},{"name":"KERİMLİ MAH.","zip":"46102"},{"name":"KISIKLI MAH.","zip":"46102"},{"name":"MURATLI MAH.","zip":"46102"},{"name":"RAHMACILAR MAH.","zip":"46102"},{"name":"REYHANLI MAH.","zip":"46102"},{"name":"SARIMOLLALI MAH.","zip":"46102"},{"name":"SAYGILI MAH.","zip":"46102"},{"name":"SULUYAYLA MAH.","zip":"46102"},{"name":"TOPÇALI MAH.","zip":"46102"},{"name":"YAYLAÜSTÜ MAH.","zip":"46102"},{"name":"YENİCEKALE MAH.","zip":"46102"},{"name":"YENİDEMİR MAH.","zip":"46102"},{"name":"YENİYAPAN MAH.","zip":"46102"},{"name":"YOLYANI MAH.","zip":"46102"}]},{"name":"PAZARCIK","cityName":null,"quarters":[{"name":"AKCAKOYUNLU MAH.","zip":"46700"},{"name":"AKÇALAR MAH.","zip":"46700"},{"name":"AKDEMİR MAH.","zip":"46700"},{"name":"ARMUTLU MAH.","zip":"46700"},{"name":"AŞAĞIMÜLK MAH.","zip":"46700"},{"name":"BAĞDINISAĞIR MAH.","zip":"46700"},{"name":"BEŞÇEŞME MAH.","zip":"46700"},{"name":"BÖLÜKÇAM MAH.","zip":"46700"},{"name":"BÜYÜKNACAR MAH.","zip":"46700"},{"name":"CENGİZ TOPEL MAH.","zip":"46700"},{"name":"CİMİKANLI MAH.","zip":"46700"},{"name":"ÇAMLICA MAH.","zip":"46700"},{"name":"ÇAMLITEPE MAH.","zip":"46700"},{"name":"ÇİÇEK MAH.","zip":"46700"},{"name":"ÇİÇEKALANI MAH.","zip":"46700"},{"name":"ÇİĞDEMTEPE MAH.","zip":"46700"},{"name":"ÇÖÇELLİ MAH.","zip":"46700"},{"name":"DAMLATAŞ MAH.","zip":"46700"},{"name":"DEDEPAŞA MAH.","zip":"46700"},{"name":"EĞLEN MAH.","zip":"46700"},{"name":"EĞRİCE MAH.","zip":"46700"},{"name":"EMİROĞLU MAH.","zip":"46700"},{"name":"EVRİ MAH.","zip":"46700"},{"name":"FATİH MAH.","zip":"46700"},{"name":"GANİDAĞIKETİLER MAH.","zip":"46700"},{"name":"GÖÇER MAH.","zip":"46700"},{"name":"GÖYNÜK MAH.","zip":"46700"},{"name":"HANOBASI MAH.","zip":"46700"},{"name":"HARMANCIK MAH.","zip":"46700"},{"name":"HASANKOCA MAH.","zip":"46700"},{"name":"HÜRRİYET MAH.","zip":"46700"},{"name":"İNCİRLİ MAH.","zip":"46700"},{"name":"KADINCIK MAH.","zip":"46700"},{"name":"KARAAĞAÇ MAH.","zip":"46700"},{"name":"KARABIYIKLI MAH.","zip":"46700"},{"name":"KARAÇAY MAH.","zip":"46700"},{"name":"KARAGÖL MAH.","zip":"46700"},{"name":"KARAHÜYÜK MAH.","zip":"46700"},{"name":"KELLEŞ MAH.","zip":"46700"},{"name":"KIZKAPANLI MAH.","zip":"46700"},{"name":"KİZİRLİ MAH.","zip":"46700"},{"name":"KUZEYKENT MAH.","zip":"46700"},{"name":"MEHMET EMİN ARIKOĞLU MAH.","zip":"46700"},{"name":"MEMİŞ ÖZDAL MAH.","zip":"46700"},{"name":"MEMİŞKAHYA MAH.","zip":"46700"},{"name":"MENDERES MAH.","zip":"46700"},{"name":"MEZERE MAH.","zip":"46700"},{"name":"NARLI MAH.","zip":"46700"},{"name":"NEFSİDOĞANLI MAH.","zip":"46700"},{"name":"OSMANDEDE MAH.","zip":"46700"},{"name":"ÖRDEKDEDE MAH.","zip":"46700"},{"name":"PAYAMLIBAĞ MAH.","zip":"46700"},{"name":"SADAKALAR MAH.","zip":"46700"},{"name":"SAKARKAYA MAH.","zip":"46700"},{"name":"SALLIUŞAĞI MAH.","zip":"46700"},{"name":"SALMANIPAK MAH.","zip":"46700"},{"name":"SALMANLI MAH.","zip":"46700"},{"name":"SARIERİK MAH.","zip":"46700"},{"name":"SARIL MAH.","zip":"46700"},{"name":"SOKU MAH.","zip":"46700"},{"name":"SULTANLAR MAH.","zip":"46700"},{"name":"ŞAHİNTEPE MAH.","zip":"46700"},{"name":"ŞEHİT NURETTİN ADEMOĞLU MAH.","zip":"46700"},{"name":"TAŞDEMİR MAH.","zip":"46700"},{"name":"TETİRLİK MAH.","zip":"46700"},{"name":"TİLKİLER MAH.","zip":"46700"},{"name":"TURUNÇLU MAH.","zip":"46700"},{"name":"UFACIKLI MAH.","zip":"46700"},{"name":"ULUBAHÇE MAH.","zip":"46700"},{"name":"YARBAŞI MAH.","zip":"46700"},{"name":"YEŞİLKENT MAH.","zip":"46700"},{"name":"YİĞİTLER MAH.","zip":"46700"},{"name":"YOLBOYU MAH.","zip":"46700"},{"name":"YUKARIHÖCÜKLÜ MAH.","zip":"46700"},{"name":"YUKARIMÜLK MAH.","zip":"46700"},{"name":"YUMAKLICERİT MAH.","zip":"46700"}]},{"name":"TÜRKOĞLU","cityName":null,"quarters":[{"name":"AVŞARLI MAH.","zip":"46800"},{"name":"AYDINKAVAK MAH.","zip":"46800"},{"name":"BAYRAMGAZİ MAH.","zip":"46800"},{"name":"BEYOĞLU MAH.","zip":"46800"},{"name":"CECELİ MAH.","zip":"46800"},{"name":"CENNETPINARI MAH.","zip":"46800"},{"name":"CUMHURİYET MAH.","zip":"46800"},{"name":"ÇAKALLIÇULLU MAH.","zip":"46800"},{"name":"ÇAKALLIHASANAĞA MAH.","zip":"46800"},{"name":"ÇAKIROĞLU MAH.","zip":"46800"},{"name":"ÇOBANTEPE MAH.","zip":"46800"},{"name":"DEDELER MAH.","zip":"46800"},{"name":"DOLUCA MAH.","zip":"46800"},{"name":"FATİH MAH.","zip":"46800"},{"name":"GAZİLER MAH.","zip":"46800"},{"name":"GAZİOSMANPAŞA MAH.","zip":"46800"},{"name":"GÜLLÜHÜYÜK MAH.","zip":"46800"},{"name":"HACIBEBEK MAH.","zip":"46800"},{"name":"HOPURLU MAH.","zip":"46800"},{"name":"İMALI MAH.","zip":"46800"},{"name":"İSTASYON MAH.","zip":"46800"},{"name":"KADIOĞLUÇİFTLİĞİ MAH.","zip":"46800"},{"name":"KALEDİBİ MAH.","zip":"46800"},{"name":"KELİBİŞLER MAH.","zip":"46800"},{"name":"KILILI MAH.","zip":"46800"},{"name":"KIRMAKAYA MAH.","zip":"46800"},{"name":"KIZILENİŞ MAH.","zip":"46800"},{"name":"KUMÇATI MAH.","zip":"46800"},{"name":"KUYUMCULAR MAH.","zip":"46800"},{"name":"KÜÇÜKİMALI MAH.","zip":"46800"},{"name":"MİNEHÜYÜK MAH.","zip":"46800"},{"name":"ÖNSENHOPURU MAH.","zip":"46800"},{"name":"ÖZBEK MAH.","zip":"46800"},{"name":"PINARHÜYÜK MAH.","zip":"46800"},{"name":"ŞEKEROBA MAH.","zip":"46800"},{"name":"TAHTALIDEDELER MAH.","zip":"46800"},{"name":"TÜRKOĞLU OSB MAH.","zip":"46800"},{"name":"UZUNSÖĞÜT MAH.","zip":"46800"},{"name":"YAVUZLAR MAH.","zip":"46800"},{"name":"YENİKÖY MAH.","zip":"46800"},{"name":"YENİPINAR MAH.","zip":"46800"},{"name":"YEŞİLYÖRE MAH.","zip":"46800"},{"name":"YEŞİLYURT MAH.","zip":"46800"},{"name":"YOLDERESİ MAH.","zip":"46800"}]}]}]}