{"id":47,"name":"MARDİN","cities":[{"name":"city","districts":[{"name":"İSTASYON","cityName":null,"quarters":[{"name":"AKBAĞ MAH.","zip":"47060"},{"name":"AKINCI MAH.","zip":"47060"},{"name":"ALAKUŞ MAH.","zip":"47060"},{"name":"ALIMLI MAH.","zip":"47060"},{"name":"AMBAR MAH.","zip":"47060"},{"name":"ARAN MAH.","zip":"47060"},{"name":"ARPATEPE MAH.","zip":"47060"},{"name":"AŞAĞIYENİKÖY MAH.","zip":"47060"},{"name":"AVCILAR MAH.","zip":"47060"},{"name":"AYTEPE MAH.","zip":"47060"},{"name":"BAĞLICA MAH.","zip":"47060"},{"name":"BOZTEPE MAH.","zip":"47060"},{"name":"BUĞDAY MAH.","zip":"47060"},{"name":"CEVİZLİK MAH.","zip":"47060"},{"name":"CEVİZPINARI MAH.","zip":"47060"},{"name":"ÇAĞLAR MAH.","zip":"47060"},{"name":"ÇALIŞLI MAH.","zip":"47060"},{"name":"ÇATAK MAH.","zip":"47060"},{"name":"ÇAYIRPINAR MAH.","zip":"47060"},{"name":"ÇIPLAKTEPE MAH.","zip":"47060"},{"name":"ÇİFTLİKKÖY MAH.","zip":"47060"},{"name":"ÇUKURYURT MAH.","zip":"47060"},{"name":"DARA MAH.","zip":"47060"},{"name":"DİBEKTAŞ MAH.","zip":"47060"},{"name":"DÜZLÜK MAH.","zip":"47060"},{"name":"ELMABAHÇE MAH.","zip":"47060"},{"name":"EROĞLU MAH.","zip":"47060"},{"name":"ERYERİ MAH.","zip":"47060"},{"name":"ESENTEPE MAH.","zip":"47060"},{"name":"ESKİKALE MAH.","zip":"47060"},{"name":"GÖLLÜ MAH.","zip":"47060"},{"name":"GÜNEYLİ MAH.","zip":"47060"},{"name":"GÜRAĞAÇ MAH.","zip":"47060"},{"name":"HAMZABEY MAH.","zip":"47060"},{"name":"HATUNLU MAH.","zip":"47060"},{"name":"HAYDAR MAH.","zip":"47060"},{"name":"HÜYÜKLÜ MAH.","zip":"47060"},{"name":"İSTASYON MAH.","zip":"47060"},{"name":"KARADEMİR MAH.","zip":"47060"},{"name":"KONAKLI MAH.","zip":"47060"},{"name":"KUMLU MAH.","zip":"47060"},{"name":"KUYULU MAH.","zip":"47060"},{"name":"KÜÇÜKKÖY MAH.","zip":"47060"},{"name":"NUR (AKINCI) MAH.","zip":"47060"},{"name":"OFİS MAH.","zip":"47060"},{"name":"OFİS SB MAH.","zip":"47060"},{"name":"OFİSOSB MAH.","zip":"47060"},{"name":"ORTAKÖY MAH.","zip":"47060"},{"name":"ÖZLÜCE MAH.","zip":"47060"},{"name":"SAKALAR MAH.","zip":"47060"},{"name":"SULAK MAH.","zip":"47060"},{"name":"SULTANKÖY MAH.","zip":"47060"},{"name":"TANDIR MAH.","zip":"47060"},{"name":"TİLKİTEPE MAH.","zip":"47060"},{"name":"TOZAN MAH.","zip":"47060"},{"name":"YALIM MAH.","zip":"47060"},{"name":"YARDERE MAH.","zip":"47060"},{"name":"YAYLA MAH.","zip":"47060"},{"name":"YAYLABAŞI MAH.","zip":"47060"},{"name":"YAYLACIK MAH.","zip":"47060"},{"name":"YAYLI MAH.","zip":"47060"},{"name":"YENİCE MAH.","zip":"47060"},{"name":"YENİKÖY MAH.","zip":"47060"},{"name":"YOLBAŞI MAH.","zip":"47060"},{"name":"YUKARIAYDINLI MAH.","zip":"47060"},{"name":"YUKARIHATUNLU MAH.","zip":"47060"},{"name":"YUKARIYENİKÖY MAH.","zip":"47060"},{"name":"YÜCE MAH.","zip":"47060"}]},{"name":"KABALA","cityName":null,"quarters":null},{"name":"NUR","cityName":null,"quarters":[{"name":"NUR MAH.","zip":"47200"},{"name":"YENİŞEHİR MAH.","zip":"47200"}]},{"name":"SAVURKAPI","cityName":null,"quarters":[{"name":"ÇABUK MAH.","zip":"47100"},{"name":"DİYARBAKIR KAPI MAH.","zip":"47100"},{"name":"EMİNETTİN MAH.","zip":"47100"},{"name":"ENSAR MAH.","zip":"47100"},{"name":"GÜL MAH.","zip":"47100"},{"name":"KAYACAN MAH.","zip":"47100"},{"name":"KOTEK MAH.","zip":"47100"},{"name":"LATİFİYE MAH.","zip":"47100"},{"name":"MEDRESE MAH.","zip":"47100"},{"name":"NECMETTİN MAH.","zip":"47100"},{"name":"SARAÇOĞLU MAH.","zip":"47100"},{"name":"SAVURKAPI MAH.","zip":"47100"},{"name":"ŞAR MAH.","zip":"47100"},{"name":"ŞEHİDİYE MAH.","zip":"47100"},{"name":"TEKER MAH.","zip":"47100"},{"name":"ULUCAMİ MAH.","zip":"47100"},{"name":"YENİKAPI MAH.","zip":"47100"}]},{"name":"DARGEÇİT","cityName":null,"quarters":[{"name":"AKYOL MAH.","zip":"47750"},{"name":"ALAYUNT MAH.","zip":"47750"},{"name":"ALTINOLUK MAH.","zip":"47750"},{"name":"ALTIYOL MAH.","zip":"47750"},{"name":"BAĞÖZÜ MAH.","zip":"47750"},{"name":"BAHÇEBAŞI MAH.","zip":"47750"},{"name":"BATUR MAH.","zip":"47750"},{"name":"BAYSUN MAH.","zip":"47750"},{"name":"BEĞENDİ MAH.","zip":"47750"},{"name":"BELEN MAH.","zip":"47750"},{"name":"BOSTANLI MAH.","zip":"47750"},{"name":"ÇATALAN MAH.","zip":"47750"},{"name":"ÇATALÇAM MAH.","zip":"47750"},{"name":"ÇAVUŞLU MAH.","zip":"47750"},{"name":"ÇELİKKÖY MAH.","zip":"47750"},{"name":"ÇUKURDERE MAH.","zip":"47750"},{"name":"DEĞERLİ MAH.","zip":"47750"},{"name":"GÜRGEN MAH.","zip":"47750"},{"name":"GÜRIŞIK MAH.","zip":"47750"},{"name":"ILISU MAH.","zip":"47750"},{"name":"KARABAYIR MAH.","zip":"47750"},{"name":"KARTALKAYA MAH.","zip":"47750"},{"name":"KILAVUZ MAH.","zip":"47750"},{"name":"KISMETLİ MAH.","zip":"47750"},{"name":"KORUCU MAH.","zip":"47750"},{"name":"KUMDERE MAH.","zip":"47750"},{"name":"KUŞLUCA MAH.","zip":"47750"},{"name":"ORMANİÇİ MAH.","zip":"47750"},{"name":"SAFA MAH.","zip":"47750"},{"name":"SARAY MAH.","zip":"47750"},{"name":"SUÇATI MAH.","zip":"47750"},{"name":"SÜMER MAH.","zip":"47750"},{"name":"TANYERİ MAH.","zip":"47750"},{"name":"TAVŞANLI MAH.","zip":"47750"},{"name":"TEMELLİ MAH.","zip":"47750"},{"name":"TEPEBAŞI MAH.","zip":"47750"},{"name":"ULAŞ MAH.","zip":"47750"},{"name":"YANILMAZ MAH.","zip":"47750"},{"name":"YILMAZ MAH.","zip":"47750"},{"name":"YONCALI MAH.","zip":"47750"}]},{"name":"DERİK","cityName":null,"quarters":[{"name":"ADAKENT MAH.","zip":"47800"},{"name":"AHMETLİ MAH.","zip":"47800"},{"name":"AKÇAY MAH.","zip":"47800"},{"name":"AKINCILAR MAH.","zip":"47800"},{"name":"ALAGÖZ MAH.","zip":"47800"},{"name":"ALANLI MAH.","zip":"47800"},{"name":"ALİBEY MAH.","zip":"47800"},{"name":"AMBARLI MAH.","zip":"47800"},{"name":"AŞAĞIMEZRA MAH.","zip":"47800"},{"name":"ATLI MAH.","zip":"47800"},{"name":"AYDINLAR MAH.","zip":"47800"},{"name":"BAĞARASI MAH.","zip":"47800"},{"name":"BAHÇELİEVLER MAH.","zip":"47800"},{"name":"BALLI MAH.","zip":"47800"},{"name":"BALOVA MAH.","zip":"47800"},{"name":"BAŞARAN MAH.","zip":"47800"},{"name":"BAYIRKÖY MAH.","zip":"47800"},{"name":"BAYRAKLI MAH.","zip":"47800"},{"name":"BEŞBUDAK MAH.","zip":"47800"},{"name":"BOYAKLI MAH.","zip":"47800"},{"name":"BOZBAYIR MAH.","zip":"47800"},{"name":"BOZOK MAH.","zip":"47800"},{"name":"BÖĞREK MAH.","zip":"47800"},{"name":"BURÇKÖY MAH.","zip":"47800"},{"name":"CEVİZPINAR MAH.","zip":"47800"},{"name":"ÇADIRLI MAH.","zip":"47800"},{"name":"ÇAĞIL MAH.","zip":"47800"},{"name":"ÇATALTEPE MAH.","zip":"47800"},{"name":"ÇAYKÖY MAH.","zip":"47800"},{"name":"ÇUKURSU MAH.","zip":"47800"},{"name":"DAĞ MAH.","zip":"47800"},{"name":"DEMİRLİ MAH.","zip":"47800"},{"name":"DENKTAŞ MAH.","zip":"47800"},{"name":"DERİNSU MAH.","zip":"47800"},{"name":"DİKMEN MAH.","zip":"47800"},{"name":"DOĞANCI MAH.","zip":"47800"},{"name":"DUMANLI MAH.","zip":"47800"},{"name":"DUMLUCA MAH.","zip":"47800"},{"name":"DÜZTAŞ MAH.","zip":"47800"},{"name":"GÖKTAŞ MAH.","zip":"47800"},{"name":"GÖLBAŞI MAH.","zip":"47800"},{"name":"HAYIRLI MAH.","zip":"47800"},{"name":"HİSARALTI MAH.","zip":"47800"},{"name":"ILICA MAH.","zip":"47800"},{"name":"ISSIZ MAH.","zip":"47800"},{"name":"İNCESU MAH.","zip":"47800"},{"name":"KALE MAH.","zip":"47800"},{"name":"KANATLI MAH.","zip":"47800"},{"name":"KARABURUN MAH.","zip":"47800"},{"name":"KARATAŞ MAH.","zip":"47800"},{"name":"KAYACIK MAH.","zip":"47800"},{"name":"KOCATEPE MAH.","zip":"47800"},{"name":"KOÇYİĞİT MAH.","zip":"47800"},{"name":"KONAK MAH.","zip":"47800"},{"name":"KONUK MAH.","zip":"47800"},{"name":"KOVALI MAH.","zip":"47800"},{"name":"KOVANLI MAH.","zip":"47800"},{"name":"KÖSEVELİ MAH.","zip":"47800"},{"name":"KURUÇAY MAH.","zip":"47800"},{"name":"KUŞÇU MAH.","zip":"47800"},{"name":"KUTLUCA MAH.","zip":"47800"},{"name":"KUYULU MAH.","zip":"47800"},{"name":"KÜÇÜKPINAR MAH.","zip":"47800"},{"name":"MEŞELİ MAH.","zip":"47800"},{"name":"ORTACA MAH.","zip":"47800"},{"name":"PINARCIK MAH.","zip":"47800"},{"name":"PİRİNÇLİ MAH.","zip":"47800"},{"name":"SOĞUKKUYU MAH.","zip":"47800"},{"name":"SÖĞÜTÖZÜ MAH.","zip":"47800"},{"name":"SUBAŞI MAH.","zip":"47800"},{"name":"ŞAHVERDİ MAH.","zip":"47800"},{"name":"ŞEREFLİ MAH.","zip":"47800"},{"name":"TAŞIT MAH.","zip":"47800"},{"name":"TEPEBAĞ MAH.","zip":"47800"},{"name":"ÜÇKUYU MAH.","zip":"47800"},{"name":"ÜÇTEPE MAH.","zip":"47800"},{"name":"YAZICIK MAH.","zip":"47800"},{"name":"YUKARIMEZRA MAH.","zip":"47800"},{"name":"ZEYTİNPINAR MAH.","zip":"47800"}]},{"name":"KIZILTEPE","cityName":null,"quarters":[{"name":"AKÇA MAH.","zip":"47400"},{"name":"AKÇAPINAR MAH.","zip":"47400"},{"name":"AKDOĞAN MAH.","zip":"47400"},{"name":"AKKOÇ MAH.","zip":"47400"},{"name":"AKTEPE MAH.","zip":"47400"},{"name":"AKTULGA MAH.","zip":"47400"},{"name":"AKYAZI MAH.","zip":"47400"},{"name":"AKYÜZ MAH.","zip":"47400"},{"name":"AKZİYARET MAH.","zip":"47400"},{"name":"ALAKUŞ MAH.","zip":"47400"},{"name":"ALEMDAR MAH.","zip":"47400"},{"name":"ALİPAŞA MAH.","zip":"47400"},{"name":"ALTINTOPRAK MAH.","zip":"47400"},{"name":"ARAKAPI MAH.","zip":"47400"},{"name":"ARAKÖY MAH.","zip":"47400"},{"name":"ARIKLI MAH.","zip":"47400"},{"name":"ARITEPE MAH.","zip":"47400"},{"name":"ASLANLI MAH.","zip":"47400"},{"name":"AŞAĞIAZIKLI MAH.","zip":"47400"},{"name":"AŞİTİ MAH.","zip":"47400"},{"name":"ATAKÖY MAH.","zip":"47400"},{"name":"ATATÜRK MAH.","zip":"47400"},{"name":"ATMACA MAH.","zip":"47400"},{"name":"AYAZ MAH.","zip":"47400"},{"name":"BAĞRIBÜTÜN MAH.","zip":"47400"},{"name":"BAHÇELİEVLER MAH.","zip":"47400"},{"name":"BARIŞ MAH.","zip":"47400"},{"name":"BAŞAK MAH.","zip":"47400"},{"name":"BEKTAŞ MAH.","zip":"47400"},{"name":"BELLİ MAH.","zip":"47400"},{"name":"BERÇEM MAH.","zip":"47400"},{"name":"BEŞDEĞİRMEN MAH.","zip":"47400"},{"name":"BEŞEVLER MAH.","zip":"47400"},{"name":"BEŞİK MAH.","zip":"47400"},{"name":"BOZHÖYÜK MAH.","zip":"47400"},{"name":"BÜYÜKAYRIK MAH.","zip":"47400"},{"name":"BÜYÜKBOĞAZİYE MAH.","zip":"47400"},{"name":"BÜYÜKDERE MAH.","zip":"47400"},{"name":"BÜYÜKTEPE MAH.","zip":"47400"},{"name":"CANTAŞI MAH.","zip":"47400"},{"name":"CUMHURİYET MAH.","zip":"47400"},{"name":"ÇAĞIL MAH.","zip":"47400"},{"name":"ÇAKIR MAH.","zip":"47400"},{"name":"ÇAMLICA MAH.","zip":"47400"},{"name":"ÇAMLIDERE MAH.","zip":"47400"},{"name":"ÇANAKLI MAH.","zip":"47400"},{"name":"ÇATALCA MAH.","zip":"47400"},{"name":"ÇAYBAŞI MAH.","zip":"47400"},{"name":"ÇETİNLER MAH.","zip":"47400"},{"name":"ÇINARCIK MAH.","zip":"47400"},{"name":"ÇIPLAK MAH.","zip":"47400"},{"name":"ÇİMENLİ MAH.","zip":"47400"},{"name":"ÇİTLİBAĞ MAH.","zip":"47400"},{"name":"DAMLALI MAH.","zip":"47400"},{"name":"DEMET MAH.","zip":"47400"},{"name":"DEMİRCİ MAH.","zip":"47400"},{"name":"DEMİRKAPI MAH.","zip":"47400"},{"name":"DEMİRLER MAH.","zip":"47400"},{"name":"DİKMEN MAH.","zip":"47400"},{"name":"DOĞANLI MAH.","zip":"47400"},{"name":"DORA MAH.","zip":"47400"},{"name":"DOYURAN MAH.","zip":"47400"},{"name":"DÖRTYOL MAH.","zip":"47400"},{"name":"DUNAYSIR MAH.","zip":"47400"},{"name":"DÜĞÜRK MAH.","zip":"47400"},{"name":"EKİNLİK MAH.","zip":"47400"},{"name":"ELBEYLİ MAH.","zip":"47400"},{"name":"ELMALI MAH.","zip":"47400"},{"name":"ERDEM MAH.","zip":"47400"},{"name":"ERİKLİ MAH.","zip":"47400"},{"name":"EROĞLU MAH.","zip":"47400"},{"name":"ERSOYLU MAH.","zip":"47400"},{"name":"ESENLİ MAH.","zip":"47400"},{"name":"ESKİN MAH.","zip":"47400"},{"name":"EŞME MAH.","zip":"47400"},{"name":"EYMİRLİ MAH.","zip":"47400"},{"name":"FINDIKTEPE MAH.","zip":"47400"},{"name":"FIRAT MAH.","zip":"47400"},{"name":"GÖLLÜ MAH.","zip":"47400"},{"name":"GÖZLÜCE MAH.","zip":"47400"},{"name":"GÜÇLÜ MAH.","zip":"47400"},{"name":"GÜMÜŞDERE MAH.","zip":"47400"},{"name":"GÜNEŞTEPE MAH.","zip":"47400"},{"name":"GÜNGÖREN MAH.","zip":"47400"},{"name":"GÜNLÜCE MAH.","zip":"47400"},{"name":"GÜRMEŞE MAH.","zip":"47400"},{"name":"HACIHASAN MAH.","zip":"47400"},{"name":"HACIYUSUF MAH.","zip":"47400"},{"name":"HAKVERDİ MAH.","zip":"47400"},{"name":"HALKALI MAH.","zip":"47400"},{"name":"HARMANDÜZÜ MAH.","zip":"47400"},{"name":"HAZNEDAR MAH.","zip":"47400"},{"name":"HOCAKÖY MAH.","zip":"47400"},{"name":"ILICAK MAH.","zip":"47400"},{"name":"IŞIKLAR MAH.","zip":"47400"},{"name":"IŞIKÖREN MAH.","zip":"47400"},{"name":"İKİKUYU MAH.","zip":"47400"},{"name":"İKİZLER MAH.","zip":"47400"},{"name":"İNANDI MAH.","zip":"47400"},{"name":"İPEK MAH.","zip":"47400"},{"name":"KAHRAMAN MAH.","zip":"47400"},{"name":"KALAYCIK MAH.","zip":"47400"},{"name":"KARABENT MAH.","zip":"47400"},{"name":"KARAKULAK MAH.","zip":"47400"},{"name":"KARAKUYU MAH.","zip":"47400"},{"name":"KARAMAN MAH.","zip":"47400"},{"name":"KAŞIKLI MAH.","zip":"47400"},{"name":"KATARLI MAH.","zip":"47400"},{"name":"KAYAPINAR MAH.","zip":"47400"},{"name":"KAYNARCA MAH.","zip":"47400"},{"name":"KENGERLİ MAH.","zip":"47400"},{"name":"KILDUMAN MAH.","zip":"47400"},{"name":"KIRKKUYU MAH.","zip":"47400"},{"name":"KİLİMLİ MAH.","zip":"47400"},{"name":"KOCALAR MAH.","zip":"47400"},{"name":"KOÇHİSAR MAH.","zip":"47400"},{"name":"KOÇLU MAH.","zip":"47400"},{"name":"KONUKLU MAH.","zip":"47400"},{"name":"KÖPRÜBAŞI MAH.","zip":"47400"},{"name":"KÖRSU MAH.","zip":"47400"},{"name":"KÜÇÜKAYRIK MAH.","zip":"47400"},{"name":"KÜÇÜKBOĞAZİYE MAH.","zip":"47400"},{"name":"KÜPLÜCE MAH.","zip":"47400"},{"name":"MEDYA MAH.","zip":"47400"},{"name":"MEZOPOTAMYA MAH.","zip":"47400"},{"name":"ODAKÖY MAH.","zip":"47400"},{"name":"OFİS MAH.","zip":"47400"},{"name":"ORTAKÖY MAH.","zip":"47400"},{"name":"OTLUK MAH.","zip":"47400"},{"name":"ÖRENCİK MAH.","zip":"47400"},{"name":"RIHANİ MAH.","zip":"47400"},{"name":"SANAYİ MAH.","zip":"47400"},{"name":"SANCARLI MAH.","zip":"47400"},{"name":"SANDIKLI MAH.","zip":"47400"},{"name":"SARICA MAH.","zip":"47400"},{"name":"SARUHAN MAH.","zip":"47400"},{"name":"SEVİMLİ MAH.","zip":"47400"},{"name":"SOĞANLI MAH.","zip":"47400"},{"name":"SÜREKLİ MAH.","zip":"47400"},{"name":"ŞENYURT MAH.","zip":"47400"},{"name":"TANRIVERDİ MAH.","zip":"47400"},{"name":"TARLABAŞI MAH.","zip":"47400"},{"name":"TAŞLICA MAH.","zip":"47400"},{"name":"TATLICA MAH.","zip":"47400"},{"name":"TEPEBAŞI MAH.","zip":"47400"},{"name":"TIRAŞLI MAH.","zip":"47400"},{"name":"TİMURÇİFTLİĞİ MAH.","zip":"47400"},{"name":"TOSUNLU MAH.","zip":"47400"},{"name":"TURGUT ÖZAL MAH.","zip":"47400"},{"name":"TUZLA MAH.","zip":"47400"},{"name":"TUZLUCA MAH.","zip":"47400"},{"name":"ULAŞLI MAH.","zip":"47400"},{"name":"ULUKÖY MAH.","zip":"47400"},{"name":"UZUNKAYA MAH.","zip":"47400"},{"name":"ÜÇEVLER MAH.","zip":"47400"},{"name":"ÜLKER MAH.","zip":"47400"},{"name":"YALINKILIÇ MAH.","zip":"47400"},{"name":"YAMAÇ MAH.","zip":"47400"},{"name":"YAMANLAR MAH.","zip":"47400"},{"name":"YARIMCA MAH.","zip":"47400"},{"name":"YAŞARKÖY MAH.","zip":"47400"},{"name":"YAYIKLI MAH.","zip":"47400"},{"name":"YAYLIM MAH.","zip":"47400"},{"name":"YEDİKARDEŞ MAH.","zip":"47400"},{"name":"YENİ MAH.","zip":"47400"},{"name":"YEŞİLKÖY MAH.","zip":"47400"},{"name":"YOLALDI MAH.","zip":"47400"},{"name":"YOLDERE MAH.","zip":"47400"},{"name":"YOLÜSTÜ MAH.","zip":"47400"},{"name":"YONCALI MAH.","zip":"47400"},{"name":"YUKARIAZIKLI MAH.","zip":"47400"},{"name":"YUKARIAZIKLI OSB MAH.","zip":"47400"},{"name":"YUMRUTAŞ MAH.","zip":"47400"},{"name":"YUMURCAK MAH.","zip":"47400"},{"name":"YURTDERİ MAH.","zip":"47400"},{"name":"YURTÖZÜ MAH.","zip":"47400"},{"name":"YÜCELİ MAH.","zip":"47400"},{"name":"YÜKSEKTEPE MAH.","zip":"47400"},{"name":"ZİYARET MAH.","zip":"47400"}]},{"name":"MAZIDAĞI","cityName":null,"quarters":[{"name":"ARIKÖY MAH.","zip":"47700"},{"name":"ARISU MAH.","zip":"47700"},{"name":"AŞAĞIOCAK MAH.","zip":"47700"},{"name":"ATALAR MAH.","zip":"47700"},{"name":"ATLICA MAH.","zip":"47700"},{"name":"AYKUT MAH.","zip":"47700"},{"name":"BAHÇECİK MAH.","zip":"47700"},{"name":"BALPINAR MAH.","zip":"47700"},{"name":"BİLGE MAH.","zip":"47700"},{"name":"ÇANKAYA MAH.","zip":"47700"},{"name":"ÇAYÖNÜ MAH.","zip":"47700"},{"name":"DERECİK MAH.","zip":"47700"},{"name":"DİKYAMAÇ MAH.","zip":"47700"},{"name":"DURAKLI MAH.","zip":"47700"},{"name":"EKİNCİLER MAH.","zip":"47700"},{"name":"ENGİN MAH.","zip":"47700"},{"name":"ERDALI MAH.","zip":"47700"},{"name":"EVCİLER MAH.","zip":"47700"},{"name":"GÜMÜŞPINAR MAH.","zip":"47700"},{"name":"GÜMÜŞYUVA MAH.","zip":"47700"},{"name":"GÜNDOĞAN MAH.","zip":"47700"},{"name":"GÜRGÖZE MAH.","zip":"47700"},{"name":"IŞIKYAKA MAH.","zip":"47700"},{"name":"İKİSU MAH.","zip":"47700"},{"name":"KARAALANİ MAH.","zip":"47700"},{"name":"KARATAŞ MAH.","zip":"47700"},{"name":"KARŞIYAKA MAH.","zip":"47700"},{"name":"KAYALAR MAH.","zip":"47700"},{"name":"KEBAPÇI MAH.","zip":"47700"},{"name":"KEMERLİ MAH.","zip":"47700"},{"name":"KIŞLAK MAH.","zip":"47700"},{"name":"KOCAKENT MAH.","zip":"47700"},{"name":"KONUR MAH.","zip":"47700"},{"name":"MEŞELİ MAH.","zip":"47700"},{"name":"ORTAKLI MAH.","zip":"47700"},{"name":"ÖMÜRLÜ MAH.","zip":"47700"},{"name":"POYRAZ MAH.","zip":"47700"},{"name":"SAĞMAL MAH.","zip":"47700"},{"name":"SAKIZLI MAH.","zip":"47700"},{"name":"ŞANLI MAH.","zip":"47700"},{"name":"ŞENYUVA MAH.","zip":"47700"},{"name":"TANRIYOLU MAH.","zip":"47700"},{"name":"TARLACIK MAH.","zip":"47700"},{"name":"ULUTAŞ MAH.","zip":"47700"},{"name":"ÜRÜNLÜ MAH.","zip":"47700"},{"name":"YAĞMUR MAH.","zip":"47700"},{"name":"YALINAĞAÇ MAH.","zip":"47700"},{"name":"YEŞİLKÖY MAH.","zip":"47700"},{"name":"YETKİNLER MAH.","zip":"47700"},{"name":"YUKARIKONAK MAH.","zip":"47700"},{"name":"YUKARIOCAK MAH.","zip":"47700"},{"name":"YÜCEBAĞ MAH.","zip":"47700"}]},{"name":"ESKİMİDYAT","cityName":null,"quarters":[{"name":"CUMHURİYET MAH.","zip":"47510"},{"name":"GÖLCÜK MAH.","zip":"47510"},{"name":"IŞIKLAR MAH.","zip":"47510"},{"name":"SANAYİ MAH.","zip":"47510"}]},{"name":"HÜKÜMET","cityName":null,"quarters":[{"name":"ADAKLI MAH.","zip":"47500"},{"name":"ALTINTAŞ MAH.","zip":"47500"},{"name":"ANITLI MAH.","zip":"47500"},{"name":"BAĞLAR MAH.","zip":"47500"},{"name":"BAĞLARBAŞI MAH.","zip":"47500"},{"name":"BAHÇELİEVLER MAH.","zip":"47500"},{"name":"BARDAKÇI MAH.","zip":"47500"},{"name":"BARIŞTEPE MAH.","zip":"47500"},{"name":"BAŞYURT MAH.","zip":"47500"},{"name":"BETHKUSTAN MAH.","zip":"47500"},{"name":"BUDAKLI MAH.","zip":"47500"},{"name":"ÇALDERE MAH.","zip":"47500"},{"name":"ÇALPINAR MAH.","zip":"47500"},{"name":"ÇAMYURT MAH.","zip":"47500"},{"name":"ÇANDARLI MAH.","zip":"47500"},{"name":"ÇAVUŞLU MAH.","zip":"47500"},{"name":"ÇAYIRLI MAH.","zip":"47500"},{"name":"DANIŞMAN MAH.","zip":"47500"},{"name":"DOĞANÇAY MAH.","zip":"47500"},{"name":"DOĞANYAZI MAH.","zip":"47500"},{"name":"DOLUNAY MAH.","zip":"47500"},{"name":"DÜZGEÇİT MAH.","zip":"47500"},{"name":"DÜZOBA MAH.","zip":"47500"},{"name":"EĞLENCE MAH.","zip":"47500"},{"name":"ELBEĞENDİ MAH.","zip":"47500"},{"name":"ERİŞTİ MAH.","zip":"47500"},{"name":"GELİNKAYA MAH.","zip":"47500"},{"name":"GÜLGÖZE MAH.","zip":"47500"},{"name":"GÜLVEREN MAH.","zip":"47500"},{"name":"GÜNGÖREN MAH.","zip":"47500"},{"name":"GÜVEN MAH.","zip":"47500"},{"name":"HANLAR MAH.","zip":"47500"},{"name":"HARMANLI MAH.","zip":"47500"},{"name":"İKİZDERE MAH.","zip":"47500"},{"name":"İZBIRAK MAH.","zip":"47500"},{"name":"KAYABAŞI MAH.","zip":"47500"},{"name":"KAYALAR MAH.","zip":"47500"},{"name":"KAYALIPINAR MAH.","zip":"47500"},{"name":"KUTLUBEY MAH.","zip":"47500"},{"name":"MERCİMEKLİ MAH.","zip":"47500"},{"name":"NARLI MAH.","zip":"47500"},{"name":"ORTACA MAH.","zip":"47500"},{"name":"ORTAÇARŞI MAH.","zip":"47500"},{"name":"OYUKLU MAH.","zip":"47500"},{"name":"PELİTLİ MAH.","zip":"47500"},{"name":"SARIKAYA MAH.","zip":"47500"},{"name":"SARIKÖY MAH.","zip":"47500"},{"name":"SEYİTLER MAH.","zip":"47500"},{"name":"SİVRİCE MAH.","zip":"47500"},{"name":"SÖĞÜTLÜ MAH.","zip":"47500"},{"name":"ŞENKÖY MAH.","zip":"47500"},{"name":"TAŞLIBURÇ MAH.","zip":"47500"},{"name":"TEPELİ MAH.","zip":"47500"},{"name":"TOPTEPE MAH.","zip":"47500"},{"name":"TULGALI MAH.","zip":"47500"},{"name":"ULUCAMİ MAH.","zip":"47500"},{"name":"ÜÇAĞIL MAH.","zip":"47500"},{"name":"YAYVANTEPE MAH.","zip":"47500"},{"name":"YEMİŞLİ MAH.","zip":"47500"},{"name":"YENİ MAH.","zip":"47500"},{"name":"YENİCE MAH.","zip":"47500"},{"name":"YEŞİLÖZ MAH.","zip":"47500"},{"name":"YOLBAŞI MAH.","zip":"47500"},{"name":"YUNUS EMRE MAH.","zip":"47500"},{"name":"YUVALI MAH.","zip":"47500"},{"name":"ZİYARET MAH.","zip":"47500"}]},{"name":"NUSAYBİN","cityName":null,"quarters":[{"name":"ABDULKADİRPAŞA MAH.","zip":"47300"},{"name":"AÇIKKÖY MAH.","zip":"47300"},{"name":"AÇIKYOL MAH.","zip":"47300"},{"name":"AKAĞIL MAH.","zip":"47300"},{"name":"AKARSU MAH.","zip":"47300"},{"name":"AKÇATARLA MAH.","zip":"47300"},{"name":"BAHÇEBAŞI MAH.","zip":"47300"},{"name":"BAKACIK MAH.","zip":"47300"},{"name":"BALABAN MAH.","zip":"47300"},{"name":"BARIŞ MAH.","zip":"47300"},{"name":"BEYLİK MAH.","zip":"47300"},{"name":"BÜYÜKKARDEŞ MAH.","zip":"47300"},{"name":"ÇAĞLAR MAH.","zip":"47300"},{"name":"ÇALI MAH.","zip":"47300"},{"name":"ÇATALÖZÜ MAH.","zip":"47300"},{"name":"ÇİĞDEM MAH.","zip":"47300"},{"name":"ÇİLESİZ MAH.","zip":"47300"},{"name":"ÇÖLOVA MAH.","zip":"47300"},{"name":"DAĞİÇİ MAH.","zip":"47300"},{"name":"DALLIAĞAÇ MAH.","zip":"47300"},{"name":"DEĞİRMENCİK MAH.","zip":"47300"},{"name":"DEMİRTEPE MAH.","zip":"47300"},{"name":"DEVRİM MAH.","zip":"47300"},{"name":"DİBEK MAH.","zip":"47300"},{"name":"DİCLE MAH.","zip":"47300"},{"name":"DİRİM MAH.","zip":"47300"},{"name":"DOĞANLI MAH.","zip":"47300"},{"name":"DOĞUŞ MAH.","zip":"47300"},{"name":"DURAKBAŞI MAH.","zip":"47300"},{"name":"DURUCA MAH.","zip":"47300"},{"name":"DÜZCE MAH.","zip":"47300"},{"name":"ESKİHİSAR MAH.","zip":"47300"},{"name":"ESKİMAĞARA MAH.","zip":"47300"},{"name":"ESKİYOL MAH.","zip":"47300"},{"name":"FIRAT MAH.","zip":"47300"},{"name":"GIRNAVAS MAH.","zip":"47300"},{"name":"GİRMELİ MAH.","zip":"47300"},{"name":"GÖRENTEPE MAH.","zip":"47300"},{"name":"GÜNEBAKAN MAH.","zip":"47300"},{"name":"GÜNELİ MAH.","zip":"47300"},{"name":"GÜNYURDU MAH.","zip":"47300"},{"name":"GÜRÜN MAH.","zip":"47300"},{"name":"GÜVENLİ MAH.","zip":"47300"},{"name":"HASANTEPE MAH.","zip":"47300"},{"name":"HEYBELİ MAH.","zip":"47300"},{"name":"İKİZTEPE MAH.","zip":"47300"},{"name":"İLKADIM MAH.","zip":"47300"},{"name":"İPEKYOLU MAH.","zip":"47300"},{"name":"KALECİK MAH.","zip":"47300"},{"name":"KALELİ MAH.","zip":"47300"},{"name":"KANTAR MAH.","zip":"47300"},{"name":"KARACA MAH.","zip":"47300"},{"name":"KAYADİBİ MAH.","zip":"47300"},{"name":"KIŞLA MAH.","zip":"47300"},{"name":"KOCADAĞ MAH.","zip":"47300"},{"name":"KURUKÖY MAH.","zip":"47300"},{"name":"KUYULAR MAH.","zip":"47300"},{"name":"KÜÇÜKKARDEŞ MAH.","zip":"47300"},{"name":"MOR-YAKUP MAH.","zip":"47300"},{"name":"NERGİZLİ MAH.","zip":"47300"},{"name":"ODABAŞI MAH.","zip":"47300"},{"name":"PAZAR MAH.","zip":"47300"},{"name":"SELAHADDİN EYYUBİ MAH.","zip":"47300"},{"name":"SINIRTEPE MAH.","zip":"47300"},{"name":"SÖĞÜTLÜ MAH.","zip":"47300"},{"name":"TAŞKÖY MAH.","zip":"47300"},{"name":"TEKAĞAÇ MAH.","zip":"47300"},{"name":"TEPEALTI MAH.","zip":"47300"},{"name":"TEPEÖREN MAH.","zip":"47300"},{"name":"TEPEÜSTÜ MAH.","zip":"47300"},{"name":"TURGUTKÖY MAH.","zip":"47300"},{"name":"ÜÇKÖY MAH.","zip":"47300"},{"name":"ÜÇYOL MAH.","zip":"47300"},{"name":"YANDERE MAH.","zip":"47300"},{"name":"YAVRUKÖY MAH.","zip":"47300"},{"name":"YAZYURDU MAH.","zip":"47300"},{"name":"YENİŞEHİR MAH.","zip":"47300"},{"name":"YENİTURAN MAH.","zip":"47300"},{"name":"YERKÖY MAH.","zip":"47300"},{"name":"YEŞİLKENT MAH.","zip":"47300"},{"name":"YOLBİLEN MAH.","zip":"47300"},{"name":"YOLİNDİ MAH.","zip":"47300"},{"name":"ZEYNELABİDİN MAH.","zip":"47300"}]},{"name":"ÖMERLİ","cityName":null,"quarters":[{"name":"ALIÇLI MAH.","zip":"47570"},{"name":"ANITTEPE MAH.","zip":"47570"},{"name":"BEŞİKKAYA MAH.","zip":"47570"},{"name":"CUMHURİYET MAH.","zip":"47570"},{"name":"ÇALIŞAN MAH.","zip":"47570"},{"name":"ÇATALYURT MAH.","zip":"47570"},{"name":"ÇAYIRALANI MAH.","zip":"47570"},{"name":"ÇINARALTI MAH.","zip":"47570"},{"name":"ÇİMENLİK MAH.","zip":"47570"},{"name":"DÖNERDERE MAH.","zip":"47570"},{"name":"DUYGULU MAH.","zip":"47570"},{"name":"FISTIKLI MAH.","zip":"47570"},{"name":"GÖLLÜ MAH.","zip":"47570"},{"name":"GÜZELAĞAÇ MAH.","zip":"47570"},{"name":"HARMANKAYA MAH.","zip":"47570"},{"name":"HAVUZBAŞI MAH.","zip":"47570"},{"name":"IŞIKDERE MAH.","zip":"47570"},{"name":"İKİPINAR MAH.","zip":"47570"},{"name":"İKİTEPE MAH.","zip":"47570"},{"name":"KAYABALI MAH.","zip":"47570"},{"name":"KAYADERE MAH.","zip":"47570"},{"name":"KAYAGÖZE MAH.","zip":"47570"},{"name":"KAYAÜSTÜ MAH.","zip":"47570"},{"name":"KAYNAKKAYA MAH.","zip":"47570"},{"name":"KOCAKUYU MAH.","zip":"47570"},{"name":"KOCASIRT MAH.","zip":"47570"},{"name":"KOVANLI MAH.","zip":"47570"},{"name":"KÖMÜRLÜ MAH.","zip":"47570"},{"name":"MUTLUCA MAH.","zip":"47570"},{"name":"OVABAŞI MAH.","zip":"47570"},{"name":"ÖZTAŞ MAH.","zip":"47570"},{"name":"PINARCIK MAH.","zip":"47570"},{"name":"SALİHKÖY MAH.","zip":"47570"},{"name":"SİVRİTEPE MAH.","zip":"47570"},{"name":"SULAKDERE MAH.","zip":"47570"},{"name":"ŞAFAK MAH.","zip":"47570"},{"name":"TAŞGEDİK MAH.","zip":"47570"},{"name":"TAŞLICA MAH.","zip":"47570"},{"name":"TAVUKLU MAH.","zip":"47570"},{"name":"TEKKUYU MAH.","zip":"47570"},{"name":"TOKDERE MAH.","zip":"47570"},{"name":"TOPAĞAÇ MAH.","zip":"47570"},{"name":"ÜNSALLI MAH.","zip":"47570"},{"name":"YAYLATEPE MAH.","zip":"47570"},{"name":"YENİ MAH.","zip":"47570"}]},{"name":"SAVUR","cityName":null,"quarters":[{"name":"ARMUTALAN MAH.","zip":"47860"},{"name":"BAĞYAKA MAH.","zip":"47860"},{"name":"BAŞAĞAÇ MAH.","zip":"47860"},{"name":"BAŞKAVAK MAH.","zip":"47860"},{"name":"BENGİSU MAH.","zip":"47860"},{"name":"ÇINARÖNÜ MAH.","zip":"47860"},{"name":"DEREİÇİ MAH.","zip":"47860"},{"name":"DURUSU MAH.","zip":"47860"},{"name":"ERKURAN MAH.","zip":"47860"},{"name":"GÖLBAŞI MAH.","zip":"47860"},{"name":"HARMANTEPE MAH.","zip":"47860"},{"name":"HİSARKAYA MAH.","zip":"47860"},{"name":"İÇÖREN MAH.","zip":"47860"},{"name":"İŞGÖREN MAH.","zip":"47860"},{"name":"KAPLAN MAH.","zip":"47860"},{"name":"KARAKÖY MAH.","zip":"47860"},{"name":"KAYACIKLAR MAH.","zip":"47860"},{"name":"KAYATEPE MAH.","zip":"47860"},{"name":"KIRBALI MAH.","zip":"47860"},{"name":"KIRKDİREK MAH.","zip":"47860"},{"name":"KOCAHÜYÜK MAH.","zip":"47860"},{"name":"KOŞUYOLU MAH.","zip":"47860"},{"name":"KÖPRÜLÜ MAH.","zip":"47860"},{"name":"ORMANCIK MAH.","zip":"47860"},{"name":"PINARDERE MAH.","zip":"47860"},{"name":"SAFA MAH.","zip":"47860"},{"name":"SANCAKLI MAH.","zip":"47860"},{"name":"SERENLİ MAH.","zip":"47860"},{"name":"SEYDİN MAH.","zip":"47860"},{"name":"SOYLU MAH.","zip":"47860"},{"name":"SÜRGÜCÜ MAH.","zip":"47860"},{"name":"ŞENOCAK MAH.","zip":"47860"},{"name":"TAŞLIK MAH.","zip":"47860"},{"name":"TOKLUCA MAH.","zip":"47860"},{"name":"ÜÇERLİ MAH.","zip":"47860"},{"name":"ÜÇKAVAK MAH.","zip":"47860"},{"name":"YAYLAYANI MAH.","zip":"47860"},{"name":"YAZIR MAH.","zip":"47860"},{"name":"YENİLMEZ MAH.","zip":"47860"},{"name":"YEŞİLALAN MAH.","zip":"47860"}]},{"name":"YEŞİLLİ","cityName":null,"quarters":[{"name":"BAHÇEBAŞI MAH.","zip":"47650"},{"name":"BÜLBÜL MAH.","zip":"47650"},{"name":"DEREYANI MAH.","zip":"47650"},{"name":"GÜL MAH.","zip":"47650"},{"name":"KARŞIYAKA MAH.","zip":"47650"},{"name":"KOYUNLU MAH.","zip":"47650"},{"name":"KÜTÜKLÜ MAH.","zip":"47650"},{"name":"OVAKÖY MAH.","zip":"47650"},{"name":"SANCAR MAH.","zip":"47650"},{"name":"ŞİRİNEVLER MAH.","zip":"47650"},{"name":"TEPEBAŞI MAH.","zip":"47650"},{"name":"UZUNKÖY MAH.","zip":"47650"},{"name":"ZEYTİNLİ MAH.","zip":"47650"}]}]}]}