{"id":48,"name":"MUĞLA","cities":[{"name":"city","districts":[{"name":"BODRUM","cityName":null,"quarters":[{"name":"BAHÇEYAKA MAH.","zip":"48400"},{"name":"BİTEZ MAH.","zip":"48400"},{"name":"CEVAT ŞAKİR MAH.","zip":"48400"},{"name":"CUMHURİYET MAH.","zip":"48400"},{"name":"ÇAMARASI MAH.","zip":"48400"},{"name":"ÇAMLIK MAH.","zip":"48400"},{"name":"ÇARŞI MAH.","zip":"48400"},{"name":"ÇIRKAN MAH.","zip":"48400"},{"name":"ÇÖMLEKÇİ MAH.","zip":"48400"},{"name":"DAĞBELEN MAH.","zip":"48400"},{"name":"DEREKÖY MAH.","zip":"48400"},{"name":"DİRMİL MAH.","zip":"48400"},{"name":"ESKİÇEŞME MAH.","zip":"48400"},{"name":"FARİLYA MAH.","zip":"48400"},{"name":"GERİŞ MAH.","zip":"48400"},{"name":"GÖKPINAR MAH.","zip":"48400"},{"name":"GÖLBAŞI MAH.","zip":"48400"},{"name":"GÖLTÜRKBÜKÜ MAH.","zip":"48400"},{"name":"GÜMBET MAH.","zip":"48400"},{"name":"GÜMÜŞLÜK MAH.","zip":"48400"},{"name":"GÜNDOĞAN MAH.","zip":"48400"},{"name":"GÜRECE MAH.","zip":"48400"},{"name":"GÜVERCİNLİK MAH.","zip":"48400"},{"name":"İSLAMHANELERİ MAH.","zip":"48400"},{"name":"KARABAĞ MAH.","zip":"48400"},{"name":"KARAOVA MAH.","zip":"48400"},{"name":"KEMER MAH.","zip":"48400"},{"name":"KONACIK MAH.","zip":"48400"},{"name":"KOYUNBABA MAH.","zip":"48400"},{"name":"KUMBAHÇE MAH.","zip":"48400"},{"name":"KUMKÖY MAH.","zip":"48400"},{"name":"KÜÇÜKBÜK MAH.","zip":"48400"},{"name":"MAZIKÖY MAH.","zip":"48400"},{"name":"MUMCULAR MAH.","zip":"48400"},{"name":"ORTAKENTYAHŞİ MAH.","zip":"48400"},{"name":"PEKSİMET MAH.","zip":"48400"},{"name":"PINARLIBELEN MAH.","zip":"48400"},{"name":"SAZKÖY MAH.","zip":"48400"},{"name":"TEPECİK (KARAOVA) MAH.","zip":"48400"},{"name":"TEPECİK MAH.","zip":"48400"},{"name":"TORBA MAH.","zip":"48400"},{"name":"TURGUTREİS MAH.","zip":"48400"},{"name":"TÜRKKUYUSU MAH.","zip":"48400"},{"name":"UMURCA MAH.","zip":"48400"},{"name":"YAKAKÖY MAH.","zip":"48400"},{"name":"YALI MAH.","zip":"48400"},{"name":"YALIKAVAK MAH.","zip":"48400"},{"name":"YENİKÖY (KARAOVA) MAH.","zip":"48400"},{"name":"YENİKÖY MAH.","zip":"48400"},{"name":"YOKUŞBAŞI MAH.","zip":"48400"}]},{"name":"DALAMAN","cityName":null,"quarters":[{"name":"ALTINTAS MAH.","zip":"48770"},{"name":"ATAKENT MAH.","zip":"48770"},{"name":"BEZKESE MAH.","zip":"48770"},{"name":"BOZBEL MAH.","zip":"48770"},{"name":"ÇÖĞMEN MAH.","zip":"48770"},{"name":"DARIYERİ MAH.","zip":"48770"},{"name":"EGE MAH.","zip":"48770"},{"name":"ELCİK MAH.","zip":"48770"},{"name":"GÜRKÖY MAH.","zip":"48770"},{"name":"GÜRLEYK MAH.","zip":"48770"},{"name":"HÜRRİYET MAH.","zip":"48770"},{"name":"KAPUKARGIN MAH.","zip":"48770"},{"name":"KARACAAĞAÇ MAH.","zip":"48770"},{"name":"KARAÇALI MAH.","zip":"48770"},{"name":"KARGINKÜRÜ MAH.","zip":"48770"},{"name":"KAVACIK MAH.","zip":"48770"},{"name":"KAYADİBİ MAH.","zip":"48770"},{"name":"KIZILKAYA MAH.","zip":"48770"},{"name":"MERKEZ MAH.","zip":"48770"},{"name":"NARLI MAH.","zip":"48770"},{"name":"SABUNLU MAH.","zip":"48770"},{"name":"SÖĞÜTLÜYURT MAH.","zip":"48770"},{"name":"ŞEREFLER MAH.","zip":"48770"},{"name":"TAŞBAŞI MAH.","zip":"48770"}]},{"name":"DATÇA","cityName":null,"quarters":[{"name":"DATÇA MAH.","zip":"48900"},{"name":"EMECİK MAH.","zip":"48900"},{"name":"HIZIRŞAH MAH.","zip":"48900"},{"name":"İSKELE MAH.","zip":"48900"},{"name":"KARAKÖY MAH.","zip":"48900"},{"name":"KIZLAN MAH.","zip":"48900"},{"name":"MESUDİYE MAH.","zip":"48900"},{"name":"REŞADİYE MAH.","zip":"48900"},{"name":"SINDI MAH.","zip":"48900"},{"name":"YAKA MAH.","zip":"48900"},{"name":"YAZI MAH.","zip":"48900"}]},{"name":"FETHİYE","cityName":null,"quarters":[{"name":"BABATAŞI MAH.","zip":"48300"},{"name":"BOZYER MAH.","zip":"48300"},{"name":"CAMİ MAH.","zip":"48300"},{"name":"CUMHURİYET MAH.","zip":"48300"},{"name":"ÇAMKÖY MAH.","zip":"48300"},{"name":"ÇATALARIK MAH.","zip":"48300"},{"name":"ÇENGER MAH.","zip":"48300"},{"name":"ÇİFTLİK MAH.","zip":"48300"},{"name":"ELDİREK MAH.","zip":"48300"},{"name":"ESENKÖY MAH.","zip":"48300"},{"name":"FARALYA MAH.","zip":"48300"},{"name":"FOÇA MAH.","zip":"48300"},{"name":"GÖCEK MAH.","zip":"48300"},{"name":"GÖKBEN MAH.","zip":"48300"},{"name":"GÖKÇEOVACIK MAH.","zip":"48300"},{"name":"İNCİRKÖY MAH.","zip":"48300"},{"name":"İNLİCE MAH.","zip":"48300"},{"name":"KARAAĞAÇ MAH.","zip":"48300"},{"name":"KARACAÖREN MAH.","zip":"48300"},{"name":"KARAÇULHA MAH.","zip":"48300"},{"name":"KARAGEDİK MAH.","zip":"48300"},{"name":"KARAGÖZLER MAH.","zip":"48300"},{"name":"KARAKEÇİLİLER MAH.","zip":"48300"},{"name":"KARGI MAH.","zip":"48300"},{"name":"KAYAKÖY MAH.","zip":"48300"},{"name":"KESİKKAPI MAH.","zip":"48300"},{"name":"KIZILBEL MAH.","zip":"48300"},{"name":"KORUKÖY MAH.","zip":"48300"},{"name":"MENTEŞEOĞLU MAH.","zip":"48300"},{"name":"NİF MAH.","zip":"48300"},{"name":"ÖLÜDENİZ MAH.","zip":"48300"},{"name":"PATLANGIÇ MAH.","zip":"48300"},{"name":"PAZARYERİ MAH.","zip":"48300"},{"name":"SÖĞÜTLÜ MAH.","zip":"48300"},{"name":"TAŞYAKA MAH.","zip":"48300"},{"name":"TUZLA MAH.","zip":"48300"},{"name":"YAKACIK MAH.","zip":"48300"},{"name":"YANIKLAR MAH.","zip":"48300"},{"name":"YENİ MAH.","zip":"48300"},{"name":"YEŞİLÜZÜMLÜ MAH.","zip":"48300"}]},{"name":"KAVAKLIDERE","cityName":null,"quarters":[{"name":"CUMHURİYET MAH.","zip":"48570"},{"name":"ÇAMLIBEL MAH.","zip":"48570"},{"name":"ÇAMLIYURT MAH.","zip":"48570"},{"name":"ÇATAK MAH.","zip":"48570"},{"name":"ÇAVDIR MAH.","zip":"48570"},{"name":"ÇAYBOYU MAH.","zip":"48570"},{"name":"DEREBAĞ MAH.","zip":"48570"},{"name":"KURUCUOVA MAH.","zip":"48570"},{"name":"MENTEŞE MAH.","zip":"48570"},{"name":"NEBİLER MAH.","zip":"48570"},{"name":"ORTAKÖY MAH.","zip":"48570"},{"name":"SALKIM MAH.","zip":"48570"},{"name":"YENİ MAH.","zip":"48570"},{"name":"YEŞİLKÖY MAH.","zip":"48570"}]},{"name":"KÖYCEĞİZ","cityName":null,"quarters":[{"name":"BALCILAR MAH.","zip":"48800"},{"name":"BEYOBASI MAH.","zip":"48800"},{"name":"ÇANDIR MAH.","zip":"48800"},{"name":"ÇAYHİSAR MAH.","zip":"48800"},{"name":"DÖĞÜŞBELEN MAH.","zip":"48800"},{"name":"EKİNCİK MAH.","zip":"48800"},{"name":"GELİŞİM MAH.","zip":"48800"},{"name":"GÜLPINAR MAH.","zip":"48800"},{"name":"HAMİTKÖY MAH.","zip":"48800"},{"name":"KARAÇAM MAH.","zip":"48800"},{"name":"KAVAKARASI MAH.","zip":"48800"},{"name":"KÖYCEĞİZ MAH.","zip":"48800"},{"name":"OTMANLAR MAH.","zip":"48800"},{"name":"PINAR MAH.","zip":"48800"},{"name":"SAZAK MAH.","zip":"48800"},{"name":"SULTANİYE MAH.","zip":"48800"},{"name":"TOPARLAR MAH.","zip":"48800"},{"name":"ULUCAMİ MAH.","zip":"48800"},{"name":"YANGI MAH.","zip":"48800"},{"name":"YAYLA MAH.","zip":"48800"},{"name":"YENİ MAH.","zip":"48800"},{"name":"YEŞİLKÖY MAH.","zip":"48800"},{"name":"ZAFERLER MAH.","zip":"48800"},{"name":"ZEYTİNALANI MAH.","zip":"48800"}]},{"name":"MARMARİS","cityName":null,"quarters":[{"name":"ARMUTALAN MAH.","zip":"48700"},{"name":"BAYIR MAH.","zip":"48700"},{"name":"BELDİBİ MAH.","zip":"48700"},{"name":"BOZBURUN MAH.","zip":"48700"},{"name":"ÇAMDİBİ MAH.","zip":"48700"},{"name":"ÇAMLI MAH.","zip":"48700"},{"name":"ÇETİBELİ MAH.","zip":"48700"},{"name":"ÇILDIR MAH.","zip":"48700"},{"name":"HATİPİRİMİ MAH.","zip":"48700"},{"name":"HİSARÖNÜ MAH.","zip":"48700"},{"name":"İÇMELER MAH.","zip":"48700"},{"name":"KARACA MAH.","zip":"48700"},{"name":"KEMERALTI MAH.","zip":"48700"},{"name":"ORHANİYE MAH.","zip":"48700"},{"name":"OSMANİYE MAH.","zip":"48700"},{"name":"SARIANA MAH.","zip":"48700"},{"name":"SELİMİYE MAH.","zip":"48700"},{"name":"SİTELER MAH.","zip":"48700"},{"name":"SÖĞÜT MAH.","zip":"48700"},{"name":"TAŞLICA MAH.","zip":"48700"},{"name":"TEPE MAH.","zip":"48700"},{"name":"TURGUT MAH.","zip":"48700"},{"name":"TURUNÇ MAH.","zip":"48700"},{"name":"YEŞİLBELDE MAH.","zip":"48700"}]},{"name":"MENTEŞE","cityName":null,"quarters":[{"name":"AKKAYA MAH.","zip":"48050"},{"name":"AKYER MAH.","zip":"48050"},{"name":"ALGI MAH.","zip":"48050"},{"name":"AVCILAR MAH.","zip":"48050"},{"name":"BAĞYAKA MAH.","zip":"48050"},{"name":"BALIBEY MAH.","zip":"48050"},{"name":"BAYIR MAH.","zip":"48050"},{"name":"BOZYER MAH.","zip":"48050"},{"name":"CAMİKEBİR MAH.","zip":"48050"},{"name":"ÇAKMAK MAH.","zip":"48050"},{"name":"ÇAMOLUK MAH.","zip":"48050"},{"name":"ÇAYBÜKÜ MAH.","zip":"48050"},{"name":"ÇIRPI MAH.","zip":"48050"},{"name":"ÇİFTLİK MAH.","zip":"48050"},{"name":"DAĞDİBİ MAH.","zip":"48050"},{"name":"DAĞPINAR MAH.","zip":"48050"},{"name":"DENİZOVA MAH.","zip":"48050"},{"name":"DERİNKUYU MAH.","zip":"48050"},{"name":"DOĞAN MAH.","zip":"48050"},{"name":"DOKUZÇAM MAH.","zip":"48050"},{"name":"DÜĞEREK MAH.","zip":"48050"},{"name":"EMİRBEYAZIT MAH.","zip":"48050"},{"name":"ESENÇAY MAH.","zip":"48050"},{"name":"FADIL MAH.","zip":"48050"},{"name":"GAZELLER MAH.","zip":"48050"},{"name":"GÖKTEPE MAH.","zip":"48050"},{"name":"GÜLAĞZI MAH.","zip":"48050"},{"name":"GÜNLÜCE MAH.","zip":"48050"},{"name":"HACIRÜSTEM MAH.","zip":"48050"},{"name":"İKİZCE MAH.","zip":"48050"},{"name":"KAFACA MAH.","zip":"48050"},{"name":"KARACAÖREN MAH.","zip":"48050"},{"name":"KARAMEHMET MAH.","zip":"48050"},{"name":"KARŞIYAKA MAH.","zip":"48050"},{"name":"KIRAN MAH.","zip":"48050"},{"name":"KİRAMETTİN MAH.","zip":"48050"},{"name":"KOZAĞAÇ MAH.","zip":"48050"},{"name":"KÖTEKLİ MAH.","zip":"48050"},{"name":"KUYUCAK MAH.","zip":"48050"},{"name":"KUZLUK MAH.","zip":"48050"},{"name":"MEKE MAH.","zip":"48050"},{"name":"MURATLAR MAH.","zip":"48050"},{"name":"MUSLİHİTTİN MAH.","zip":"48050"},{"name":"MÜŞTAKBEY MAH.","zip":"48050"},{"name":"ORHANİYE MAH.","zip":"48050"},{"name":"ORTA MAH.","zip":"48050"},{"name":"ORTAKÖY MAH.","zip":"48050"},{"name":"ÖZLÜCE MAH.","zip":"48050"},{"name":"PAŞAPINARI MAH.","zip":"48050"},{"name":"SALİHPAŞALAR MAH.","zip":"48050"},{"name":"SARNIÇ MAH.","zip":"48050"},{"name":"SUNGUR MAH.","zip":"48050"},{"name":"ŞENYAYLA MAH.","zip":"48050"},{"name":"ŞEYH MAH.","zip":"48050"},{"name":"TAŞLI MAH.","zip":"48050"},{"name":"YARAŞ MAH.","zip":"48050"},{"name":"YEMİŞENDERE MAH.","zip":"48050"},{"name":"YENİBAĞYAKA MAH.","zip":"48050"},{"name":"YENİCE MAH.","zip":"48050"},{"name":"YENİKÖY (YERKESİK) MAH.","zip":"48050"},{"name":"YENİKÖY MAH.","zip":"48050"},{"name":"YERKESİK MAH.","zip":"48050"},{"name":"YEŞİLYURT MAH.","zip":"48050"},{"name":"YÖRÜKOĞLU MAH.","zip":"48050"},{"name":"ZEYTİN MAH.","zip":"48050"}]},{"name":"MİLAS","cityName":null,"quarters":[{"name":"AHMETÇAVUŞ-HAYITLI MAH.","zip":"48200"},{"name":"AKÇAKAYA MAH.","zip":"48200"},{"name":"AKÇALI MAH.","zip":"48200"},{"name":"AKKOVANLIK MAH.","zip":"48200"},{"name":"AKYOL MAH.","zip":"48200"},{"name":"ALAÇAM MAH.","zip":"48200"},{"name":"ALATEPE MAH.","zip":"48200"},{"name":"ASLANYAKA MAH.","zip":"48200"},{"name":"AVŞAR MAH.","zip":"48200"},{"name":"AYDINLIKEVLER MAH.","zip":"48200"},{"name":"BAFA MAH.","zip":"48200"},{"name":"BAĞDAMLARI MAH.","zip":"48200"},{"name":"BAHARLI MAH.","zip":"48200"},{"name":"BAHÇE MAH.","zip":"48200"},{"name":"BAHÇEBURUN MAH.","zip":"48200"},{"name":"BALCILAR MAH.","zip":"48200"},{"name":"BAYIR MAH.","zip":"48200"},{"name":"BEÇİN MAH.","zip":"48200"},{"name":"BEYCİLER MAH.","zip":"48200"},{"name":"BOĞAZİÇİ MAH.","zip":"48200"},{"name":"BOZALAN MAH.","zip":"48200"},{"name":"BOZBÜK MAH.","zip":"48200"},{"name":"BURGAZ MAH.","zip":"48200"},{"name":"CUMHURİYET MAH.","zip":"48200"},{"name":"ÇAKIRALAN MAH.","zip":"48200"},{"name":"ÇALLI MAH.","zip":"48200"},{"name":"ÇAMKÖY MAH.","zip":"48200"},{"name":"ÇAMLIBELEN MAH.","zip":"48200"},{"name":"ÇAMLICA MAH.","zip":"48200"},{"name":"ÇAMLIYURT MAH.","zip":"48200"},{"name":"ÇAMOVALI MAH.","zip":"48200"},{"name":"ÇANDIR MAH.","zip":"48200"},{"name":"ÇINARLI MAH.","zip":"48200"},{"name":"ÇİFTLİK MAH.","zip":"48200"},{"name":"ÇOMAKDAĞKIZILAĞAÇ MAH.","zip":"48200"},{"name":"ÇÖKERTME MAH.","zip":"48200"},{"name":"ÇUKUR MAH.","zip":"48200"},{"name":"DAMLIBOĞAZ MAH.","zip":"48200"},{"name":"DANİŞMENT MAH.","zip":"48200"},{"name":"DEMİRCİLER MAH.","zip":"48200"},{"name":"DERE MAH.","zip":"48200"},{"name":"DERİNCE MAH.","zip":"48200"},{"name":"DİBEKDERE MAH.","zip":"48200"},{"name":"DÖRTTEPE MAH.","zip":"48200"},{"name":"EĞRİDERE MAH.","zip":"48200"},{"name":"EKİNANBARI MAH.","zip":"48200"},{"name":"EKİNDERE MAH.","zip":"48200"},{"name":"EKİZKÖY MAH.","zip":"48200"},{"name":"EKİZTAŞ MAH.","zip":"48200"},{"name":"EMEK MAH.","zip":"48200"},{"name":"EPÇE MAH.","zip":"48200"},{"name":"ETRENLİ MAH.","zip":"48200"},{"name":"FESLEĞEN MAH.","zip":"48200"},{"name":"FİRUZPAŞA-GAZİPAŞA MAH.","zip":"48200"},{"name":"GÖKBEL MAH.","zip":"48200"},{"name":"GÖKÇELER MAH.","zip":"48200"},{"name":"GÖLDERE MAH.","zip":"48200"},{"name":"GÖLYAKA MAH.","zip":"48200"},{"name":"GÜLLÜK MAH.","zip":"48200"},{"name":"GÜMÜŞLÜK MAH.","zip":"48200"},{"name":"GÜNEŞ MAH.","zip":"48200"},{"name":"GÜNLÜK MAH.","zip":"48200"},{"name":"GÜRCEĞİZ MAH.","zip":"48200"},{"name":"GÜRÇAMLAR MAH.","zip":"48200"},{"name":"HACI İLYAS MAH.","zip":"48200"},{"name":"HACIABTİ MAH.","zip":"48200"},{"name":"HACIAHMETLER MAH.","zip":"48200"},{"name":"HASANLAR MAH.","zip":"48200"},{"name":"HİSARBAŞI-HOCA BEDRETTİN MAH.","zip":"48200"},{"name":"HİSARCIK MAH.","zip":"48200"},{"name":"HÜSAMLAR MAH.","zip":"48200"},{"name":"İÇME MAH.","zip":"48200"},{"name":"İSMET PAŞA MAH.","zip":"48200"},{"name":"KAFACA MAH.","zip":"48200"},{"name":"KALEM MAH.","zip":"48200"},{"name":"KALINAĞIL MAH.","zip":"48200"},{"name":"KANDAK MAH.","zip":"48200"},{"name":"KAPIKIRI MAH.","zip":"48200"},{"name":"KARACAAĞAÇ MAH.","zip":"48200"},{"name":"KARACAHİSAR MAH.","zip":"48200"},{"name":"KARAHAYIT MAH.","zip":"48200"},{"name":"KARAKUYU MAH.","zip":"48200"},{"name":"KARAPINAR MAH.","zip":"48200"},{"name":"KARGICAK MAH.","zip":"48200"},{"name":"KARŞIYAKA MAH.","zip":"48200"},{"name":"KAYABAŞI MAH.","zip":"48200"},{"name":"KAYABÜKÜ MAH.","zip":"48200"},{"name":"KAYADERE MAH.","zip":"48200"},{"name":"KAZIKLI MAH.","zip":"48200"},{"name":"KEMİKLER MAH.","zip":"48200"},{"name":"KETENDERE MAH.","zip":"48200"},{"name":"KILAVUZ MAH.","zip":"48200"},{"name":"KIRCAĞIZ MAH.","zip":"48200"},{"name":"KISIRLAR MAH.","zip":"48200"},{"name":"KIYIKIŞLACIK MAH.","zip":"48200"},{"name":"KIZILAĞAÇ MAH.","zip":"48200"},{"name":"KIZILCAKUYU MAH.","zip":"48200"},{"name":"KIZILCAYIKIK MAH.","zip":"48200"},{"name":"KONAK MAH.","zip":"48200"},{"name":"KORU MAH.","zip":"48200"},{"name":"KORUCUK MAH.","zip":"48200"},{"name":"KÖŞK MAH.","zip":"48200"},{"name":"KULTAK MAH.","zip":"48200"},{"name":"KURUDERE MAH.","zip":"48200"},{"name":"KUZYAKA MAH.","zip":"48200"},{"name":"KÜÇÜKDİBEKDERE MAH.","zip":"48200"},{"name":"MENTEŞ MAH.","zip":"48200"},{"name":"MEŞELİK MAH.","zip":"48200"},{"name":"NARHİSAR MAH.","zip":"48200"},{"name":"OLUKBAŞI MAH.","zip":"48200"},{"name":"ORTAKÖY MAH.","zip":"48200"},{"name":"OVAKIŞLACIK MAH.","zip":"48200"},{"name":"ÖREN MAH.","zip":"48200"},{"name":"PINARARASI MAH.","zip":"48200"},{"name":"PINARCIK MAH.","zip":"48200"},{"name":"PİNAR MAH.","zip":"48200"},{"name":"SAKARKAYA MAH.","zip":"48200"},{"name":"SARIKAYA MAH.","zip":"48200"},{"name":"SAVRAN MAH.","zip":"48200"},{"name":"SEK MAH.","zip":"48200"},{"name":"SELİMİYE MAH.","zip":"48200"},{"name":"SÖĞÜTÇÜK MAH.","zip":"48200"},{"name":"ŞENKÖY MAH.","zip":"48200"},{"name":"ŞEVKETİYE MAH.","zip":"48200"},{"name":"TUZABAT MAH.","zip":"48200"},{"name":"TÜRKEVLERİ MAH.","zip":"48200"},{"name":"ULAŞ MAH.","zip":"48200"},{"name":"YAKA MAH.","zip":"48200"},{"name":"YAŞYER MAH.","zip":"48200"},{"name":"YOĞUNOLUK MAH.","zip":"48200"},{"name":"YUSUFCA MAH.","zip":"48200"}]},{"name":"ORTACA","cityName":null,"quarters":[{"name":"ARIKBAŞI MAH.","zip":"48600"},{"name":"ATATÜRK MAH.","zip":"48600"},{"name":"BAHÇELİEVLER MAH.","zip":"48600"},{"name":"BEŞKÖPRÜ MAH.","zip":"48600"},{"name":"CUMHURİYET MAH.","zip":"48600"},{"name":"ÇAYLI MAH.","zip":"48600"},{"name":"DALAKLI MAH.","zip":"48600"},{"name":"DALYAN MAH.","zip":"48600"},{"name":"DEREKÖY MAH.","zip":"48600"},{"name":"DİKMEKAVAK MAH.","zip":"48600"},{"name":"EKŞİLİYURT MAH.","zip":"48600"},{"name":"ESKİKÖY MAH.","zip":"48600"},{"name":"FEVZİYE MAH.","zip":"48600"},{"name":"GÖKBEL MAH.","zip":"48600"},{"name":"GÖLBAŞI MAH.","zip":"48600"},{"name":"GÜZELYURT MAH.","zip":"48600"},{"name":"KARABURUN MAH.","zip":"48600"},{"name":"KARADONLAR MAH.","zip":"48600"},{"name":"KEMALİYE MAH.","zip":"48600"},{"name":"MERGENLİ MAH.","zip":"48600"},{"name":"OKÇULAR MAH.","zip":"48600"},{"name":"SARIGERME MAH.","zip":"48600"},{"name":"TEPEARASI MAH.","zip":"48600"},{"name":"TERZİALİLER MAH.","zip":"48600"},{"name":"YERBELEN MAH.","zip":"48600"},{"name":"YEŞİLYURT MAH.","zip":"48600"}]},{"name":"SEYDİKEMER","cityName":null,"quarters":[{"name":"ARİFLER MAH.","zip":"48850"},{"name":"ARSAKÖY MAH.","zip":"48850"},{"name":"ATLIDERE MAH.","zip":"48850"},{"name":"BAĞLIAĞAÇ MAH.","zip":"48850"},{"name":"BAYIRKÖY MAH.","zip":"48850"},{"name":"BEKÇİLER MAH.","zip":"48850"},{"name":"BELEN MAH.","zip":"48850"},{"name":"BOĞALAR MAH.","zip":"48850"},{"name":"BOĞAZİÇİ MAH.","zip":"48850"},{"name":"CEYLAN MAH.","zip":"48850"},{"name":"CUMHURİYET MAH.","zip":"48850"},{"name":"ÇALTILAR MAH.","zip":"48850"},{"name":"ÇALTIÖZÜ MAH.","zip":"48850"},{"name":"ÇAMURKÖY MAH.","zip":"48850"},{"name":"ÇATAK MAH.","zip":"48850"},{"name":"ÇAYAN MAH.","zip":"48850"},{"name":"ÇAYKENARI MAH.","zip":"48850"},{"name":"ÇOBANİSA MAH.","zip":"48850"},{"name":"ÇOBANLAR MAH.","zip":"48850"},{"name":"ÇÖKEK MAH.","zip":"48850"},{"name":"ÇUKURİNCİR MAH.","zip":"48850"},{"name":"DEMİRLER MAH.","zip":"48850"},{"name":"DEREKÖY MAH.","zip":"48850"},{"name":"DODURGA MAH.","zip":"48850"},{"name":"DOĞANLAR MAH.","zip":"48850"},{"name":"DONT MAH.","zip":"48850"},{"name":"DÖĞER MAH.","zip":"48850"},{"name":"EŞEN MAH.","zip":"48850"},{"name":"GERİŞBURNU MAH.","zip":"48850"},{"name":"GİRMELER MAH.","zip":"48850"},{"name":"GÖLBENT MAH.","zip":"48850"},{"name":"GÜNEŞLİ MAH.","zip":"48850"},{"name":"HACIOSMANLAR MAH.","zip":"48850"},{"name":"İZZETTİNKÖY MAH.","zip":"48850"},{"name":"KABAAĞAÇ MAH.","zip":"48850"},{"name":"KADIKÖY MAH.","zip":"48850"},{"name":"KARADERE MAH.","zip":"48850"},{"name":"KARAKÖY MAH.","zip":"48850"},{"name":"KAYABAŞI MAH.","zip":"48850"},{"name":"KAYACIK MAH.","zip":"48850"},{"name":"KAYADİBİ MAH.","zip":"48850"},{"name":"KINCILAR MAH.","zip":"48850"},{"name":"KINIK MAH.","zip":"48850"},{"name":"KORUBÜKÜ MAH.","zip":"48850"},{"name":"KUMLUOVA MAH.","zip":"48850"},{"name":"MENEKŞE MAH.","zip":"48850"},{"name":"MİNARE MAH.","zip":"48850"},{"name":"ORTAKÖY MAH.","zip":"48850"},{"name":"ÖREN MAH.","zip":"48850"},{"name":"PAŞALI MAH.","zip":"48850"},{"name":"SAHİLCEYLAN MAH.","zip":"48850"},{"name":"SARIYER MAH.","zip":"48850"},{"name":"SEKİ MAH.","zip":"48850"},{"name":"SEYDİLER MAH.","zip":"48850"},{"name":"SÖĞÜTLÜDERE MAH.","zip":"48850"},{"name":"TEMEL MAH.","zip":"48850"},{"name":"UĞURLU MAH.","zip":"48850"},{"name":"YAKABAĞ MAH.","zip":"48850"},{"name":"YAKAKÖY MAH.","zip":"48850"},{"name":"YAYLA ELDİREK MAH.","zip":"48850"},{"name":"YAYLA GÖKBEN MAH.","zip":"48850"},{"name":"YAYLA KARAÇULHA MAH.","zip":"48850"},{"name":"YAYLAPATLANGIÇ MAH.","zip":"48850"},{"name":"ZORLAR MAH.","zip":"48850"}]},{"name":"ULA","cityName":null,"quarters":[{"name":"AKYAKA MAH.","zip":"48640"},{"name":"ALPARSLAN MAH.","zip":"48640"},{"name":"ARICILAR MAH.","zip":"48640"},{"name":"ARMUTCUK MAH.","zip":"48640"},{"name":"ATAKÖY MAH.","zip":"48640"},{"name":"AYAZKIYI MAH.","zip":"48640"},{"name":"ÇITLIK MAH.","zip":"48640"},{"name":"ÇİÇEKLİ MAH.","zip":"48640"},{"name":"ÇÖRÜŞ MAH.","zip":"48640"},{"name":"DEMİRTAŞ MAH.","zip":"48640"},{"name":"ELMALI MAH.","zip":"48640"},{"name":"ESENTEPE MAH.","zip":"48640"},{"name":"GÖKÇE MAH.","zip":"48640"},{"name":"GÖKOVA MAH.","zip":"48640"},{"name":"GÖLCÜK MAH.","zip":"48640"},{"name":"KARABÖRTLEN MAH.","zip":"48640"},{"name":"KAVAKÇALI MAH.","zip":"48640"},{"name":"KIRA MAH.","zip":"48640"},{"name":"KIZILAĞAÇ MAH.","zip":"48640"},{"name":"KIZILYAKA MAH.","zip":"48640"},{"name":"KÖPRÜBAŞI MAH.","zip":"48640"},{"name":"ÖRNEKKÖY MAH.","zip":"48640"},{"name":"PORTAKALLIK MAH.","zip":"48640"},{"name":"SARAYYANI MAH.","zip":"48640"},{"name":"ŞİRİNKÖY MAH.","zip":"48640"},{"name":"TURGUT MAH.","zip":"48640"},{"name":"YAYLASÖĞÜT MAH.","zip":"48640"},{"name":"YEŞİLÇAM MAH.","zip":"48640"},{"name":"YEŞİLOVA MAH.","zip":"48640"}]},{"name":"YATAĞAN","cityName":null,"quarters":[{"name":"AKYOL MAH.","zip":"48500"},{"name":"ALAŞAR MAH.","zip":"48500"},{"name":"ATATÜRK MAH.","zip":"48500"},{"name":"BAĞYAKA MAH.","zip":"48500"},{"name":"BAHÇEYAKA MAH.","zip":"48500"},{"name":"BENCİK MAH.","zip":"48500"},{"name":"BOZARMUT MAH.","zip":"48500"},{"name":"BOZÜYÜK MAH.","zip":"48500"},{"name":"CAZKIRLAR MAH.","zip":"48500"},{"name":"CUMHURİYET MAH.","zip":"48500"},{"name":"ÇAKIRLAR MAH.","zip":"48500"},{"name":"ÇAMLICA MAH.","zip":"48500"},{"name":"ÇUKURÖZ MAH.","zip":"48500"},{"name":"DERE MAH.","zip":"48500"},{"name":"DEŞTİN MAH.","zip":"48500"},{"name":"DOĞANKÖY MAH.","zip":"48500"},{"name":"ELMACIK MAH.","zip":"48500"},{"name":"ESENKÖY MAH.","zip":"48500"},{"name":"ESKİHİSAR MAH.","zip":"48500"},{"name":"GÖKGEDİK MAH.","zip":"48500"},{"name":"GÖKPINAR MAH.","zip":"48500"},{"name":"HACIBAYRAMLAR MAH.","zip":"48500"},{"name":"HACIVELİLER MAH.","zip":"48500"},{"name":"HİSARARDI MAH.","zip":"48500"},{"name":"KADIKÖY MAH.","zip":"48500"},{"name":"KAFACAKAPLANCIK MAH.","zip":"48500"},{"name":"KAPUBAĞ MAH.","zip":"48500"},{"name":"KATRANCI MAH.","zip":"48500"},{"name":"KAVAKKÖY MAH.","zip":"48500"},{"name":"KIRIKKÖY MAH.","zip":"48500"},{"name":"KONAK MAH.","zip":"48500"},{"name":"KOZAĞAÇ MAH.","zip":"48500"},{"name":"KÖKLÜK MAH.","zip":"48500"},{"name":"MADENLER MAH.","zip":"48500"},{"name":"MESKEN MAH.","zip":"48500"},{"name":"NEBİKÖY MAH.","zip":"48500"},{"name":"ŞAHİNLER MAH.","zip":"48500"},{"name":"ŞEREFKÖY MAH.","zip":"48500"},{"name":"TURGUT MAH.","zip":"48500"},{"name":"TURGUTLAR MAH.","zip":"48500"},{"name":"YAVA MAH.","zip":"48500"},{"name":"YAYLA MAH.","zip":"48500"},{"name":"YENİ MAH.","zip":"48500"},{"name":"YENİKARAKUYU MAH.","zip":"48500"},{"name":"YENİKÖY MAH.","zip":"48500"},{"name":"YEŞİLBAĞCILAR MAH.","zip":"48500"},{"name":"YEŞİLKÖY MAH.","zip":"48500"},{"name":"YUKARIYAYLA MAH.","zip":"48500"},{"name":"ZEYTİNKÖY MAH.","zip":"48500"}]}]}]}