{"id":49,"name":"MUŞ","cities":[{"name":"city","districts":[{"name":"BULANIK","cityName":null,"quarters":[{"name":"KÜLTÜR MAH.","zip":"49500"},{"name":"MESCİTLİ MAH.","zip":"49500"},{"name":"ŞEHİTLİK MAH.","zip":"49500"},{"name":"YENİ MAH.","zip":"49500"},{"name":"ZAFER MAH.","zip":"49500"}]},{"name":"ERENTEPE","cityName":null,"quarters":[{"name":"AKÇAARMUT KÖYÜ","zip":"49510"},{"name":"ALAGEZ MAH.","zip":"49510"},{"name":"ARI MAH.","zip":"49510"},{"name":"AŞAĞIBÜKLÜ KÖYÜ","zip":"49510"},{"name":"BİNİCİLER MEZRASI MAH.","zip":"49510"},{"name":"BÜNGÜLDEK KÖYÜ","zip":"49510"},{"name":"CANKURTARAN KÖYÜ","zip":"49510"},{"name":"ÇATAKLI KÖYÜ","zip":"49510"},{"name":"DİZBOYU MAH.","zip":"49510"},{"name":"DOKUZPINAR KÖYÜ","zip":"49510"},{"name":"ERENTEPE KÖYÜ","zip":"49510"},{"name":"ESENLİK KÖYÜ","zip":"49510"},{"name":"FATİH MAH.","zip":"49510"},{"name":"GAZİ MAH.","zip":"49510"},{"name":"GÜLÇİMEN KÖYÜ","zip":"49510"},{"name":"GÜNBATMAZ KÖYÜ","zip":"49510"},{"name":"GÜVEÇ MAH.","zip":"49510"},{"name":"HALİT MEZRASI MAH.","zip":"49510"},{"name":"HOŞGELDİ KÖYÜ","zip":"49510"},{"name":"İKİPINAR MAH.","zip":"49510"},{"name":"KALE MAH.","zip":"49510"},{"name":"KARAKAYA MAH.","zip":"49510"},{"name":"KELEHOŞK MAH.","zip":"49510"},{"name":"MOLLADAVUT KÖYÜ","zip":"49510"},{"name":"MOLLAKENT KÖYÜ","zip":"49510"},{"name":"OĞLAKKAYA KÖYÜ","zip":"49510"},{"name":"OKÇULAR KÖYÜ","zip":"49510"},{"name":"OLURDERE KÖYÜ","zip":"49510"},{"name":"PINARBAŞI MAH.","zip":"49510"},{"name":"SARIALTUN MAH.","zip":"49510"},{"name":"SOMAN MAH.","zip":"49510"},{"name":"ŞIHMİRZA MAH.","zip":"49510"},{"name":"TEPECİK MAH.","zip":"49510"},{"name":"UZGÖRÜR KÖYÜ","zip":"49510"},{"name":"YEŞİLOVA MAH.","zip":"49510"},{"name":"YEŞİLYURT MAH.","zip":"49510"},{"name":"YOKUŞBAŞI KÖYÜ","zip":"49510"},{"name":"YUKARIBÜKLÜ MAH.","zip":"49510"},{"name":"ZİYARET MAH.","zip":"49510"}]},{"name":"MERKEZKÖYLER","cityName":null,"quarters":[{"name":"AKÇAKAYNAK KÖYÜ","zip":"49502"},{"name":"ALTINOLUK KÖYÜ","zip":"49502"},{"name":"ARAKONAK KÖYÜ","zip":"49502"},{"name":"ARDIÇ MAH.","zip":"49502"},{"name":"BAĞLAR MAH.","zip":"49502"},{"name":"BAHÇELİEVLER MAH.","zip":"49502"},{"name":"BALOTU KÖYÜ","zip":"49502"},{"name":"BAYRAMLI MAH.","zip":"49502"},{"name":"BEŞEVLER MAH.","zip":"49502"},{"name":"BOSTANCILAR KÖYÜ","zip":"49502"},{"name":"BOZTAŞ MAH.","zip":"49502"},{"name":"CUMHURİYET MAH.","zip":"49502"},{"name":"ÇAYGELDİ KÖYÜ","zip":"49502"},{"name":"ÇAYGELDİ MAH.","zip":"49502"},{"name":"ÇİÇEKLİ MAH.","zip":"49502"},{"name":"ÇİLÇİLE MAH.","zip":"49502"},{"name":"ÇİMEN MAH.","zip":"49502"},{"name":"DEĞİRMENSUYU KÖYÜ","zip":"49502"},{"name":"DEMİRKAPI KÖYÜ","zip":"49502"},{"name":"DERE MAH.","zip":"49502"},{"name":"DOĞANTEPE KÖYÜ","zip":"49502"},{"name":"DÜZALAN MAH.","zip":"49502"},{"name":"ELMAKAYA KÖYÜ","zip":"49502"},{"name":"ERİCEK KÖYÜ","zip":"49502"},{"name":"ESKİYOL KÖYÜ","zip":"49502"},{"name":"FATİH MAH.","zip":"49502"},{"name":"GELİNÇEŞMESİ MAH.","zip":"49502"},{"name":"GÖLYANI KÖYÜ","zip":"49502"},{"name":"GÖZTEPE KÖYÜ","zip":"49502"},{"name":"GÜMÜŞPINAR KÖYÜ","zip":"49502"},{"name":"GÜNDÜZÜ KÖYÜ","zip":"49502"},{"name":"GÜNYURDU KÖYÜ","zip":"49502"},{"name":"HAN KÖYÜ","zip":"49502"},{"name":"HANEDAN MAH.","zip":"49502"},{"name":"HORBIZAN MAH.","zip":"49502"},{"name":"HÜRRİYET MAH.","zip":"49502"},{"name":"İBRAHİM KUŞHAN MEZRASI MAH.","zip":"49502"},{"name":"İNÖNÜ MAH.","zip":"49502"},{"name":"KARAAĞIL KÖYÜ","zip":"49502"},{"name":"KARABURUN KÖYÜ","zip":"49502"},{"name":"KARACAÖREN KÖYÜ","zip":"49502"},{"name":"KILINDOR MEZRASI MAH.","zip":"49502"},{"name":"KIRKGÖZE KÖYÜ","zip":"49502"},{"name":"KIRMIZITAŞ MEZRASI MAH.","zip":"49502"},{"name":"KOM MEZRASI MAH.","zip":"49502"},{"name":"KORTAGÜL MEZRASI MAH.","zip":"49502"},{"name":"KOTANLI KÖYÜ","zip":"49502"},{"name":"KOYUNAĞILI KÖYÜ","zip":"49502"},{"name":"KÖPRÜYOLU KÖYÜ","zip":"49502"},{"name":"KURGANLI KÖYÜ","zip":"49502"},{"name":"KUZULU MAH.","zip":"49502"},{"name":"MEMETLER MAH.","zip":"49502"},{"name":"MEŞEİÇİ KÖYÜ","zip":"49502"},{"name":"MURAT MAH.","zip":"49502"},{"name":"ÖRENKENT KÖYÜ","zip":"49502"},{"name":"PINAR MAH.","zip":"49502"},{"name":"PINARCIK MAH.","zip":"49502"},{"name":"RÜSTEMGEDİK KÖYÜ","zip":"49502"},{"name":"SALİHA MAH.","zip":"49502"},{"name":"SAMANYOLU KÖYÜ","zip":"49502"},{"name":"SARAY MAH.","zip":"49502"},{"name":"SARIPINAR KÖYÜ","zip":"49502"},{"name":"SEÇME KÖYÜ","zip":"49502"},{"name":"SIRADERE KÖYÜ","zip":"49502"},{"name":"SİNAN MAH.","zip":"49502"},{"name":"SÖĞÜTLÜ KÖYÜ","zip":"49502"},{"name":"SULTANLI KÖYÜ","zip":"49502"},{"name":"SÜTLÜCE MAH.","zip":"49502"},{"name":"ŞATIRLAR KÖYÜ","zip":"49502"},{"name":"ŞEHİTTAHİR KÖYÜ","zip":"49502"},{"name":"ŞEHİTVEREN KÖYÜ","zip":"49502"},{"name":"TOKLULAR KÖYÜ","zip":"49502"},{"name":"TOPAĞAÇ MAH.","zip":"49502"},{"name":"UĞUR MAHHALESİ MAH.","zip":"49502"},{"name":"ÜÇTEPE KÖYÜ","zip":"49502"},{"name":"ÜRÜNLÜ MAH.","zip":"49502"},{"name":"VANGESOR MEZRASI MAH.","zip":"49502"},{"name":"YAZBAŞI KÖYÜ","zip":"49502"},{"name":"YEMİŞEN KÖYÜ","zip":"49502"},{"name":"YENİ MAH.","zip":"49502"},{"name":"YENİKÖY MAH.","zip":"49502"},{"name":"YEŞİL YAYLA MEZRASI MAH.","zip":"49502"},{"name":"YILANDERE MAH.","zip":"49502"},{"name":"YILDIZ MAH.","zip":"49502"},{"name":"YONCALI KÖYÜ","zip":"49502"},{"name":"ZAFER MAH.","zip":"49502"}]},{"name":"HASKÖY","cityName":null,"quarters":[{"name":"SAYANLAR MAH.","zip":"49700"},{"name":"SUNAY MAH.","zip":"49700"}]},{"name":"MERKEZKÖYLER","cityName":null,"quarters":[{"name":"AZIKLI KÖYÜ","zip":"49702"},{"name":"BAHÇELİEVLER MAH.","zip":"49702"},{"name":"BÖĞÜRDELEN KÖYÜ","zip":"49702"},{"name":"BÜVETLİ KÖYÜ","zip":"49702"},{"name":"COTİK MAH.","zip":"49702"},{"name":"DAĞDİBİ KÖYÜ","zip":"49702"},{"name":"DÜZKIŞLA KÖYÜ","zip":"49702"},{"name":"ELMABULAK KÖYÜ","zip":"49702"},{"name":"EŞMEPINAR KÖYÜ","zip":"49702"},{"name":"GÖKYAZI KÖYÜ","zip":"49702"},{"name":"KARAKÜTÜK KÖYÜ","zip":"49702"},{"name":"KOÇ KÖYÜ","zip":"49702"},{"name":"KOĞUKTAŞ KÖYÜ","zip":"49702"},{"name":"KÜLTÜR MAH.","zip":"49702"},{"name":"ORTANCA KÖYÜ","zip":"49702"},{"name":"OTAÇ KÖYÜ","zip":"49702"},{"name":"SARIBAHÇE KÖYÜ","zip":"49702"},{"name":"UMURCA KÖYÜ","zip":"49702"},{"name":"YAPRAKLI MAH.","zip":"49702"},{"name":"YARKAYA KÖYÜ","zip":"49702"},{"name":"YENİ MAH.","zip":"49702"},{"name":"YEŞİLDERE MAH.","zip":"49702"},{"name":"YUKARIÜÇDAM KÖYÜ","zip":"49702"}]},{"name":"KORKUT","cityName":null,"quarters":[{"name":"KÜLTÜR MAH.","zip":"49800"},{"name":"ŞEHİTLER MAH.","zip":"49800"}]},{"name":"MERKEZKÖYLER","cityName":null,"quarters":[{"name":"ALADİNO MAH.","zip":"49802"},{"name":"ALAZLI KÖYÜ","zip":"49802"},{"name":"ALTINOVA KÖYÜ","zip":"49802"},{"name":"AYDINLAR MAH.","zip":"49802"},{"name":"BAHÇELİEVLER MAH.","zip":"49802"},{"name":"BALKIR KÖYÜ","zip":"49802"},{"name":"ÇAKIRLI MAH.","zip":"49802"},{"name":"ÇALAPLI KÖYÜ","zip":"49802"},{"name":"ÇINARARDI KÖYÜ","zip":"49802"},{"name":"DEĞİRMİTAŞ KÖYÜ","zip":"49802"},{"name":"DEMİRCİ KÖYÜ","zip":"49802"},{"name":"DEREİÇİ KÖYÜ","zip":"49802"},{"name":"DOĞULAR MAH.","zip":"49802"},{"name":"DURUCAK KÖYÜ","zip":"49802"},{"name":"DÜZOVA KÖYÜ","zip":"49802"},{"name":"GELİRLİ MAH.","zip":"49802"},{"name":"GÜLTEPE KÖYÜ","zip":"49802"},{"name":"GÜLTEPE MAH.","zip":"49802"},{"name":"GÜNEYİK KÖYÜ","zip":"49802"},{"name":"GÜVEN KÖYÜ","zip":"49802"},{"name":"İÇBOĞAZ KÖYÜ","zip":"49802"},{"name":"KAPILI KÖYÜ","zip":"49802"},{"name":"KARAKALE KÖYÜ","zip":"49802"},{"name":"KAŞDİBİ MAH.","zip":"49802"},{"name":"KAVAL MAH.","zip":"49802"},{"name":"KIRYAKA KÖYÜ","zip":"49802"},{"name":"KOCATARLA KÖYÜ","zip":"49802"},{"name":"KONAKDÜZÜ KÖYÜ","zip":"49802"},{"name":"MERKEZ MAH.","zip":"49802"},{"name":"MOLLABABA KÖYÜ","zip":"49802"},{"name":"OĞULBALI KÖYÜ","zip":"49802"},{"name":"ONEVLER MAH.","zip":"49802"},{"name":"PINARÜSTÜ KÖYÜ","zip":"49802"},{"name":"SARMAŞIK KÖYÜ","zip":"49802"},{"name":"SAZLIKBAŞI KÖYÜ","zip":"49802"},{"name":"SU DÖNDÜ MAH.","zip":"49802"},{"name":"TAN KÖYÜ","zip":"49802"},{"name":"TAŞLICA KÖYÜ","zip":"49802"},{"name":"YEDİPINAR KÖYÜ","zip":"49802"},{"name":"YENİ MAH.","zip":"49802"},{"name":"YEŞİLYAYLA MAH.","zip":"49802"},{"name":"YOLGÖZLER KÖYÜ","zip":"49802"},{"name":"YÜNÖREN KÖYÜ","zip":"49802"},{"name":"YÜREKLİ KÖYÜ","zip":"49802"}]},{"name":"AKTUZLA","cityName":null,"quarters":[{"name":"2 MAH.","zip":"49540"},{"name":"AĞILBAŞI KÖYÜ","zip":"49540"},{"name":"BADEMÖZÜ KÖYÜ","zip":"49540"},{"name":"BALKAYA KÖYÜ","zip":"49540"},{"name":"BEŞDAM KÖYÜ","zip":"49540"},{"name":"BEYPINAR KÖYÜ","zip":"49540"},{"name":"BEZİRHANE MAH.","zip":"49540"},{"name":"BİLALA KÖYÜ","zip":"49540"},{"name":"BOYÇAPKIN KÖYÜ","zip":"49540"},{"name":"ÇAT MAH.","zip":"49540"},{"name":"ÇİÇEKVEREN KÖYÜ","zip":"49540"},{"name":"DEDEAĞAÇ MAH.","zip":"49540"},{"name":"DÖVENCİLER MAH.","zip":"49540"},{"name":"ERENCE KÖYÜ","zip":"49540"},{"name":"FENEK KÖYÜ","zip":"49540"},{"name":"GÜZELBABA KÖYÜ","zip":"49540"},{"name":"HACILAR MAH.","zip":"49540"},{"name":"İYİKOMŞU KÖYÜ","zip":"49540"},{"name":"KADIKÖY KÖYÜ","zip":"49540"},{"name":"KARADERA MAH.","zip":"49540"},{"name":"KARAKOÇ KÖYÜ","zip":"49540"},{"name":"KARDEŞLER KÖYÜ","zip":"49540"},{"name":"KARINCALI KÖYÜ","zip":"49540"},{"name":"KAZGÖL KÖYÜ","zip":"49540"},{"name":"KURUCA KÖYÜ","zip":"49540"},{"name":"SIRTDÜZÜ KÖYÜ","zip":"49540"},{"name":"TIKIZLI KÖYÜ","zip":"49540"},{"name":"ULUSU KÖYÜ","zip":"49540"},{"name":"UYANIK KÖYÜ","zip":"49540"},{"name":"YAPRAKLI KÖYÜ","zip":"49540"},{"name":"YILDIZ MAH.","zip":"49540"},{"name":"YOLGÖZLER KÖYÜ","zip":"49540"},{"name":"YURTSEVEN KÖYÜ","zip":"49540"}]},{"name":"KARAHASAN","cityName":null,"quarters":[{"name":"AKÖREN KÖYÜ","zip":"49430"},{"name":"BEKİRHAN MAH.","zip":"49430"},{"name":"BOYUNDERE KÖYÜ","zip":"49430"},{"name":"KARAALİ KÖYÜ","zip":"49430"},{"name":"KARAHASAN KÖYÜ","zip":"49430"},{"name":"KIZILYUSUF KÖYÜ","zip":"49430"},{"name":"KULCAK KÖYÜ","zip":"49430"},{"name":"MAĞALCIK KÖYÜ","zip":"49430"},{"name":"MOLLADERMAN KÖYÜ","zip":"49430"},{"name":"ODAKÖY KÖYÜ","zip":"49430"},{"name":"OĞUZHAN KÖYÜ","zip":"49430"},{"name":"ÖRENŞAR KÖYÜ","zip":"49430"},{"name":"SARIDAVUT KÖYÜ","zip":"49430"},{"name":"ŞEKEROVA MAH.","zip":"49430"},{"name":"TATARGAZİ KÖYÜ","zip":"49430"},{"name":"YARAMIŞ KÖYÜ","zip":"49430"}]},{"name":"MALAZGİRT","cityName":null,"quarters":[{"name":"AFŞİN MAH.","zip":"49400"},{"name":"AKSUNGUR MAH.","zip":"49400"},{"name":"ALİŞAN MAH.","zip":"49400"},{"name":"ALTUNTAŞ MAH.","zip":"49400"},{"name":"DANIŞMENTGAZİ MAH.","zip":"49400"},{"name":"MENGÜÇGAZİ MAH.","zip":"49400"},{"name":"MURAT MAH.","zip":"49400"},{"name":"SAFTEKİNGAZİ MAH.","zip":"49400"},{"name":"SALTUKGAZİ MAH.","zip":"49400"},{"name":"SELÇUKLU MAH.","zip":"49400"},{"name":"ŞEKERBULAK MAH.","zip":"49400"}]},{"name":"MERKEZKÖYLER","cityName":null,"quarters":[{"name":"ALYAR KÖYÜ","zip":"49402"},{"name":"ARADERE KÖYÜ","zip":"49402"},{"name":"AYNALIHOCA KÖYÜ","zip":"49402"},{"name":"BEŞÇATAK KÖYÜ","zip":"49402"},{"name":"BİLGİN MAH.","zip":"49402"},{"name":"BOSTANKAYA KÖYÜ","zip":"49402"},{"name":"ÇAYIRDERE KÖYÜ","zip":"49402"},{"name":"DOLABAŞ KÖYÜ","zip":"49402"},{"name":"EYYUBİ MAH.","zip":"49402"},{"name":"GÜLEÇ KÖYÜ","zip":"49402"},{"name":"GÜLKORU KÖYÜ","zip":"49402"},{"name":"HANOĞLU KÖYÜ","zip":"49402"},{"name":"HASRETPINAR KÖYÜ","zip":"49402"},{"name":"KARAKAYA KÖYÜ","zip":"49402"},{"name":"KILIÇÇI KÖYÜ","zip":"49402"},{"name":"MEZRAAKÖY KÖYÜ","zip":"49402"},{"name":"MOLLABAKİ KÖYÜ","zip":"49402"},{"name":"MURATKOLU KÖYÜ","zip":"49402"},{"name":"OKÇUHAN KÖYÜ","zip":"49402"},{"name":"SELEKUTU KÖYÜ","zip":"49402"},{"name":"SEYDAGİL MAH.","zip":"49402"},{"name":"TATLICA KÖYÜ","zip":"49402"}]},{"name":"NURETTİN(KONAKKURAN)","cityName":null,"quarters":[{"name":"2 MAH.","zip":"49420"},{"name":"AKALAN KÖYÜ","zip":"49420"},{"name":"ALİKALKAN KÖYÜ","zip":"49420"},{"name":"ARSLANKAYA KÖYÜ","zip":"49420"},{"name":"AŞAĞIKICIK KÖYÜ","zip":"49420"},{"name":"ATATÜRK MAH.","zip":"49420"},{"name":"BAHÇE KÖYÜ","zip":"49420"},{"name":"DİRİMPINAR KÖYÜ","zip":"49420"},{"name":"DOĞANTAŞ KÖYÜ","zip":"49420"},{"name":"GÖLAĞILI KÖYÜ","zip":"49420"},{"name":"HANCAĞIZ KÖYÜ","zip":"49420"},{"name":"HASANPAŞA KÖYÜ","zip":"49420"},{"name":"KOÇALİ KÖYÜ","zip":"49420"},{"name":"KONAKKURAN KÖYÜ","zip":"49420"},{"name":"LALADAĞI KÖYÜ","zip":"49420"},{"name":"MURAT MAH.","zip":"49420"},{"name":"NURETTİN KÖYÜ","zip":"49420"},{"name":"SÖĞÜTLÜ KÖYÜ","zip":"49420"},{"name":"TAŞLIÇEŞME MAH.","zip":"49420"},{"name":"YENİ MAH.","zip":"49420"},{"name":"YUKARIKICIK KÖYÜ","zip":"49420"},{"name":"ZİYARET MAH.","zip":"49420"}]},{"name":"MERKEZ","cityName":null,"quarters":[{"name":"HÜRRİYET MAH.","zip":"49001"},{"name":"KALE MAH.","zip":"49001"},{"name":"KÜLTÜR MAH.","zip":"49001"},{"name":"MİNARE MAH.","zip":"49001"},{"name":"MURATPAŞA MAH.","zip":"49001"},{"name":"SARAY MAH.","zip":"49001"},{"name":"SUNAY MAH.","zip":"49001"},{"name":"YEŞİLCE MAH.","zip":"49001"},{"name":"YEŞİLYURT MAH.","zip":"49001"},{"name":"ZAFER MAH.","zip":"49001"}]},{"name":"MERKEZKÖYLER","cityName":null,"quarters":[{"name":"AĞAÇLIK KÖYÜ","zip":"49250"},{"name":"AĞAÇLIK MAH.","zip":"49250"},{"name":"AĞARTI KÖYÜ","zip":"49250"},{"name":"AĞILLI KÖYÜ","zip":"49250"},{"name":"AĞIZTADI MAH.","zip":"49250"},{"name":"AKKONAK KÖYÜ","zip":"49250"},{"name":"AKPINAR KÖYÜ","zip":"49250"},{"name":"ALAGÜN KÖYÜ","zip":"49250"},{"name":"ALANİÇİ KÖYÜ","zip":"49250"},{"name":"ALİCAN KÖYÜ","zip":"49250"},{"name":"ALİGEDİK KÖYÜ","zip":"49250"},{"name":"ALTIKARDEŞ MAH.","zip":"49250"},{"name":"AMBARMEVKİİ MAH.","zip":"49250"},{"name":"ARIKÖY KÖYÜ","zip":"49250"},{"name":"ARPAYAZI KÖYÜ","zip":"49250"},{"name":"ASKAR MAH.","zip":"49250"},{"name":"AŞAĞI HALAT MAH.","zip":"49250"},{"name":"AŞAĞI PERZİNG MAH.","zip":"49250"},{"name":"AŞAĞISIZMA KÖYÜ","zip":"49250"},{"name":"AŞAĞISOĞUKSU MAH.","zip":"49250"},{"name":"AŞAĞIYONGALI KÖYÜ","zip":"49250"},{"name":"AYDINGÜN MAH.","zip":"49250"},{"name":"AYDOĞAN KÖYÜ","zip":"49250"},{"name":"AYDOĞDU MAH.","zip":"49250"},{"name":"AYRANCI MAH.","zip":"49250"},{"name":"BAĞLAR KÖYÜ","zip":"49250"},{"name":"BAĞLAR MAH.","zip":"49250"},{"name":"BAĞRAÇ MAH.","zip":"49250"},{"name":"BAHAR MAH.","zip":"49250"},{"name":"BAHÇEKÖY KÖYÜ","zip":"49250"},{"name":"BAHÇELİEVLER MAH.","zip":"49250"},{"name":"BAKIRCILAR MAH.","zip":"49250"},{"name":"BALCILAR MAH.","zip":"49250"},{"name":"BALÖZÜ MAH.","zip":"49250"},{"name":"BAŞAK MAH.","zip":"49250"},{"name":"BERBERMEVKİİ MAH.","zip":"49250"},{"name":"BEŞPARMAK KÖYÜ","zip":"49250"},{"name":"BİLEK KÖYÜ","zip":"49250"},{"name":"BOSTANKENT KÖYÜ","zip":"49250"},{"name":"BOYUNCUK KÖYÜ","zip":"49250"},{"name":"BOZBULUT KÖYÜ","zip":"49250"},{"name":"BUĞDAYLI MAH.","zip":"49250"},{"name":"BÜYÜKLER MAH.","zip":"49250"},{"name":"CAFER MAH.","zip":"49250"},{"name":"CEVİZLİDERE KÖYÜ","zip":"49250"},{"name":"ÇAĞDAŞ MAH.","zip":"49250"},{"name":"ÇATBAŞI KÖYÜ","zip":"49250"},{"name":"ÇETİNLER MAH.","zip":"49250"},{"name":"ÇİÇEKLİ KÖYÜ","zip":"49250"},{"name":"ÇÖĞÜRLÜ KÖYÜ","zip":"49250"},{"name":"ÇÖĞÜRLÜ MAH.","zip":"49250"},{"name":"ÇUBUKLU MAH.","zip":"49250"},{"name":"ÇUKURBAĞ KÖYÜ","zip":"49250"},{"name":"DAGARASI MAH.","zip":"49250"},{"name":"DAHAL MAH.","zip":"49250"},{"name":"DANACIK MAH.","zip":"49250"},{"name":"DARBOĞAZ MAH.","zip":"49250"},{"name":"DEMLER MAH.","zip":"49250"},{"name":"DEPOMEVKİİ MAH.","zip":"49250"},{"name":"DERE MAH.","zip":"49250"},{"name":"DERECİK KÖYÜ","zip":"49250"},{"name":"DEREYURT KÖYÜ","zip":"49250"},{"name":"DİLİMLİ KÖYÜ","zip":"49250"},{"name":"DİLİMLİ MAH.","zip":"49250"},{"name":"DONATIM KÖYÜ","zip":"49250"},{"name":"DONATIM MAH.","zip":"49250"},{"name":"DONATIM MÜCAVİR MAH.","zip":"49250"},{"name":"DUMLUSU KÖYÜ","zip":"49250"},{"name":"DURSUNLU MAH.","zip":"49250"},{"name":"DURUGÖZE KÖYÜ","zip":"49250"},{"name":"DÜZ MAH.","zip":"49250"},{"name":"DÜZLÜK MAH.","zip":"49250"},{"name":"EĞİRMEÇ KÖYÜ","zip":"49250"},{"name":"EKİNCİ MAH.","zip":"49250"},{"name":"EKİNDÜZÜ KÖYÜ","zip":"49250"},{"name":"ELÇİLER KÖYÜ","zip":"49250"},{"name":"EMEKMEZRAASI MAH.","zip":"49250"},{"name":"ERALANI KÖYÜ","zip":"49250"},{"name":"ERENCİK KÖYÜ","zip":"49250"},{"name":"ERKAN MAH.","zip":"49250"},{"name":"EŞME MAH.","zip":"49250"},{"name":"FETULLAHAĞA MAH.","zip":"49250"},{"name":"GÖLKÖY KÖYÜ","zip":"49250"},{"name":"GÜDÜMLÜ KÖYÜ","zip":"49250"},{"name":"GÜMÜŞALİ KÖYÜ","zip":"49250"},{"name":"GÜNDOĞAN KÖYÜ","zip":"49250"},{"name":"GÜRGÜRE MAH.","zip":"49250"},{"name":"GÜVENDİK MAH.","zip":"49250"},{"name":"GÜZELTEPE KÖYÜ","zip":"49250"},{"name":"GÜZELTEPE MAH.","zip":"49250"},{"name":"HACI ŞÜKRÜ MAH.","zip":"49250"},{"name":"HALİTBEY MAH.","zip":"49250"},{"name":"HARIPŞANMEZRASI MAH.","zip":"49250"},{"name":"HARMAN KÖYÜ","zip":"49250"},{"name":"HASALAN MAH.","zip":"49250"},{"name":"HASİKMEZRASI MAH.","zip":"49250"},{"name":"HAŞİKMEZRASI MAH.","zip":"49250"},{"name":"HİŞAN MAH.","zip":"49250"},{"name":"HOZAN MAH.","zip":"49250"},{"name":"HÜRRİYET MAH.","zip":"49250"},{"name":"ILICA KÖYÜ","zip":"49250"},{"name":"INCESU MAH.","zip":"49250"},{"name":"IŞIKLI MAH.","zip":"49250"},{"name":"İNARDI KÖYÜ","zip":"49250"},{"name":"KALECİK KÖYÜ","zip":"49250"},{"name":"KAMIŞLI MAH.","zip":"49250"},{"name":"KANYAKALO MAH.","zip":"49250"},{"name":"KARAAĞAÇ MAH.","zip":"49250"},{"name":"KARAAĞAÇLI KÖYÜ","zip":"49250"},{"name":"KARABEY KÖYÜ","zip":"49250"},{"name":"KARAKÖPRÜ KÖYÜ","zip":"49250"},{"name":"KARAKÖPRÜ MAH.","zip":"49250"},{"name":"KARAKÖPRÜ MÜCAVİR MAH.","zip":"49250"},{"name":"KARAKUYU KÖYÜ","zip":"49250"},{"name":"KARAKUYU MAH.","zip":"49250"},{"name":"KARAMEŞE KÖYÜ","zip":"49250"},{"name":"KARDESLER MAH.","zip":"49250"},{"name":"KARDEŞLER MAH.","zip":"49250"},{"name":"KARLIDERE KÖYÜ","zip":"49250"},{"name":"KARNI MAH.","zip":"49250"},{"name":"KARSIYAKA MAH.","zip":"49250"},{"name":"KARŞIYAKA MAH.","zip":"49250"},{"name":"KASIMLI MAH.","zip":"49250"},{"name":"KAYALISU KÖYÜ","zip":"49250"},{"name":"KAYAŞIK KÖYÜ","zip":"49250"},{"name":"KEÇİDERE KÖYÜ","zip":"49250"},{"name":"KEÇİDERE MAH.","zip":"49250"},{"name":"KEPENEK KÖYÜ","zip":"49250"},{"name":"KEROZ MAH.","zip":"49250"},{"name":"KIRKÖY KÖYÜ","zip":"49250"},{"name":"KIYIBAŞI KÖYÜ","zip":"49250"},{"name":"KIYIK KÖYÜ","zip":"49250"},{"name":"KIYIK MAH.","zip":"49250"},{"name":"KIZILAĞAÇ KÖYÜ","zip":"49250"},{"name":"KİLAROZ MAH.","zip":"49250"},{"name":"KİLİS MAH.","zip":"49250"},{"name":"KİLİSMEVKİİ MAH.","zip":"49250"},{"name":"KOM MAH.","zip":"49250"},{"name":"KONAK MAH.","zip":"49250"},{"name":"KONUKBEKLER KÖYÜ","zip":"49250"},{"name":"KÖRPEAĞAÇ MAH.","zip":"49250"},{"name":"KÖŞK KÖYÜ","zip":"49250"},{"name":"KÖY MAH.","zip":"49250"},{"name":"KUMLUCA KÖYÜ","zip":"49250"},{"name":"KURTULUŞ MAH.","zip":"49250"},{"name":"KURTULUŞMEZRAA MAH.","zip":"49250"},{"name":"KUŞÇU MAH.","zip":"49250"},{"name":"KUTKAN MAH.","zip":"49250"},{"name":"KUTLUGÜN KÖYÜ","zip":"49250"},{"name":"KÜLTÜR MAH.","zip":"49250"},{"name":"MERCİMEKKALE KÖYÜ","zip":"49250"},{"name":"MERGANMEZRASI MAH.","zip":"49250"},{"name":"MERGİ MAH.","zip":"49250"},{"name":"MERKEZ MAH.","zip":"49250"},{"name":"MERKEZMAH MAH.","zip":"49250"},{"name":"MESCİTLİ KÖYÜ","zip":"49250"},{"name":"MEŞECİK MAH.","zip":"49250"},{"name":"MEZRA MAH.","zip":"49250"},{"name":"MİNARE MAH.","zip":"49250"},{"name":"MUDEVİRMEZRASI MAH.","zip":"49250"},{"name":"MURATGÖREN KÖYÜ","zip":"49250"},{"name":"NADASLIK KÖYÜ","zip":"49250"},{"name":"ORTAKENT KÖYÜ","zip":"49250"},{"name":"OSB MAH.","zip":"49250"},{"name":"ÖRTÜLÜ MAH.","zip":"49250"},{"name":"ÖZDEMİRLER MAH.","zip":"49250"},{"name":"ÖZDİLEK KÖYÜ","zip":"49250"},{"name":"ÖZGÜREVLER MAH.","zip":"49250"},{"name":"PERŞEMBE MAH.","zip":"49250"},{"name":"PERZİNG MAH.","zip":"49250"},{"name":"RECELANMEZRAASI MAH.","zip":"49250"},{"name":"SAĞLIK KÖYÜ","zip":"49250"},{"name":"SARIDAL KÖYÜ","zip":"49250"},{"name":"SAVAŞÇILAR KÖYÜ","zip":"49250"},{"name":"SELİM MAH.","zip":"49250"},{"name":"SERİNOVA KÖYÜ","zip":"49250"},{"name":"SOĞUCAK KÖYÜ","zip":"49250"},{"name":"SOĞUCAK MAH.","zip":"49250"},{"name":"SOĞUKPINAR MAH.","zip":"49250"},{"name":"SOĞUKSU MAH.","zip":"49250"},{"name":"SÖNMEZLER MAH.","zip":"49250"},{"name":"SPİKANMEZRASI MAH.","zip":"49250"},{"name":"SUBOYU KÖYÜ","zip":"49250"},{"name":"SUDURAĞI KÖYÜ","zip":"49250"},{"name":"SULUCA KÖYÜ","zip":"49250"},{"name":"SUNGU KÖYÜ","zip":"49250"},{"name":"SUVARAN KÖYÜ","zip":"49250"},{"name":"SUVARAN MAH.","zip":"49250"},{"name":"SÜRÜGÜDEN KÖYÜ","zip":"49250"},{"name":"SÜTLÜCE KÖYÜ","zip":"49250"},{"name":"SÜTLÜCE MAH.","zip":"49250"},{"name":"ŞENOBA KÖYÜ","zip":"49250"},{"name":"ŞİRİNEVLER MAH.","zip":"49250"},{"name":"TABANLI KÖYÜ","zip":"49250"},{"name":"TANDOĞAN KÖYÜ","zip":"49250"},{"name":"TANDOĞAN MAH.","zip":"49250"},{"name":"TAŞOLUK KÖYÜ","zip":"49250"},{"name":"TEKYOL KÖYÜ","zip":"49250"},{"name":"TETE MAH.","zip":"49250"},{"name":"TOPRAKKALE KÖYÜ","zip":"49250"},{"name":"TOSUNLU MAH.","zip":"49250"},{"name":"TÜTEN KÖYÜ","zip":"49250"},{"name":"TÜTÜNLÜ MAH.","zip":"49250"},{"name":"ULUKAYA KÖYÜ","zip":"49250"},{"name":"ÜÇDERE KÖYÜ","zip":"49250"},{"name":"ÜÇDERE MAH.","zip":"49250"},{"name":"ÜÇEVLER KÖYÜ","zip":"49250"},{"name":"ÜÇSIRT KÖYÜ","zip":"49250"},{"name":"VARLIK MAH.","zip":"49250"},{"name":"YAMAÇ KÖYÜ","zip":"49250"},{"name":"YAMAÇLI MAH.","zip":"49250"},{"name":"YARPUZLU KÖYÜ","zip":"49250"},{"name":"YAYGIN KÖYÜ","zip":"49250"},{"name":"YAZLA KÖYÜ","zip":"49250"},{"name":"YELALAN KÖYÜ","zip":"49250"},{"name":"YENİ MAH.","zip":"49250"},{"name":"YEROLUK MAH.","zip":"49250"},{"name":"YEŞİL MAH.","zip":"49250"},{"name":"YEŞİLOVA KÖYÜ","zip":"49250"},{"name":"YEŞİLYURT MAH.","zip":"49250"},{"name":"YILDIZLI MAH.","zip":"49250"},{"name":"YILMAZLI MAH.","zip":"49250"},{"name":"YONCALIÖZ KÖYÜ","zip":"49250"},{"name":"YÖRECİK KÖYÜ","zip":"49250"},{"name":"YUKARI HALAT MAH.","zip":"49250"},{"name":"YUKARIMEZRAA MAH.","zip":"49250"},{"name":"YUKARISIZMA KÖYÜ","zip":"49250"},{"name":"YUKARISOĞUKSU MAH.","zip":"49250"},{"name":"YUKARIYONGALI KÖYÜ","zip":"49250"},{"name":"YÜCETEPE KÖYÜ","zip":"49250"},{"name":"ZİYARET KÖYÜ","zip":"49250"}]},{"name":"ÇAYLAR","cityName":null,"quarters":[{"name":"ALABALIK KÖYÜ","zip":"49610"},{"name":"ALİ MAH.","zip":"49610"},{"name":"ARMUTKAŞI KÖYÜ","zip":"49610"},{"name":"BEŞİKKAYA KÖYÜ","zip":"49610"},{"name":"BEŞİKKAYA YAYLASI MAH.","zip":"49610"},{"name":"ÇAĞLAYAN MAH.","zip":"49610"},{"name":"ÇAĞLEK MAH.","zip":"49610"},{"name":"ÇALIDERE KÖYÜ","zip":"49610"},{"name":"ÇALLICA MAH.","zip":"49610"},{"name":"ÇAYLAR KÖYÜ","zip":"49610"},{"name":"ÇİÇEKLİ MAH.","zip":"49610"},{"name":"ÇUKURLU MAH.","zip":"49610"},{"name":"DAĞCILAR KÖYÜ","zip":"49610"},{"name":"DOĞANCA KÖYÜ","zip":"49610"},{"name":"DOĞANCA MAH.","zip":"49610"},{"name":"ERENLER MAH.","zip":"49610"},{"name":"ERYURDU KÖYÜ","zip":"49610"},{"name":"GÖLYAYLA KÖYÜ","zip":"49610"},{"name":"GÜHER MAH.","zip":"49610"},{"name":"GÜZELDERE KÖYÜ","zip":"49610"},{"name":"GÜZELKENT KÖYÜ","zip":"49610"},{"name":"İÇMELER KÖYÜ","zip":"49610"},{"name":"KARTALDERE KÖYÜ","zip":"49610"},{"name":"KELE MAH.","zip":"49610"},{"name":"KÖPRÜCÜK KÖYÜ","zip":"49610"},{"name":"KUŞBURNU MAH.","zip":"49610"},{"name":"KÜÇÜKTEPE KÖYÜ","zip":"49610"},{"name":"METİ MAH.","zip":"49610"},{"name":"ONPINAR KÖYÜ","zip":"49610"},{"name":"ÖZKONAK KÖYÜ","zip":"49610"},{"name":"PINARLI MAH.","zip":"49610"},{"name":"TAŞLIYAYLA KÖYÜ","zip":"49610"},{"name":"TEKNEDÜZÜ KÖYÜ","zip":"49610"},{"name":"TESCİLSİZ AŞAĞI MEZRA MAH.","zip":"49610"},{"name":"TESCİLSİZ KILIÇ MAH.","zip":"49610"},{"name":"TESCİLSİZ MİDİ MAH.","zip":"49610"},{"name":"TESCİLSİZ OZANKENT MAH.","zip":"49610"},{"name":"TUZLU KÖYÜ","zip":"49610"},{"name":"ÜÇBULAK KÖYÜ","zip":"49610"},{"name":"VELİ MAH.","zip":"49610"},{"name":"YEŞİLDAL KÖYÜ","zip":"49610"},{"name":"YEŞİLTEPE MAH.","zip":"49610"}]},{"name":"MERKEZKÖYLER","cityName":null,"quarters":[{"name":"ADA MEVKİİ MAH.","zip":"49602"},{"name":"AĞAÇALTI KÖYÜ","zip":"49602"},{"name":"AĞAÇKORUR KÖYÜ","zip":"49602"},{"name":"AKBALLAR MAH.","zip":"49602"},{"name":"AKÇATEPE KÖYÜ","zip":"49602"},{"name":"ANLIAÇIK KÖYÜ","zip":"49602"},{"name":"AŞAĞI ALAGÖZ KÖYÜ","zip":"49602"},{"name":"AŞAĞI HACIBEY KÖYÜ","zip":"49602"},{"name":"AŞAĞI KALECİK MAH.","zip":"49602"},{"name":"BAĞİÇİ KÖYÜ","zip":"49602"},{"name":"BALTAŞ KÖYÜ","zip":"49602"},{"name":"BAŞKENT KÖYÜ","zip":"49602"},{"name":"BAYRAM MAH.","zip":"49602"},{"name":"BENZER MAH.","zip":"49602"},{"name":"BOYALI KÖYÜ","zip":"49602"},{"name":"BOYLU KÖYÜ","zip":"49602"},{"name":"BUZLUGÖZE KÖYÜ","zip":"49602"},{"name":"ÇALTILI KÖYÜ","zip":"49602"},{"name":"ÇAVUŞLU MAH.","zip":"49602"},{"name":"ÇAYÇATI KÖYÜ","zip":"49602"},{"name":"ÇAYIRLI MAH.","zip":"49602"},{"name":"ÇAYIRYOLU KÖYÜ","zip":"49602"},{"name":"ÇAYÖNÜ KÖYÜ","zip":"49602"},{"name":"ÇELEBİ MAH.","zip":"49602"},{"name":"ÇOBANDAĞI KÖYÜ","zip":"49602"},{"name":"ÇUKURLU MAH.","zip":"49602"},{"name":"DAĞMAHALE MAH.","zip":"49602"},{"name":"DALLIÖZ KÖYÜ","zip":"49602"},{"name":"DEĞERLİ KÖYÜ","zip":"49602"},{"name":"DERİNCE KÖYÜ","zip":"49602"},{"name":"DİKTEPELER KÖYÜ","zip":"49602"},{"name":"DÖNERTAŞ KÖYÜ","zip":"49602"},{"name":"DURUCABULAK KÖYÜ","zip":"49602"},{"name":"DUTÖZÜ KÖYÜ","zip":"49602"},{"name":"ERDOĞAN KÖYÜ","zip":"49602"},{"name":"ESENLER KÖYÜ","zip":"49602"},{"name":"GELİNTAŞI KÖYÜ","zip":"49602"},{"name":"GÖLTEPE KÖYÜ","zip":"49602"},{"name":"GÖRGÜ KÖYÜ","zip":"49602"},{"name":"GÜLLÜCE MAH.","zip":"49602"},{"name":"HACI ARİF MAH.","zip":"49602"},{"name":"HAKSEVER KÖYÜ","zip":"49602"},{"name":"HÜSEYİNOĞLU KÖYÜ","zip":"49602"},{"name":"İLBEY KÖYÜ","zip":"49602"},{"name":"KALECİK KÖYÜ","zip":"49602"},{"name":"KARAÇ MAH.","zip":"49602"},{"name":"KARAKÖY KÖYÜ","zip":"49602"},{"name":"KARAMEŞE KÖYÜ","zip":"49602"},{"name":"KARAPINAR KÖYÜ","zip":"49602"},{"name":"KARATAŞ MAH.","zip":"49602"},{"name":"KAYADELEN KÖYÜ","zip":"49602"},{"name":"KAYALIDERE KÖYÜ","zip":"49602"},{"name":"KAYALIK KÖYÜ","zip":"49602"},{"name":"KAYALIKALE KÖYÜ","zip":"49602"},{"name":"KAYGINTAŞ KÖYÜ","zip":"49602"},{"name":"KAYNARCA KÖYÜ","zip":"49602"},{"name":"KOÇYATAĞI KÖYÜ","zip":"49602"},{"name":"KOLAN KÖYÜ","zip":"49602"},{"name":"KONAKLI MAH.","zip":"49602"},{"name":"KUMLUKIYI KÖYÜ","zip":"49602"},{"name":"KUŞLUK KÖYÜ","zip":"49602"},{"name":"LEYLEK KÖYÜ","zip":"49602"},{"name":"OCAKLI KÖYÜ","zip":"49602"},{"name":"OĞLAKÇI KÖYÜ","zip":"49602"},{"name":"OMCALI KÖYÜ","zip":"49602"},{"name":"ONBAŞI MAH.","zip":"49602"},{"name":"ÖLÇEKLİ KÖYÜ","zip":"49602"},{"name":"ÖZENÇ KÖYÜ","zip":"49602"},{"name":"SAĞLICAK KÖYÜ","zip":"49602"},{"name":"SANLICA KÖYÜ","zip":"49602"},{"name":"SAZLICA KÖYÜ","zip":"49602"},{"name":"SEKİ KÖYÜ","zip":"49602"},{"name":"TAŞÇI KÖYÜ","zip":"49602"},{"name":"TAŞDİBEK KÖYÜ","zip":"49602"},{"name":"TEPE KÖYÜ","zip":"49602"},{"name":"TESCİLSİZ AHMET MAH.","zip":"49602"},{"name":"TESCİLSİZ BİNGÖL MAH.","zip":"49602"},{"name":"TESCİLSİZ DOĞDAP MAH.","zip":"49602"},{"name":"TESCİLSİZ YILDIZLAR MAH.","zip":"49602"},{"name":"TESCİLSİZ ZİYARET MAH.","zip":"49602"},{"name":"TOKLU MAH.","zip":"49602"},{"name":"ULUSIRT KÖYÜ","zip":"49602"},{"name":"ÜNALDI KÖYÜ","zip":"49602"},{"name":"YAMAÇ MAH.","zip":"49602"},{"name":"YARLISU KÖYÜ","zip":"49602"},{"name":"YAYIKLI KÖYÜ","zip":"49602"},{"name":"YAYLA KÖYÜ","zip":"49602"},{"name":"YEDİKAVAK KÖYÜ","zip":"49602"},{"name":"YEKMAL MAH.","zip":"49602"},{"name":"YEŞİLPINAR KÖYÜ","zip":"49602"},{"name":"YILANLI KÖYÜ","zip":"49602"},{"name":"YUKARI HACIBEY KÖYÜ","zip":"49602"},{"name":"YUKARI KALECİK MAH.","zip":"49602"},{"name":"YURTTUTAN KÖYÜ","zip":"49602"},{"name":"YUVALI MAH.","zip":"49602"},{"name":"ZORABAT KÖYÜ","zip":"49602"}]},{"name":"VARTO","cityName":null,"quarters":[{"name":"BAHÇELİEVLER MAH.","zip":"49600"},{"name":"GÜMGÜM MAH.","zip":"49600"},{"name":"HÜRRİYET MAH.","zip":"49600"},{"name":"İNÖNÜ MAH.","zip":"49600"},{"name":"KÜLTÜR MAH.","zip":"49600"},{"name":"YENİ MAH.","zip":"49600"}]}]}]}