{"id":5,"name":"AMASYA","cities":[{"name":"city","districts":[{"name":"GÖYNÜCEK","cityName":null,"quarters":[{"name":"YENİ MAH.","zip":"05900"}]},{"name":"MERKEZKÖYLER","cityName":null,"quarters":[{"name":"AFET EVLER MAH.","zip":"05902"},{"name":"AĞCAPINAR MAH.","zip":"05902"},{"name":"ALAN KÖYÜ","zip":"05902"},{"name":"ARDIÇPINAR KÖYÜ","zip":"05902"},{"name":"ARMUTDİBİ MAH.","zip":"05902"},{"name":"ASAR KÖYÜ","zip":"05902"},{"name":"AŞAĞI ÇULPARA MAH.","zip":"05902"},{"name":"AŞILIK MAH.","zip":"05902"},{"name":"AYNININ ÖNÜ MAH.","zip":"05902"},{"name":"AYVALIPINAR KÖYÜ","zip":"05902"},{"name":"BAŞPINAR KÖYÜ","zip":"05902"},{"name":"BEKDEMİR KÖYÜ","zip":"05902"},{"name":"BEŞİKTEPE KÖYÜ","zip":"05902"},{"name":"ÇAMURLU KÖYÜ","zip":"05902"},{"name":"ÇAYAN KÖYÜ","zip":"05902"},{"name":"ÇAYKIŞLA KÖYÜ","zip":"05902"},{"name":"ÇEŞMEBAŞI MAH.","zip":"05902"},{"name":"ÇULPARA KÖYÜ","zip":"05902"},{"name":"DAVUTEVİ KÖYÜ","zip":"05902"},{"name":"GEDİKSARAY KÖYÜ","zip":"05902"},{"name":"GÖKÇELİ KÖYÜ","zip":"05902"},{"name":"GÜZALAN MAH.","zip":"05902"},{"name":"HARMANCIK KÖYÜ","zip":"05902"},{"name":"HASANBEY KÖYÜ","zip":"05902"},{"name":"ILISU KÖYÜ","zip":"05902"},{"name":"İKİZYAKA KÖYÜ","zip":"05902"},{"name":"KAFARLI KÖYÜ","zip":"05902"},{"name":"KARAPINAR MEVKİ MAH.","zip":"05902"},{"name":"KARAŞAR KÖYÜ","zip":"05902"},{"name":"KARAYAKUP KÖYÜ","zip":"05902"},{"name":"KERTME KÖYÜ","zip":"05902"},{"name":"KERVANSARAY KÖYÜ","zip":"05902"},{"name":"KIŞLABEYİ KÖYÜ","zip":"05902"},{"name":"KIZILÖREN MAH.","zip":"05902"},{"name":"KİLİSE MAH.","zip":"05902"},{"name":"KONURALAN KÖYÜ","zip":"05902"},{"name":"KOYUNCU KÖYÜ","zip":"05902"},{"name":"KURULUK MAH.","zip":"05902"},{"name":"KUYMA MAH.","zip":"05902"},{"name":"KUYULU KAVAKLI KÖYÜ","zip":"05902"},{"name":"KUYULU MAH.","zip":"05902"},{"name":"MEZRA MAH.","zip":"05902"},{"name":"ORTA MEVKİ MAH.","zip":"05902"},{"name":"ORTA ŞARKLI MAH.","zip":"05902"},{"name":"PENPELİ KÖYÜ","zip":"05902"},{"name":"SIĞIRÇAYI KÖYÜ","zip":"05902"},{"name":"ŞARKLI KÖYÜ","zip":"05902"},{"name":"ŞIHLAR KÖYÜ","zip":"05902"},{"name":"ŞIHOĞLU KÖYÜ","zip":"05902"},{"name":"TENCİRLİ KÖYÜ","zip":"05902"},{"name":"TEPE ŞARKLI MAH.","zip":"05902"},{"name":"TERZİKÖY KÖYÜ","zip":"05902"},{"name":"YASSIKIŞLA KÖYÜ","zip":"05902"},{"name":"YENİKÖY KÖYÜ","zip":"05902"},{"name":"YEŞİLDERE MAH.","zip":"05902"},{"name":"YEŞİLYURT MAH.","zip":"05902"}]},{"name":"GÜMÜŞHACIKÖY","cityName":null,"quarters":[{"name":"ARPACADEDE MAH.","zip":"05700"},{"name":"ARTIKABAT MAH.","zip":"05700"},{"name":"CAMİKEBİR MAH.","zip":"05700"},{"name":"CUMARA MAH.","zip":"05700"},{"name":"ÇAY MAH.","zip":"05700"},{"name":"HACIYAHYA MAH.","zip":"05700"},{"name":"IRGAT MAH.","zip":"05700"},{"name":"SARAY MAH.","zip":"05700"},{"name":"ŞIHLAR MAH.","zip":"05700"},{"name":"TEKKE MAH.","zip":"05700"},{"name":"YENİCAMİ MAH.","zip":"05700"}]},{"name":"MERKEZKÖYLER","cityName":null,"quarters":[{"name":"AKPINAR KÖYÜ","zip":"05702"},{"name":"ALBAZ DERESİ MAH.","zip":"05702"},{"name":"ALIÇLI ÇUKUR MAH.","zip":"05702"},{"name":"ALÖREN KÖYÜ","zip":"05702"},{"name":"ALÖREN YAYLASI MAH.","zip":"05702"},{"name":"ARMUTALAN MAH.","zip":"05702"},{"name":"AŞAĞI BALIKLI MAH.","zip":"05702"},{"name":"AŞAĞIOVACIK KÖYÜ","zip":"05702"},{"name":"BACAKOĞLU KÖYÜ","zip":"05702"},{"name":"BADEMLİ KÖYÜ","zip":"05702"},{"name":"BALIKLI KÖYÜ","zip":"05702"},{"name":"BALLIK MAH.","zip":"05702"},{"name":"BEDEN KÖYÜ","zip":"05702"},{"name":"BERBEROĞLU MAH.","zip":"05702"},{"name":"BİLALOĞLU MAH.","zip":"05702"},{"name":"CUMAOĞLU KIŞLASI MAH.","zip":"05702"},{"name":"ÇALKÖY KÖYÜ","zip":"05702"},{"name":"ÇAMINBAŞI MAH.","zip":"05702"},{"name":"ÇAT MAH.","zip":"05702"},{"name":"ÇAVUŞKÖY KÖYÜ","zip":"05702"},{"name":"ÇAYANLAR MAH.","zip":"05702"},{"name":"ÇETMİ KÖYÜ","zip":"05702"},{"name":"ÇİFTÇİOĞLU KÖYÜ","zip":"05702"},{"name":"ÇİTLİ KÖYÜ","zip":"05702"},{"name":"ÇÖMEZLER MAH.","zip":"05702"},{"name":"DARÇİNLER KIŞLASI MAH.","zip":"05702"},{"name":"DERBENTOBRUĞU KÖYÜ","zip":"05702"},{"name":"DERE MAH.","zip":"05702"},{"name":"DOLUCA KÖYÜ","zip":"05702"},{"name":"DUMANLI KÖYÜ","zip":"05702"},{"name":"ERENLER MAH.","zip":"05702"},{"name":"ESLEMEZ KÖYÜ","zip":"05702"},{"name":"GÜLLÜCE KÖYÜ","zip":"05702"},{"name":"GÜLTEPE MAH.","zip":"05702"},{"name":"GÜPLÜCE KÖYÜ","zip":"05702"},{"name":"GÜVEMÖZÜ KÖYÜ","zip":"05702"},{"name":"HAYATDERE MAH.","zip":"05702"},{"name":"İMİRLER KÖYÜ","zip":"05702"},{"name":"KAĞNICI KÖYÜ","zip":"05702"},{"name":"KARAALİ KÖYÜ","zip":"05702"},{"name":"KARACAÖREN KÖYÜ","zip":"05702"},{"name":"KARAKAYA KÖYÜ","zip":"05702"},{"name":"KARŞI MAH.","zip":"05702"},{"name":"KEÇİ KÖYÜ","zip":"05702"},{"name":"KELAHMETLER(GÜLLER) MAH.","zip":"05702"},{"name":"KILIÇASLAN KÖYÜ","zip":"05702"},{"name":"KIRCA KÖYÜ","zip":"05702"},{"name":"KIZIK KÖYÜ","zip":"05702"},{"name":"KIZILCA KÖYÜ","zip":"05702"},{"name":"KIZIRCAÖREN MAH.","zip":"05702"},{"name":"KİZİROĞLU KÖYÜ","zip":"05702"},{"name":"KOLTUK KÖYÜ","zip":"05702"},{"name":"KONUKTEPE KÖYÜ","zip":"05702"},{"name":"KORKUT KÖYÜ","zip":"05702"},{"name":"KÖSELER KÖYÜ","zip":"05702"},{"name":"KÖYİÇİ MAH.","zip":"05702"},{"name":"KURTDERESİ MAH.","zip":"05702"},{"name":"KUŞBURNU MAH.","zip":"05702"},{"name":"KUTLUCA KÖYÜ","zip":"05702"},{"name":"KUZALAN KÖYÜ","zip":"05702"},{"name":"MERKEZ MAH.","zip":"05702"},{"name":"MÜRSELLER MAH.","zip":"05702"},{"name":"NİZAMLAR MAH.","zip":"05702"},{"name":"OVABAŞI KÖYÜ","zip":"05702"},{"name":"PUSACAK KÖYÜ","zip":"05702"},{"name":"SALLAR KÖYÜ","zip":"05702"},{"name":"SARAYCIK KÖYÜ","zip":"05702"},{"name":"SARAYÖZÜ KÖYÜ","zip":"05702"},{"name":"SEKÜ KÖYÜ","zip":"05702"},{"name":"SEMERCİOĞLU MAH.","zip":"05702"},{"name":"YAZIYERİ KÖYÜ","zip":"05702"},{"name":"YENİKÖY KÖYÜ","zip":"05702"},{"name":"YONGALIK MAH.","zip":"05702"},{"name":"YUKARI OBRUK MAH.","zip":"05702"}]},{"name":"HAMAMÖZÜ","cityName":null,"quarters":[{"name":"HAMİTKAPLAN MAH.","zip":"05720"},{"name":"KÖPRÜBAŞI MAH.","zip":"05720"},{"name":"SARAY MAH.","zip":"05720"}]},{"name":"MERKEZKÖYLER","cityName":null,"quarters":[{"name":"ALANKÖY KÖYÜ","zip":"05722"},{"name":"ARPADERE KÖYÜ","zip":"05722"},{"name":"AYCALAR MAH.","zip":"05722"},{"name":"ÇAYKÖY KÖYÜ","zip":"05722"},{"name":"DAMLADERE KÖYÜ","zip":"05722"},{"name":"DEDEKÖY KÖYÜ","zip":"05722"},{"name":"GÖÇERİ KÖYÜ","zip":"05722"},{"name":"GÖLKÖY KÖYÜ","zip":"05722"},{"name":"HIDIRLAR KÖYÜ","zip":"05722"},{"name":"KARADERE MAH.","zip":"05722"},{"name":"KIZILCAÖREN KÖYÜ","zip":"05722"},{"name":"MAĞARAOBRUĞU KÖYÜ","zip":"05722"},{"name":"MERKEZ MAH.","zip":"05722"},{"name":"ORTA MAH.","zip":"05722"},{"name":"SARAÇLAR MAH.","zip":"05722"},{"name":"SARAYÖZÜ KÖYÜ","zip":"05722"},{"name":"TEKÇAM KÖYÜ","zip":"05722"},{"name":"TEPEKÖY KÖYÜ","zip":"05722"},{"name":"TUTKUNLAR KÖYÜ","zip":"05722"},{"name":"UMARCA KÖYÜ","zip":"05722"},{"name":"YAYLA MAH.","zip":"05722"},{"name":"YEMİŞEN KÖYÜ","zip":"05722"},{"name":"YUKARIOVACIK KÖYÜ","zip":"05722"}]},{"name":"DEREBOYU","cityName":null,"quarters":[{"name":"BEYAZITPAŞA MAH.","zip":"05200"},{"name":"ELLİBEŞEVLER MAH.","zip":"05200"},{"name":"GÖLLÜ BAĞLARI MAH.","zip":"05200"},{"name":"GÜMÜŞLÜ MAH.","zip":"05200"},{"name":"İHSANİYE MAH.","zip":"05200"},{"name":"KİRAZLIDERE MAH.","zip":"05200"},{"name":"MEHMET PAŞA MAH.","zip":"05200"},{"name":"NERGİZ MAH.","zip":"05200"},{"name":"PİRİNÇÇİ MAH.","zip":"05200"},{"name":"SAVADİYE MAH.","zip":"05200"},{"name":"SOFULAR MAH.","zip":"05200"},{"name":"ŞAMLAR MAH.","zip":"05200"},{"name":"YAZI BAĞLARI MAH.","zip":"05200"}]},{"name":"GENERALHİKMETAKINCI","cityName":null,"quarters":null},{"name":"GÖKMEDRESE","cityName":null,"quarters":[{"name":"BOĞAZKÖY MAH.","zip":"05100"},{"name":"ÇAKALLAR MAH.","zip":"05100"},{"name":"DEMET EVLER MAH.","zip":"05100"},{"name":"DERE MAH.","zip":"05100"},{"name":"FETHİYE MAH.","zip":"05100"},{"name":"FINDIKLI MAH.","zip":"05100"},{"name":"GÖKMEDRESE MAH.","zip":"05100"},{"name":"HACI İLYAS MAH.","zip":"05100"},{"name":"HACILAR MEYDANI MAH.","zip":"05100"},{"name":"HATUNİYE MAH.","zip":"05100"},{"name":"HELVACI MAH.","zip":"05100"},{"name":"HIZIRPAŞA MAH.","zip":"05100"},{"name":"KOZA MAH.","zip":"05100"},{"name":"KURŞUNLU MAH.","zip":"05100"},{"name":"ORMAN BAĞLARI MAH.","zip":"05100"},{"name":"SARILAR MAH.","zip":"05100"},{"name":"ŞEHİRÜSTÜ MAH.","zip":"05100"},{"name":"ŞEYHCUİ MAH.","zip":"05100"},{"name":"ÜÇLER MAH.","zip":"05100"},{"name":"YEŞİLYENİCE MAH.","zip":"05100"},{"name":"YÜZEVLER MAH.","zip":"05100"}]},{"name":"MERKEZKÖYLER","cityName":null,"quarters":[{"name":"AĞILLAR MAH.","zip":"05220"},{"name":"AHMET KOLTUĞU MAH.","zip":"05220"},{"name":"AKSALUR KÖYÜ","zip":"05220"},{"name":"AKTAŞ KÖYÜ","zip":"05220"},{"name":"AKYAZI KÖYÜ","zip":"05220"},{"name":"ALAKADI KÖYÜ","zip":"05220"},{"name":"ALAN MAH.","zip":"05220"},{"name":"ALAŞIK MAH.","zip":"05220"},{"name":"ALBAYRAK KÖYÜ","zip":"05220"},{"name":"ARDIÇLAR KÖYÜ","zip":"05220"},{"name":"AŞAĞI MAH.","zip":"05220"},{"name":"ATATÜRK MAH.","zip":"05220"},{"name":"AVŞAR KÖYÜ","zip":"05220"},{"name":"AYDINCA KÖYÜ","zip":"05220"},{"name":"AYDINLIK KÖYÜ","zip":"05220"},{"name":"AYDOĞDU KÖYÜ","zip":"05220"},{"name":"BAĞLARÜSTÜ KÖYÜ","zip":"05220"},{"name":"BAĞLICA KÖYÜ","zip":"05220"},{"name":"BAĞLICA MÜCAVİR MAH.","zip":"05220"},{"name":"BAĞLICAOSB MAH.","zip":"05220"},{"name":"BAHÇELERALTI MAH.","zip":"05220"},{"name":"BAYAT KÖYÜ","zip":"05220"},{"name":"BEKE KÖYÜ","zip":"05220"},{"name":"BELDAĞI KÖYÜ","zip":"05220"},{"name":"BELMEBÜK MAH.","zip":"05220"},{"name":"BOĞAKÖY KÖYÜ","zip":"05220"},{"name":"BÖKE KÖYÜ","zip":"05220"},{"name":"BULDUKLU KÖYÜ","zip":"05220"},{"name":"BÜYÜKKIZILCA KÖYÜ","zip":"05220"},{"name":"ÇANAKLI MAH.","zip":"05220"},{"name":"ÇATALÇAM KÖYÜ","zip":"05220"},{"name":"ÇAVUŞ KÖYÜ","zip":"05220"},{"name":"ÇAY KÖYÜ MAH.","zip":"05220"},{"name":"ÇAYDERE MAH.","zip":"05220"},{"name":"ÇENGEL MAH.","zip":"05220"},{"name":"ÇENGELKAYI KÖYÜ","zip":"05220"},{"name":"ÇITIRIN ÇÖRDÜK MAH.","zip":"05220"},{"name":"ÇİĞDEMLİK KÖYÜ","zip":"05220"},{"name":"ÇİVİ KÖYÜ","zip":"05220"},{"name":"DADI KÖYÜ","zip":"05220"},{"name":"DAMUDERE KÖYÜ","zip":"05220"},{"name":"DEĞİRMENDERE KÖYÜ","zip":"05220"},{"name":"DİKMENARDI MAH.","zip":"05220"},{"name":"DİKYOL MAH.","zip":"05220"},{"name":"DİREKLİ KÖYÜ","zip":"05220"},{"name":"DİRGEN MAH.","zip":"05220"},{"name":"DOĞANTEPE KÖYÜ","zip":"05220"},{"name":"DURUCA KÖYÜ","zip":"05220"},{"name":"ELİKTEKKE KÖYÜ","zip":"05220"},{"name":"ERİKLİ MAH.","zip":"05220"},{"name":"ERKONAŞ MAH.","zip":"05220"},{"name":"ERMİŞ KÖYÜ","zip":"05220"},{"name":"ESKİ ARDIÇLAR MAH.","zip":"05220"},{"name":"ESKİKIZILCA KÖYÜ","zip":"05220"},{"name":"EZİNEPAZAR KÖYÜ","zip":"05220"},{"name":"FINDIKLI MAH.","zip":"05220"},{"name":"FİLİNGİRLER MAH.","zip":"05220"},{"name":"GERNE KÖYÜ","zip":"05220"},{"name":"GEYGELER MAH.","zip":"05220"},{"name":"GÖKDERE KÖYÜ","zip":"05220"},{"name":"GÖKHÖYÜK MAH.","zip":"05220"},{"name":"GÖLÖNÜ MAH.","zip":"05220"},{"name":"GÖZLEK KÖYÜ","zip":"05220"},{"name":"GÖZLEK MÜCAVİR MAH.","zip":"05220"},{"name":"HALİFELİ KÖYÜ","zip":"05220"},{"name":"HAMDİ APAYDIN ÇİFLİĞİ MAH.","zip":"05220"},{"name":"HAN MAH.","zip":"05220"},{"name":"HASABDAL KÖYÜ","zip":"05220"},{"name":"HATUN PINARI MAH.","zip":"05220"},{"name":"İBECİK KÖYÜ","zip":"05220"},{"name":"İBONUN AĞIL MAH.","zip":"05220"},{"name":"İLGAZİ KÖYÜ","zip":"05220"},{"name":"İLYAS KÖYÜ","zip":"05220"},{"name":"İNÖNÜ MAH.","zip":"05220"},{"name":"İPEKKÖY KÖYÜ","zip":"05220"},{"name":"İSTASYON MAH.","zip":"05220"},{"name":"KABAARDIÇ MAH.","zip":"05220"},{"name":"KADİRGİLİN AĞIL MAH.","zip":"05220"},{"name":"KALEBOĞAZI KÖYÜ","zip":"05220"},{"name":"KALEKÖY KÖYÜ","zip":"05220"},{"name":"KAPIKAYA KÖYÜ","zip":"05220"},{"name":"KAPIKAYA MÜCAVİR MAH.","zip":"05220"},{"name":"KARAALİ KÖYÜ","zip":"05220"},{"name":"KARAÇALILIK MAH.","zip":"05220"},{"name":"KARAÇAVUŞ KÖYÜ","zip":"05220"},{"name":"KARADUT MAH.","zip":"05220"},{"name":"KARAİBRAHİM KÖYÜ","zip":"05220"},{"name":"KARAKAYA MAH.","zip":"05220"},{"name":"KARAKESE KÖYÜ","zip":"05220"},{"name":"KARAKÖPRÜ KÖYÜ","zip":"05220"},{"name":"KARASU MAH.","zip":"05220"},{"name":"KARATAŞ KÖYÜ","zip":"05220"},{"name":"KARSAN KÖYÜ","zip":"05220"},{"name":"KARŞIYAKA MAH.","zip":"05220"},{"name":"KAŞKA MAH.","zip":"05220"},{"name":"KAVAKLIAĞIL MAH.","zip":"05220"},{"name":"KAVALAN ÇAYI MAH.","zip":"05220"},{"name":"KAYABAŞI KÖYÜ","zip":"05220"},{"name":"KAYACIK KÖYÜ","zip":"05220"},{"name":"KAYADİBİ MAH.","zip":"05220"},{"name":"KAYRAK KÖYÜ","zip":"05220"},{"name":"KAZANASMAZ MAH.","zip":"05220"},{"name":"KEÇİLİ KÖYÜ","zip":"05220"},{"name":"KELTİR MAH.","zip":"05220"},{"name":"KEŞLİK KÖYÜ","zip":"05220"},{"name":"KIZILKIŞLACIK KÖYÜ","zip":"05220"},{"name":"KIZOĞLU KÖYÜ","zip":"05220"},{"name":"KIZSEKİ KÖYÜ","zip":"05220"},{"name":"KİRAZPINARI MAH.","zip":"05220"},{"name":"KOÇALAN MAH.","zip":"05220"},{"name":"KÖPRÜBAŞI MAH.","zip":"05220"},{"name":"KÖYCEĞİZ KÖYÜ","zip":"05220"},{"name":"KURBAN ARMUDU MAH.","zip":"05220"},{"name":"KUTU KÖYÜ","zip":"05220"},{"name":"KUZGEÇE KÖYÜ","zip":"05220"},{"name":"KÜÇÜK SANAYİ SİTESİ MAH.","zip":"05220"},{"name":"KÜÇÜKKIZILCA KÖYÜ","zip":"05220"},{"name":"MAHMATLAR KÖYÜ","zip":"05220"},{"name":"MELİKYURDU MAH.","zip":"05220"},{"name":"MERKEZ MAH.","zip":"05220"},{"name":"MEŞELİÇİFTLİĞİ KÖYÜ","zip":"05220"},{"name":"MUSAKÖY KÖYÜ","zip":"05220"},{"name":"NOHUTLUK MAH.","zip":"05220"},{"name":"OBA ÖNÜ MAH.","zip":"05220"},{"name":"OLUZ KÖYÜ","zip":"05220"},{"name":"ORMANÖZÜ KÖYÜ","zip":"05220"},{"name":"ORTAKÖY KÖYÜ","zip":"05220"},{"name":"OVA MAH.","zip":"05220"},{"name":"OVASARAY KÖYÜ","zip":"05220"},{"name":"ÖZFINDIKLI KÖYÜ","zip":"05220"},{"name":"PAMUKLU MAH.","zip":"05220"},{"name":"S MAH.","zip":"05220"},{"name":"SALAMUT MAH.","zip":"05220"},{"name":"SARAYCIK KÖYÜ","zip":"05220"},{"name":"SARAYCIK MAH.","zip":"05220"},{"name":"SARAYÖZÜ KÖYÜ","zip":"05220"},{"name":"SARIALAN KÖYÜ","zip":"05220"},{"name":"SARIKIZ KÖYÜ","zip":"05220"},{"name":"SARIMEŞE KÖYÜ","zip":"05220"},{"name":"SARIYAR KÖYÜ","zip":"05220"},{"name":"SAZKÖY KÖYÜ","zip":"05220"},{"name":"SEVİNCER KÖYÜ","zip":"05220"},{"name":"SIRACEVİZLER KÖYÜ","zip":"05220"},{"name":"SOMA KÖYÜ","zip":"05220"},{"name":"SULAKBAŞI MAH.","zip":"05220"},{"name":"ŞEYHSADİ KÖYÜ","zip":"05220"},{"name":"TARTIŞIK MAH.","zip":"05220"},{"name":"TATAR KÖYÜ","zip":"05220"},{"name":"TERZİKÖY\/KAPLICA MAH.","zip":"05220"},{"name":"TUZSUZ KÖYÜ","zip":"05220"},{"name":"UYGUR KÖYÜ","zip":"05220"},{"name":"ÜMÜK KÖYÜ","zip":"05220"},{"name":"YAĞCIABDAL KÖYÜ","zip":"05220"},{"name":"YAĞMUR KÖYÜ","zip":"05220"},{"name":"YAĞMUR MÜCAVİR MAH.","zip":"05220"},{"name":"YASSIÇAL KÖYÜ","zip":"05220"},{"name":"YAVRU KÖYÜ","zip":"05220"},{"name":"YENİ MAH.","zip":"05220"},{"name":"YEŞİLDERE KÖYÜ","zip":"05220"},{"name":"YEŞİLÖZ KÖYÜ","zip":"05220"},{"name":"YIKILGAN KÖYÜ","zip":"05220"},{"name":"YILDIZKÖY KÖYÜ","zip":"05220"},{"name":"YILDIZKÖY MÜCAVİR MAH.","zip":"05220"},{"name":"YOLYANI KÖYÜ","zip":"05220"},{"name":"YOLYANI MAH.","zip":"05220"},{"name":"YUKARI KAYRAK MAH.","zip":"05220"},{"name":"YUKARI KIZSEKİ MAH.","zip":"05220"},{"name":"YUKARI MAH.","zip":"05220"},{"name":"YUVACIK KÖYÜ","zip":"05220"},{"name":"YUVAKÖY KÖYÜ","zip":"05220"},{"name":"ZİYARET KÖYÜ","zip":"05220"},{"name":"AFET EVLERİ MAH.","zip":"05302"},{"name":"AKÖREN KÖYÜ","zip":"05302"},{"name":"AKPINAR KÖYÜ","zip":"05302"},{"name":"AKSUNGUR KÖYÜ","zip":"05302"},{"name":"AKTARLA KÖYÜ","zip":"05302"},{"name":"ALICIK KÖYÜ","zip":"05302"},{"name":"ALIŞAR KÖYÜ","zip":"05302"},{"name":"AŞAĞIBÜK KÖYÜ","zip":"05302"},{"name":"BAĞALTI MAH.","zip":"05302"},{"name":"BAĞLAR MAH.","zip":"05302"},{"name":"BAHÇECİK KÖYÜ","zip":"05302"},{"name":"BAHÇECİK MAH.","zip":"05302"},{"name":"BAHÇECİK MÜCAVİR MAH.","zip":"05302"},{"name":"BALGÖZE KÖYÜ","zip":"05302"},{"name":"BAYAT KÖYÜ","zip":"05302"},{"name":"BAYAZIT KÖYÜ","zip":"05302"},{"name":"BEKÇİ TEPESİ MAH.","zip":"05302"},{"name":"BULAK KÖYÜ","zip":"05302"},{"name":"BÜKLÜCE MAH.","zip":"05302"},{"name":"BÜYÜKÇAY KÖYÜ","zip":"05302"},{"name":"ÇAMLICA KÖYÜ","zip":"05302"},{"name":"ÇAVUNDUR KÖYÜ","zip":"05302"},{"name":"ÇAYBAŞI KÖYÜ","zip":"05302"},{"name":"ÇAYIR KÖYÜ","zip":"05302"},{"name":"ÇAYIRÖZÜ KÖYÜ","zip":"05302"},{"name":"ÇAYIRÖZÜ MAH.","zip":"05302"},{"name":"ÇOBANÖREN KÖYÜ","zip":"05302"},{"name":"ÇORAK MAH.","zip":"05302"},{"name":"DEĞİRMENYOLU MAH.","zip":"05302"},{"name":"DEMİRPINAR KÖYÜ","zip":"05302"},{"name":"DEREALAN KÖYÜ","zip":"05302"},{"name":"DİPHACI KÖYÜ","zip":"05302"},{"name":"ELMAYOLU KÖYÜ","zip":"05302"},{"name":"ESENTEPE KÖYÜ","zip":"05302"},{"name":"EYMİR KÖYÜ","zip":"05302"},{"name":"GELİNSİNİ KÖYÜ","zip":"05302"},{"name":"GÖKÇEBAĞ KÖYÜ","zip":"05302"},{"name":"GÖKÇEBAĞ MAH.","zip":"05302"},{"name":"GÖKÇEBAĞ MÜCAVİR MAH.","zip":"05302"},{"name":"GÜMÜŞTEPE KÖYÜ","zip":"05302"},{"name":"HACET KÖYÜ","zip":"05302"},{"name":"HACIYAKUP KÖYÜ","zip":"05302"},{"name":"HAN KÖYÜ","zip":"05302"},{"name":"HAN MAH.","zip":"05302"},{"name":"HAYRETTİN KÖYÜ","zip":"05302"},{"name":"HIRKA KÖYÖNÜ MAH.","zip":"05302"},{"name":"HIRKA KÖYÜ","zip":"05302"},{"name":"IRMAKBAŞI MAH.","zip":"05302"},{"name":"IŞIKLAR MAH.","zip":"05302"},{"name":"İLEMİ ÇAYIRI MAH.","zip":"05302"},{"name":"İNALANI KÖYÜ","zip":"05302"},{"name":"İNCECİK MAH.","zip":"05302"},{"name":"KALBURCU MAH.","zip":"05302"},{"name":"KAMIŞLI KÖYÜ","zip":"05302"},{"name":"KARACAKAYA KÖYÜ","zip":"05302"},{"name":"KARAKAYA MAH.","zip":"05302"},{"name":"KARAMAĞARA KÖYÜ","zip":"05302"},{"name":"KARAMUSTAFAPAŞA KÖYÜ","zip":"05302"},{"name":"KARAOĞLAN ÇUKURU MAH.","zip":"05302"},{"name":"KARATEPE KÖYÜ","zip":"05302"},{"name":"KARŞIYAKA KÖYÜ","zip":"05302"},{"name":"KAYADÜZÜ KÖYÜ","zip":"05302"},{"name":"KIREYMİR KÖYÜ","zip":"05302"},{"name":"KIZILEĞREK KÖYÜ","zip":"05302"},{"name":"KOÇ KÖYÜ","zip":"05302"},{"name":"KÖYALTI MAH.","zip":"05302"},{"name":"KUYU KÖYÜ","zip":"05302"},{"name":"KÜÇÜKÇAY KÖYÜ","zip":"05302"},{"name":"MAHMUTLU KÖYÜ","zip":"05302"},{"name":"MAHSENLİ MAH.","zip":"05302"},{"name":"MERKEZ MAH.","zip":"05302"},{"name":"MUŞRUF KÖYÜ","zip":"05302"},{"name":"OLUÇGAZİ MAH.","zip":"05302"},{"name":"ORTABÜK KÖYÜ","zip":"05302"},{"name":"ORTAOVA KÖYÜ","zip":"05302"},{"name":"OSMANOĞLU KÖYÜ","zip":"05302"},{"name":"OYMAAĞAÇ KÖYÜ","zip":"05302"},{"name":"OYMAK KÖYÜ","zip":"05302"},{"name":"ÖREN MAH.","zip":"05302"},{"name":"PEKMEZCİ KÖYÜ","zip":"05302"},{"name":"SARAYCIK KÖYÜ","zip":"05302"},{"name":"SARI KÖYÖNÜ MAH.","zip":"05302"},{"name":"SARI KÖYÜ","zip":"05302"},{"name":"SARI MÜCAVİR MAH.","zip":"05302"},{"name":"SARIBUĞDAY KÖYÜ","zip":"05302"},{"name":"SAZLICA KÖYÜ","zip":"05302"},{"name":"SELİMİYE KÖYÜ","zip":"05302"},{"name":"ŞEHİRKIRI MAH.","zip":"05302"},{"name":"ŞEYHYENİ KÖYÜ","zip":"05302"},{"name":"ŞEYHYENİ KÖYÜSTÜ MAH.","zip":"05302"},{"name":"ŞEYHYENİ MAH.","zip":"05302"},{"name":"TELLİOĞLU MAH.","zip":"05302"},{"name":"TEPEARDI MAH.","zip":"05302"},{"name":"TUTMAÇ MAH.","zip":"05302"},{"name":"TÜRKOĞLU KÖYÜ","zip":"05302"},{"name":"UZUNYAZI KÖYÜ","zip":"05302"},{"name":"UZUNYAZI MAH.","zip":"05302"},{"name":"YAKACIK KÖYÜSTÜ MAH.","zip":"05302"},{"name":"YAKACIK MÜCAVİR MAH.","zip":"05302"},{"name":"YAKUP KÖYÜ","zip":"05302"},{"name":"YALNIZ KÖYÜ","zip":"05302"},{"name":"YASSIÖREN MAH.","zip":"05302"},{"name":"YAYLACIK KÖYÜ","zip":"05302"},{"name":"YENİCE KÖYÜ","zip":"05302"},{"name":"YENİÇELTEK MAH.","zip":"05302"},{"name":"YEŞİLÖREN KÖYÜ","zip":"05302"},{"name":"YEŞİLTEPE KÖYÜ","zip":"05302"},{"name":"YEŞİLYURT MAH.","zip":"05302"},{"name":"YOLARASI MAH.","zip":"05302"},{"name":"YOLÜSTÜ KÖYÖNÜ MAH.","zip":"05302"},{"name":"YOLÜSTÜ KÖYÜ","zip":"05302"},{"name":"YUKARI MAH.","zip":"05302"},{"name":"YUKARIBÜK KÖYÜ","zip":"05302"}]},{"name":"MERZİFON","cityName":null,"quarters":[{"name":"BAĞLARBAŞI MAH.","zip":"05300"},{"name":"BAHÇELİEVLER MAH.","zip":"05300"},{"name":"BUĞDAYLI MAH.","zip":"05300"},{"name":"CAMİCEDİT MAH.","zip":"05300"},{"name":"ESKİ CAMİİ MAH.","zip":"05300"},{"name":"GAZİMAHBUP MAH.","zip":"05300"},{"name":"HACIBALI MAH.","zip":"05300"},{"name":"HACIHASAN MAH.","zip":"05300"},{"name":"HARMANLAR MAH.","zip":"05300"},{"name":"HOCASÜLEYMAN MAH.","zip":"05300"},{"name":"KÜMBET HATUN MAH.","zip":"05300"},{"name":"KÜMBETHATUNOSB MAH.","zip":"05300"},{"name":"MAHSEN MAH.","zip":"05300"},{"name":"MEHMET AKİF ERSOY MAH.","zip":"05300"},{"name":"NACCAR MAH.","zip":"05300"},{"name":"NUSRATİYE MAH.","zip":"05300"},{"name":"SOFULAR MAH.","zip":"05300"},{"name":"TAVŞAN MAH.","zip":"05300"},{"name":"YENİ MAH.","zip":"05300"},{"name":"YUNUS EMRE MAH.","zip":"05300"}]},{"name":"MERKEZKÖYLER","cityName":null,"quarters":[{"name":"AKÖREN KÖYÜ","zip":"05502"},{"name":"ALABEDİR KÖYÜ","zip":"05502"},{"name":"ARMUTLU KÖYÜ","zip":"05502"},{"name":"ARUCAK KÖYÜ","zip":"05502"},{"name":"AŞAĞIKARASU KÖYÜ","zip":"05502"},{"name":"AYDERESİ MAH.","zip":"05502"},{"name":"AYRANCI KÖYÜ","zip":"05502"},{"name":"BAYIRLI KÖYÜ","zip":"05502"},{"name":"BESİ OSB MAH.","zip":"05502"},{"name":"BİNGÜŞ MAH.","zip":"05502"},{"name":"BOYALI KÖYÜ","zip":"05502"},{"name":"CÜRLÜ KÖYÜ","zip":"05502"},{"name":"ÇAYÜSTÜ KÖYÜ","zip":"05502"},{"name":"ÇİFTLİK MAH.","zip":"05502"},{"name":"ÇUKURÖREN KÖYÜ","zip":"05502"},{"name":"DERE AĞILI MEZRASI MAH.","zip":"05502"},{"name":"DERE KÖYÜ","zip":"05502"},{"name":"DEREBAŞALAN KÖYÜ","zip":"05502"},{"name":"DEVECİ KÖYÜ","zip":"05502"},{"name":"EĞRİBÜK KÖYÜ","zip":"05502"},{"name":"ERİKLİ MAH.","zip":"05502"},{"name":"HARMANAĞILI KÖYÜ","zip":"05502"},{"name":"HASAN EMMİ ÇİFTLİGİ MAH.","zip":"05502"},{"name":"KANATPINAR KÖYÜ","zip":"05502"},{"name":"KAPANCI AĞILI KÖYÜ","zip":"05502"},{"name":"KARAAĞAÇ KÖYÜ","zip":"05502"},{"name":"KAVGALI MAH.","zip":"05502"},{"name":"KAZANLI KÖYÜ","zip":"05502"},{"name":"KAZANLI ORGANİZE SANAYİ BÖLGESİ MAH.","zip":"05502"},{"name":"KERİMOĞLU KÖYÜ","zip":"05502"},{"name":"KILIÇASLAN KÖYÜ","zip":"05502"},{"name":"KIRANBAŞALAN KÖYÜ","zip":"05502"},{"name":"KOLAY KÖYÜ","zip":"05502"},{"name":"KULU KÖYÜ","zip":"05502"},{"name":"KURNAZ KÖYÜ","zip":"05502"},{"name":"KUTLU KÖYÜ","zip":"05502"},{"name":"KUZALAN KÖYÜ","zip":"05502"},{"name":"KÜPELİ KÖYÜ","zip":"05502"},{"name":"MAHMUT DEMİR ÇİFTLİĞİ MAH.","zip":"05502"},{"name":"MERKEZ MAH.","zip":"05502"},{"name":"OĞULBAĞI KÖYÜ","zip":"05502"},{"name":"ORTAYAZI KÖYÜ","zip":"05502"},{"name":"ÖZALAKADI KÖYÜ","zip":"05502"},{"name":"SALUCU KÖYÜ","zip":"05502"},{"name":"SAYGILI KÖYÜ","zip":"05502"},{"name":"SEYFE KÖYÜ","zip":"05502"},{"name":"SOKU KÖYÜ","zip":"05502"},{"name":"UZUNOBA KÖYÜ","zip":"05502"},{"name":"YOLPINAR KÖYÜ","zip":"05502"},{"name":"YÜZBEYİ KÖYÜ","zip":"05502"}]},{"name":"SULUOVA","cityName":null,"quarters":[{"name":"BEYAZIT MAH.","zip":"05500"},{"name":"BİR EYLÜL MAH.","zip":"05500"},{"name":"BORSA MAH.","zip":"05500"},{"name":"CEVİZDİBİ MAH.","zip":"05500"},{"name":"CUMHURİYET MAH.","zip":"05500"},{"name":"ÇELTEKMADENİ MAH.","zip":"05500"},{"name":"ERASLAN KÖYÜ","zip":"05500"},{"name":"EYMİR MAH.","zip":"05500"},{"name":"FATİH MAH.","zip":"05500"},{"name":"GİRNE MAH.","zip":"05500"},{"name":"HACIBAYRAM MAH.","zip":"05500"},{"name":"HACIHAYTA MAH.","zip":"05500"},{"name":"HARMANLAR MAH.","zip":"05500"},{"name":"HÜRRİYET MAH.","zip":"05500"},{"name":"MAARİF MAH.","zip":"05500"},{"name":"MAGOSA MAH.","zip":"05500"},{"name":"ORTA MAH.","zip":"05500"},{"name":"PAZAR MAH.","zip":"05500"},{"name":"SARAYDÜZÜ MAH.","zip":"05500"},{"name":"ŞEKER MAH.","zip":"05500"},{"name":"ULUÇINAR MAH.","zip":"05500"},{"name":"YENİ MAH.","zip":"05500"},{"name":"YENİDOĞAN MAH.","zip":"05500"}]},{"name":"MERKEZKÖYLER","cityName":null,"quarters":[{"name":"AKKİŞİLER MAH.","zip":"05802"},{"name":"AKPINAR MAH.","zip":"05802"},{"name":"ALAN MAH.","zip":"05802"},{"name":"ALÇAKBEL KÖYÜ","zip":"05802"},{"name":"ALPASLAN KÖYÜ","zip":"05802"},{"name":"ALTINLI KÖYÜ","zip":"05802"},{"name":"ANDIRAN KÖYÜ","zip":"05802"},{"name":"ARDIÇÖNÜ KÖYÜ","zip":"05802"},{"name":"ARPADERESİ KÖYÜ","zip":"05802"},{"name":"AŞAĞI GÖKDERE MAH.","zip":"05802"},{"name":"AŞAĞI MAH.","zip":"05802"},{"name":"AYDINLAR MAH.","zip":"05802"},{"name":"AYDINYERİ MAH.","zip":"05802"},{"name":"BABAGERİŞ MAH.","zip":"05802"},{"name":"BAHÇECİK MAH.","zip":"05802"},{"name":"BAHÇELİEVLER MAH.","zip":"05802"},{"name":"BAKIRPINAR MAH.","zip":"05802"},{"name":"BALLICA KÖYÜ","zip":"05802"},{"name":"BALLICA MAH.","zip":"05802"},{"name":"BARCIN MAH.","zip":"05802"},{"name":"BELEVİ KÖYÜ","zip":"05802"},{"name":"BEYALAN MAH.","zip":"05802"},{"name":"BORABOY KÖYÜ","zip":"05802"},{"name":"CUMHURİYET MAH.","zip":"05802"},{"name":"ÇAĞLAYAN MAH.","zip":"05802"},{"name":"ÇAKILCIK MAH.","zip":"05802"},{"name":"ÇAKIRSU KÖYÜ","zip":"05802"},{"name":"ÇALKAYA KÖYÜ","zip":"05802"},{"name":"ÇAMBÜKÜ KÖYÜ","zip":"05802"},{"name":"ÇAYDİBİ KÖYÜ","zip":"05802"},{"name":"ÇELİKDERE MAH.","zip":"05802"},{"name":"ÇERKEZLER MAH.","zip":"05802"},{"name":"ÇERMİK MAH.","zip":"05802"},{"name":"ÇILKIDIR KÖYÜ","zip":"05802"},{"name":"ÇINGILIK MAH.","zip":"05802"},{"name":"ÇİFTLİK MAH.","zip":"05802"},{"name":"ÇORAK MAH.","zip":"05802"},{"name":"ÇÖKÜYANI MAH.","zip":"05802"},{"name":"DAZLI MAH.","zip":"05802"},{"name":"DERE MAH.","zip":"05802"},{"name":"DEREKÖY KÖYÜ","zip":"05802"},{"name":"DERELİ KÖYÜ","zip":"05802"},{"name":"DERELİ MAH.","zip":"05802"},{"name":"DESTEK KÖYÜ","zip":"05802"},{"name":"DEVRE KÖYÜ","zip":"05802"},{"name":"DOĞA YERİ MAH.","zip":"05802"},{"name":"DOĞAN ÇUKURU MAH.","zip":"05802"},{"name":"DOĞANŞAH MAH.","zip":"05802"},{"name":"DÖLLÜK MAH.","zip":"05802"},{"name":"DÖNERTAŞ MAH.","zip":"05802"},{"name":"DÖRTYOL KÖYÜ","zip":"05802"},{"name":"DURUCASU KÖYÜ","zip":"05802"},{"name":"DUTLUK KÖYÜ","zip":"05802"},{"name":"EBECE MAH.","zip":"05802"},{"name":"ELMAKIRI KÖYÜ","zip":"05802"},{"name":"ELMALIK MAH.","zip":"05802"},{"name":"ERBEĞENDİ MAH.","zip":"05802"},{"name":"ERGÜNEŞ MAH.","zip":"05802"},{"name":"ESENÇAY KÖYÜ","zip":"05802"},{"name":"ESKİKÖY MAH.","zip":"05802"},{"name":"ESKİORUSU MAH.","zip":"05802"},{"name":"FADARA MAH.","zip":"05802"},{"name":"FEVZİOĞLU MAH.","zip":"05802"},{"name":"FINDICAK MAH.","zip":"05802"},{"name":"GELEMİÇ MAH.","zip":"05802"},{"name":"GEMİBÜKÜ KÖYÜ","zip":"05802"},{"name":"GERİŞ MAH.","zip":"05802"},{"name":"GEYDOĞAN KÖYÜ","zip":"05802"},{"name":"GÖKPINAR KÖYÜ","zip":"05802"},{"name":"GÜCÜKGERİŞ MAH.","zip":"05802"},{"name":"GÜNGÖRMÜŞ KÖYÜ","zip":"05802"},{"name":"GÜRSU KÖYÜ","zip":"05802"},{"name":"GÜVENCEALAN MAH.","zip":"05802"},{"name":"GÜVENDİK KÖYÜ","zip":"05802"},{"name":"HACI İMAM DERE MAH.","zip":"05802"},{"name":"HACIBEYKÖYÜ KÖYÜ","zip":"05802"},{"name":"HACIGERİŞ MAH.","zip":"05802"},{"name":"HASANAĞA DERESİ MAH.","zip":"05802"},{"name":"HAYDARAĞA MAH.","zip":"05802"},{"name":"HÜSNÜOĞLU KÖYÜ","zip":"05802"},{"name":"ILICA KÖYÜ","zip":"05802"},{"name":"ILIPINAR KÖYÜ","zip":"05802"},{"name":"İBAKLAR MAH.","zip":"05802"},{"name":"İKİPÖĞRE MAH.","zip":"05802"},{"name":"İKİSAMANLIK MAH.","zip":"05802"},{"name":"İSMET PAŞA MAH.","zip":"05802"},{"name":"KADILAR MAH.","zip":"05802"},{"name":"KARAAĞAÇ MAH.","zip":"05802"},{"name":"KARABÜK KÖYÜ","zip":"05802"},{"name":"KARAÇUKUR MAH.","zip":"05802"},{"name":"KARADÜZ MAH.","zip":"05802"},{"name":"KARAMUK KÖYÜ","zip":"05802"},{"name":"KARAMUK MAH.","zip":"05802"},{"name":"KARLIK DERE MAH.","zip":"05802"},{"name":"KARLIK KÖYÜ","zip":"05802"},{"name":"KARSAVUL KÖYÜ","zip":"05802"},{"name":"KATIRALAN MAH.","zip":"05802"},{"name":"KAVALOLUĞU KÖYÜ","zip":"05802"},{"name":"KEMALPAŞA MAH.","zip":"05802"},{"name":"KINIK MAH.","zip":"05802"},{"name":"KIRDAĞIN MAH.","zip":"05802"},{"name":"KIRIK ÇUKURU MAH.","zip":"05802"},{"name":"KIRKHARMAN KÖYÜ","zip":"05802"},{"name":"KIZGÜLDÜREN KÖYÜ","zip":"05802"},{"name":"KIZILAĞAÇ MAH.","zip":"05802"},{"name":"KIZILCI ALAN MAH.","zip":"05802"},{"name":"KOCALAN MAH.","zip":"05802"},{"name":"KORUBAŞI KÖYÜ","zip":"05802"},{"name":"KOZALAN MAH.","zip":"05802"},{"name":"KOZLUCA KÖYÜ","zip":"05802"},{"name":"KÖSELİ MAH.","zip":"05802"},{"name":"KUMLUCA KÖYÜ","zip":"05802"},{"name":"KUZ MAH.","zip":"05802"},{"name":"KUZKIŞLA MAH.","zip":"05802"},{"name":"LEĞENKAYA MAH.","zip":"05802"},{"name":"MERCİMEKKÖY KÖYÜ","zip":"05802"},{"name":"MERKEZ MAH.","zip":"05802"},{"name":"MEŞELİ MAH.","zip":"05802"},{"name":"MEYMAŞLAR MAH.","zip":"05802"},{"name":"MÜLKBÜKÜ KÖYÜ","zip":"05802"},{"name":"NİZAMLAR MAH.","zip":"05802"},{"name":"NURETTİN BEY MAH.","zip":"05802"},{"name":"ORUÇGAZİ MAH.","zip":"05802"},{"name":"OSMANLI MAH.","zip":"05802"},{"name":"ÖZBARAKLI KÖYÜ","zip":"05802"},{"name":"SAKARAT MAH.","zip":"05802"},{"name":"SAKIZLIK ARSASI MAH.","zip":"05802"},{"name":"SELÇUKLU MAH.","zip":"05802"},{"name":"SEPETLİ KÖYÜ","zip":"05802"},{"name":"SERÇELER MAH.","zip":"05802"},{"name":"SITMA PINARI MAH.","zip":"05802"},{"name":"SİNAN PAŞA MAH.","zip":"05802"},{"name":"SOFUALAN KÖYÜ","zip":"05802"},{"name":"ŞAHİNLER KÖYÜ","zip":"05802"},{"name":"ŞEYHLİ KÖYÜ","zip":"05802"},{"name":"TACETTİN BEY MAH.","zip":"05802"},{"name":"TAŞTEPE MAH.","zip":"05802"},{"name":"TATLIPINAR KÖYÜ","zip":"05802"},{"name":"TEKKE KÖYÜ","zip":"05802"},{"name":"TEKKE MAH.","zip":"05802"},{"name":"TEKPINAR KÖYÜ","zip":"05802"},{"name":"TEPE MAH.","zip":"05802"},{"name":"TERZİLİ MAH.","zip":"05802"},{"name":"TOPALIN FIRIN MAH.","zip":"05802"},{"name":"TURAN GÜNEŞ MAH.","zip":"05802"},{"name":"TUZLALI GERİŞ MAH.","zip":"05802"},{"name":"TÜRKMENDAMI KÖYÜ","zip":"05802"},{"name":"ULUKÖY KÖYÜ","zip":"05802"},{"name":"ULUPARA MAH.","zip":"05802"},{"name":"YAĞBASAN MAH.","zip":"05802"},{"name":"YAKAKENT MAH.","zip":"05802"},{"name":"YALAMAGERİŞ MAH.","zip":"05802"},{"name":"YATAK MAH.","zip":"05802"},{"name":"YAYLADİBİ KÖYÜ","zip":"05802"},{"name":"YAYLASARAY KÖYÜ","zip":"05802"},{"name":"YENİDERE KÖYÜ","zip":"05802"},{"name":"YERKOZLU KÖYÜ","zip":"05802"},{"name":"YERKOZLU MAH.","zip":"05802"},{"name":"YEŞİLTEPE KÖYÜ","zip":"05802"},{"name":"YEŞİLYURT KÖYÜ","zip":"05802"},{"name":"YOLAÇAN KÖYÜ","zip":"05802"},{"name":"YUKARI GÖKDERE MAH.","zip":"05802"},{"name":"YUKARIBARAKLI KÖYÜ","zip":"05802"},{"name":"ZANA MAH.","zip":"05802"}]},{"name":"TAŞOVA","cityName":null,"quarters":[{"name":"DOĞU MAH.","zip":"05800"},{"name":"SANAYİİ MAH.","zip":"05800"},{"name":"TEPE MAH.","zip":"05800"},{"name":"YEMİŞEN MAH.","zip":"05800"},{"name":"YENİ MAH.","zip":"05800"},{"name":"YEŞİLIRMAK MAH.","zip":"05800"}]}]}]}