{"id":50,"name":"NEVŞEHİR","cities":[{"name":"city","districts":[{"name":"ACIGÖL","cityName":null,"quarters":[{"name":"ORGANİZE SANAYİ BÖLGESİ MAH.","zip":"50140"},{"name":"YUKARI MAH.","zip":"50140"}]},{"name":"KARAPINAR","cityName":null,"quarters":[{"name":"KARAPINAR KÖYÜ","zip":"50260"},{"name":"MUSTAFAPAŞA MAH.","zip":"50260"}]},{"name":"MERKEZKÖYLER","cityName":null,"quarters":[{"name":"1 MAH.","zip":"50142"},{"name":"2 KÜME MAH.","zip":"50142"},{"name":"2 MAH.","zip":"50142"},{"name":"3 KÜME MAH.","zip":"50142"},{"name":"3 MAH.","zip":"50142"},{"name":"4 KÜME MAH.","zip":"50142"},{"name":"ACIGÖL-NEVŞEHİR MAH.","zip":"50142"},{"name":"ACISU YOLU MAH.","zip":"50142"},{"name":"AĞILLI KÖYÜ","zip":"50142"},{"name":"AŞAĞI MAH.","zip":"50142"},{"name":"BAĞLICA KÖYÜ","zip":"50142"},{"name":"CUMHURİYET MAH.","zip":"50142"},{"name":"ÇULLAR KÖYÜ","zip":"50142"},{"name":"DERE YATAĞI MAH.","zip":"50142"},{"name":"İNALLI KÖYÜ","zip":"50142"},{"name":"KARACAÖREN KÖYÜ","zip":"50142"},{"name":"KOZLUCA KÖYÜ","zip":"50142"},{"name":"KÖY İÇİ MAH.","zip":"50142"},{"name":"KURUGÖL KÖYÜ","zip":"50142"},{"name":"NEVŞEHİR MAH.","zip":"50142"},{"name":"TEPEKÖY KÖYÜ","zip":"50142"},{"name":"TOPAÇ KÖYÜ","zip":"50142"},{"name":"YENİ MAH.","zip":"50142"},{"name":"YUKARI MAH.","zip":"50142"},{"name":"YUVA KÖYÜ","zip":"50142"}]},{"name":"TATLARİN","cityName":null,"quarters":[{"name":"KALE MAH.","zip":"50230"},{"name":"TATLARIN KÖYÜ","zip":"50230"}]},{"name":"AVANOS","cityName":null,"quarters":[{"name":"BAHÇELİEVLER MAH.","zip":"50500"},{"name":"CUMHURİYET MAH.","zip":"50500"},{"name":"KARASEKİ MAH.","zip":"50500"},{"name":"YENİ MAH.","zip":"50500"},{"name":"YUKARI MAH.","zip":"50500"}]},{"name":"ÇALIŞ","cityName":null,"quarters":[{"name":"ÇALIŞ KÖYÜ","zip":"50860"},{"name":"ORTA MAH.","zip":"50860"},{"name":"YUKARI MAH.","zip":"50860"}]},{"name":"KALABA","cityName":null,"quarters":[{"name":"BAHÇELİEVLER MAH.","zip":"50840"},{"name":"GÖYNÜK KÖYÜ","zip":"50840"},{"name":"GÖZENEKLİ MAH.","zip":"50840"},{"name":"HÜRRİYET MAH.","zip":"50840"},{"name":"KALABA KÖYÜ","zip":"50840"},{"name":"KARAYUSUF MAH.","zip":"50840"},{"name":"YENİ MAH.","zip":"50840"}]},{"name":"MERKEZKÖYLER","cityName":null,"quarters":[{"name":"2.KÜME MAH.","zip":"50502"},{"name":"3.KÜME MAH.","zip":"50502"},{"name":"AFET EVLERİ KÜMESİ MAH.","zip":"50502"},{"name":"AKARCA KÖYÜ","zip":"50502"},{"name":"AKTEPE KÖYÜ","zip":"50502"},{"name":"ALTIPINAR KÖYÜ","zip":"50502"},{"name":"BAĞLARBAŞI MAH.","zip":"50502"},{"name":"BAHÇELİEVLER MAH.","zip":"50502"},{"name":"BOZCA KÖYÜ","zip":"50502"},{"name":"BURUNKAYA KÜMESİ MAH.","zip":"50502"},{"name":"ÇAVUŞİN KÖYÜ","zip":"50502"},{"name":"DERE KÜMESİ MAH.","zip":"50502"},{"name":"FATİH MAH.","zip":"50502"},{"name":"HÜRRİYET MAH.","zip":"50502"},{"name":"KARACAUŞAĞI KÖYÜ","zip":"50502"},{"name":"KÖŞE KÜMESİ MAH.","zip":"50502"},{"name":"KUYULUKIŞLA KÖYÜ","zip":"50502"},{"name":"MAHMAT KÖYÜ","zip":"50502"},{"name":"ORTA KÜME MAH.","zip":"50502"},{"name":"ORTA MAH.","zip":"50502"},{"name":"PAŞALI KÖYÜ","zip":"50502"},{"name":"TOPAKLI KÖYÜ","zip":"50502"},{"name":"ÜÇKUYU KÖYÜ","zip":"50502"},{"name":"YENİ MAH.","zip":"50502"}]},{"name":"ÖZKONAK","cityName":null,"quarters":[{"name":"BOZDAĞ KÜMESİ MAH.","zip":"50530"},{"name":"BÜYÜKAYHAN KÖYÜ","zip":"50530"},{"name":"CAMİ KÜMESİ MAH.","zip":"50530"},{"name":"CAMİCEDİT MAH.","zip":"50530"},{"name":"CAMİ-KEBİR MAH.","zip":"50530"},{"name":"HARIM KÜMESİ MAH.","zip":"50530"},{"name":"İĞDELİKIŞLA KÖYÜ","zip":"50530"},{"name":"KALE KÜME MAH.","zip":"50530"},{"name":"KAYABAŞI KÜMESİ MAH.","zip":"50530"},{"name":"KUZULUK KÜMESİ MAH.","zip":"50530"},{"name":"KÜÇÜKAYHAN KÖYÜ","zip":"50530"},{"name":"MURADİYE MAH.","zip":"50530"},{"name":"ORTA KÜME MAH.","zip":"50530"},{"name":"ORTA MAH.","zip":"50530"},{"name":"ORTAOKUL KÜMESİ MAH.","zip":"50530"},{"name":"ÖZKONAK KÖYÜ","zip":"50530"},{"name":"SARILAR KÖYÜ","zip":"50530"},{"name":"YAVUZ SULTAN SELİM MAH.","zip":"50530"},{"name":"YENİSOY MAH.","zip":"50530"}]},{"name":"DERİNKUYU","cityName":null,"quarters":[{"name":"BAYRAMLI MAH.","zip":"50700"},{"name":"CUMHURİYET MAH.","zip":"50700"},{"name":"DEMİRCİ MAH.","zip":"50700"},{"name":"ESENTEPE MAH.","zip":"50700"},{"name":"FATİH MAH.","zip":"50700"},{"name":"NAMIK KEMAL MAH.","zip":"50700"},{"name":"YENİ MAH.","zip":"50700"}]},{"name":"MERKEZKÖYLER","cityName":null,"quarters":[{"name":"BOZKIR MAH.","zip":"50702"},{"name":"ÇAKILLI KÖYÜ","zip":"50702"},{"name":"ÇAKMAK MAH.","zip":"50702"},{"name":"ÇAY MAH.","zip":"50702"},{"name":"DOĞALA KÖYÜ","zip":"50702"},{"name":"ERZURUM MAH.","zip":"50702"},{"name":"GÖL MAH.","zip":"50702"},{"name":"GÜNEYCE KÖYÜ","zip":"50702"},{"name":"KALE MAH.","zip":"50702"},{"name":"KAYMAKLI YOLU MAH.","zip":"50702"},{"name":"KUYULUTATLAR KÖYÜ","zip":"50702"},{"name":"OKUL MAH.","zip":"50702"},{"name":"ORTA MAH.","zip":"50702"},{"name":"ÖZLÜCE KÖYÜ","zip":"50702"},{"name":"POLATKAN MAH.","zip":"50702"},{"name":"SUVERMEZ KÖYÜ","zip":"50702"},{"name":"TİL KÖYÜ","zip":"50702"},{"name":"UZUNSAY MAH.","zip":"50702"},{"name":"YAZIHÜYÜK KÖYÜ","zip":"50702"},{"name":"YENİ MAH.","zip":"50702"},{"name":"YENİCAMİ MAH.","zip":"50702"},{"name":"YENİDOĞAN MAH.","zip":"50702"},{"name":"YUKARI MAH.","zip":"50702"}]},{"name":"GÜLŞEHİR","cityName":null,"quarters":[{"name":"AÇIKSARAY MAH.","zip":"50900"},{"name":"CUMHURİYET MAH.","zip":"50900"},{"name":"ÇALIŞANLAR MAH.","zip":"50900"},{"name":"ÇAYIR MAH.","zip":"50900"},{"name":"FATİH MAH.","zip":"50900"},{"name":"KARACAŞAR MAH.","zip":"50900"},{"name":"KARAVEZİR MAH.","zip":"50900"},{"name":"ORUÇREİS MAH.","zip":"50900"},{"name":"TUZKÖYÜ MAH.","zip":"50900"}]},{"name":"MERKEZKÖYLER","cityName":null,"quarters":[{"name":"ABUUŞAĞI KÖYÜ","zip":"50902"},{"name":"ALEMLİ KÖYÜ","zip":"50902"},{"name":"ALKAN KÖYÜ","zip":"50902"},{"name":"AŞAĞI MAH.","zip":"50902"},{"name":"ATATÜRK MAH.","zip":"50902"},{"name":"BAHÇELİEVLER MAH.","zip":"50902"},{"name":"BÖLÜKÖREN KÖYÜ","zip":"50902"},{"name":"CİVELEK KÖYÜ","zip":"50902"},{"name":"CUMHURİYET MAH.","zip":"50902"},{"name":"DADAĞI KÖYÜ","zip":"50902"},{"name":"EĞRİKUYU KÖYÜ","zip":"50902"},{"name":"EMMİLER KÖYÜ","zip":"50902"},{"name":"ESEN MAH.","zip":"50902"},{"name":"ESKİYAYLACIK KÖYÜ","zip":"50902"},{"name":"FAKIUŞAĞI KÖYÜ","zip":"50902"},{"name":"FATİH MAH.","zip":"50902"},{"name":"FEVZİÇAKMAK MAH.","zip":"50902"},{"name":"GAZİ MAH.","zip":"50902"},{"name":"GÖKÇETOPRAK KÖYÜ","zip":"50902"},{"name":"GÜLPINAR KÖYÜ","zip":"50902"},{"name":"GÜMÜŞKENT KÖYÜ","zip":"50902"},{"name":"GÜMÜŞYAZI KÖYÜ","zip":"50902"},{"name":"GÜZELEVLER MAH.","zip":"50902"},{"name":"HACIHALİLLİ KÖYÜ","zip":"50902"},{"name":"HACILAR KÖYÜ","zip":"50902"},{"name":"HAMZALI KÖYÜ","zip":"50902"},{"name":"HÜRRİYET MAH.","zip":"50902"},{"name":"İSMAİLUŞAĞI MAH.","zip":"50902"},{"name":"KARAHÜYÜK KÖYÜ","zip":"50902"},{"name":"KARŞIYAKA MAH.","zip":"50902"},{"name":"KAZIM KARABEKİR MAH.","zip":"50902"},{"name":"KIŞLA MAH.","zip":"50902"},{"name":"KIZILKAYA KÖYÜ","zip":"50902"},{"name":"KOYAK MAH.","zip":"50902"},{"name":"KÖRLER MAH.","zip":"50902"},{"name":"KÖYİÇİ MAH.","zip":"50902"},{"name":"MEZARLIK MAH.","zip":"50902"},{"name":"MEZRA MAH.","zip":"50902"},{"name":"OĞULKAYA KÖYÜ","zip":"50902"},{"name":"ORTA MAH.","zip":"50902"},{"name":"OVAÖREN KÖYÜ","zip":"50902"},{"name":"ÖTEGEÇE MAH.","zip":"50902"},{"name":"ŞAHİNLER KÖYÜ","zip":"50902"},{"name":"TERLEMEZ KÖYÜ","zip":"50902"},{"name":"YAKATARLA KÖYÜ","zip":"50902"},{"name":"YALINTAŞ KÖYÜ","zip":"50902"},{"name":"YAMALI KÖYÜ","zip":"50902"},{"name":"YENİ MAH.","zip":"50902"},{"name":"YENİYAYLACIK KÖYÜ","zip":"50902"},{"name":"YEŞİLLİ KÖYÜ","zip":"50902"},{"name":"YEŞİLÖZ KÖYÜ","zip":"50902"},{"name":"YEŞİLYURT KÖYÜ","zip":"50902"},{"name":"YÜKSEKLİ KÖYÜ","zip":"50902"}]},{"name":"HACIBEKTAŞ","cityName":null,"quarters":[{"name":"SAVAT MAH.","zip":"50800"},{"name":"ZİR MAH.","zip":"50800"}]},{"name":"MERKEZKÖYLER","cityName":null,"quarters":[{"name":"ANAPINAR KÖYÜ","zip":"50802"},{"name":"AŞAĞIBARAK KÖYÜ","zip":"50802"},{"name":"AŞIKLAR KÖYÜ","zip":"50802"},{"name":"AVUÇ KÖYÜ","zip":"50802"},{"name":"BAHÇELİEVLER MAH.","zip":"50802"},{"name":"BAŞKÖY KÖYÜ","zip":"50802"},{"name":"BELBARAK KÖYÜ","zip":"50802"},{"name":"BÜYÜKBURUNAĞIL KÖYÜ","zip":"50802"},{"name":"BÜYÜKKIŞLA KÖYÜ","zip":"50802"},{"name":"CUMHURİYET MAH.","zip":"50802"},{"name":"ÇİĞDEM KÖYÜ","zip":"50802"},{"name":"ÇİVRİL KÖYÜ","zip":"50802"},{"name":"HASANLAR KÖYÜ","zip":"50802"},{"name":"HIDIRLAR KÖYÜ","zip":"50802"},{"name":"HIRKATEPESİDELİK KÖYÜ","zip":"50802"},{"name":"İLİCEK KÖYÜ","zip":"50802"},{"name":"KARABURÇ KÖYÜ","zip":"50802"},{"name":"KARABURNA KÖYÜ","zip":"50802"},{"name":"KARAOVA KÖYÜ","zip":"50802"},{"name":"KAYAALTI KÖYÜ","zip":"50802"},{"name":"KAYI KÖYÜ","zip":"50802"},{"name":"KIZILAĞIL KÖYÜ","zip":"50802"},{"name":"KİLLİK KÖYÜ","zip":"50802"},{"name":"KİSECİK KÖYÜ","zip":"50802"},{"name":"KÖŞEKTAŞ KÖYÜ","zip":"50802"},{"name":"KÜTÜKÇÜ KÖYÜ","zip":"50802"},{"name":"MİKAİL KÖYÜ","zip":"50802"},{"name":"SADIK KÖYÜ","zip":"50802"},{"name":"YENİ MAH.","zip":"50802"},{"name":"YENİCE KÖYÜ","zip":"50802"},{"name":"YENİYAPAN KÖYÜ","zip":"50802"},{"name":"YURTYERİ KÖYÜ","zip":"50802"}]},{"name":"KOZAKLI","cityName":null,"quarters":[{"name":"BAĞLICA MAH.","zip":"50600"},{"name":"BAHÇELİEVLER MAH.","zip":"50600"},{"name":"BURUNCUK MAH.","zip":"50600"},{"name":"EMEK MAH.","zip":"50600"},{"name":"HAMAMORTA MAH.","zip":"50600"},{"name":"HOCA AHMET YESEVİ MAH.","zip":"50600"},{"name":"KIZILKOYUNLU MAH.","zip":"50600"},{"name":"YABANLI MAH.","zip":"50600"},{"name":"YENİ MAH.","zip":"50600"}]},{"name":"MERKEZKÖYLER","cityName":null,"quarters":[{"name":"AKPINAR KÖYÜ","zip":"50602"},{"name":"ALTINOVA MAH.","zip":"50602"},{"name":"AŞAĞI MAH.","zip":"50602"},{"name":"AYLI KÖYÜ","zip":"50602"},{"name":"BAHÇELİ MAH.","zip":"50602"},{"name":"BELEKLİ KÖYÜ","zip":"50602"},{"name":"BOĞAZİÇİ KÖYÜ","zip":"50602"},{"name":"BÜYÜKYAĞLI KÖYÜ","zip":"50602"},{"name":"CAĞŞAK KÖYÜ","zip":"50602"},{"name":"CAMİKEBİR MAH.","zip":"50602"},{"name":"ÇAYİÇİ KÖYÜ","zip":"50602"},{"name":"DOYDUK KÖYÜ","zip":"50602"},{"name":"DÖRTYOL KÖYÜ","zip":"50602"},{"name":"GERCE KÖYÜ","zip":"50602"},{"name":"GÜLTEPE MAH.","zip":"50602"},{"name":"HACIFAKILI KÖYÜ","zip":"50602"},{"name":"HIZIRUŞAĞI KÖYÜ","zip":"50602"},{"name":"İMRAN KÖYÜ","zip":"50602"},{"name":"İSTASYON MAH.","zip":"50602"},{"name":"KALECİK KÖYÜ","zip":"50602"},{"name":"KANLICA KÖYÜ","zip":"50602"},{"name":"KAPAKLI KÖYÜ","zip":"50602"},{"name":"KARAHASANLI KÖYÜ","zip":"50602"},{"name":"KARASENİR KÖYÜ","zip":"50602"},{"name":"KARŞI MAH.","zip":"50602"},{"name":"KAŞKIŞLA KÖYÜ","zip":"50602"},{"name":"KURUAĞIL KÖYÜ","zip":"50602"},{"name":"KÜÇÜKYAĞLI KÖYÜ","zip":"50602"},{"name":"KÜLLÜCE KÖYÜ","zip":"50602"},{"name":"MERDANALİ KÖYÜ","zip":"50602"},{"name":"ORTA MAH.","zip":"50602"},{"name":"ÖZCE KÖYÜ","zip":"50602"},{"name":"SADIKALİ MAH.","zip":"50602"},{"name":"TAŞLIHÜYÜK KÖYÜ","zip":"50602"},{"name":"YASSICA KÖYÜ","zip":"50602"},{"name":"YENİ MAH.","zip":"50602"},{"name":"YEŞİLOVA MAH.","zip":"50602"},{"name":"YUKARI MAH.","zip":"50602"}]},{"name":"CAMİCEDİT","cityName":null,"quarters":[{"name":"CAMİCEDİT MAH.","zip":"50200"},{"name":"EMEK MAH.","zip":"50200"},{"name":"RAŞİTBEY MAH.","zip":"50200"}]},{"name":"ÇARŞI","cityName":null,"quarters":[{"name":"20 TEMMUZ MAH.","zip":"50100"},{"name":"2000 EVLER MAH.","zip":"50100"},{"name":"350 EVLER MAH.","zip":"50100"},{"name":"CEVHER DUDAYEV MAH.","zip":"50100"},{"name":"ESENTEPE MAH.","zip":"50100"},{"name":"FATİH SULTAN MEHMET MAH.","zip":"50100"},{"name":"GÜZELYURT MAH.","zip":"50100"},{"name":"HACIRÜŞTÜ MAH.","zip":"50100"},{"name":"HERİKLİ MAH.","zip":"50100"},{"name":"İBRAHİMPAŞA MAH.","zip":"50100"},{"name":"KAPUCUBAŞI MAH.","zip":"50100"},{"name":"KARASOKU MAH.","zip":"50100"},{"name":"KIRATLIOĞLU MAH.","zip":"50100"},{"name":"M.AKİF ERSOY MAH.","zip":"50100"},{"name":"SÜMER MAH.","zip":"50100"},{"name":"YENİ MAH.","zip":"50100"}]},{"name":"GÖRE","cityName":null,"quarters":[{"name":"GÖRE KÖYÜ","zip":"50170"},{"name":"KASAPOĞLU MAH.","zip":"50170"}]},{"name":"GÖREME","cityName":null,"quarters":[{"name":"GÖREME KÖYÜ","zip":"50180"},{"name":"İSALİ-GAFERLİ-AVCILAR MAH.","zip":"50180"}]},{"name":"KAVAK","cityName":null,"quarters":[{"name":"KAVAK KÖYÜ","zip":"50210"},{"name":"YUKARI MAH.","zip":"50210"}]},{"name":"KAYMAKLI","cityName":null,"quarters":[{"name":"CAMİKEBİR MAH.","zip":"50760"},{"name":"HATİPOĞLU MAH.","zip":"50760"},{"name":"KAYMAKLI KÖYÜ","zip":"50760"}]},{"name":"MERKEZKÖYLER","cityName":null,"quarters":[{"name":"ALACAŞAR KÖYÜ","zip":"50010"},{"name":"AŞAĞI MAH.","zip":"50010"},{"name":"BAHÇELİEVLER MAH.","zip":"50010"},{"name":"BALCIN KÖYÜ","zip":"50010"},{"name":"BASANSARNIÇ KÖYÜ","zip":"50010"},{"name":"BOĞAZ KÖYÜ","zip":"50010"},{"name":"CUMHURİYET MAH.","zip":"50010"},{"name":"ÇARDAK KÖYÜ","zip":"50010"},{"name":"ÇAT KÖYÜ","zip":"50010"},{"name":"ÇAY MAH.","zip":"50010"},{"name":"ÇİFTLİKKÖY KÖYÜ","zip":"50010"},{"name":"ERTAŞ MAH.","zip":"50010"},{"name":"GÜVERCİNLİK KÖYÜ","zip":"50010"},{"name":"HARIM MAH.","zip":"50010"},{"name":"HİCİM BABA MAH.","zip":"50010"},{"name":"İCİK KÖYÜ","zip":"50010"},{"name":"İSTİKLAL MAH.","zip":"50010"},{"name":"KARŞI MAH.","zip":"50010"},{"name":"ORTA MAH.","zip":"50010"},{"name":"ÖZYAYLA KÖYÜ","zip":"50010"},{"name":"SERAY MAH.","zip":"50010"},{"name":"ŞAHİNTEPESİ MAH.","zip":"50010"},{"name":"TEPE MAH.","zip":"50010"},{"name":"TEPECİK MAH.","zip":"50010"},{"name":"YENİ MAH.","zip":"50010"},{"name":"YUKARI MAH.","zip":"50010"}]},{"name":"NAR","cityName":null,"quarters":[{"name":"BAŞ MAH.","zip":"50130"},{"name":"NAR KÖYÜ","zip":"50130"},{"name":"ORTA MAH.","zip":"50130"},{"name":"YENİ MAH.","zip":"50130"}]},{"name":"SULUSARAY","cityName":null,"quarters":[{"name":"SULTAN ALADDİN MAH.","zip":"50220"},{"name":"SULUSARAY KÖYÜ","zip":"50220"},{"name":"YENİ MAH.","zip":"50220"}]},{"name":"UÇHİSAR","cityName":null,"quarters":[{"name":"TEKELLİ MAH.","zip":"50240"},{"name":"UÇHİSAR KÖYÜ","zip":"50240"},{"name":"YUKARI MAH.","zip":"50240"}]},{"name":"MERKEZKÖYLER","cityName":null,"quarters":[{"name":"AKKÖY KÖYÜ","zip":"50402"},{"name":"AYVALI KÖYÜ","zip":"50402"},{"name":"BAHÇELİ KÖYÜ","zip":"50402"},{"name":"BAŞDERE KÖYÜ","zip":"50402"},{"name":"BOYALI KÖYÜ","zip":"50402"},{"name":"CEMİL KÖYÜ","zip":"50402"},{"name":"ÇÖKEK KÖYÜ","zip":"50402"},{"name":"DAVUTLU MAH.","zip":"50402"},{"name":"DEMİRTAŞ KÖYÜ","zip":"50402"},{"name":"EYÜPLÜ MAH.","zip":"50402"},{"name":"İBRAHİMPAŞA KÖYÜ","zip":"50402"},{"name":"İLTAŞ KÖYÜ","zip":"50402"},{"name":"KARACAÖREN KÖYÜ","zip":"50402"},{"name":"KARAİN KÖYÜ","zip":"50402"},{"name":"KARAKAYA KÖYÜ","zip":"50402"},{"name":"KARLIK KÖYÜ","zip":"50402"},{"name":"MAZI KÖYÜ","zip":"50402"},{"name":"MUSTAFAPAŞA KÖYÜ","zip":"50402"},{"name":"ORTA MAH.","zip":"50402"},{"name":"SARIHIDIR KÖYÜ","zip":"50402"},{"name":"SOFULAR KÖYÜ","zip":"50402"},{"name":"SULTANIM MAH.","zip":"50402"},{"name":"ŞAHİNEFENDİ KÖYÜ","zip":"50402"},{"name":"TAŞKINPAŞA KÖYÜ","zip":"50402"},{"name":"ULAŞLI KÖYÜ","zip":"50402"},{"name":"YENİ MAH.","zip":"50402"},{"name":"YEŞİLÖZ KÖYÜ","zip":"50402"},{"name":"YUKARI MAH.","zip":"50402"}]},{"name":"ORTAHİSAR","cityName":null,"quarters":[{"name":"ESENTEPE MAH.","zip":"50650"},{"name":"ESKİ MAH.","zip":"50650"},{"name":"ORTAHİSAR KÖYÜ","zip":"50650"},{"name":"YENİ MAH.","zip":"50650"}]},{"name":"ÜRGÜP","cityName":null,"quarters":[{"name":"AKSALUR GÖNEN MAH.","zip":"50400"},{"name":"AKSALUR SALUR MAH.","zip":"50400"},{"name":"AKSALUR YENİCAMİ MAH.","zip":"50400"},{"name":"ALTIKAPILI MAH.","zip":"50400"},{"name":"BAHÇELİEVLER MAH.","zip":"50400"},{"name":"DERELER MAH.","zip":"50400"},{"name":"DUAYERİ MAH.","zip":"50400"},{"name":"DUTLUCAMİİ MAH.","zip":"50400"},{"name":"ESBELLİ MAH.","zip":"50400"},{"name":"EVKA MAH.","zip":"50400"},{"name":"FATİH MAH.","zip":"50400"},{"name":"İMRAN MAH.","zip":"50400"},{"name":"KARAĞANDERE MAH.","zip":"50400"},{"name":"KAVAKLIÖNÜ MAH.","zip":"50400"},{"name":"KAYAKAPI MAH.","zip":"50400"},{"name":"MUSAEFENDİ MAH.","zip":"50400"},{"name":"SİVRİTAŞ MAH.","zip":"50400"},{"name":"SÜPHANVERDİ MAH.","zip":"50400"},{"name":"TEMENNİ MAH.","zip":"50400"},{"name":"YENİ CAMİİ MAH.","zip":"50400"},{"name":"YUNAK MAH.","zip":"50400"}]}]}]}