{"id":51,"name":"NİĞDE","cities":[{"name":"city","districts":[{"name":"ALTUNHİSAR","cityName":null,"quarters":[{"name":"SAĞLIK MAH.","zip":"51600"},{"name":"ULUÖREN KÖYÜ","zip":"51600"},{"name":"YUKARI MAH.","zip":"51600"}]},{"name":"KARAKAPI","cityName":null,"quarters":[{"name":"KARAKAPI KÖYÜ","zip":"51603"},{"name":"YAKA MAH.","zip":"51603"},{"name":"YENİ MAH.","zip":"51603"}]},{"name":"KEÇİKALESİ","cityName":null,"quarters":[{"name":"ERENLER MAH.","zip":"51604"},{"name":"KEÇİKALESİ KÖYÜ","zip":"51604"},{"name":"SELÇUK MAH.","zip":"51604"}]},{"name":"MERKEZKÖYLER","cityName":null,"quarters":[{"name":"CUMHURİYET MAH.","zip":"51602"},{"name":"ÇÖMLEKÇİ KÖYÜ","zip":"51602"},{"name":"HÜRRİYET MAH.","zip":"51602"},{"name":"İSTİKLAL MAH.","zip":"51602"},{"name":"KALE MAH.","zip":"51602"},{"name":"KÖŞK MAH.","zip":"51602"},{"name":"KURTULUŞ MAH.","zip":"51602"},{"name":"ŞAFAK MAH.","zip":"51602"},{"name":"ULUKIŞLA KÖYÜ","zip":"51602"},{"name":"YAKACIK KÖYÜ","zip":"51602"},{"name":"YAKACIK MAH.","zip":"51602"},{"name":"YEŞİLYURT KÖYÜ","zip":"51602"},{"name":"YUKARI ASMAZ MAH.","zip":"51602"},{"name":"ZAFER MAH.","zip":"51602"}]},{"name":"BOR","cityName":null,"quarters":[{"name":"AHMET KUDDUSİ MAH.","zip":"51700"},{"name":"ARMUTLU MAH.","zip":"51700"},{"name":"BAĞDÜZ MAH.","zip":"51700"},{"name":"BAŞPINAR MAH.","zip":"51700"},{"name":"CIĞIZOĞLU OSMAN EFENDİ MAH.","zip":"51700"},{"name":"CUMHURİYET MAH.","zip":"51700"},{"name":"DİNK MAH.","zip":"51700"},{"name":"FATİH MAH.","zip":"51700"},{"name":"HARIM MAH.","zip":"51700"},{"name":"KALE MAH.","zip":"51700"},{"name":"KARACA UĞURLU MAH.","zip":"51700"},{"name":"MEHMETÇİK MAH.","zip":"51700"},{"name":"ORGANİZE SANAYİ BÖLGESİ MAH.","zip":"51700"},{"name":"ORTA MAH.","zip":"51700"},{"name":"SALTUK MAH.","zip":"51700"},{"name":"SIRA SÖĞÜTLER MAH.","zip":"51700"},{"name":"SOKUBAŞI MAH.","zip":"51700"},{"name":"ŞEKER MAH.","zip":"51700"},{"name":"TOPLU KONUT MAH.","zip":"51700"},{"name":"YENİGÖÇMEN MAH.","zip":"51700"}]},{"name":"MERKEZKÖYLER","cityName":null,"quarters":[{"name":"ALTINOVA MAH.","zip":"51702"},{"name":"AZİZLER MAH.","zip":"51702"},{"name":"BADAK KÖYÜ","zip":"51702"},{"name":"BAHÇELİ KÖYÜ","zip":"51702"},{"name":"BALCI KÖYÜ","zip":"51702"},{"name":"BALCI MAH.","zip":"51702"},{"name":"BAYAT KÖYÜ","zip":"51702"},{"name":"BEKTİK MAH.","zip":"51702"},{"name":"BEREKE KÖYÜ","zip":"51702"},{"name":"CAMİ MAH.","zip":"51702"},{"name":"CUMHURİYET MAH.","zip":"51702"},{"name":"ÇAYIR MAH.","zip":"51702"},{"name":"ÇUKURKUYU KÖYÜ","zip":"51702"},{"name":"EMEN KÖYÜ","zip":"51702"},{"name":"ESENDERE MAH.","zip":"51702"},{"name":"GAYRET MAH.","zip":"51702"},{"name":"GÖKBEZ KÖYÜ","zip":"51702"},{"name":"HALAÇ KÖYÜ","zip":"51702"},{"name":"HAN MAH.","zip":"51702"},{"name":"HAVUZLU KÖYÜ","zip":"51702"},{"name":"KARACAÖREN KÖYÜ","zip":"51702"},{"name":"KARAMAHMUTLU KÖYÜ","zip":"51702"},{"name":"KARANLIKDERE KÖYÜ","zip":"51702"},{"name":"KARŞIYAKA MAH.","zip":"51702"},{"name":"KAVUKLU KÖYÜ","zip":"51702"},{"name":"KAYI KÖYÜ","zip":"51702"},{"name":"KAYNARCA KÖYÜ","zip":"51702"},{"name":"KEMER MAH.","zip":"51702"},{"name":"KEMERHİSAR KÖYÜ","zip":"51702"},{"name":"KILAVUZ KÖYÜ","zip":"51702"},{"name":"KINIKOVASI MAH.","zip":"51702"},{"name":"KIZILCA KÖYÜ","zip":"51702"},{"name":"KIZILKAPI KÖYÜ","zip":"51702"},{"name":"KÜRKÇÜ KÖYÜ","zip":"51702"},{"name":"OBRUK KÖYÜ","zip":"51702"},{"name":"OKÇU KÖYÜ","zip":"51702"},{"name":"OKULLAR MAH.","zip":"51702"},{"name":"POSTALLI KÖYÜ","zip":"51702"},{"name":"SARAY MAH.","zip":"51702"},{"name":"SESLİKAYA KÖYÜ","zip":"51702"},{"name":"ŞEKER MAH.","zip":"51702"},{"name":"TEPE MAH.","zip":"51702"},{"name":"TEPEKÖY KÖYÜ","zip":"51702"},{"name":"TÜRKMEN YURDU MAH.","zip":"51702"},{"name":"YOL BOYU MAH.","zip":"51702"},{"name":"ZAFER MAH.","zip":"51702"}]},{"name":"ÇAMARDI","cityName":null,"quarters":[{"name":"ÇARŞI MAH.","zip":"51660"},{"name":"KARATAŞ MAH.","zip":"51660"},{"name":"MADEN MAH.","zip":"51660"},{"name":"YENİ MAH.","zip":"51660"}]},{"name":"MERKEZKÖYLER","cityName":null,"quarters":[{"name":"BADEMLİ MAH.","zip":"51662"},{"name":"BAHÇELİ MAH.","zip":"51662"},{"name":"BEKÇİLİ KÖYÜ","zip":"51662"},{"name":"BEYAZKIŞLAKÇI KÖYÜ","zip":"51662"},{"name":"BOĞAZİÇİ MAH.","zip":"51662"},{"name":"BURÇ KÖYÜ","zip":"51662"},{"name":"CAMIZ KELERİ MAH.","zip":"51662"},{"name":"CELALLER KÖYÜ","zip":"51662"},{"name":"CUMHURİYET MAH.","zip":"51662"},{"name":"ÇARDACIK KÖYÜ","zip":"51662"},{"name":"ÇUKURBAĞ KÖYÜ","zip":"51662"},{"name":"DEMİRKAZIK KÖYÜ","zip":"51662"},{"name":"ELEKGÖLÜ KÖYÜ","zip":"51662"},{"name":"EYNELLİ KÖYÜ","zip":"51662"},{"name":"HANYAZISI MAH.","zip":"51662"},{"name":"KALE MAH.","zip":"51662"},{"name":"KAVAKLIGÖL KÖYÜ","zip":"51662"},{"name":"KAVLAKTEPE KÖYÜ","zip":"51662"},{"name":"KOCAPINAR KÖYÜ","zip":"51662"},{"name":"MAHMATLI KÖYÜ","zip":"51662"},{"name":"ORHANİYE KÖYÜ","zip":"51662"},{"name":"ÖREN KÖYÜ","zip":"51662"},{"name":"PINARBAŞI KÖYÜ","zip":"51662"},{"name":"SULUCAOVA KÖYÜ","zip":"51662"},{"name":"ÜÇKAPILI KÖYÜ","zip":"51662"},{"name":"YELATAN KÖYÜ","zip":"51662"},{"name":"YENİ MAH.","zip":"51662"},{"name":"YENİKÖY KÖYÜ","zip":"51662"},{"name":"1.Cİ KÜME MAH.","zip":"51802"},{"name":"2.Cİ KÜME MAH.","zip":"51802"},{"name":"3.Cİ KÜME MAH.","zip":"51802"},{"name":"4.Cİ KÜME MAH.","zip":"51802"},{"name":"ALIŞLI MAH.","zip":"51802"},{"name":"ALPASLAN MAH.","zip":"51802"},{"name":"AŞAĞI MEVKİ MAH.","zip":"51802"},{"name":"AZATLI KÖYÜ","zip":"51802"},{"name":"BAHÇE MAH.","zip":"51802"},{"name":"BEKİROĞLU MAH.","zip":"51802"},{"name":"BOZKÖY KÖYÜ","zip":"51802"},{"name":"ÇAKIL İÇİ MEVKİ MAH.","zip":"51802"},{"name":"ÇARDAK KÖYÜ","zip":"51802"},{"name":"ÇARŞI MAH.","zip":"51802"},{"name":"ÇAYIR MAH.","zip":"51802"},{"name":"ÇINARLI KÖYÜ","zip":"51802"},{"name":"DİVARLI KÖYÜ","zip":"51802"},{"name":"FATİH MAH.","zip":"51802"},{"name":"KİTRELİ KÖYÜ","zip":"51802"},{"name":"KÖPRÜBAŞI MAH.","zip":"51802"},{"name":"KÖYALTI MAH.","zip":"51802"},{"name":"KULA KÖYÜ","zip":"51802"},{"name":"KÜLLÜCE MAH.","zip":"51802"},{"name":"MAHMUTLU KÖYÜ","zip":"51802"},{"name":"MEZARALTI MAH.","zip":"51802"},{"name":"MURTAZAKÖY KÖYÜ","zip":"51802"},{"name":"OVALIBAĞ KÖYÜ","zip":"51802"},{"name":"SAĞIRGÖL MAH.","zip":"51802"},{"name":"SULTANPINARI KÖYÜ","zip":"51802"},{"name":"ŞEYHLER KÖYÜ","zip":"51802"},{"name":"ULUCAMİ MAH.","zip":"51802"},{"name":"YENİ MAH.","zip":"51802"},{"name":"YENİ MEVKİ MAH.","zip":"51802"},{"name":"YENİCE MAH.","zip":"51802"},{"name":"YENİKENT MAH.","zip":"51802"},{"name":"YEŞİLKENT MAH.","zip":"51802"},{"name":"YEŞİLYURT MAH.","zip":"51802"},{"name":"YUKARI MEVKİ MAH.","zip":"51802"}]},{"name":"ÖZYURT","cityName":null,"quarters":[{"name":"ÇARŞI MAH.","zip":"51800"},{"name":"ÇİFTÇİ MAH.","zip":"51800"},{"name":"YENİ MAH.","zip":"51800"}]},{"name":"AFETEVLERİ","cityName":null,"quarters":[{"name":"AŞAĞI KAYABAŞI MAH.","zip":"51200"},{"name":"DERE MAH.","zip":"51200"},{"name":"EFENDİBEY MAH.","zip":"51200"},{"name":"İNÖNÜ MAH.","zip":"51200"},{"name":"ŞEHİTLER MAH.","zip":"51200"},{"name":"YENİCE MAH.","zip":"51200"},{"name":"YUKARI KAYABAŞI MAH.","zip":"51200"}]},{"name":"MERKEZKÖYLER","cityName":null,"quarters":[{"name":"AKTAŞ KÖYÜ","zip":"51300"},{"name":"ALAY KÖYÜ","zip":"51300"},{"name":"AŞAĞI MAH.","zip":"51300"},{"name":"AŞLAMA KÖYÜ","zip":"51300"},{"name":"BAĞLAMA KÖYÜ","zip":"51300"},{"name":"BAĞLAR MAH.","zip":"51300"},{"name":"BAHÇELİEVLER MAH.","zip":"51300"},{"name":"BAHÇELİEVLEROSB MAH.","zip":"51300"},{"name":"BALLI KÖYÜ","zip":"51300"},{"name":"BOĞAZİÇİ MAH.","zip":"51300"},{"name":"CEVİZLER MAH.","zip":"51300"},{"name":"CUMHURİYET MAH.","zip":"51300"},{"name":"CUMHURİYETOSB MAH.","zip":"51300"},{"name":"ÇARIKLI KÖYÜ","zip":"51300"},{"name":"ÇARŞI MAH.","zip":"51300"},{"name":"ÇAVDARLI KÖYÜ","zip":"51300"},{"name":"ÇAYIR MAH.","zip":"51300"},{"name":"ÇAYIRLI KÖYÜ","zip":"51300"},{"name":"DEĞİRMENLİ KÖYÜ","zip":"51300"},{"name":"DEVLET MAH.","zip":"51300"},{"name":"DİKİLİTAŞ KÖYÜ","zip":"51300"},{"name":"DUMLUPINAR MAH.","zip":"51300"},{"name":"DÜNDARLI KÖYÜ","zip":"51300"},{"name":"EDİKLİ KÖYÜ","zip":"51300"},{"name":"ELMALI KÖYÜ","zip":"51300"},{"name":"ESKİ GÜMÜŞ MAH.","zip":"51300"},{"name":"FATİH MAH.","zip":"51300"},{"name":"FERTEK KÖYÜ","zip":"51300"},{"name":"FESLEĞEN KÖYÜ","zip":"51300"},{"name":"FEVZİPAŞA MAH.","zip":"51300"},{"name":"GÖSTERLİ KÖYÜ","zip":"51300"},{"name":"GÜLLÜCE KÖYÜ","zip":"51300"},{"name":"GÜMÜŞLER KÖYÜ","zip":"51300"},{"name":"GÜZELYURT MAH.","zip":"51300"},{"name":"HACIABDULLAH KÖYÜ","zip":"51300"},{"name":"HACIBEYLİ KÖYÜ","zip":"51300"},{"name":"HAMAMLI MAH.","zip":"51300"},{"name":"HANÇERLİ KÖYÜ","zip":"51300"},{"name":"HASAKÖY KÖYÜ","zip":"51300"},{"name":"HİMMETLİ KÖYÜ","zip":"51300"},{"name":"HÜRRİYET MAH.","zip":"51300"},{"name":"HÜYÜK MAH.","zip":"51300"},{"name":"İÇMELİ KÖYÜ","zip":"51300"},{"name":"İNÖNÜ MAH.","zip":"51300"},{"name":"KALE MAH.","zip":"51300"},{"name":"KARAATLI KÖYÜ","zip":"51300"},{"name":"KARAMUSTAFA MAH.","zip":"51300"},{"name":"KARŞIYAKA MAH.","zip":"51300"},{"name":"KAYALIPINAR MAH.","zip":"51300"},{"name":"KAYIRLI KÖYÜ","zip":"51300"},{"name":"KIRKPINAR KÖYÜ","zip":"51300"},{"name":"KIZILÖREN KÖYÜ","zip":"51300"},{"name":"KİLEDERE KÖYÜ","zip":"51300"},{"name":"KONAKLI KÖYÜ","zip":"51300"},{"name":"KOYUNLU KÖYÜ","zip":"51300"},{"name":"KÖMÜRCÜ KÖYÜ","zip":"51300"},{"name":"KUMLUCA MAH.","zip":"51300"},{"name":"KÜÇÜKKÖY KÖYÜ","zip":"51300"},{"name":"MENDERES MAH.","zip":"51300"},{"name":"MERKEZ MAH.","zip":"51300"},{"name":"NARKÖY KÖYÜ","zip":"51300"},{"name":"ORHANLI KÖYÜ","zip":"51300"},{"name":"ORTA MAH.","zip":"51300"},{"name":"OVACIK KÖYÜ","zip":"51300"},{"name":"ÖZYURT KÖYÜ","zip":"51300"},{"name":"PINARCIK KÖYÜ","zip":"51300"},{"name":"PINARCIK MAH.","zip":"51300"},{"name":"SAZLICA KÖYÜ","zip":"51300"},{"name":"SERİNEVLER MAH.","zip":"51300"},{"name":"TAŞLICA KÖYÜ","zip":"51300"},{"name":"TEPEKÖY KÖYÜ","zip":"51300"},{"name":"TERAZİ MAH.","zip":"51300"},{"name":"TIRHAN KÖYÜ","zip":"51300"},{"name":"ULUAĞAÇ KÖYÜ","zip":"51300"},{"name":"YARHİSAR KÖYÜ","zip":"51300"},{"name":"YAVUZ MAH.","zip":"51300"},{"name":"YAYLAYOLU KÖYÜ","zip":"51300"},{"name":"YENİ GÜMÜŞ MAH.","zip":"51300"},{"name":"YENİ MAH.","zip":"51300"},{"name":"YENİCE MAH.","zip":"51300"},{"name":"YEŞİLBURÇ KÖYÜ","zip":"51300"},{"name":"YEŞİLGÖLCÜK KÖYÜ","zip":"51300"},{"name":"YEŞİLOVA KÖYÜ","zip":"51300"},{"name":"YILDIZTEPE KÖYÜ","zip":"51300"},{"name":"YUKARI MAH.","zip":"51300"},{"name":"ZAFER MAH.","zip":"51300"}]},{"name":"SUNGURBEY","cityName":null,"quarters":[{"name":"BALHASAN MAH.","zip":"51100"},{"name":"BURHAN MAH.","zip":"51100"},{"name":"ÇAYIR MAH.","zip":"51100"},{"name":"ESENBEY MAH.","zip":"51100"},{"name":"ESKİSARAY MAH.","zip":"51100"},{"name":"İLHANLI MAH.","zip":"51100"},{"name":"KALE MAH.","zip":"51100"},{"name":"NAR MAH.","zip":"51100"},{"name":"SARUHAN MAH.","zip":"51100"},{"name":"SELÇUK MAH.","zip":"51100"},{"name":"SIRALİ MAH.","zip":"51100"},{"name":"SONGUR MAH.","zip":"51100"},{"name":"ŞAHİNALİ MAH.","zip":"51100"},{"name":"ŞAHSÜLEYMAN MAH.","zip":"51100"}]},{"name":"MERKEZKÖYLER","cityName":null,"quarters":[{"name":"ALTAY KÖYÜ","zip":"51902"},{"name":"ARDIÇLI KÖYÜ","zip":"51902"},{"name":"ATATÜRK MAH.","zip":"51902"},{"name":"AZDIN MAH.","zip":"51902"},{"name":"BAHÇELİEVLER MAH.","zip":"51902"},{"name":"BAŞMAKÇI KÖYÜ","zip":"51902"},{"name":"BAYAĞIL KÖYÜ","zip":"51902"},{"name":"CUMHURİYET MAH.","zip":"51902"},{"name":"ÇANAKÇI KÖYÜ","zip":"51902"},{"name":"ÇİFTEHAN KÖYÜ","zip":"51902"},{"name":"ÇİFTEKÖY KÖYÜ","zip":"51902"},{"name":"DARBOĞAZ KÖYÜ","zip":"51902"},{"name":"ELMALI KÖYÜ","zip":"51902"},{"name":"EMİNLİK KÖYÜ","zip":"51902"},{"name":"EMİRLER KÖYÜ","zip":"51902"},{"name":"EVREN MAH.","zip":"51902"},{"name":"FATİH MAH.","zip":"51902"},{"name":"GEDELLİ KÖYÜ","zip":"51902"},{"name":"GÜMÜŞKÖY KÖYÜ","zip":"51902"},{"name":"GÜNEY KÖYÜ","zip":"51902"},{"name":"HACIBEKİRLİ KÖYÜ","zip":"51902"},{"name":"HANDERE KÖYÜ","zip":"51902"},{"name":"HASANGAZİ KÖYÜ","zip":"51902"},{"name":"HOROZ KÖYÜ","zip":"51902"},{"name":"HÜSNİYE KÖYÜ","zip":"51902"},{"name":"İLHANKÖY KÖYÜ","zip":"51902"},{"name":"İMRAHOR KÖYÜ","zip":"51902"},{"name":"KALEDERESİ MAH.","zip":"51902"},{"name":"KARACAÖREN KÖYÜ","zip":"51902"},{"name":"KILAN KÖYÜ","zip":"51902"},{"name":"KOÇAK KÖYÜ","zip":"51902"},{"name":"KOLSUZ KÖYÜ","zip":"51902"},{"name":"KOZLUCA KÖYÜ","zip":"51902"},{"name":"KÖŞKÖNÜ KÖYÜ","zip":"51902"},{"name":"KURTULUŞ MAH.","zip":"51902"},{"name":"KÜME1 MAH.","zip":"51902"},{"name":"KÜME2 MAH.","zip":"51902"},{"name":"KÜME3 MAH.","zip":"51902"},{"name":"KÜME3(İLEMİN KÜMESİ) MAH.","zip":"51902"},{"name":"KÜME4 MAH.","zip":"51902"},{"name":"KÜME5 MAH.","zip":"51902"},{"name":"KÜME5(AŞAĞIÖZ) MAH.","zip":"51902"},{"name":"KÜME6 MAH.","zip":"51902"},{"name":"KÜME6(YUKARIÖZ) MAH.","zip":"51902"},{"name":"KÜME7 MAH.","zip":"51902"},{"name":"KÜME7(SEYDİAHMET) MAH.","zip":"51902"},{"name":"KÜME8(AKYAR) MAH.","zip":"51902"},{"name":"KÜMEA MAH.","zip":"51902"},{"name":"KÜMEB MAH.","zip":"51902"},{"name":"MADENKÖY KÖYÜ","zip":"51902"},{"name":"OVACIK KÖYÜ","zip":"51902"},{"name":"PORSUK KÖYÜ","zip":"51902"},{"name":"ŞEYHÖMERLİ KÖYÜ","zip":"51902"},{"name":"TABAKLI KÖYÜ","zip":"51902"},{"name":"TEKNEÇUKUR KÖYÜ","zip":"51902"},{"name":"TEPEKÖY KÖYÜ","zip":"51902"},{"name":"TORAMAN KÖYÜ","zip":"51902"},{"name":"TOSUNALİ MAH.","zip":"51902"},{"name":"ÜNLÜYAKA KÖYÜ","zip":"51902"},{"name":"YENİYILDIZ KÖYÜ","zip":"51902"},{"name":"ZAFER MAH.","zip":"51902"}]},{"name":"ULUKIŞLA","cityName":null,"quarters":[{"name":"BALLIK MAH.","zip":"51900"},{"name":"ÇÖVEK MAH.","zip":"51900"},{"name":"DOĞU MAH.","zip":"51900"},{"name":"KADILAR MAH.","zip":"51900"},{"name":"KEMALPAŞA MAH.","zip":"51900"},{"name":"MEHMETPAŞA MAH.","zip":"51900"},{"name":"MISIRLI MAH.","zip":"51900"}]}]}]}