{"id":52,"name":"ORDU","cities":[{"name":"city","districts":[{"name":"AKKUŞ","cityName":null,"quarters":[{"name":"ÇALDERE MAH.","zip":"52950"},{"name":"ÇAMALAN MAH.","zip":"52950"},{"name":"ÇAMLICA MAH.","zip":"52950"},{"name":"ÇAVDAR MAH.","zip":"52950"},{"name":"ÇAYIRALAN MAH.","zip":"52950"},{"name":"ÇÖKEK MAH.","zip":"52950"},{"name":"ÇUKURKÖY MAH.","zip":"52950"},{"name":"DAĞYOLU MAH.","zip":"52950"},{"name":"DAMYERİ MAH.","zip":"52950"},{"name":"DÜĞENCİLİ MAH.","zip":"52950"},{"name":"ESENTEPE MAH.","zip":"52950"},{"name":"GEDİKLİ MAH.","zip":"52950"},{"name":"GÖKÇEBAYIR MAH.","zip":"52950"},{"name":"GÜRGENLİYATAK MAH.","zip":"52950"},{"name":"HALİLUŞAĞI MAH.","zip":"52950"},{"name":"KARAÇAL MAH.","zip":"52950"},{"name":"KARGI MAH.","zip":"52950"},{"name":"KEMİKGERİŞ MAH.","zip":"52950"},{"name":"KETENDERE MAH.","zip":"52950"},{"name":"KIZILELMA MAH.","zip":"52950"},{"name":"KOÇCUVAZ MAH.","zip":"52950"},{"name":"KURTBOĞAZ MAH.","zip":"52950"},{"name":"KUŞÇULU MAH.","zip":"52950"},{"name":"KÜLEKÇİLİ MAH.","zip":"52950"},{"name":"MERKEZ MAH.","zip":"52950"},{"name":"MEYVALI MAH.","zip":"52950"},{"name":"MURATLI MAH.","zip":"52950"},{"name":"ORMANCIK MAH.","zip":"52950"},{"name":"SALMAN MAH.","zip":"52950"},{"name":"SEFERLİ MAH.","zip":"52950"},{"name":"SUBAŞI MAH.","zip":"52950"},{"name":"ŞAHİNKÖY MAH.","zip":"52950"},{"name":"TUZAKKÖY MAH.","zip":"52950"},{"name":"YAZLIKBELEN MAH.","zip":"52950"},{"name":"YENİ MAH.","zip":"52950"},{"name":"YEŞİLGÜNEYCİK MAH.","zip":"52950"},{"name":"YEŞİLKÖY MAH.","zip":"52950"},{"name":"YOLBAŞI MAH.","zip":"52950"},{"name":"YUKARIDÜĞENCİLİ MAH.","zip":"52950"}]},{"name":"BAHCELİEVLER","cityName":null,"quarters":[{"name":"BAHÇELİEVLER MAH.","zip":"52200"},{"name":"BUCAK MAH.","zip":"52200"},{"name":"CUMHURİYET MAH.","zip":"52200"},{"name":"DURUGÖL MAH.","zip":"52200"},{"name":"KARAPINAR MAH.","zip":"52200"},{"name":"KARAPINAROSB MAH.","zip":"52200"},{"name":"KARŞIYAKA MAH.","zip":"52200"},{"name":"SUBAŞI MAH.","zip":"52200"},{"name":"ŞAHİNCİLİ MAH.","zip":"52200"},{"name":"ŞİRİNEVLER MAH.","zip":"52200"},{"name":"YENİ MAH.","zip":"52200"}]},{"name":"DÜZ MAHALLE","cityName":null,"quarters":[{"name":"DÜZ MAH.","zip":"52100"},{"name":"GÜZELYALI MAH.","zip":"52100"},{"name":"KİRAZLİMANI MAH.","zip":"52100"},{"name":"KUMBAŞI MAH.","zip":"52100"},{"name":"NİZAMETTİN MAH.","zip":"52100"},{"name":"SARAY MAH.","zip":"52100"},{"name":"SELİMİYE MAH.","zip":"52100"},{"name":"ŞARKİYE MAH.","zip":"52100"},{"name":"TAŞBAŞI MAH.","zip":"52100"},{"name":"ZAFERİMİLLİ MAH.","zip":"52100"}]},{"name":"SARAYCIK","cityName":null,"quarters":[{"name":"AKKİSE MAH.","zip":"52210"},{"name":"ALEMBEY MAH.","zip":"52210"},{"name":"ALINCA MAH.","zip":"52210"},{"name":"ALİSAYVAN MAH.","zip":"52210"},{"name":"ALTUNYURT MAH.","zip":"52210"},{"name":"ARPAKÖY MAH.","zip":"52210"},{"name":"ARTIKLI MAH.","zip":"52210"},{"name":"ATAKÖY MAH.","zip":"52210"},{"name":"AYDINLIK MAH.","zip":"52210"},{"name":"BAHARİYE MAH.","zip":"52210"},{"name":"BAYADI MAH.","zip":"52210"},{"name":"BAYRAMLI MAH.","zip":"52210"},{"name":"BOZTEPE MAH.","zip":"52210"},{"name":"BURHANETTİNKÖY MAH.","zip":"52210"},{"name":"CUMHURİYET (KÖY) MAH.","zip":"52210"},{"name":"ÇAVUŞLAR MAH.","zip":"52210"},{"name":"DEDELİ MAH.","zip":"52210"},{"name":"DELİKKAYA MAH.","zip":"52210"},{"name":"DİKENCE MAH.","zip":"52210"},{"name":"DÜZKÖY MAH.","zip":"52210"},{"name":"EMEN MAH.","zip":"52210"},{"name":"ERENLİ MAH.","zip":"52210"},{"name":"ESKİPAZAR MAH.","zip":"52210"},{"name":"EYÜPLÜ MAH.","zip":"52210"},{"name":"GERCE MAH.","zip":"52210"},{"name":"GÖKÖMER MAH.","zip":"52210"},{"name":"GÜMÜŞKÖY MAH.","zip":"52210"},{"name":"GÜNÖREN MAH.","zip":"52210"},{"name":"GÜZELYALI (UZUNİSA) MAH.","zip":"52210"},{"name":"HACILAR MAH.","zip":"52210"},{"name":"HATİPLİ MAH.","zip":"52210"},{"name":"HÜRRİYET MAH.","zip":"52210"},{"name":"IŞIKLI MAH.","zip":"52210"},{"name":"KARAAĞAÇ MAH.","zip":"52210"},{"name":"KARACAÖMER MAH.","zip":"52210"},{"name":"KARAOLUK MAH.","zip":"52210"},{"name":"KAYABAŞI MAH.","zip":"52210"},{"name":"KAYADİBİ MAH.","zip":"52210"},{"name":"KISACIK MAH.","zip":"52210"},{"name":"KIZILHİSAR MAH.","zip":"52210"},{"name":"KOVANCI MAH.","zip":"52210"},{"name":"KÖKENLİ MAH.","zip":"52210"},{"name":"KURTULMUŞ MAH.","zip":"52210"},{"name":"KUYLU MAH.","zip":"52210"},{"name":"MUBAREK MAH.","zip":"52210"},{"name":"OĞMACA MAH.","zip":"52210"},{"name":"ORHANİYE MAH.","zip":"52210"},{"name":"ORTAKÖY MAH.","zip":"52210"},{"name":"OSMANİYE MAH.","zip":"52210"},{"name":"ÖCELİ MAH.","zip":"52210"},{"name":"ÖRENCİK MAH.","zip":"52210"},{"name":"ÖVÜNDÜK MAH.","zip":"52210"},{"name":"PELİTLİ MAH.","zip":"52210"},{"name":"SAĞIRLI MAH.","zip":"52210"},{"name":"SARAYCIK MAH.","zip":"52210"},{"name":"ŞENKÖY MAH.","zip":"52210"},{"name":"ŞENOCAK MAH.","zip":"52210"},{"name":"TERZİLİ MAH.","zip":"52210"},{"name":"TEYNELİ MAH.","zip":"52210"},{"name":"TOPLUCA MAH.","zip":"52210"},{"name":"UZUNİSA MAH.","zip":"52210"},{"name":"UZUNMUSA MAH.","zip":"52210"},{"name":"YAĞIZLI MAH.","zip":"52210"},{"name":"YARAŞLI MAH.","zip":"52210"},{"name":"YEMİŞLİ MAH.","zip":"52210"},{"name":"YEŞİLKÖY MAH.","zip":"52210"},{"name":"YILDIZLI MAH.","zip":"52210"},{"name":"YUKARITEPE MAH.","zip":"52210"},{"name":"ZAFER MAH.","zip":"52210"}]},{"name":"AYBASTI","cityName":null,"quarters":[{"name":"ARMUTLU MAH.","zip":"52500"},{"name":"BEŞTAM MAH.","zip":"52500"},{"name":"ÇAKIRLI MAH.","zip":"52500"},{"name":"ÇUKUR MAH.","zip":"52500"},{"name":"ESENLİ MAH.","zip":"52500"},{"name":"FATİH MAH.","zip":"52500"},{"name":"HİSARCIK MAH.","zip":"52500"},{"name":"KARAMANLI MAH.","zip":"52500"},{"name":"KAYABAŞI MAH.","zip":"52500"},{"name":"KOYUNCULU MAH.","zip":"52500"},{"name":"KUTLULAR MAH.","zip":"52500"},{"name":"KÜÇÜKYAKA MAH.","zip":"52500"},{"name":"ORTAKÖY MAH.","zip":"52500"},{"name":"PELİTÖZÜ MAH.","zip":"52500"},{"name":"SAĞLIK MAH.","zip":"52500"},{"name":"SARIYAR MAH.","zip":"52500"},{"name":"SEFALIK MAH.","zip":"52500"},{"name":"TOYGAR MAH.","zip":"52500"},{"name":"UZUNDERE MAH.","zip":"52500"},{"name":"ZAFERİMİLLİ MAH.","zip":"52500"}]},{"name":"ÇAMAŞ","cityName":null,"quarters":[{"name":"AKPINAR MAH.","zip":"52430"},{"name":"BUDAK MAH.","zip":"52430"},{"name":"BURHAN GÜNEYİ MAH.","zip":"52430"},{"name":"ÇAVUŞBAŞI MAH.","zip":"52430"},{"name":"DANIŞMAN MAH.","zip":"52430"},{"name":"EDİRLİ MAH.","zip":"52430"},{"name":"GİDEN MAH.","zip":"52430"},{"name":"GÜMÜŞLÜ MAH.","zip":"52430"},{"name":"HİSARBEY MAH.","zip":"52430"},{"name":"KEMAL PAŞA MAH.","zip":"52430"},{"name":"KESTANEYOKUŞU MAH.","zip":"52430"},{"name":"KOCAMAN MAH.","zip":"52430"},{"name":"ÖRMELİ MAH.","zip":"52430"},{"name":"SAİTLER MAH.","zip":"52430"},{"name":"SAKARGERİŞ MAH.","zip":"52430"},{"name":"SARIYAKUP MAH.","zip":"52430"},{"name":"SÖKEN MAH.","zip":"52430"},{"name":"SUCUALİ MAH.","zip":"52430"},{"name":"TAŞOLUK MAH.","zip":"52430"},{"name":"TEPELİ MAH.","zip":"52430"},{"name":"UZUNALİ MAH.","zip":"52430"},{"name":"YENİ MAH.","zip":"52430"}]},{"name":"ÇATALPINAR","cityName":null,"quarters":[{"name":"DERE MAH.","zip":"52420"},{"name":"ELMAKÖY MAH.","zip":"52420"},{"name":"GÖLLER MAH.","zip":"52420"},{"name":"GÜNDOĞDU MAH.","zip":"52420"},{"name":"GÜNEY MAH.","zip":"52420"},{"name":"GÜNEYCE MAH.","zip":"52420"},{"name":"HAŞAL MAH.","zip":"52420"},{"name":"HATİPLER MAH.","zip":"52420"},{"name":"İNCİRLİ MAH.","zip":"52420"},{"name":"KARAHAMZA MAH.","zip":"52420"},{"name":"KARAHASAN MAH.","zip":"52420"},{"name":"KARŞIYAKA MAH.","zip":"52420"},{"name":"KAYATEPE MAH.","zip":"52420"},{"name":"KEÇİLİ MAH.","zip":"52420"},{"name":"KIRAN MAH.","zip":"52420"},{"name":"MADENKÖY MAH.","zip":"52420"},{"name":"MERKEZ MAH.","zip":"52420"},{"name":"ORTAKÖY MAH.","zip":"52420"},{"name":"SAYACATÜRK MAH.","zip":"52420"},{"name":"ŞİRİNKÖY MAH.","zip":"52420"},{"name":"TERİMLİ MAH.","zip":"52420"},{"name":"YENİ MAH.","zip":"52420"}]},{"name":"ÇAYBAŞI","cityName":null,"quarters":[{"name":"AŞIKLI ÇAKILLI MAH.","zip":"52310"},{"name":"BORAS MAH.","zip":"52310"},{"name":"CEMALLI MAH.","zip":"52310"},{"name":"CEVİZLİYATAK MAH.","zip":"52310"},{"name":"ÇAĞLAYAN MAH.","zip":"52310"},{"name":"ÇANDIR MAH.","zip":"52310"},{"name":"ÇAY MAH.","zip":"52310"},{"name":"ÇAYIR MAH.","zip":"52310"},{"name":"ÇINAR MAH.","zip":"52310"},{"name":"EĞRİBEL MAH.","zip":"52310"},{"name":"GÖKSU MAH.","zip":"52310"},{"name":"GÜRCEK MAH.","zip":"52310"},{"name":"HACIALİ MAH.","zip":"52310"},{"name":"İÇERİBÜKÜ MAH.","zip":"52310"},{"name":"İLKÜVEZ MAH.","zip":"52310"},{"name":"KAPILI MAH.","zip":"52310"},{"name":"KARGALI MAH.","zip":"52310"},{"name":"KÖKLÜK MAH.","zip":"52310"},{"name":"KURUDERE MAH.","zip":"52310"},{"name":"KUŞLU MAH.","zip":"52310"},{"name":"MOLLALI MAH.","zip":"52310"},{"name":"NAMAZLI MAH.","zip":"52310"},{"name":"TAŞKESİĞİ MAH.","zip":"52310"},{"name":"TEKKE MAH.","zip":"52310"},{"name":"YENİCUMA MAH.","zip":"52310"}]},{"name":"FATSA","cityName":null,"quarters":[{"name":"ARPALIK MAH.","zip":"52400"},{"name":"ASLANCAMİ MAH.","zip":"52400"},{"name":"AŞAĞIARDIÇ MAH.","zip":"52400"},{"name":"AŞAĞITEPE MAH.","zip":"52400"},{"name":"AŞAĞIYAVAŞ MAH.","zip":"52400"},{"name":"AYAZLI MAH.","zip":"52400"},{"name":"BACANAK MAH.","zip":"52400"},{"name":"BAĞLARCA MAH.","zip":"52400"},{"name":"BAHÇELER MAH.","zip":"52400"},{"name":"BAŞKÖY MAH.","zip":"52400"},{"name":"BEYCELİ MAH.","zip":"52400"},{"name":"BOLAMAN MAH.","zip":"52400"},{"name":"BOZDAĞI MAH.","zip":"52400"},{"name":"BUCAKLI MAH.","zip":"52400"},{"name":"BUHARİ MAH.","zip":"52400"},{"name":"BÜLBÜL MAH.","zip":"52400"},{"name":"BÜYÜKKOÇ MAH.","zip":"52400"},{"name":"ÇÖMLEKLİ MAH.","zip":"52400"},{"name":"ÇÖTELÜ MAH.","zip":"52400"},{"name":"DEMİRCİ MAH.","zip":"52400"},{"name":"DEREYURT MAH.","zip":"52400"},{"name":"DOLUNAY MAH.","zip":"52400"},{"name":"DUAYERİ MAH.","zip":"52400"},{"name":"DUMLUPINAR MAH.","zip":"52400"},{"name":"DÜĞÜNLÜK MAH.","zip":"52400"},{"name":"ESKİORDU MAH.","zip":"52400"},{"name":"EVKAF MAH.","zip":"52400"},{"name":"FATİH MAH.","zip":"52400"},{"name":"FATSA OSB MAH.","zip":"52400"},{"name":"GEYİKÇELİ MAH.","zip":"52400"},{"name":"GÖLKÖY MAH.","zip":"52400"},{"name":"GÜVERCİNLİK MAH.","zip":"52400"},{"name":"HAMLIK MAH.","zip":"52400"},{"name":"HATİPLİ MAH.","zip":"52400"},{"name":"HIDIRBEYLİ MAH.","zip":"52400"},{"name":"HOYLU MAH.","zip":"52400"},{"name":"ILICA MAH.","zip":"52400"},{"name":"İNÖNÜ MAH.","zip":"52400"},{"name":"İSLAMDAĞ MAH.","zip":"52400"},{"name":"KABAKDAĞI MAH.","zip":"52400"},{"name":"KALEÖNÜ MAH.","zip":"52400"},{"name":"KARATAŞ MAH.","zip":"52400"},{"name":"KARGUCAK MAH.","zip":"52400"},{"name":"KARŞIYAKA MAH.","zip":"52400"},{"name":"KAVRAZ MAH.","zip":"52400"},{"name":"KAYACA MAH.","zip":"52400"},{"name":"KAYAKÖY AKÇAKESE MAH.","zip":"52400"},{"name":"KILAVUZÖMER MAH.","zip":"52400"},{"name":"KILIÇLI MAH.","zip":"52400"},{"name":"KONAKBAŞI MAH.","zip":"52400"},{"name":"KÖSEBUCAĞI MAH.","zip":"52400"},{"name":"KULAK MAH.","zip":"52400"},{"name":"KURTULUŞ MAH.","zip":"52400"},{"name":"KÜÇÜKKOÇ MAH.","zip":"52400"},{"name":"KÜPDÜŞEN MAH.","zip":"52400"},{"name":"MEHMETAKİF MAH.","zip":"52400"},{"name":"MEŞEBÜKÜ MAH.","zip":"52400"},{"name":"MUSTAFAKEMALPAŞA MAH.","zip":"52400"},{"name":"OLUKLU MAH.","zip":"52400"},{"name":"ÖRENCİK MAH.","zip":"52400"},{"name":"PALAZLI KÖMÜRLÜK MAH.","zip":"52400"},{"name":"SAKARYA MAH.","zip":"52400"},{"name":"SALİHLİ MAH.","zip":"52400"},{"name":"SARAYTEPE MAH.","zip":"52400"},{"name":"SAZCILAR MAH.","zip":"52400"},{"name":"SEFAKÖY MAH.","zip":"52400"},{"name":"SUDERE MAH.","zip":"52400"},{"name":"ŞEREFİYE MAH.","zip":"52400"},{"name":"TAHTABAŞ MAH.","zip":"52400"},{"name":"TAŞLICA MAH.","zip":"52400"},{"name":"TAYALI MAH.","zip":"52400"},{"name":"TEPECİK MAH.","zip":"52400"},{"name":"UZUNDERE MAH.","zip":"52400"},{"name":"YALIKÖY MAH.","zip":"52400"},{"name":"YAPRAKLI MAH.","zip":"52400"},{"name":"YASSIBAHÇE MAH.","zip":"52400"},{"name":"YASSITAŞ MAH.","zip":"52400"},{"name":"YAVAŞ MAH.","zip":"52400"},{"name":"YENİDOĞAN MAH.","zip":"52400"},{"name":"YENİKENT MAH.","zip":"52400"},{"name":"YENİPAZAR MAH.","zip":"52400"},{"name":"YENİYURT MAH.","zip":"52400"},{"name":"YEŞİLKÖY MAH.","zip":"52400"},{"name":"YEŞİLTEPE MAH.","zip":"52400"},{"name":"YUKARIARDIÇ MAH.","zip":"52400"},{"name":"YUKARIBAHÇELER MAH.","zip":"52400"},{"name":"YUKARITEPE MAH.","zip":"52400"},{"name":"YUSUFLU MAH.","zip":"52400"}]},{"name":"GÖLKÖY","cityName":null,"quarters":[{"name":"AKÇALI MAH.","zip":"52600"},{"name":"ALANYURT MAH.","zip":"52600"},{"name":"AYDOĞAN MAH.","zip":"52600"},{"name":"BAYIRALAN MAH.","zip":"52600"},{"name":"BULUT MAH.","zip":"52600"},{"name":"CİHADİYE MAH.","zip":"52600"},{"name":"ÇATAK MAH.","zip":"52600"},{"name":"ÇETİLLİ MAH.","zip":"52600"},{"name":"DAMARLI MAH.","zip":"52600"},{"name":"DİREKLİ MAH.","zip":"52600"},{"name":"DÜZYAYLA MAH.","zip":"52600"},{"name":"EMİRLER MAH.","zip":"52600"},{"name":"GÖLKÖY MAH.","zip":"52600"},{"name":"GÜZELYAYLA MAH.","zip":"52600"},{"name":"GÜZELYURT MAH.","zip":"52600"},{"name":"HARUNİYE MAH.","zip":"52600"},{"name":"HÜRRİYET MAH.","zip":"52600"},{"name":"İÇYAKA MAH.","zip":"52600"},{"name":"KALE MAH.","zip":"52600"},{"name":"KARAGÖZ MAH.","zip":"52600"},{"name":"KARAHASAN MAH.","zip":"52600"},{"name":"KONAK MAH.","zip":"52600"},{"name":"KOZÖREN MAH.","zip":"52600"},{"name":"KUŞLUVAN MAH.","zip":"52600"},{"name":"ÖZLÜ MAH.","zip":"52600"},{"name":"PAŞAPINAR MAH.","zip":"52600"},{"name":"SARICA MAH.","zip":"52600"},{"name":"SÜLEYMANİYE MAH.","zip":"52600"},{"name":"YUVAPINAR MAH.","zip":"52600"}]},{"name":"GÜLYALI","cityName":null,"quarters":[{"name":"AMBARCILI MAH.","zip":"52010"},{"name":"AYRILIK MAH.","zip":"52010"},{"name":"GÜLİSTAN MAH.","zip":"52010"},{"name":"HOŞKÖY MAH.","zip":"52010"},{"name":"KESTANE MAH.","zip":"52010"},{"name":"MUSTAFALI MAH.","zip":"52010"},{"name":"SAYACA MAH.","zip":"52010"},{"name":"TAŞLIÇAY MAH.","zip":"52010"},{"name":"TEPEALTI MAH.","zip":"52010"},{"name":"TURNASUYU MAH.","zip":"52010"},{"name":"ÜRÜMBEY MAH.","zip":"52010"},{"name":"YENİKÖY MAH.","zip":"52010"}]},{"name":"GÜRGENTEPE","cityName":null,"quarters":[{"name":"AKMESCİT MAH.","zip":"52610"},{"name":"AKÖREN MAH.","zip":"52610"},{"name":"AKYURT MAH.","zip":"52610"},{"name":"ALASEHER MAH.","zip":"52610"},{"name":"BAHTİYARLAR MAH.","zip":"52610"},{"name":"CUMHURİYET MAH.","zip":"52610"},{"name":"ÇATALAĞAÇ MAH.","zip":"52610"},{"name":"DÖŞEK MAH.","zip":"52610"},{"name":"ESKİKÖY MAH.","zip":"52610"},{"name":"GÖLLER MAH.","zip":"52610"},{"name":"GÜLBELEN MAH.","zip":"52610"},{"name":"GÜLTEPE MAH.","zip":"52610"},{"name":"HASANCIK MAH.","zip":"52610"},{"name":"IŞIKTEPE MAH.","zip":"52610"},{"name":"KİRAZGÜNEYİ MAH.","zip":"52610"},{"name":"MURATÇIK MAH.","zip":"52610"},{"name":"OKÇABEL MAH.","zip":"52610"},{"name":"ŞİRİNKÖY MAH.","zip":"52610"},{"name":"TEPEKÖY MAH.","zip":"52610"},{"name":"TİKENLİCE MAH.","zip":"52610"},{"name":"TUZLA MAH.","zip":"52610"},{"name":"YURTSEVEN MAH.","zip":"52610"}]},{"name":"İKİZCE","cityName":null,"quarters":[{"name":"AŞAĞI KARLITEPE MAH.","zip":"52320"},{"name":"AŞAĞI KAYNARTAŞ MAH.","zip":"52320"},{"name":"BAŞÖNÜ MAH.","zip":"52320"},{"name":"BEYLERCE MAH.","zip":"52320"},{"name":"DEREBAŞI MAH.","zip":"52320"},{"name":"DEVECİK MAH.","zip":"52320"},{"name":"DİYEK MAH.","zip":"52320"},{"name":"DUMANTEPE MAH.","zip":"52320"},{"name":"DÜZMEŞE MAH.","zip":"52320"},{"name":"DÜZPELİT MAH.","zip":"52320"},{"name":"ENAĞIZLI MAH.","zip":"52320"},{"name":"ESENTEPE MAH.","zip":"52320"},{"name":"FATİH MAH.","zip":"52320"},{"name":"GAZİLER MAH.","zip":"52320"},{"name":"KALE MAH.","zip":"52320"},{"name":"KERVANSARAY MAH.","zip":"52320"},{"name":"KİRAZTEPE MAH.","zip":"52320"},{"name":"KOCAMAN MAH.","zip":"52320"},{"name":"KURTKÖY MAH.","zip":"52320"},{"name":"KURTLUCA MAH.","zip":"52320"},{"name":"MERKEZ MAH.","zip":"52320"},{"name":"ÖZPINAR MAH.","zip":"52320"},{"name":"SEYMENLİ MAH.","zip":"52320"},{"name":"ŞENBOLLUK MAH.","zip":"52320"},{"name":"TOMBAŞLI MAH.","zip":"52320"},{"name":"YENİCE MAH.","zip":"52320"},{"name":"YOĞUNOLUK MAH.","zip":"52320"},{"name":"YUKARI KARLITEPE MAH.","zip":"52320"},{"name":"YUKARI KAYNARTAŞ MAH.","zip":"52320"},{"name":"YUNUSKIRIĞI MAH.","zip":"52320"}]},{"name":"KARADÜZ","cityName":null,"quarters":[{"name":"BAŞKÖY MAH.","zip":"52020"},{"name":"DERİNÇAY MAH.","zip":"52020"},{"name":"DİŞKAYA MAH.","zip":"52020"},{"name":"ESENYURT MAH.","zip":"52020"},{"name":"GELİNKAYA MAH.","zip":"52020"},{"name":"GÜLPINAR MAH.","zip":"52020"},{"name":"GÜMÜŞDERE MAH.","zip":"52020"},{"name":"HARAMİ MAH.","zip":"52020"},{"name":"KABADÜZ MAH.","zip":"52020"},{"name":"KARAKİRAZ MAH.","zip":"52020"},{"name":"KİRAZDERE MAH.","zip":"52020"},{"name":"MUSAKIRIK MAH.","zip":"52020"},{"name":"ÖZLÜKENT MAH.","zip":"52020"},{"name":"TURNALIK MAH.","zip":"52020"},{"name":"YEŞİLADA MAH.","zip":"52020"},{"name":"YEŞİLYURT MAH.","zip":"52020"},{"name":"YOKUŞDİBİ MAH.","zip":"52020"},{"name":"YUKARI KİRAZDERE MAH.","zip":"52020"}]},{"name":"KABATAŞ","cityName":null,"quarters":[{"name":"ALANKENT MAH.","zip":"52520"},{"name":"ARDIÇ MAH.","zip":"52520"},{"name":"BELEN MAH.","zip":"52520"},{"name":"BEYLERLİ MAH.","zip":"52520"},{"name":"ÇUKURCAK MAH.","zip":"52520"},{"name":"DÜZ MAH.","zip":"52520"},{"name":"ECELİ MAH.","zip":"52520"},{"name":"ELBEYİ MAH.","zip":"52520"},{"name":"HOŞKADEM MAH.","zip":"52520"},{"name":"ILICAK MAH.","zip":"52520"},{"name":"KABATAŞ YENİ MAH.","zip":"52520"},{"name":"KAYINCIK MAH.","zip":"52520"},{"name":"KUZKÖY MAH.","zip":"52520"},{"name":"MERKEZ MAH.","zip":"52520"},{"name":"ŞİFA SUYU MAH.","zip":"52520"},{"name":"YAKACIK MAH.","zip":"52520"},{"name":"YENİCELİ MAH.","zip":"52520"}]},{"name":"KORGAN","cityName":null,"quarters":[{"name":"AŞAĞIYAYLACIK MAH.","zip":"52700"},{"name":"BELALAN MAH.","zip":"52700"},{"name":"BEYPINARI MAH.","zip":"52700"},{"name":"BÜYÜKAKÇAKESE MAH.","zip":"52700"},{"name":"ÇAMLI MAH.","zip":"52700"},{"name":"ÇAYIRKENT MAH.","zip":"52700"},{"name":"ÇİFTLİK MAH.","zip":"52700"},{"name":"ÇİTLİCE MAH.","zip":"52700"},{"name":"DİP MAH.","zip":"52700"},{"name":"DURALİ MAH.","zip":"52700"},{"name":"KARAKIŞLA MAH.","zip":"52700"},{"name":"KARAKOYUNLU MAH.","zip":"52700"},{"name":"KOÇCUĞAZ MAH.","zip":"52700"},{"name":"SARIALIÇ MAH.","zip":"52700"},{"name":"SOĞUKPINAR MAH.","zip":"52700"},{"name":"TATARCIK MAH.","zip":"52700"},{"name":"TEPE MAH.","zip":"52700"},{"name":"TEPEALAN MAH.","zip":"52700"},{"name":"TERZİLİ MAH.","zip":"52700"},{"name":"YAZICI MAH.","zip":"52700"},{"name":"YAZLIK MAH.","zip":"52700"},{"name":"YENİKÖY MAH.","zip":"52700"},{"name":"YENİPINAR MAH.","zip":"52700"},{"name":"YEŞİLALAN MAH.","zip":"52700"},{"name":"YEŞİLDERE MAH.","zip":"52700"},{"name":"YEŞİLYURT MAH.","zip":"52700"},{"name":"YUKARIKOZPINAR MAH.","zip":"52700"},{"name":"YUKARIYAYLACIK MAH.","zip":"52700"}]},{"name":"KUMRU","cityName":null,"quarters":[{"name":"AKÇADERE MAH.","zip":"52800"},{"name":"AVDULLU MAH.","zip":"52800"},{"name":"AYVALI MAH.","zip":"52800"},{"name":"BALI MAH.","zip":"52800"},{"name":"BALLIK MAH.","zip":"52800"},{"name":"ÇATILI MAH.","zip":"52800"},{"name":"DEMİRCİLİ MAH.","zip":"52800"},{"name":"DERBENT MAH.","zip":"52800"},{"name":"DEREKÖY MAH.","zip":"52800"},{"name":"DİVANITÜRK MAH.","zip":"52800"},{"name":"DUMAN MAH.","zip":"52800"},{"name":"ERGENTÜRK MAH.","zip":"52800"},{"name":"ERİKÇELİ MAH.","zip":"52800"},{"name":"ESENCE MAH.","zip":"52800"},{"name":"ESKİÇOKDEĞİRMEN MAH.","zip":"52800"},{"name":"FATİH MAH.","zip":"52800"},{"name":"FİZME MAH.","zip":"52800"},{"name":"GÖKÇELİ MAH.","zip":"52800"},{"name":"GÜNEYCİK MAH.","zip":"52800"},{"name":"KADINCIK MAH.","zip":"52800"},{"name":"KARAAĞAÇ MAH.","zip":"52800"},{"name":"KARACALAR MAH.","zip":"52800"},{"name":"KARACALI MAH.","zip":"52800"},{"name":"KAYABAŞI MAH.","zip":"52800"},{"name":"KONAKLI MAH.","zip":"52800"},{"name":"KOVANCILI MAH.","zip":"52800"},{"name":"KURTULUŞ MAH.","zip":"52800"},{"name":"KÜÇÜKAKÇAKESE MAH.","zip":"52800"},{"name":"ORTACA MAH.","zip":"52800"},{"name":"ORTAÇOKDEĞİRMEN MAH.","zip":"52800"},{"name":"SAMUR MAH.","zip":"52800"},{"name":"ŞENYURT MAH.","zip":"52800"},{"name":"TEKKEKÖY MAH.","zip":"52800"},{"name":"YALNIZDAM MAH.","zip":"52800"},{"name":"YEMİŞKEN MAH.","zip":"52800"},{"name":"YENİAKÇAALAN MAH.","zip":"52800"},{"name":"YENİDİVAN MAH.","zip":"52800"},{"name":"YENİERGEN MAH.","zip":"52800"},{"name":"YUKARIDAMLALI MAH.","zip":"52800"}]},{"name":"MESUDİYE","cityName":null,"quarters":[{"name":"ALAN MAH.","zip":"52900"},{"name":"ARICILAR MAH.","zip":"52900"},{"name":"ARIKMUSA MAH.","zip":"52900"},{"name":"ARMUTKOLU MAH.","zip":"52900"},{"name":"ARPAALAN MAH.","zip":"52900"},{"name":"AŞAĞIGÖKÇE MAH.","zip":"52900"},{"name":"AŞIKLI MAH.","zip":"52900"},{"name":"BAHÇE MAH.","zip":"52900"},{"name":"BALIKLI MAH.","zip":"52900"},{"name":"BAYIRKÖY MAH.","zip":"52900"},{"name":"BAYRAKLI MAH.","zip":"52900"},{"name":"BEŞPINAR MAH.","zip":"52900"},{"name":"BEYAĞAÇ MAH.","zip":"52900"},{"name":"BEYSEKİ MAH.","zip":"52900"},{"name":"BİREBİR MAH.","zip":"52900"},{"name":"CELAL MAH.","zip":"52900"},{"name":"ÇALTEPE MAH.","zip":"52900"},{"name":"ÇARDAKLI MAH.","zip":"52900"},{"name":"ÇAVDAR MAH.","zip":"52900"},{"name":"ÇERÇİ MAH.","zip":"52900"},{"name":"ÇİTLİKSARICA MAH.","zip":"52900"},{"name":"ÇUKURALAN MAH.","zip":"52900"},{"name":"DARICABAŞI MAH.","zip":"52900"},{"name":"DAYILI MAH.","zip":"52900"},{"name":"DEREBAŞI MAH.","zip":"52900"},{"name":"DOĞANÇAM MAH.","zip":"52900"},{"name":"DURSUNLU MAH.","zip":"52900"},{"name":"ERİKKÖY MAH.","zip":"52900"},{"name":"ESATLI MAH.","zip":"52900"},{"name":"GÖÇBEYİ MAH.","zip":"52900"},{"name":"GÖLBAŞI MAH.","zip":"52900"},{"name":"GÜLPINAR MAH.","zip":"52900"},{"name":"GÜNEYCE MAH.","zip":"52900"},{"name":"GÜVENLİ MAH.","zip":"52900"},{"name":"GÜZELCE MAH.","zip":"52900"},{"name":"GÜZLE MAH.","zip":"52900"},{"name":"HAMZALI MAH.","zip":"52900"},{"name":"HERKÖZÜ MAH.","zip":"52900"},{"name":"ILIŞAR MAH.","zip":"52900"},{"name":"KALE MAH.","zip":"52900"},{"name":"KARABAYIR MAH.","zip":"52900"},{"name":"KARACAÖREN MAH.","zip":"52900"},{"name":"KAVAKLIDERE MAH.","zip":"52900"},{"name":"KAYADİBİ MAH.","zip":"52900"},{"name":"KIŞLACIK MAH.","zip":"52900"},{"name":"KONACIK MAH.","zip":"52900"},{"name":"KÖŞE MAH.","zip":"52900"},{"name":"MAHMUDİYE MAH.","zip":"52900"},{"name":"MAKSUTALAN MAH.","zip":"52900"},{"name":"MERKEZ MAH.","zip":"52900"},{"name":"MUSALI MAH.","zip":"52900"},{"name":"MÜSLÜM SARICA MAH.","zip":"52900"},{"name":"PINARLI MAH.","zip":"52900"},{"name":"SARICA MAH.","zip":"52900"},{"name":"SARIYAYLA MAH.","zip":"52900"},{"name":"TOPÇAM MAH.","zip":"52900"},{"name":"TÜRKKÖYÜ MAH.","zip":"52900"},{"name":"ÜÇYOL MAH.","zip":"52900"},{"name":"YAĞMURLAR MAH.","zip":"52900"},{"name":"YARDERE MAH.","zip":"52900"},{"name":"YAVŞAN MAH.","zip":"52900"},{"name":"YENİMAHALLE MAH.","zip":"52900"},{"name":"YEŞİLCE MAH.","zip":"52900"},{"name":"YEŞİLÇİT MAH.","zip":"52900"},{"name":"YEVELİ MAH.","zip":"52900"},{"name":"YUKARIGÖKÇE MAH.","zip":"52900"},{"name":"YUVALI MAH.","zip":"52900"}]},{"name":"PERŞEMBE","cityName":null,"quarters":[{"name":"ANAÇ MAH.","zip":"52750"},{"name":"AZİZİYE MAH.","zip":"52750"},{"name":"BABALI MAH.","zip":"52750"},{"name":"BEKİRLİ MAH.","zip":"52750"},{"name":"BEYLİ MAH.","zip":"52750"},{"name":"BOĞAZCIK MAH.","zip":"52750"},{"name":"BOLATLI MAH.","zip":"52750"},{"name":"ÇAMARASI MAH.","zip":"52750"},{"name":"ÇANDIR MAH.","zip":"52750"},{"name":"ÇAYTEPE MAH.","zip":"52750"},{"name":"ÇERLİ MAH.","zip":"52750"},{"name":"ÇINAR MAH.","zip":"52750"},{"name":"DEREİÇİ MAH.","zip":"52750"},{"name":"DOĞAN MAH.","zip":"52750"},{"name":"DÜZ MAH.","zip":"52750"},{"name":"EFİRLİ MAH.","zip":"52750"},{"name":"EKİNCİLER MAH.","zip":"52750"},{"name":"GÜNDOĞDU MAH.","zip":"52750"},{"name":"GÜZELYURT MAH.","zip":"52750"},{"name":"HACILAR MAH.","zip":"52750"},{"name":"HAMİDİYE MAH.","zip":"52750"},{"name":"İMEÇLİ MAH.","zip":"52750"},{"name":"İSTANBULBOĞAZI MAH.","zip":"52750"},{"name":"KACALI MAH.","zip":"52750"},{"name":"KALEYAKA MAH.","zip":"52750"},{"name":"KAZANCILI MAH.","zip":"52750"},{"name":"KIRLI MAH.","zip":"52750"},{"name":"KOVANLI MAH.","zip":"52750"},{"name":"KOZAĞZI MAH.","zip":"52750"},{"name":"KURTULUŞ MAH.","zip":"52750"},{"name":"KUTLUCA MAH.","zip":"52750"},{"name":"KUYLUCA MAH.","zip":"52750"},{"name":"MEDRESEÖNÜ MAH.","zip":"52750"},{"name":"MERSİN MAH.","zip":"52750"},{"name":"NENELİ MAH.","zip":"52750"},{"name":"OKÇULU MAH.","zip":"52750"},{"name":"ORTATEPE MAH.","zip":"52750"},{"name":"RAMAZAN MAH.","zip":"52750"},{"name":"SARAY MAH.","zip":"52750"},{"name":"SELİMİYE MAH.","zip":"52750"},{"name":"SIRAKOVANCI MAH.","zip":"52750"},{"name":"SOĞUKPINAR MAH.","zip":"52750"},{"name":"ŞENYURT MAH.","zip":"52750"},{"name":"TARLACIK MAH.","zip":"52750"},{"name":"TEPECİK MAH.","zip":"52750"},{"name":"TEPEKÖY MAH.","zip":"52750"},{"name":"TÖNGELDÜZÜ MAH.","zip":"52750"},{"name":"YARLI MAH.","zip":"52750"},{"name":"YAZLIK MAH.","zip":"52750"},{"name":"YENİKÖY MAH.","zip":"52750"},{"name":"YENİÖZ MAH.","zip":"52750"},{"name":"YEŞİLKÖY MAH.","zip":"52750"},{"name":"YUMRUTAŞ MAH.","zip":"52750"}]},{"name":"ULUBEY","cityName":null,"quarters":[{"name":"AKPINAR MAH.","zip":"52850"},{"name":"AYDINLAR MAH.","zip":"52850"},{"name":"BAŞÇARDAK MAH.","zip":"52850"},{"name":"BELENYURT MAH.","zip":"52850"},{"name":"CEVİZLİK MAH.","zip":"52850"},{"name":"ÇAĞLAYAN MAH.","zip":"52850"},{"name":"ÇATALLI MAH.","zip":"52850"},{"name":"ÇUBUKLU MAH.","zip":"52850"},{"name":"ÇUKUR MAH.","zip":"52850"},{"name":"DOĞLU MAH.","zip":"52850"},{"name":"DURAK MAH.","zip":"52850"},{"name":"ELMAÇUKUR MAH.","zip":"52850"},{"name":"EYMÜR MAH.","zip":"52850"},{"name":"FINDIKLI MAH.","zip":"52850"},{"name":"GÜNDÜZLÜ MAH.","zip":"52850"},{"name":"GÜVENKÖY MAH.","zip":"52850"},{"name":"GÜVENYURT MAH.","zip":"52850"},{"name":"GÜZELYURT MAH.","zip":"52850"},{"name":"HOCAOĞLU MAH.","zip":"52850"},{"name":"KADINCIK MAH.","zip":"52850"},{"name":"KALICAK MAH.","zip":"52850"},{"name":"KARAKOCA MAH.","zip":"52850"},{"name":"KARDEŞLER MAH.","zip":"52850"},{"name":"KIRANYAĞMUR MAH.","zip":"52850"},{"name":"KİRAZLIK MAH.","zip":"52850"},{"name":"KOŞACA MAH.","zip":"52850"},{"name":"KUMANLAR MAH.","zip":"52850"},{"name":"KUMRULU MAH.","zip":"52850"},{"name":"OHTAMIŞ MAH.","zip":"52850"},{"name":"OYUMGÜRGEN MAH.","zip":"52850"},{"name":"ÖREN MAH.","zip":"52850"},{"name":"REFAHİYE MAH.","zip":"52850"},{"name":"ŞAHİNKAYA MAH.","zip":"52850"},{"name":"ŞEKEROLUK MAH.","zip":"52850"},{"name":"ŞIHLAR MAH.","zip":"52850"},{"name":"UZUNMAHMUT MAH.","zip":"52850"},{"name":"YENİMAHALLE MAH.","zip":"52850"},{"name":"YENİSAYACA MAH.","zip":"52850"},{"name":"YOLBAŞI MAH.","zip":"52850"},{"name":"YUKARIKIZILEN MAH.","zip":"52850"}]},{"name":"ÜNYE","cityName":null,"quarters":[{"name":"ATAKÖY MAH.","zip":"52300"},{"name":"ATATÜRK MAH.","zip":"52300"},{"name":"AYDINTEPE MAH.","zip":"52300"},{"name":"BAŞKÖY MAH.","zip":"52300"},{"name":"BAYRAMCA MAH.","zip":"52300"},{"name":"BEYLERCE MAH.","zip":"52300"},{"name":"BURUNUCU MAH.","zip":"52300"},{"name":"CEVİZDERE MAH.","zip":"52300"},{"name":"ÇAKMAK MAH.","zip":"52300"},{"name":"ÇAMURLU MAH.","zip":"52300"},{"name":"ÇATAK MAH.","zip":"52300"},{"name":"ÇATALPINAR MAH.","zip":"52300"},{"name":"ÇATALTEPE MAH.","zip":"52300"},{"name":"ÇINARCIK MAH.","zip":"52300"},{"name":"ÇINARLIK MAH.","zip":"52300"},{"name":"ÇİĞDEM MAH.","zip":"52300"},{"name":"DENİZBÜKÜ MAH.","zip":"52300"},{"name":"DEREKÖY MAH.","zip":"52300"},{"name":"DİZDAR MAH.","zip":"52300"},{"name":"DÖŞEMEDİBİ MAH.","zip":"52300"},{"name":"DÜZKÖY MAH.","zip":"52300"},{"name":"DÜZSAYLAN MAH.","zip":"52300"},{"name":"ELMALIK MAH.","zip":"52300"},{"name":"ERENYURT MAH.","zip":"52300"},{"name":"ESENKALE MAH.","zip":"52300"},{"name":"ESKİKIZILCAKESE MAH.","zip":"52300"},{"name":"FATİH MAH.","zip":"52300"},{"name":"FEVZİ ÇAKMAK MAH.","zip":"52300"},{"name":"GÖBÜ MAH.","zip":"52300"},{"name":"GÖLCÜĞEZ MAH.","zip":"52300"},{"name":"GÖLEVİ MAH.","zip":"52300"},{"name":"GÜNPINARI MAH.","zip":"52300"},{"name":"GÜRECÜLÜ MAH.","zip":"52300"},{"name":"GÜZELKALE MAH.","zip":"52300"},{"name":"GÜZELYALI MAH.","zip":"52300"},{"name":"HAMİDİYE MAH.","zip":"52300"},{"name":"HANYANI MAH.","zip":"52300"},{"name":"HIZABAŞIGÜNLÜK MAH.","zip":"52300"},{"name":"HIZARBAŞIKUMARLI MAH.","zip":"52300"},{"name":"İNKUR MAH.","zip":"52300"},{"name":"İPEKYOLU MAH.","zip":"52300"},{"name":"KADILAR MAH.","zip":"52300"},{"name":"KALE MAH.","zip":"52300"},{"name":"KALEDERE MAH.","zip":"52300"},{"name":"KALEDİBİ MAH.","zip":"52300"},{"name":"KARŞIYAKA MAH.","zip":"52300"},{"name":"KEŞ MAH.","zip":"52300"},{"name":"KİLLİK MAH.","zip":"52300"},{"name":"KOCUKLU MAH.","zip":"52300"},{"name":"KUŞÇULU MAH.","zip":"52300"},{"name":"KUŞDOĞAN MAH.","zip":"52300"},{"name":"LİSELER MAH.","zip":"52300"},{"name":"NADİRLİ MAH.","zip":"52300"},{"name":"NURETTİN MAH.","zip":"52300"},{"name":"NURİYE MAH.","zip":"52300"},{"name":"ORTA YILMAZLAR MAH.","zip":"52300"},{"name":"ORTAKÖY MAH.","zip":"52300"},{"name":"PELİTLİYATAK MAH.","zip":"52300"},{"name":"PINARBAŞI MAH.","zip":"52300"},{"name":"SAHİLKÖY MAH.","zip":"52300"},{"name":"SARAÇLI MAH.","zip":"52300"},{"name":"SARAYCIK MAH.","zip":"52300"},{"name":"SARIHALİL MAH.","zip":"52300"},{"name":"SAYLAN MAH.","zip":"52300"},{"name":"SOFUTEPESİ MAH.","zip":"52300"},{"name":"ŞENYURT MAH.","zip":"52300"},{"name":"TAFLANCIK MAH.","zip":"52300"},{"name":"TAŞÇA MAH.","zip":"52300"},{"name":"TEKKİRAZ MAH.","zip":"52300"},{"name":"TEPEKÖY MAH.","zip":"52300"},{"name":"UĞURLU MAH.","zip":"52300"},{"name":"ÜÇPINAR MAH.","zip":"52300"},{"name":"YAVI MAH.","zip":"52300"},{"name":"YAYCI MAH.","zip":"52300"},{"name":"YAYLALI MAH.","zip":"52300"},{"name":"YAZKONAĞI MAH.","zip":"52300"},{"name":"YENİKENT MAH.","zip":"52300"},{"name":"YENİKIZILCAKESE MAH.","zip":"52300"},{"name":"YENİKÖY MAH.","zip":"52300"},{"name":"YEŞİLADA MAH.","zip":"52300"},{"name":"YEŞİLKENT MAH.","zip":"52300"},{"name":"YİĞİTLER MAH.","zip":"52300"},{"name":"YUNUS EMRE MAH.","zip":"52300"},{"name":"YÜCELER MAH.","zip":"52300"}]}]}]}