{"id":53,"name":"RİZE","cities":[{"name":"city","districts":[{"name":"ARDEŞEN","cityName":null,"quarters":[{"name":"CAMİ MAH.","zip":"53400"},{"name":"CUMHURİYET MAH.","zip":"53400"},{"name":"ÇİFTEKAVAK MAH.","zip":"53400"},{"name":"DENİZ MAH.","zip":"53400"},{"name":"DÜZ MAH.","zip":"53400"},{"name":"ELMALIK MAH.","zip":"53400"},{"name":"FATİH MAH.","zip":"53400"},{"name":"FIRTINA MAH.","zip":"53400"},{"name":"KAHVECİLER MAH.","zip":"53400"},{"name":"KAVAKLIDERE MAH.","zip":"53400"},{"name":"KUZEY MAH.","zip":"53400"},{"name":"MERKEZ MAH.","zip":"53400"},{"name":"MÜFTÜ MAH.","zip":"53400"},{"name":"ŞENTEPE MAH.","zip":"53400"},{"name":"TAŞBAŞI MAH.","zip":"53400"},{"name":"YAVUZ SELİM MAH.","zip":"53400"},{"name":"YAYLA MAH.","zip":"53400"},{"name":"YENİ MAH.","zip":"53400"}]},{"name":"MERKEZKÖYLER","cityName":null,"quarters":[{"name":"ADA MAH.","zip":"53480"},{"name":"AKARSU MAH.","zip":"53480"},{"name":"AKDERE KÖYÜ","zip":"53480"},{"name":"AKKAYA KÖYÜ","zip":"53480"},{"name":"AKPINAR MAH.","zip":"53480"},{"name":"ALİ EFENDİ MAH.","zip":"53480"},{"name":"ALT MAH.","zip":"53480"},{"name":"ARICILAR KÖYÜ","zip":"53480"},{"name":"ARKA MAH.","zip":"53480"},{"name":"ARMAĞAN KÖYÜ","zip":"53480"},{"name":"AŞAĞI MAH.","zip":"53480"},{"name":"AŞAĞIDURAK KÖYÜ","zip":"53480"},{"name":"AŞIKLAR MAH.","zip":"53480"},{"name":"BAĞUKUÇHE MAH.","zip":"53480"},{"name":"BAHAR MAH.","zip":"53480"},{"name":"BAŞ MAH.","zip":"53480"},{"name":"BAYIRCIK KÖYÜ","zip":"53480"},{"name":"BERHA MAH.","zip":"53480"},{"name":"BEYAZKAYA KÖYÜ","zip":"53480"},{"name":"BÜYÜK MAH.","zip":"53480"},{"name":"CAMİ ALTI MAH.","zip":"53480"},{"name":"CAMİ MAH.","zip":"53480"},{"name":"CAMİ ÜSTÜ MAH.","zip":"53480"},{"name":"CAMİ VE ÇEVRE MAH.","zip":"53480"},{"name":"CANCA MAH.","zip":"53480"},{"name":"CENNET MAH.","zip":"53480"},{"name":"CİNİZENİ MAH.","zip":"53480"},{"name":"ÇAMLIK MAH.","zip":"53480"},{"name":"ÇELİKLER MAH.","zip":"53480"},{"name":"ÇIRAKLAR KÖYÜ","zip":"53480"},{"name":"ÇIRAKLAR MAH.","zip":"53480"},{"name":"ÇİÇEKLİ MAH.","zip":"53480"},{"name":"ÇİRİHİNCİ MAH.","zip":"53480"},{"name":"ÇUKURLAR MAH.","zip":"53480"},{"name":"DEMİRATA MAH.","zip":"53480"},{"name":"DENİZ MAH.","zip":"53480"},{"name":"DENİZLİ MAH.","zip":"53480"},{"name":"DERE MAH.","zip":"53480"},{"name":"DERE YEŞİL MAH.","zip":"53480"},{"name":"DEREİÇİ MAH.","zip":"53480"},{"name":"DOBİRA MAH.","zip":"53480"},{"name":"DOĞANAY KÖYÜ","zip":"53480"},{"name":"DUATEPE-ALTINTEPE MAH.","zip":"53480"},{"name":"DUYGULU KÖYÜ","zip":"53480"},{"name":"DÜZ MAH.","zip":"53480"},{"name":"DÜZKÖY KÖYÜ","zip":"53480"},{"name":"ERİKLİ MAH.","zip":"53480"},{"name":"ESENTEPE MAH.","zip":"53480"},{"name":"ESKİARMUTLUK KÖYÜ","zip":"53480"},{"name":"GENÇLER MAH.","zip":"53480"},{"name":"GULİVAT MAH.","zip":"53480"},{"name":"GÜLTEPE MAH.","zip":"53480"},{"name":"GÜNDOĞAN KÖYÜ","zip":"53480"},{"name":"GÜNELİ MAH.","zip":"53480"},{"name":"GÜNEŞLİ MAH.","zip":"53480"},{"name":"GÜNEY KÖYÜ","zip":"53480"},{"name":"GÜNEY MAH.","zip":"53480"},{"name":"HAŞİMOĞLU MAH.","zip":"53480"},{"name":"HOŞDERE KÖYÜ","zip":"53480"},{"name":"ILICA MAH.","zip":"53480"},{"name":"IŞIKLI KÖYÜ","zip":"53480"},{"name":"İNCİRDİP MAH.","zip":"53480"},{"name":"İSİNA MAH.","zip":"53480"},{"name":"İSLAMOĞLU MAH.","zip":"53480"},{"name":"İSMAİLOĞLU MAH.","zip":"53480"},{"name":"KAÇKAR KÖYÜ","zip":"53480"},{"name":"KALAYİZENİ MAH.","zip":"53480"},{"name":"KANOĞLU MAH.","zip":"53480"},{"name":"KARŞI MAH.","zip":"53480"},{"name":"KARŞIYAKA MAH.","zip":"53480"},{"name":"KAYABAŞI MAH.","zip":"53480"},{"name":"KIRAZLIK MAH.","zip":"53480"},{"name":"KİBAROĞLU MAH.","zip":"53480"},{"name":"KİRAZLIK KÖYÜ","zip":"53480"},{"name":"KOÇOĞLU MAH.","zip":"53480"},{"name":"KODA MAH.","zip":"53480"},{"name":"KONAK MAH.","zip":"53480"},{"name":"KORZATİ MAH.","zip":"53480"},{"name":"KÖPRÜBAŞI MAH.","zip":"53480"},{"name":"KÖPRÜKÖY KÖYÜ","zip":"53480"},{"name":"KULABERLER MAH.","zip":"53480"},{"name":"KULECİLER MAH.","zip":"53480"},{"name":"KURTGÖZLÜ MAH.","zip":"53480"},{"name":"KURTULUŞ KÖYÜ","zip":"53480"},{"name":"KÜÇÜKKÖY KÖYÜ","zip":"53480"},{"name":"MANGANEZ KÖYÜ","zip":"53480"},{"name":"MERKEZ MAH.","zip":"53480"},{"name":"MEYVALI MAH.","zip":"53480"},{"name":"MEZRA MAH.","zip":"53480"},{"name":"NAVDARLAR MAH.","zip":"53480"},{"name":"NIZAMOĞLU MAH.","zip":"53480"},{"name":"OĞUZLAR MAH.","zip":"53480"},{"name":"OKUMUŞLAR MAH.","zip":"53480"},{"name":"ORTA MAH.","zip":"53480"},{"name":"ORTAALAN KÖYÜ","zip":"53480"},{"name":"ORTAMAHALLE MAH.","zip":"53480"},{"name":"ÖNDER KÖYÜ","zip":"53480"},{"name":"ÖZGÜR KÖYÜ","zip":"53480"},{"name":"PINARLI KÖYÜ","zip":"53480"},{"name":"PİRİNÇLİK KÖYÜ","zip":"53480"},{"name":"SAHİL MAH.","zip":"53480"},{"name":"SERİNDERE KÖYÜ","zip":"53480"},{"name":"SESLİKAYA KÖYÜ","zip":"53480"},{"name":"SEYDİOĞLU MAH.","zip":"53480"},{"name":"SHEMRONA MAH.","zip":"53480"},{"name":"SIRT MAH.","zip":"53480"},{"name":"SİNAN KÖYÜ","zip":"53480"},{"name":"SULUZENİ MAH.","zip":"53480"},{"name":"ŞEFKİBEY MAH.","zip":"53480"},{"name":"ŞEHİTLİK KÖYÜ","zip":"53480"},{"name":"ŞELALE MAH.","zip":"53480"},{"name":"ŞENDERE KÖYÜ","zip":"53480"},{"name":"ŞENYAMAÇ KÖYÜ","zip":"53480"},{"name":"ŞENYURT KÖYÜ","zip":"53480"},{"name":"ŞENYUVA MAH.","zip":"53480"},{"name":"TAŞ KAPI MAH.","zip":"53480"},{"name":"TERCÜMANLAR MAH.","zip":"53480"},{"name":"TOPALOĞLU MAH.","zip":"53480"},{"name":"TRAMBONA MAH.","zip":"53480"},{"name":"TUNCA KÖYÜ","zip":"53480"},{"name":"TUTAN MAH.","zip":"53480"},{"name":"TÜRBE MAH.","zip":"53480"},{"name":"ÜST MAH.","zip":"53480"},{"name":"YAMAÇDERE KÖYÜ","zip":"53480"},{"name":"YAVUZ KÖYÜ","zip":"53480"},{"name":"YENİ MAH.","zip":"53480"},{"name":"YENİAY MAH.","zip":"53480"},{"name":"YENİKÖY KÖYÜ","zip":"53480"},{"name":"YENİYOL KÖYÜ","zip":"53480"},{"name":"YEŞİLTEPE KÖYÜ","zip":"53480"},{"name":"YEŞİLYURT MAH.","zip":"53480"},{"name":"YILDIZLAR MAH.","zip":"53480"},{"name":"YUKARI CAMİ MAH.","zip":"53480"},{"name":"YUKARI MAH.","zip":"53480"},{"name":"YUKARIDURAK KÖYÜ","zip":"53480"},{"name":"YUKARKİ MAH.","zip":"53480"},{"name":"YURTSEVER KÖYÜ","zip":"53480"},{"name":"YÜKSEK MAH.","zip":"53480"},{"name":"ZEYTİNLİK KÖYÜ","zip":"53480"},{"name":"ZUMADİ MAH.","zip":"53480"}]},{"name":"ÇAMLIHEMŞİN","cityName":null,"quarters":[{"name":"AŞAĞIŞİMŞİRLİ MAH.","zip":"53750"},{"name":"KADIKÖY MAH.","zip":"53750"},{"name":"KAPLICA MAH.","zip":"53750"},{"name":"KAVAK MAH.","zip":"53750"},{"name":"KONAKLAR MAH.","zip":"53750"},{"name":"MERKEZ MAH.","zip":"53750"},{"name":"SIRT MAH.","zip":"53750"},{"name":"YAĞMURLU MAH.","zip":"53750"},{"name":"YUKARIÇAMLICA MAH.","zip":"53750"}]},{"name":"MERKEZKÖYLER","cityName":null,"quarters":[{"name":"AŞAĞI MAH.","zip":"53780"},{"name":"AYDINOĞLU MAH.","zip":"53780"},{"name":"BAŞÇAYIR MAH.","zip":"53780"},{"name":"BAŞYAYLA MAH.","zip":"53780"},{"name":"BEHİCE KÖYÜ","zip":"53780"},{"name":"BELSU MAH.","zip":"53780"},{"name":"BEŞEVLER MAH.","zip":"53780"},{"name":"BOĞAZİÇİ KÖYÜ","zip":"53780"},{"name":"BÜYÜKDÜZ MAH.","zip":"53780"},{"name":"CAMİ MAH.","zip":"53780"},{"name":"ÇAT MERKEZ MAH.","zip":"53780"},{"name":"ÇATDÜZÜ MAH.","zip":"53780"},{"name":"ÇATKÖY KÖYÜ","zip":"53780"},{"name":"ÇAY MAH.","zip":"53780"},{"name":"ÇAYIRDÜZÜ KÖYÜ","zip":"53780"},{"name":"ÇİÇEKLİ MAH.","zip":"53780"},{"name":"DERVİŞLİ MAH.","zip":"53780"},{"name":"DİKKAYA KÖYÜ","zip":"53780"},{"name":"DOĞANCI MAH.","zip":"53780"},{"name":"DÜZ MAH.","zip":"53780"},{"name":"ELMACIK MAH.","zip":"53780"},{"name":"ENGİNLER MAH.","zip":"53780"},{"name":"ESENTEPE MAH.","zip":"53780"},{"name":"ESKİOKUL MAH.","zip":"53780"},{"name":"FAİKLI MAH.","zip":"53780"},{"name":"GEYİK MAH.","zip":"53780"},{"name":"GÜLLÜKÖY KÖYÜ","zip":"53780"},{"name":"GÜROLUK KÖYÜ","zip":"53780"},{"name":"HAÇİNÇUR MAH.","zip":"53780"},{"name":"HOCVA MAH.","zip":"53780"},{"name":"KALE KÖYÜ","zip":"53780"},{"name":"KALE MAH.","zip":"53780"},{"name":"KARŞI MAH.","zip":"53780"},{"name":"KAVAK DİBİ MAH.","zip":"53780"},{"name":"KESTİOĞLU MAH.","zip":"53780"},{"name":"KIBRIS MAH.","zip":"53780"},{"name":"KİNYA MAH.","zip":"53780"},{"name":"KOMİLO KÖYÜ","zip":"53780"},{"name":"KOVANLIK MAH.","zip":"53780"},{"name":"KÖPRÜBAŞI KÖYÜ","zip":"53780"},{"name":"KUZEY BAYIR MAH.","zip":"53780"},{"name":"LAKUBAR MAH.","zip":"53780"},{"name":"MADEN MAH.","zip":"53780"},{"name":"MASELEVAT MAH.","zip":"53780"},{"name":"MERKEZ MAH.","zip":"53780"},{"name":"MEYDANKÖY KÖYÜ","zip":"53780"},{"name":"MOLLAVEYİS KÖYÜ","zip":"53780"},{"name":"MÜFTÜOĞLU MAH.","zip":"53780"},{"name":"ORTA MAH.","zip":"53780"},{"name":"ORTAKLAR KÖYÜ","zip":"53780"},{"name":"ORTANKÖY KÖYÜ","zip":"53780"},{"name":"ORTASIRT MAH.","zip":"53780"},{"name":"ORTAYAYLA KÖYÜ","zip":"53780"},{"name":"OVAKLI MAH.","zip":"53780"},{"name":"POGİNA MAH.","zip":"53780"},{"name":"PUL MAH.","zip":"53780"},{"name":"SIRAKÖY KÖYÜ","zip":"53780"},{"name":"ŞENKÖY KÖYÜ","zip":"53780"},{"name":"ŞENYUVA KÖYÜ","zip":"53780"},{"name":"TAŞKIRAN MAH.","zip":"53780"},{"name":"TEPECİK MAH.","zip":"53780"},{"name":"TOMASLI MAH.","zip":"53780"},{"name":"TOPLUCA KÖYÜ","zip":"53780"},{"name":"ÜSKÜRT MAH.","zip":"53780"},{"name":"ÜZÜMLÜ MAH.","zip":"53780"},{"name":"VAROŞ MAH.","zip":"53780"},{"name":"YAYLA KÖŞK MAH.","zip":"53780"},{"name":"YAYLAKÖY KÖYÜ","zip":"53780"},{"name":"YAZLIK KÖYÜ","zip":"53780"},{"name":"YEMİŞLİ MAH.","zip":"53780"},{"name":"YILDIZ MAH.","zip":"53780"},{"name":"YOLKIYI KÖYÜ","zip":"53780"},{"name":"YUKARIŞİMŞİRLİ KÖYÜ","zip":"53780"},{"name":"ZİLKALE KÖYÜ","zip":"53780"}]},{"name":"BÜYÜKKÖY","cityName":null,"quarters":[{"name":"ARICILAR MAH.","zip":"53210"},{"name":"ARMUTLU KÖYÜ","zip":"53210"},{"name":"AŞAĞI SIRT MAH.","zip":"53210"},{"name":"AYDINLAR MAH.","zip":"53210"},{"name":"BALCILAR MAH.","zip":"53210"},{"name":"BALCIOĞLU MAH.","zip":"53210"},{"name":"BEKİRLİ MAH.","zip":"53210"},{"name":"BEKİROĞLU MAH.","zip":"53210"},{"name":"BEŞİKÇİLER KÖYÜ","zip":"53210"},{"name":"BOĞAZLAR MAH.","zip":"53210"},{"name":"BOZURMERLİ MAH.","zip":"53210"},{"name":"CUMHURİYET MAH.","zip":"53210"},{"name":"ÇAYDAHOR MAH.","zip":"53210"},{"name":"ÇEŞMELİ KÖYÜ","zip":"53210"},{"name":"ÇUKURLU MAH.","zip":"53210"},{"name":"DALAKLI MAH.","zip":"53210"},{"name":"DEMİRCİLER MAH.","zip":"53210"},{"name":"DERE MAH.","zip":"53210"},{"name":"DERECİK KÖYÜ","zip":"53210"},{"name":"DİKİLİTAŞ MAH.","zip":"53210"},{"name":"EHKARTEPE MAH.","zip":"53210"},{"name":"GÜNEŞLİ MAH.","zip":"53210"},{"name":"GÜNEŞTEPE MAH.","zip":"53210"},{"name":"GÜRGENLİ KÖYÜ","zip":"53210"},{"name":"HANLAR MAH.","zip":"53210"},{"name":"HASTAŞ MAH.","zip":"53210"},{"name":"HOŞARLI MAH.","zip":"53210"},{"name":"HÜŞÜTLER MAH.","zip":"53210"},{"name":"İMRUT MAH.","zip":"53210"},{"name":"İNİŞ MAH.","zip":"53210"},{"name":"İSTİKLAL MAH.","zip":"53210"},{"name":"KAKŞİLİ MAH.","zip":"53210"},{"name":"KALYONCULAR MAH.","zip":"53210"},{"name":"KARAAĞAÇ KÖYÜ","zip":"53210"},{"name":"KARAOĞLU MAH.","zip":"53210"},{"name":"KAYADİBİ MAH.","zip":"53210"},{"name":"KİRAZLI MAH.","zip":"53210"},{"name":"LEVENTLİ MAH.","zip":"53210"},{"name":"MALİPOS MAH.","zip":"53210"},{"name":"MERKEZ KAKŞİOĞLU MAH.","zip":"53210"},{"name":"MERKEZ MAH.","zip":"53210"},{"name":"MİLOK MAH.","zip":"53210"},{"name":"MOMİŞLİ MAH.","zip":"53210"},{"name":"MORGÜLLER MAH.","zip":"53210"},{"name":"MUHLİ MAH.","zip":"53210"},{"name":"MÜRELİ MAH.","zip":"53210"},{"name":"OKULLAR MAH.","zip":"53210"},{"name":"ORTA MAH.","zip":"53210"},{"name":"ORTAKÖY MAH.","zip":"53210"},{"name":"ÖKSÜZLER MAH.","zip":"53210"},{"name":"PEHLİVANLI MAH.","zip":"53210"},{"name":"SALADOP MAH.","zip":"53210"},{"name":"SERİNIRMAK MAH.","zip":"53210"},{"name":"SEYRANTEPE MAH.","zip":"53210"},{"name":"ŞEHİT MUHAMMET YÜCE MAH.","zip":"53210"},{"name":"TEPE MAH.","zip":"53210"},{"name":"TEPELER MAH.","zip":"53210"},{"name":"TEPELİ MAH.","zip":"53210"},{"name":"TOHUMLUK MAH.","zip":"53210"},{"name":"TOPALOĞLU MAH.","zip":"53210"},{"name":"TOPÇULAR MAH.","zip":"53210"},{"name":"VERİPOS MAH.","zip":"53210"},{"name":"YAYLA EVLERİ (HOŞAROĞLU VE KAKŞİOĞLU) MAH.","zip":"53210"},{"name":"YAYLA EVLERİ (TOHUMLUK) MAH.","zip":"53210"},{"name":"YENİ MAH.","zip":"53210"},{"name":"YEŞİLKÖY KÖYÜ","zip":"53210"},{"name":"YILDIRIMLAR MAH.","zip":"53210"},{"name":"YILDIZELİ KÖYÜ","zip":"53210"}]},{"name":"ÇAYELİ","cityName":null,"quarters":[{"name":"BÜYÜKCAFERPAŞA MAH.","zip":"53200"},{"name":"BÜYÜKTAŞHANE MAH.","zip":"53200"},{"name":"ÇATAKLIHOCA MAH.","zip":"53200"},{"name":"ESKİPAZAR MAH.","zip":"53200"},{"name":"HASSADIKLAR MAH.","zip":"53200"},{"name":"KESMETAŞ MAH.","zip":"53200"},{"name":"KÜÇÜKCAFERPAŞA MAH.","zip":"53200"},{"name":"KÜÇÜKTAŞHANE MAH.","zip":"53200"},{"name":"LİMANKÖY MAH.","zip":"53200"},{"name":"SABUNCULAR MAH.","zip":"53200"},{"name":"ŞAİRLER MAH.","zip":"53200"},{"name":"TAŞHANE MAH.","zip":"53200"},{"name":"YAKA MAH.","zip":"53200"},{"name":"YALI MAH.","zip":"53200"},{"name":"YENİCAMİ MAH.","zip":"53200"},{"name":"YENİPAZAR MAH.","zip":"53200"}]},{"name":"MERKEZKÖYLER","cityName":null,"quarters":[{"name":"ALICANLAR MAH.","zip":"53260"},{"name":"ALOĞLU MAH.","zip":"53260"},{"name":"ALT MAH.","zip":"53260"},{"name":"ALTINTAŞ MAH.","zip":"53260"},{"name":"ALTVEİS MAH.","zip":"53260"},{"name":"AREKNER MAH.","zip":"53260"},{"name":"ARKADERE MAH.","zip":"53260"},{"name":"AŞAĞI CORDANLAR MAH.","zip":"53260"},{"name":"AŞAĞI MAH.","zip":"53260"},{"name":"AŞIKLAR KÖYÜ","zip":"53260"},{"name":"AYANI MAH.","zip":"53260"},{"name":"AYDINLAR MAH.","zip":"53260"},{"name":"AYDOĞDU MAH.","zip":"53260"},{"name":"AYIŞIĞI MAH.","zip":"53260"},{"name":"AYKIRI FİLİZTEPE MAH.","zip":"53260"},{"name":"AYVALIK MAH.","zip":"53260"},{"name":"AZARLI MAH.","zip":"53260"},{"name":"BALIKÇI MAH.","zip":"53260"},{"name":"BALIKÇIOĞLU MAH.","zip":"53260"},{"name":"BAŞARAN MAH.","zip":"53260"},{"name":"BAŞKÖY KÖYÜ","zip":"53260"},{"name":"BAŞKÖY MAH.","zip":"53260"},{"name":"BAYRAKTARLAR MAH.","zip":"53260"},{"name":"BEKİROĞLU MAH.","zip":"53260"},{"name":"BEYAZSU KÖYÜ","zip":"53260"},{"name":"BİLGİNLER MAH.","zip":"53260"},{"name":"BİLGİNLER MEZRA MAH.","zip":"53260"},{"name":"BOĞAZİÇİ MAH.","zip":"53260"},{"name":"BOŞNAKLI MAH.","zip":"53260"},{"name":"BOZKURTLAR MAH.","zip":"53260"},{"name":"BOZTEPE MAH.","zip":"53260"},{"name":"BUCAK MAH.","zip":"53260"},{"name":"BUZLUPINAR KÖYÜ","zip":"53260"},{"name":"BÜYÜĞÜN EV VE ÇOBANLAR MAH.","zip":"53260"},{"name":"BÜYÜKKÖY KÖYÜ","zip":"53260"},{"name":"CAFEROĞLU MAH.","zip":"53260"},{"name":"CAĞAK MAH.","zip":"53260"},{"name":"CAMİ MAH.","zip":"53260"},{"name":"CAMİ YANI MAH.","zip":"53260"},{"name":"CAMİALTI MAH.","zip":"53260"},{"name":"CANIBEYAZ MAH.","zip":"53260"},{"name":"CEMAK MAH.","zip":"53260"},{"name":"CEVİTLİ MAH.","zip":"53260"},{"name":"CİMOROÇ MAH.","zip":"53260"},{"name":"CUMHURİYET MAH.","zip":"53260"},{"name":"ÇAHÇURİ MAH.","zip":"53260"},{"name":"ÇAKIRLI MAH.","zip":"53260"},{"name":"ÇAKIROĞLU MAH.","zip":"53260"},{"name":"ÇAMLICA MAH.","zip":"53260"},{"name":"ÇATALDERE KÖYÜ","zip":"53260"},{"name":"ÇAVUŞLU MAH.","zip":"53260"},{"name":"ÇAYCILAR MAH.","zip":"53260"},{"name":"ÇELİKLER VE SANDIKÇILAR MAH.","zip":"53260"},{"name":"ÇERMANLI MAH.","zip":"53260"},{"name":"ÇEVRE MAH.","zip":"53260"},{"name":"ÇINARTEPE KÖYÜ","zip":"53260"},{"name":"ÇİL MAH.","zip":"53260"},{"name":"ÇİLİNGİR KÖYÜ","zip":"53260"},{"name":"ÇOLAKLI MAH.","zip":"53260"},{"name":"ÇUKURLUHOCA KÖYÜ","zip":"53260"},{"name":"DARBOĞAZ MAH.","zip":"53260"},{"name":"DEMİRCİLER MAH.","zip":"53260"},{"name":"DEMİRHİSAR KÖYÜ","zip":"53260"},{"name":"DERE MAH.","zip":"53260"},{"name":"DEREİÇİ MAH.","zip":"53260"},{"name":"DÖĞÜRTLÜ MAH.","zip":"53260"},{"name":"DÜZ MAH.","zip":"53260"},{"name":"DÜZGEÇİT KÖYÜ","zip":"53260"},{"name":"ENESOĞLU MAH.","zip":"53260"},{"name":"ERDEMLİ KÖYÜ","zip":"53260"},{"name":"ERENLER KÖYÜ","zip":"53260"},{"name":"ESENDAĞ KÖYÜ","zip":"53260"},{"name":"EYUPOĞLU MAH.","zip":"53260"},{"name":"FENAÇİ MAH.","zip":"53260"},{"name":"GAGAUZLAR MAH.","zip":"53260"},{"name":"GELİNCİK 1 MAH.","zip":"53260"},{"name":"GELİNCİK 2 MAH.","zip":"53260"},{"name":"GEMİCİLER KÖYÜ","zip":"53260"},{"name":"GEYİKLİ MAH.","zip":"53260"},{"name":"GOBOCİT MAH.","zip":"53260"},{"name":"GÖLCÜK MAH.","zip":"53260"},{"name":"GÜLOVA MAH.","zip":"53260"},{"name":"GÜMÜŞLER MAH.","zip":"53260"},{"name":"GÜMÜŞPINAR MAH.","zip":"53260"},{"name":"GÜMÜŞTAŞ MAH.","zip":"53260"},{"name":"GÜNELİ MAH.","zip":"53260"},{"name":"GÜRÇAM MAH.","zip":"53260"},{"name":"GÜRPINAR KÖYÜ","zip":"53260"},{"name":"GÜZELTEPE KÖYÜ","zip":"53260"},{"name":"HABİBOĞLU MAH.","zip":"53260"},{"name":"HANİFLİ MAH.","zip":"53260"},{"name":"HAREMTEPE KÖYÜ","zip":"53260"},{"name":"HASANÇAVUŞ MAH.","zip":"53260"},{"name":"HAŞAFI MAH.","zip":"53260"},{"name":"HERVENİK MAH.","zip":"53260"},{"name":"HÜRREMLİ MAH.","zip":"53260"},{"name":"İNCELER MAH.","zip":"53260"},{"name":"İNCESIRT KÖYÜ","zip":"53260"},{"name":"İNCESU KÖYÜ","zip":"53260"},{"name":"İRFANOĞULLARI MAH.","zip":"53260"},{"name":"İSTAPONOZ MAH.","zip":"53260"},{"name":"KAÇKAR KÖYÜ","zip":"53260"},{"name":"KADIOĞLU MAH.","zip":"53260"},{"name":"KALENDERLİ MAH.","zip":"53260"},{"name":"KAMİLLİ MAH.","zip":"53260"},{"name":"KAMİLOĞLU MAH.","zip":"53260"},{"name":"KAPTANPAŞA KÖYÜ","zip":"53260"},{"name":"KARAKAŞLI MAH.","zip":"53260"},{"name":"KARALİ VE GÜNEŞTEPE MAH.","zip":"53260"},{"name":"KARALOĞLU MAH.","zip":"53260"},{"name":"KARANLIK MAH.","zip":"53260"},{"name":"KARŞI MAH.","zip":"53260"},{"name":"KARŞIYAKA MAH.","zip":"53260"},{"name":"KASAPOĞLU MAH.","zip":"53260"},{"name":"KATILYA MAH.","zip":"53260"},{"name":"KAVALA MAH.","zip":"53260"},{"name":"KAYMAKLI MAH.","zip":"53260"},{"name":"KAYNA MAH.","zip":"53260"},{"name":"KAZANCILAR MAH.","zip":"53260"},{"name":"KEMERKÖY KÖYÜ","zip":"53260"},{"name":"KESTANELİK KÖYÜ","zip":"53260"},{"name":"KESTANELİK MAH.","zip":"53260"},{"name":"KISIRLAR MAH.","zip":"53260"},{"name":"KİREÇHANE MAH.","zip":"53260"},{"name":"KODANA MAH.","zip":"53260"},{"name":"KOLAĞASI MAH.","zip":"53260"},{"name":"KORKAPOS MAH.","zip":"53260"},{"name":"KÖMÜRCÜLER VE APTİEFENDİLER MAH.","zip":"53260"},{"name":"KÖPRÜBAŞI KÖYÜ","zip":"53260"},{"name":"KÖPRÜBAŞI MAH.","zip":"53260"},{"name":"KÖSE MAH.","zip":"53260"},{"name":"KÖSELER MAH.","zip":"53260"},{"name":"KÖSEOĞLU MAH.","zip":"53260"},{"name":"KUREMELİ MAH.","zip":"53260"},{"name":"KURTULUŞ MAH.","zip":"53260"},{"name":"KURULAR MAH.","zip":"53260"},{"name":"KUYUBAŞI MAH.","zip":"53260"},{"name":"KÜÇÜKMUSTAFALI MAH.","zip":"53260"},{"name":"LATİFLİ KÖYÜ","zip":"53260"},{"name":"MADEN MAH.","zip":"53260"},{"name":"MADENLİ KÖYÜ","zip":"53260"},{"name":"MAHMUTOĞLU MAH.","zip":"53260"},{"name":"MAKRAŞ MAH.","zip":"53260"},{"name":"MALOZA MAH.","zip":"53260"},{"name":"MALTEPE KÖYÜ","zip":"53260"},{"name":"MAŞALAR MAH.","zip":"53260"},{"name":"MEHELLE MAH.","zip":"53260"},{"name":"MERGOLAR MAH.","zip":"53260"},{"name":"MERKEZ 1 MAH.","zip":"53260"},{"name":"MERKEZ 2 MAH.","zip":"53260"},{"name":"MERKEZ MAH.","zip":"53260"},{"name":"MESAVLİ MAH.","zip":"53260"},{"name":"MEYDANLI MAH.","zip":"53260"},{"name":"MEZRA MAH.","zip":"53260"},{"name":"MUSADAĞI KÖYÜ","zip":"53260"},{"name":"MUTİDÜZÜ MAH.","zip":"53260"},{"name":"OKUMUŞ ÇAY MAH.","zip":"53260"},{"name":"ORMANCIK KÖYÜ","zip":"53260"},{"name":"ORTA MAH.","zip":"53260"},{"name":"ORTAKÖY KÖYÜ","zip":"53260"},{"name":"ORTASIRT MAH.","zip":"53260"},{"name":"ÖZDEMİRLER MAH.","zip":"53260"},{"name":"PAŞANA MAH.","zip":"53260"},{"name":"PERİKOMA MAH.","zip":"53260"},{"name":"PUŞULİ MAH.","zip":"53260"},{"name":"REYHANLI MAH.","zip":"53260"},{"name":"SARALI MAH.","zip":"53260"},{"name":"SARBENİ MAH.","zip":"53260"},{"name":"SARIAHMETLER MAH.","zip":"53260"},{"name":"SARILAR MAH.","zip":"53260"},{"name":"SARISU KÖYÜ","zip":"53260"},{"name":"SASTAN MAH.","zip":"53260"},{"name":"SAZLIKLAR MAH.","zip":"53260"},{"name":"SEFALI KÖYÜ","zip":"53260"},{"name":"SELİMİYE KÖYÜ","zip":"53260"},{"name":"SESLİDERE KÖYÜ","zip":"53260"},{"name":"SEYRANTEPE MAH.","zip":"53260"},{"name":"SIRT MAH.","zip":"53260"},{"name":"SIRTKÖY KÖYÜ","zip":"53260"},{"name":"SİRANLIK MAH.","zip":"53260"},{"name":"SOĞUKSU MAH.","zip":"53260"},{"name":"SONGURLER MAH.","zip":"53260"},{"name":"SUİÇMEZLER MAH.","zip":"53260"},{"name":"ŞALAMBARLI MAH.","zip":"53260"},{"name":"ŞEN MAH.","zip":"53260"},{"name":"ŞİMŞİRLİ MAH.","zip":"53260"},{"name":"ŞİRİNKÖY KÖYÜ","zip":"53260"},{"name":"TAŞ MAH.","zip":"53260"},{"name":"TAŞDEMİRLER MAH.","zip":"53260"},{"name":"TAŞLIK MAH.","zip":"53260"},{"name":"TEPE MAH.","zip":"53260"},{"name":"TEPEBOYU MAH.","zip":"53260"},{"name":"TEPELER MAH.","zip":"53260"},{"name":"TEPELİ MAH.","zip":"53260"},{"name":"TOPKAYA MAH.","zip":"53260"},{"name":"TÜRKGELDİ MAH.","zip":"53260"},{"name":"ULAŞ MAH.","zip":"53260"},{"name":"UZUNDERE KÖYÜ","zip":"53260"},{"name":"ÜST MAH.","zip":"53260"},{"name":"ÜSTVEİS MAH.","zip":"53260"},{"name":"VERİPOS MAH.","zip":"53260"},{"name":"VERİTAĞ MAH.","zip":"53260"},{"name":"VERÜT MAH.","zip":"53260"},{"name":"VOYNA MAH.","zip":"53260"},{"name":"YALÇINLAR MAH.","zip":"53260"},{"name":"YAMAÇ KÖYÜ","zip":"53260"},{"name":"YANIKDAĞ KÖYÜ","zip":"53260"},{"name":"YAVUZLAR KÖYÜ","zip":"53260"},{"name":"YAZICILAR MAH.","zip":"53260"},{"name":"YENİ MAH.","zip":"53260"},{"name":"YENİCE KÖYÜ","zip":"53260"},{"name":"YENİHİSAR KÖYÜ","zip":"53260"},{"name":"YENİTEPE KÖYÜ","zip":"53260"},{"name":"YEŞİLIRMAK KÖYÜ","zip":"53260"},{"name":"YEŞİLTEPE KÖYÜ","zip":"53260"},{"name":"YILMAYANLAR MAH.","zip":"53260"},{"name":"YUKARI CORDANLAR MAH.","zip":"53260"},{"name":"YÜKSELEN MAH.","zip":"53260"},{"name":"ZAFER KÖYÜ","zip":"53260"}]},{"name":"DEREPAZARI","cityName":null,"quarters":[{"name":"ERİKLİMANI MAH.","zip":"53900"},{"name":"FIÇICILAR MAH.","zip":"53900"},{"name":"MERKEZ MAH.","zip":"53900"},{"name":"SARIYER MAH.","zip":"53900"},{"name":"SUBAŞI MAH.","zip":"53900"},{"name":"TERSANE MAH.","zip":"53900"}]},{"name":"MERKEZKÖYLER","cityName":null,"quarters":[{"name":"BÜRÜCEK KÖYÜ","zip":"53940"},{"name":"ÇAKMAKÇILAR KÖYÜ","zip":"53940"},{"name":"ÇEŞME KÖYÜ","zip":"53940"},{"name":"ÇUKURLU KÖYÜ","zip":"53940"},{"name":"ESENTEPE KÖYÜ","zip":"53940"},{"name":"KİRAZDAĞI KÖYÜ","zip":"53940"},{"name":"MALTEPE KÖYÜ","zip":"53940"},{"name":"SANDIKTAŞ KÖYÜ","zip":"53940"},{"name":"UZUNKAYA KÖYÜ","zip":"53940"},{"name":"YANIKTAŞ KÖYÜ","zip":"53940"}]},{"name":"FINDIKLI","cityName":null,"quarters":[{"name":"HÜRRİYET MAH.","zip":"53700"},{"name":"ILICA MAH.","zip":"53700"},{"name":"LİMAN MAH.","zip":"53700"},{"name":"MERKEZ MAH.","zip":"53700"},{"name":"SAHİL MAH.","zip":"53700"},{"name":"TATLISU MAH.","zip":"53700"},{"name":"YENİ MAH.","zip":"53700"}]},{"name":"MERKEZKÖYLER","cityName":null,"quarters":[{"name":"AİLE MAH.","zip":"53740"},{"name":"AKINCILAR MAH.","zip":"53740"},{"name":"ARILI KÖYÜ","zip":"53740"},{"name":"ARMAĞAN MAH.","zip":"53740"},{"name":"ARMONİ MAH.","zip":"53740"},{"name":"ASLANDERE KÖYÜ","zip":"53740"},{"name":"AVCILAR KÖYÜ","zip":"53740"},{"name":"AYDINLIK MAH.","zip":"53740"},{"name":"AYLE MAH.","zip":"53740"},{"name":"BAHAR MAH.","zip":"53740"},{"name":"BALABAN MAH.","zip":"53740"},{"name":"BAŞ MAH.","zip":"53740"},{"name":"BAŞKÖY MAH.","zip":"53740"},{"name":"BEYAZSU MAH.","zip":"53740"},{"name":"BEYDERE KÖYÜ","zip":"53740"},{"name":"BULAK MAH.","zip":"53740"},{"name":"BULUTLU MAH.","zip":"53740"},{"name":"CENGİZLER MAH.","zip":"53740"},{"name":"CENNET KÖYÜ","zip":"53740"},{"name":"CEVİZLİK MAH.","zip":"53740"},{"name":"ÇAĞLAYAN KÖYÜ","zip":"53740"},{"name":"ÇAVUŞLU MAH.","zip":"53740"},{"name":"ÇEŞMELİ MAH.","zip":"53740"},{"name":"ÇINARLI KÖYÜ","zip":"53740"},{"name":"ÇİÇEKLİ MAH.","zip":"53740"},{"name":"DERBENT 1 MAH.","zip":"53740"},{"name":"DERBENT KÖYÜ","zip":"53740"},{"name":"DERE MAH.","zip":"53740"},{"name":"DEREİÇİ MAH.","zip":"53740"},{"name":"DEVRAN MAH.","zip":"53740"},{"name":"DOĞANAY KÖYÜ","zip":"53740"},{"name":"DÖRTYOL MAH.","zip":"53740"},{"name":"DÜZ MAH.","zip":"53740"},{"name":"EMİNOĞLU MAH.","zip":"53740"},{"name":"ESENTEPE MAH.","zip":"53740"},{"name":"GÖKÇETAŞ MAH.","zip":"53740"},{"name":"GURUPİT MAH.","zip":"53740"},{"name":"GÜLBAHAR MAH.","zip":"53740"},{"name":"GÜLTEPE MAH.","zip":"53740"},{"name":"GÜNEŞLİ MAH.","zip":"53740"},{"name":"GÜNGÖREN MAH.","zip":"53740"},{"name":"GÜRGENİ MAH.","zip":"53740"},{"name":"GÜRKANLAR MAH.","zip":"53740"},{"name":"GÜRSU KÖYÜ","zip":"53740"},{"name":"GÜZELYALI MAH.","zip":"53740"},{"name":"GÜZELYALI-ÜST MAH.","zip":"53740"},{"name":"HACILAR MAH.","zip":"53740"},{"name":"HARA KÖYÜ","zip":"53740"},{"name":"HAZARA MAH.","zip":"53740"},{"name":"HEMŞİN MAH.","zip":"53740"},{"name":"HÜRRİYET MAH.","zip":"53740"},{"name":"IHLAMURLU KÖYÜ","zip":"53740"},{"name":"KALINLAR MAH.","zip":"53740"},{"name":"KALKANCILAR MAH.","zip":"53740"},{"name":"KANCA MAH.","zip":"53740"},{"name":"KARAALİ KÖYÜ","zip":"53740"},{"name":"KARŞIYAKA MAH.","zip":"53740"},{"name":"KIYICIK KÖYÜ","zip":"53740"},{"name":"KİLİTTEPE MAH.","zip":"53740"},{"name":"KİRAZLIK MAH.","zip":"53740"},{"name":"KOZMAĞA MAH.","zip":"53740"},{"name":"KÖPRÜBAŞI MAH.","zip":"53740"},{"name":"KÖSEOĞLU MAH.","zip":"53740"},{"name":"KVAKÇE MAH.","zip":"53740"},{"name":"MERKEZ MAH.","zip":"53740"},{"name":"MERKEZ-LAVAŞA MAH.","zip":"53740"},{"name":"MEŞEDÜZÜ MAH.","zip":"53740"},{"name":"MEYVALI KÖYÜ","zip":"53740"},{"name":"MUHTAR CAVİT CİVELEK MAH.","zip":"53740"},{"name":"NANE MAH.","zip":"53740"},{"name":"NECİPPAŞA MAH.","zip":"53740"},{"name":"NOMAİKİ MAH.","zip":"53740"},{"name":"OKUL MAH.","zip":"53740"},{"name":"OKURA MAH.","zip":"53740"},{"name":"ORTA MAH.","zip":"53740"},{"name":"OSMANLI MAH.","zip":"53740"},{"name":"ÖZERLER MAH.","zip":"53740"},{"name":"ÖZGÜVENLER MAH.","zip":"53740"},{"name":"PAZİNE MAH.","zip":"53740"},{"name":"SAATKÖY KÖYÜ","zip":"53740"},{"name":"SARIKAVAK MAH.","zip":"53740"},{"name":"SARIKAYA MAH.","zip":"53740"},{"name":"SAVAŞ MAH.","zip":"53740"},{"name":"SIRT MAH.","zip":"53740"},{"name":"SULAK KÖYÜ","zip":"53740"},{"name":"SÜMER KÖYÜ","zip":"53740"},{"name":"SÜMER YALI MAH.","zip":"53740"},{"name":"ŞENOCAK MAH.","zip":"53740"},{"name":"ŞENTEPE MAH.","zip":"53740"},{"name":"ŞENYURT MAH.","zip":"53740"},{"name":"TAŞKESİK MAH.","zip":"53740"},{"name":"TAŞKÖPRÜ MAH.","zip":"53740"},{"name":"TEPE MAH.","zip":"53740"},{"name":"TEPECİK KÖYÜ","zip":"53740"},{"name":"TOHUMLU MAH.","zip":"53740"},{"name":"TÜFEKÇİLER MAH.","zip":"53740"},{"name":"ÜST MAH.","zip":"53740"},{"name":"YAYLACILAR KÖYÜ","zip":"53740"},{"name":"YAZICILAR MAH.","zip":"53740"},{"name":"YENİKÖY KÖYÜ","zip":"53740"},{"name":"YENİŞEHİTLİK KÖYÜ","zip":"53740"},{"name":"YEŞİLAY MAH.","zip":"53740"},{"name":"YILDIZLAR MAH.","zip":"53740"},{"name":"YUKARIDERBENT MAH.","zip":"53740"},{"name":"ZANNA MAH.","zip":"53740"},{"name":"ZEBELİT MAH.","zip":"53740"}]},{"name":"GÜNEYSU","cityName":null,"quarters":[{"name":"AŞAĞI KİREMİT MAH.","zip":"53350"},{"name":"BİRLİK MAH.","zip":"53350"},{"name":"ESKİCAMİ MAH.","zip":"53350"},{"name":"KÜÇÜKCAMİİ MAH.","zip":"53350"},{"name":"MERKEZ MAH.","zip":"53350"},{"name":"ULUCAMİİ MAH.","zip":"53350"}]},{"name":"MERKEZKÖYLER","cityName":null,"quarters":[{"name":"ALİCİK (1) MAH.","zip":"53390"},{"name":"ALİCİK (2) MAH.","zip":"53390"},{"name":"ALİKİCA MEVKİİ MAH.","zip":"53390"},{"name":"ALTINKAYA 1 MAH.","zip":"53390"},{"name":"ALTINKAYA MAH.","zip":"53390"},{"name":"ASMALIIRMAK KÖYÜ","zip":"53390"},{"name":"BALLIDERE KÖYÜ","zip":"53390"},{"name":"BAŞARAN KÖYÜ","zip":"53390"},{"name":"BAŞKÖY KÖYÜ","zip":"53390"},{"name":"BULUTLU KÖYÜ","zip":"53390"},{"name":"ÇAMLICA KÖYÜ","zip":"53390"},{"name":"ÇAMLIK MAH.","zip":"53390"},{"name":"DEREBAŞI MAH.","zip":"53390"},{"name":"DEREÜSTÜ MAH.","zip":"53390"},{"name":"DUMANKAYA KÖYÜ","zip":"53390"},{"name":"ESENTEPE MAH.","zip":"53390"},{"name":"GÜNELİ KÖYÜ","zip":"53390"},{"name":"GÜRGEN KÖYÜ","zip":"53390"},{"name":"HALKOLİM MAH.","zip":"53390"},{"name":"HAN YAYLASI MAH.","zip":"53390"},{"name":"ILICA MAH.","zip":"53390"},{"name":"İSLAHİYE KÖYÜ","zip":"53390"},{"name":"KANGELDİBİ MAH.","zip":"53390"},{"name":"KIBLEDAĞI KÖYÜ","zip":"53390"},{"name":"KIRLANGIÇ MAH.","zip":"53390"},{"name":"KİREÇLİ MAH.","zip":"53390"},{"name":"KİREMİT KÖYÜ","zip":"53390"},{"name":"KÖSELER MAH.","zip":"53390"},{"name":"KÜÇÜKDERE MAH.","zip":"53390"},{"name":"MAĞARA MEVKİ MAH.","zip":"53390"},{"name":"MERKEZ MAH.","zip":"53390"},{"name":"MERKEZ MEVKİİ MAH.","zip":"53390"},{"name":"MISIRLI MAH.","zip":"53390"},{"name":"OMEREVA MAH.","zip":"53390"},{"name":"ORTA MEŞE MAH.","zip":"53390"},{"name":"ORTAKÖY KÖYÜ","zip":"53390"},{"name":"ÖRNEK MEVKİİ MAH.","zip":"53390"},{"name":"ÖZÇELİKLER MAH.","zip":"53390"},{"name":"SELAMET KÖYÜ","zip":"53390"},{"name":"SIRT MAH.","zip":"53390"},{"name":"ŞEHİTLER MAH.","zip":"53390"},{"name":"TAŞKÖPRÜ MEVKİİ MAH.","zip":"53390"},{"name":"TATLISU MAH.","zip":"53390"},{"name":"TEPEBAŞI KÖYÜ","zip":"53390"},{"name":"TOPÇULAR MAH.","zip":"53390"},{"name":"TUĞLA MEVKİ MAH.","zip":"53390"},{"name":"YARIMADA KÖYÜ","zip":"53390"},{"name":"YENİCAMİ KÖYÜ","zip":"53390"},{"name":"YENİKÖY KÖYÜ","zip":"53390"},{"name":"YENİMESCİT MAH.","zip":"53390"},{"name":"YEŞİLKÖY KÖYÜ","zip":"53390"},{"name":"YEŞİLYAPRAK MAH.","zip":"53390"},{"name":"YEŞİLYURT KÖYÜ","zip":"53390"},{"name":"YILDIZ MAH.","zip":"53390"},{"name":"YUKARIİSLAHİYE KÖYÜ","zip":"53390"},{"name":"YUSUF HOCA MAH.","zip":"53390"},{"name":"YÜKSEKKÖY KÖYÜ","zip":"53390"}]},{"name":"HEMŞİN","cityName":null,"quarters":[{"name":"MUTLU MAH.","zip":"53550"},{"name":"ORTAKÖY MAH.","zip":"53550"},{"name":"YENİKÖY MAH.","zip":"53550"}]},{"name":"MERKEZKÖYLER","cityName":null,"quarters":[{"name":"BİLENKÖY KÖYÜ","zip":"53560"},{"name":"ÇAMLITEPE KÖYÜ","zip":"53560"},{"name":"HİLAL KÖYÜ","zip":"53560"},{"name":"KANTARLI KÖYÜ","zip":"53560"},{"name":"LEVENTKÖY KÖYÜ","zip":"53560"},{"name":"NURLUCA KÖYÜ","zip":"53560"},{"name":"YALTKAYA KÖYÜ","zip":"53560"}]},{"name":"İKİZDERE","cityName":null,"quarters":[{"name":"ÇARŞI MAH.","zip":"53650"},{"name":"GÜNDOĞDU MAH.","zip":"53650"},{"name":"GÜNEY MAH.","zip":"53650"},{"name":"KİRAZLI MAH.","zip":"53650"},{"name":"YEŞİLYURT MAH.","zip":"53650"},{"name":"ZAFER MAH.","zip":"53650"}]},{"name":"MERKEZKÖYLER","cityName":null,"quarters":[{"name":"ALLAR MAH.","zip":"53690"},{"name":"APROJLİ MAH.","zip":"53690"},{"name":"ARÇOVİT MAH.","zip":"53690"},{"name":"ARKANET MAH.","zip":"53690"},{"name":"AŞAĞI MAH.","zip":"53690"},{"name":"AYLAÇ MAH.","zip":"53690"},{"name":"AYVALIK KÖYÜ","zip":"53690"},{"name":"AYVAZLI MAH.","zip":"53690"},{"name":"BALLIKÖY KÖYÜ","zip":"53690"},{"name":"BAŞKÖY KÖYÜ","zip":"53690"},{"name":"BAYIRKÖY KÖYÜ","zip":"53690"},{"name":"BEKTAŞLAR MAH.","zip":"53690"},{"name":"BÜYÜK CAMİ MAH.","zip":"53690"},{"name":"CEVİZLİK KÖYÜ","zip":"53690"},{"name":"ÇAKAT MAH.","zip":"53690"},{"name":"ÇAMÇAVUŞ MAH.","zip":"53690"},{"name":"ÇAMLIKKÖY KÖYÜ","zip":"53690"},{"name":"ÇARŞI MAH.","zip":"53690"},{"name":"ÇATALTEPE KÖYÜ","zip":"53690"},{"name":"ÇİÇEKLİ KÖYÜ","zip":"53690"},{"name":"ÇİFTEKÖPRÜ KÖYÜ","zip":"53690"},{"name":"DEMİRKAPI KÖYÜ","zip":"53690"},{"name":"DEMİRLİ MAH.","zip":"53690"},{"name":"DEREKÖY KÖYÜ","zip":"53690"},{"name":"DİKMETAŞ MAH.","zip":"53690"},{"name":"DİKTAŞ KÖYÜ","zip":"53690"},{"name":"EMEKÇİLER MAH.","zip":"53690"},{"name":"ESKİCE KÖYÜ","zip":"53690"},{"name":"GÖLYAYLA KÖYÜ","zip":"53690"},{"name":"GUDURLU MAH.","zip":"53690"},{"name":"GÜNEYCE KÖYÜ","zip":"53690"},{"name":"GÜRDERE KÖYÜ","zip":"53690"},{"name":"GÜVENKÖY KÖYÜ","zip":"53690"},{"name":"HAMURLU MAH.","zip":"53690"},{"name":"HIÇA MAH.","zip":"53690"},{"name":"HINDRAKOL MAH.","zip":"53690"},{"name":"IHLAMUR KÖYÜ","zip":"53690"},{"name":"ILICAKÖY KÖYÜ","zip":"53690"},{"name":"ILICALAR MAH.","zip":"53690"},{"name":"İMAMLAR MAH.","zip":"53690"},{"name":"İŞKENCEDERE MAH.","zip":"53690"},{"name":"KAMA KÖYÜ","zip":"53690"},{"name":"KAMADİBİ MAH.","zip":"53690"},{"name":"KANCALI MAH.","zip":"53690"},{"name":"KARAGÖZLÜ MAH.","zip":"53690"},{"name":"KARALİ MAH.","zip":"53690"},{"name":"KASTAMONU MAH.","zip":"53690"},{"name":"KEMERKÖPRÜ MAH.","zip":"53690"},{"name":"KESTANE MAH.","zip":"53690"},{"name":"KIZILTEPE MAH.","zip":"53690"},{"name":"KÖPRÜBAŞI MAH.","zip":"53690"},{"name":"KÖSELİ MAH.","zip":"53690"},{"name":"KÖYİÇİ MAH.","zip":"53690"},{"name":"KUMLUK MAH.","zip":"53690"},{"name":"KURDOĞLU MAH.","zip":"53690"},{"name":"KURTULUŞ MAH.","zip":"53690"},{"name":"KUTURLU MAH.","zip":"53690"},{"name":"MAHİLLER MAH.","zip":"53690"},{"name":"MEHMETALİ MAH.","zip":"53690"},{"name":"MEŞEKÖY KÖYÜ","zip":"53690"},{"name":"MUÇOLAR MAH.","zip":"53690"},{"name":"ORTA MAH.","zip":"53690"},{"name":"ORTAKÖY KÖYÜ","zip":"53690"},{"name":"OTEL MAH.","zip":"53690"},{"name":"PAZARALTI MAH.","zip":"53690"},{"name":"PENDAZLI MAH.","zip":"53690"},{"name":"RÜZGARLI KÖYÜ","zip":"53690"},{"name":"SAKANDOZ MAH.","zip":"53690"},{"name":"SARAY MAH.","zip":"53690"},{"name":"SARMANLI MAH.","zip":"53690"},{"name":"SAVAYILLAR MAH.","zip":"53690"},{"name":"SIRT MAH.","zip":"53690"},{"name":"SIRTLAR MAH.","zip":"53690"},{"name":"SİVRİKAYA KÖYÜ","zip":"53690"},{"name":"ŞİMŞİRLİ KÖYÜ","zip":"53690"},{"name":"TOZKÖY KÖYÜ","zip":"53690"},{"name":"TULUMPINAR KÖYÜ","zip":"53690"},{"name":"TURAHLI MAH.","zip":"53690"},{"name":"TUZİKOLAR MAH.","zip":"53690"},{"name":"YAĞCILAR KÖYÜ","zip":"53690"},{"name":"YENİ MAH.","zip":"53690"},{"name":"YERELMA KÖYÜ","zip":"53690"},{"name":"YEŞİLTEPE MAH.","zip":"53690"},{"name":"YUKARI MAH.","zip":"53690"},{"name":"ZANETLİ MAH.","zip":"53690"}]},{"name":"İYİDERE","cityName":null,"quarters":[{"name":"FETHİYE MAH.","zip":"53600"},{"name":"FIÇITAŞI MAH.","zip":"53600"},{"name":"HAZAR MAH.","zip":"53600"},{"name":"SARAYKÖY MAH.","zip":"53600"},{"name":"ÜSTÜPİLER MAH.","zip":"53600"},{"name":"YALIKÖY MAH.","zip":"53600"},{"name":"YAPRAKLAR MAH.","zip":"53600"}]},{"name":"MERKEZKÖYLER","cityName":null,"quarters":[{"name":"ÇİFTLİK KÖYÜ","zip":"53610"},{"name":"DENİZGÖREN KÖYÜ","zip":"53610"},{"name":"KALECİK KÖYÜ","zip":"53610"},{"name":"KÖŞKLÜ KÖYÜ","zip":"53610"},{"name":"TAŞHANE KÖYÜ","zip":"53610"},{"name":"YAYLACILAR KÖYÜ","zip":"53610"}]},{"name":"KALKANDERE","cityName":null,"quarters":[{"name":"AKSU MAH.","zip":"53500"},{"name":"AŞAĞI TATLISU MAH.","zip":"53500"},{"name":"CEVİZLİK MAH.","zip":"53500"},{"name":"DAĞDİBİ MAH.","zip":"53500"},{"name":"KIZILTOPRAK MAH.","zip":"53500"},{"name":"KURUKÖY MAH.","zip":"53500"},{"name":"MEDRESE MAH.","zip":"53500"},{"name":"SOĞUKSU MAH.","zip":"53500"},{"name":"TAŞÇILAR MAH.","zip":"53500"},{"name":"YENİ MAH.","zip":"53500"},{"name":"YUKARI TATLISU MAH.","zip":"53500"}]},{"name":"MERKEZKÖYLER","cityName":null,"quarters":[{"name":"ARMUTLU MAH.","zip":"53540"},{"name":"AŞAĞI MAH.","zip":"53540"},{"name":"BABADAĞI MAH.","zip":"53540"},{"name":"BAYRAKTARLAR MAH.","zip":"53540"},{"name":"BİNAMLAR MAH.","zip":"53540"},{"name":"CAMİİ MAH.","zip":"53540"},{"name":"CUMHURİYET MAH.","zip":"53540"},{"name":"ÇAĞLAYAN KÖYÜ","zip":"53540"},{"name":"ÇAYIRLI KÖYÜ","zip":"53540"},{"name":"DEREİÇİ MAH.","zip":"53540"},{"name":"DURMUŞLAR MAH.","zip":"53540"},{"name":"DÜLGERLİ KÖYÜ","zip":"53540"},{"name":"DÜZ MAH.","zip":"53540"},{"name":"ESENDERE KÖYÜ","zip":"53540"},{"name":"ESENTEPE KÖYÜ","zip":"53540"},{"name":"FINDIKLI KÖYÜ","zip":"53540"},{"name":"GEÇİTLİ KÖYÜ","zip":"53540"},{"name":"HURMALIK KÖYÜ","zip":"53540"},{"name":"HÜSEYİNHOCA KÖYÜ","zip":"53540"},{"name":"İNCİ KÖYÜ","zip":"53540"},{"name":"KAYABAŞI KÖYÜ","zip":"53540"},{"name":"KAYALIK MAH.","zip":"53540"},{"name":"KOFOLAR MAH.","zip":"53540"},{"name":"MERKEZ MAH.","zip":"53540"},{"name":"MUSLUOĞLU MAH.","zip":"53540"},{"name":"ORMANLI KÖYÜ","zip":"53540"},{"name":"ORTA MAH.","zip":"53540"},{"name":"PINARKÖY KÖYÜ","zip":"53540"},{"name":"REŞİTLER MAH.","zip":"53540"},{"name":"SANDIKÇIOĞLU MAH.","zip":"53540"},{"name":"SEYRANTEPE KÖYÜ","zip":"53540"},{"name":"SIRT MAH.","zip":"53540"},{"name":"SOĞUKSU KÖYÜ","zip":"53540"},{"name":"ŞENDERE MAH.","zip":"53540"},{"name":"ÜNALAN KÖYÜ","zip":"53540"},{"name":"VOYUNTA MAH.","zip":"53540"},{"name":"YAMAÇ MAH.","zip":"53540"},{"name":"YENİGEÇİTLİ KÖYÜ","zip":"53540"},{"name":"YENİKÖY KÖYÜ","zip":"53540"},{"name":"YEŞİLDERE MAH.","zip":"53540"},{"name":"YEŞİLKÖY KÖYÜ","zip":"53540"},{"name":"YILDIRIMLAR MAH.","zip":"53540"},{"name":"YOKUŞLU KÖYÜ","zip":"53540"},{"name":"YOLBAŞI KÖYÜ","zip":"53540"},{"name":"YUKARI MAH.","zip":"53540"},{"name":"YUMURTATEPE KÖYÜ","zip":"53540"},{"name":"YUSUFLAR ORTA MAH.","zip":"53540"}]},{"name":"GÜNDOĞDU(HAMİDİYE)","cityName":null,"quarters":[{"name":"AKARSU MÜCAVİR MAH.","zip":"53800"},{"name":"AKPINAR KÖYÜ","zip":"53800"},{"name":"AKTAŞ KÖYÜ","zip":"53800"},{"name":"ARDINA MAH.","zip":"53800"},{"name":"AŞAĞI MAH.","zip":"53800"},{"name":"AZİNA MAH.","zip":"53800"},{"name":"BALCILAR (ŞAFAKLAR) MAH.","zip":"53800"},{"name":"BALIKÇILAR KÖYÜ","zip":"53800"},{"name":"BOĞAZ KÖYÜ","zip":"53800"},{"name":"ÇELİKLER MAH.","zip":"53800"},{"name":"DAĞ DERESİ MAH.","zip":"53800"},{"name":"DÜZ MAH.","zip":"53800"},{"name":"EMİNOĞULLARI MAH.","zip":"53800"},{"name":"ESENTEPE MAH.","zip":"53800"},{"name":"ESKİ MAH.","zip":"53800"},{"name":"GÖLTEPE MAH.","zip":"53800"},{"name":"GÜNEBAKIŞ MAH.","zip":"53800"},{"name":"HAZAVİTE MAH.","zip":"53800"},{"name":"İSLAMOĞLU MAH.","zip":"53800"},{"name":"KARANFİLLER MAH.","zip":"53800"},{"name":"KAROĞULLARI MAH.","zip":"53800"},{"name":"KETENLİ KÖYÜ","zip":"53800"},{"name":"KOŞKOŞLAR MAH.","zip":"53800"},{"name":"KURTULUŞ KÖYÜ","zip":"53800"},{"name":"MERALLER MAH.","zip":"53800"},{"name":"MERKEZ MAH.","zip":"53800"},{"name":"MEZRA MAH.","zip":"53800"},{"name":"MOLLAAHMETOĞLU MAH.","zip":"53800"},{"name":"ORSİDİ MAH.","zip":"53800"},{"name":"ORTA MAH.","zip":"53800"},{"name":"PANDIRLAR MAH.","zip":"53800"},{"name":"PEKMEZLİ KÖYÜ","zip":"53800"},{"name":"PINARBAŞI KÖYÜ","zip":"53800"},{"name":"SIRT MAH.","zip":"53800"},{"name":"SÖĞÜTLÜ KÖYÜ","zip":"53800"},{"name":"ŞAİRLER MAH.","zip":"53800"},{"name":"ŞAİRTEPE MAH.","zip":"53800"},{"name":"ŞENTEPE MAH.","zip":"53800"},{"name":"TAŞLIK KÖYÜ","zip":"53800"},{"name":"TAŞPINAR KÖYÜ","zip":"53800"},{"name":"TİMENA MAH.","zip":"53800"},{"name":"ÜST MAH.","zip":"53800"},{"name":"VELİKÖY KÖYÜ","zip":"53800"},{"name":"YAZICILAR (MERKEZ) MAH.","zip":"53800"},{"name":"YAZICILAR MAH.","zip":"53800"},{"name":"YENİKALE KÖYÜ","zip":"53800"},{"name":"YEŞİLIRMAK MAH.","zip":"53800"},{"name":"YUKARI KARŞI MAH.","zip":"53800"},{"name":"YUKARI MAH.","zip":"53800"}]},{"name":"MERKEZKÖYLER","cityName":null,"quarters":[{"name":"AKTEPE MAH.","zip":"53870"},{"name":"ALİK MAH.","zip":"53870"},{"name":"ALİŞÖR MAH.","zip":"53870"},{"name":"ALT MAH.","zip":"53870"},{"name":"AMBARLIK KÖYÜ","zip":"53870"},{"name":"ARDİN MAH.","zip":"53870"},{"name":"ARNAULT MAH.","zip":"53870"},{"name":"ASGOROZ MAH.","zip":"53870"},{"name":"ASMALIK MAH.","zip":"53870"},{"name":"AŞAĞI MAH.","zip":"53870"},{"name":"AYANE KÖYÜ","zip":"53870"},{"name":"AYVALI MAH.","zip":"53870"},{"name":"AZAKLIHOCA KÖYÜ","zip":"53870"},{"name":"AZAKLILAR MAH.","zip":"53870"},{"name":"BAŞ MAH.","zip":"53870"},{"name":"BAYINDIRLAR MAH.","zip":"53870"},{"name":"BEŞTEPE KÖYÜ","zip":"53870"},{"name":"BIÇAKCILAR MAH.","zip":"53870"},{"name":"BILDIRCINKÖY KÖYÜ","zip":"53870"},{"name":"CAMİDAĞI KÖYÜ","zip":"53870"},{"name":"CAMİÖNÜ-GÜNEŞLİ-MERKEZ GÜZELYURT MAH.","zip":"53870"},{"name":"CEVİZLİK MAH.","zip":"53870"},{"name":"CİNGÖZ MAH.","zip":"53870"},{"name":"ÇALIKLAR MAH.","zip":"53870"},{"name":"ÇAPLAR MAH.","zip":"53870"},{"name":"ÇAVUŞOĞLU MAH.","zip":"53870"},{"name":"ÇAYBAŞI KÖYÜ","zip":"53870"},{"name":"ÇAYCILAR KÖYÜ","zip":"53870"},{"name":"ÇELİKLER MAH.","zip":"53870"},{"name":"ÇETİNKAYALAR MAH.","zip":"53870"},{"name":"ÇİMENLİ KÖYÜ","zip":"53870"},{"name":"ÇİYANDA MAH.","zip":"53870"},{"name":"DELALLAR MAH.","zip":"53870"},{"name":"DEMİRCİOĞLU ALT MAH.","zip":"53870"},{"name":"DEMİRCİOĞLU ÜST MAH.","zip":"53870"},{"name":"DERE BAŞI MAH.","zip":"53870"},{"name":"DERE BOYU MAH.","zip":"53870"},{"name":"DERE MAH.","zip":"53870"},{"name":"DEREBAŞI KÖYÜ","zip":"53870"},{"name":"DEVRANLAR MAH.","zip":"53870"},{"name":"DÖRTYOL KÖYÜ","zip":"53870"},{"name":"DÜZ MAH.","zip":"53870"},{"name":"DÜZKÖY KÖYÜ","zip":"53870"},{"name":"ELMALI KÖYÜ","zip":"53870"},{"name":"EMİNOĞLU (EMİNUKA) MAH.","zip":"53870"},{"name":"ERENKÖY KÖYÜ","zip":"53870"},{"name":"ERENLER MAH.","zip":"53870"},{"name":"ESENDERE-GÜVEN-YEŞİLOVA MAH.","zip":"53870"},{"name":"ESENTEPE MAH.","zip":"53870"},{"name":"ESENYURT MAH.","zip":"53870"},{"name":"ESER MAH.","zip":"53870"},{"name":"FINDIKLAR MAH.","zip":"53870"},{"name":"GODOL MAH.","zip":"53870"},{"name":"GÖLGELİ KÖYÜ","zip":"53870"},{"name":"GÖLGELİ-1 MAH.","zip":"53870"},{"name":"GÖLGELİ-2 MAH.","zip":"53870"},{"name":"GÜLTEPE MAH.","zip":"53870"},{"name":"GÜNELİ MAH.","zip":"53870"},{"name":"GÜNEŞLİ MAH.","zip":"53870"},{"name":"GÜNEŞTEPE MAH.","zip":"53870"},{"name":"GÜNEYLER MAH.","zip":"53870"},{"name":"GÜVEN MAH.","zip":"53870"},{"name":"GÜZELKÖY KÖYÜ","zip":"53870"},{"name":"GÜZELTEPE MAH.","zip":"53870"},{"name":"GÜZELYURT KÖYÜ","zip":"53870"},{"name":"GÜZELYURT MAH.","zip":"53870"},{"name":"HALASLAR MAH.","zip":"53870"},{"name":"HAMÇAYIR MAH.","zip":"53870"},{"name":"HAVGER MAH.","zip":"53870"},{"name":"HEV MAH.","zip":"53870"},{"name":"HUR MAH.","zip":"53870"},{"name":"İÇMELER MAH.","zip":"53870"},{"name":"İSMAİLOĞLU MAH.","zip":"53870"},{"name":"İSTANOZ MAH.","zip":"53870"},{"name":"İŞYARLAR MAH.","zip":"53870"},{"name":"KADIBAŞLAR MAH.","zip":"53870"},{"name":"KALAMARİ MAH.","zip":"53870"},{"name":"KAMARAŞ MAH.","zip":"53870"},{"name":"KARAIRMAK MAH.","zip":"53870"},{"name":"KARASU KÖYÜ","zip":"53870"},{"name":"KARAYEMİŞ KÖYÜ","zip":"53870"},{"name":"KARŞI MAH.","zip":"53870"},{"name":"KARŞIYAKA MAH.","zip":"53870"},{"name":"KARTALTEPE MAH.","zip":"53870"},{"name":"KASARCILAR MAH.","zip":"53870"},{"name":"KATILA MAH.","zip":"53870"},{"name":"KAYADİBİ MAH.","zip":"53870"},{"name":"KAYALIK MAH.","zip":"53870"},{"name":"KENDİRLİ KÖYÜ","zip":"53870"},{"name":"KIRKLARTEPESİ KÖYÜ","zip":"53870"},{"name":"KİRAZLIK MAH.","zip":"53870"},{"name":"KİREÇHANE MAH.","zip":"53870"},{"name":"KOCATEPE KÖYÜ","zip":"53870"},{"name":"KOÇALLAR MAH.","zip":"53870"},{"name":"KOÇLAR MAH.","zip":"53870"},{"name":"KOKULUKAYA MAH.","zip":"53870"},{"name":"KONAKLAR MAH.","zip":"53870"},{"name":"KOP MAH.","zip":"53870"},{"name":"KORUTÜRK MAH.","zip":"53870"},{"name":"KOSELER MAH.","zip":"53870"},{"name":"KOSTANLAR MAH.","zip":"53870"},{"name":"KOTOS MAH.","zip":"53870"},{"name":"KÖMÜRCÜLER MAH.","zip":"53870"},{"name":"KÖPRÜBAŞI MAH.","zip":"53870"},{"name":"KÖPRÜLÜ KÖYÜ","zip":"53870"},{"name":"KÖSELER MAH.","zip":"53870"},{"name":"KURS'TAN İTİBAREN MAH.","zip":"53870"},{"name":"KUTLULAR MAH.","zip":"53870"},{"name":"KÜÇÜKÇAYIR KÖYÜ","zip":"53870"},{"name":"KÜÇÜKKÖY KÖYÜ","zip":"53870"},{"name":"MANAVLAR MAH.","zip":"53870"},{"name":"MELEK KÖYÜ","zip":"53870"},{"name":"MENDERES MAH.","zip":"53870"},{"name":"MERKEZ MAH.","zip":"53870"},{"name":"MERKEZ-AŞAĞI MAH.","zip":"53870"},{"name":"MESUDİYE MAH.","zip":"53870"},{"name":"MEZRA MAH.","zip":"53870"},{"name":"MURADİYE KÖYÜ","zip":"53870"},{"name":"MÜDERRİSLER MAH.","zip":"53870"},{"name":"ORTA MAH.","zip":"53870"},{"name":"ORTA MURADİYE MAH.","zip":"53870"},{"name":"ORTAPAZAR KÖYÜ","zip":"53870"},{"name":"ÖKSÜZLER MAH.","zip":"53870"},{"name":"ÖRNEK KÖYÜ","zip":"53870"},{"name":"PAZARKÖY KÖYÜ","zip":"53870"},{"name":"SADIKLAR MAH.","zip":"53870"},{"name":"SALARHA KÖYÜ","zip":"53870"},{"name":"SELİMİYE KÖYÜ","zip":"53870"},{"name":"SEYRANTEPE MAH.","zip":"53870"},{"name":"SIRT KASARCILAR MAH.","zip":"53870"},{"name":"SIRT MAH.","zip":"53870"},{"name":"SİLYANLI MAH.","zip":"53870"},{"name":"SOĞUKÇEŞME KÖYÜ","zip":"53870"},{"name":"SOĞUKSU MAH.","zip":"53870"},{"name":"SUKAS MAH.","zip":"53870"},{"name":"SÜTLÜCE KÖYÜ","zip":"53870"},{"name":"ŞAHİNTEPE MAH.","zip":"53870"},{"name":"ŞEHİT MAH.","zip":"53870"},{"name":"ŞÖZ MAH.","zip":"53870"},{"name":"TAŞEREK MAH.","zip":"53870"},{"name":"TAŞKÖPRÜ KÖYÜ","zip":"53870"},{"name":"TEKKE KÖYÜ","zip":"53870"},{"name":"TEPE ÜSTÜ MAH.","zip":"53870"},{"name":"TOPÇULAR MAH.","zip":"53870"},{"name":"TOPKAYA KÖYÜ","zip":"53870"},{"name":"TUĞLALI KÖYÜ","zip":"53870"},{"name":"TÜRÜTLER MAH.","zip":"53870"},{"name":"UZUNKÖY KÖYÜ","zip":"53870"},{"name":"ÜÇKAYA KÖYÜ","zip":"53870"},{"name":"ÜST MAH.","zip":"53870"},{"name":"ÜZÜMLÜ MAH.","zip":"53870"},{"name":"YAĞLITAŞ MAH.","zip":"53870"},{"name":"YEMİŞLİK KÖYÜ","zip":"53870"},{"name":"YENİ MELEK MAH.","zip":"53870"},{"name":"YENİGÜZELKÖY KÖYÜ","zip":"53870"},{"name":"YENİKASARCILAR KÖYÜ","zip":"53870"},{"name":"YENİKÖY MAH.","zip":"53870"},{"name":"YENİSELİMİYE KÖYÜ","zip":"53870"},{"name":"YEŞİLDERE KÖYÜ","zip":"53870"},{"name":"YEŞİLDERE MAH.","zip":"53870"},{"name":"YEŞİLILICA MAH.","zip":"53870"},{"name":"YEŞİLYURT MAH.","zip":"53870"},{"name":"YILDIZTEPE MAH.","zip":"53870"},{"name":"YILDIZTEPE-GÜZELDERE MAH.","zip":"53870"},{"name":"YOLÜSTÜ KÖYÜ","zip":"53870"},{"name":"YOLVEREN KÖYÜ","zip":"53870"},{"name":"YUKARI MAH.","zip":"53870"},{"name":"ZİNCİRLİKÖPRÜ KÖYÜ","zip":"53870"}]},{"name":"RİZE","cityName":null,"quarters":[{"name":"ATMEYDANI MAH.","zip":"53020"},{"name":"BAĞDATLI MAH.","zip":"53020"},{"name":"BALCILAR MAH.","zip":"53020"},{"name":"BALSU MAH.","zip":"53020"},{"name":"BOĞAZ MAH.","zip":"53020"},{"name":"BOZKALE MAH.","zip":"53020"},{"name":"CAMİÖNÜ MAH.","zip":"53020"},{"name":"ÇAMLIBEL MAH.","zip":"53020"},{"name":"ÇARŞI MAH.","zip":"53020"},{"name":"ÇİFTEKAVAK MAH.","zip":"53020"},{"name":"ÇORAPÇILAR MAH.","zip":"53020"},{"name":"DAĞINIKSU MAH.","zip":"53020"},{"name":"DAĞSU MAH.","zip":"53020"},{"name":"DEĞİRMENDERE MAH.","zip":"53020"},{"name":"DEREÜSTÜ MAH.","zip":"53020"},{"name":"EKMEKÇİLER MAH.","zip":"53020"},{"name":"EKREM ORHON MAH.","zip":"53020"},{"name":"EMİNETTİN MAH.","zip":"53020"},{"name":"ENGİNDERE MAH.","zip":"53020"},{"name":"ENGİNDERE SB MAH.","zip":"53020"},{"name":"FATİH MAH.","zip":"53020"},{"name":"FENER MAH.","zip":"53020"},{"name":"GÜLBAHAR MAH.","zip":"53020"},{"name":"GÜMÜŞLER MAH.","zip":"53020"},{"name":"HACIALİOĞLU MAH.","zip":"53020"},{"name":"HALATÇILAR MAH.","zip":"53020"},{"name":"HAMİDİYE MAH.","zip":"53020"},{"name":"HAMZABEY MAH.","zip":"53020"},{"name":"HAYRAT MAH.","zip":"53020"},{"name":"İSLAMPAŞA MAH.","zip":"53020"},{"name":"KALE MAH.","zip":"53020"},{"name":"KANBURSIRT MAH.","zip":"53020"},{"name":"KAPLICA MAH.","zip":"53020"},{"name":"KAVAKLI MAH.","zip":"53020"},{"name":"MERMERDELEN MAH.","zip":"53020"},{"name":"MEZRA MAH.","zip":"53020"},{"name":"MÜFTÜ MAH.","zip":"53020"},{"name":"PAŞAKUYU MAH.","zip":"53020"},{"name":"PEHLİVAN MAH.","zip":"53020"},{"name":"PEHLİVANTAŞI MAH.","zip":"53020"},{"name":"PİLAVDAĞI MAH.","zip":"53020"},{"name":"PİRİÇELEBİ MAH.","zip":"53020"},{"name":"PORTAKALLIK MAH.","zip":"53020"},{"name":"REŞADİYE MAH.","zip":"53020"},{"name":"TAŞLIDERE MAH.","zip":"53020"},{"name":"TOPHANE MAH.","zip":"53020"},{"name":"YAĞLITAŞ MAH.","zip":"53020"},{"name":"YENİ MAH.","zip":"53020"},{"name":"YENİDOĞAN KÖYÜ","zip":"53020"},{"name":"YENİKÖY MAH.","zip":"53020"}]},{"name":"MERKEZKÖYLER","cityName":null,"quarters":[{"name":"ABDİOĞLU MÜCAVİR MAH.","zip":"53340"},{"name":"AKBUCAK KÖYÜ","zip":"53340"},{"name":"AKMESCİT KÖYÜ","zip":"53340"},{"name":"AKTAŞ KÖYÜ","zip":"53340"},{"name":"AKTEPE KÖYÜ","zip":"53340"},{"name":"ALÇILI KÖYÜ","zip":"53340"},{"name":"ALIM YERİ VE OKUMUŞLAR MEVKİ MAH.","zip":"53340"},{"name":"ALT MEVKİ MAH.","zip":"53340"},{"name":"ANA YOL ALTI MEVKİ MAH.","zip":"53340"},{"name":"ANAYOL GÜNEY KISMI MEVKİ MAH.","zip":"53340"},{"name":"ARIÇAY-OFÇAY FABRİKASI MEVKİ MAH.","zip":"53340"},{"name":"ARKA DERE MEVKİ MAH.","zip":"53340"},{"name":"AŞAĞI MEVKİ MAH.","zip":"53340"},{"name":"AVCILAR MEVKİİ MAH.","zip":"53340"},{"name":"AYGÜNEŞ-YILDIZ-ALTUN MEVKİ MAH.","zip":"53340"},{"name":"BABUÇOĞLU-DEVRİŞOĞLU MEVKİ MAH.","zip":"53340"},{"name":"BADİALVA MEVKİ MAH.","zip":"53340"},{"name":"BALABAN MEVKİ MAH.","zip":"53340"},{"name":"BALIKÇI KÖYÜ","zip":"53340"},{"name":"BAŞ MEVKİ MAH.","zip":"53340"},{"name":"BAŞKÖY KÖYÜ","zip":"53340"},{"name":"BİLALOĞLU MEVKİ MAH.","zip":"53340"},{"name":"BİLİCİLER MEVKİ MAH.","zip":"53340"},{"name":"BİRİNCİLER MEVKİ MAH.","zip":"53340"},{"name":"BOĞAZLI KÖYÜ","zip":"53340"},{"name":"BUCAK KÖYÜ","zip":"53340"},{"name":"BÜYÜK CAMİ MEVKİ MAH.","zip":"53340"},{"name":"CAMİ MEVKİ MAH.","zip":"53340"},{"name":"CEVHERLER MAH.","zip":"53340"},{"name":"CİHANLI MEVKİ MAH.","zip":"53340"},{"name":"CİNAN MEVKİ MAH.","zip":"53340"},{"name":"ÇABAND MEVKİ MAH.","zip":"53340"},{"name":"ÇİÇEKÖREN MEVKİ MAH.","zip":"53340"},{"name":"DAĞDİBİ KÖYÜ","zip":"53340"},{"name":"DARILI KÖYÜ","zip":"53340"},{"name":"DERE MEVKİ MAH.","zip":"53340"},{"name":"DERE MEVKİİ MAH.","zip":"53340"},{"name":"DEREBAŞI KÖYÜ","zip":"53340"},{"name":"DERİNSU KÖYÜ","zip":"53340"},{"name":"DERNEK KÖYÜ","zip":"53340"},{"name":"DIŞKAPI MEVKİ MAH.","zip":"53340"},{"name":"DOSAN ÇAY FABRİKASI MEVKİ MAH.","zip":"53340"},{"name":"DUMİNA MEVKİ MAH.","zip":"53340"},{"name":"DÜZ MEVKİ MAH.","zip":"53340"},{"name":"DÜZLER MEVKİ MAH.","zip":"53340"},{"name":"ELMALIK KÖYÜ","zip":"53340"},{"name":"GEÇİTLER MEVKİ MAH.","zip":"53340"},{"name":"GÜNEY KÖYÜ","zip":"53340"},{"name":"HABERAL MEVKİ MAH.","zip":"53340"},{"name":"HAMİDİYE KÖYÜ","zip":"53340"},{"name":"HAMİDİYE MÜCAVİR MAH.","zip":"53340"},{"name":"HANDAĞI KÖYÜ","zip":"53340"},{"name":"HARVAT MEVKİİ MAH.","zip":"53340"},{"name":"HASKÖY KÖYÜ","zip":"53340"},{"name":"HAŞIOĞLU MEVKİİ MAH.","zip":"53340"},{"name":"HAZİNE MEVKİ MAH.","zip":"53340"},{"name":"HİSARLI KÖYÜ","zip":"53340"},{"name":"HOÇOTİ MEVKİ MAH.","zip":"53340"},{"name":"HOPA MEVKİ MAH.","zip":"53340"},{"name":"HUKANOĞLU MEVKİ MAH.","zip":"53340"},{"name":"HUZURKENT SİTE VE ANADOLU LİSESİ MEVKİ MAH.","zip":"53340"},{"name":"IRMAK KÖYÜ","zip":"53340"},{"name":"IRMAKYENİKÖY KÖYÜ","zip":"53340"},{"name":"İNCE MEVKİ MAH.","zip":"53340"},{"name":"İSKELE MEVKİ MAH.","zip":"53340"},{"name":"KALE MEVKİ MAH.","zip":"53340"},{"name":"KANLI MEVKİ MAH.","zip":"53340"},{"name":"KARŞI MEVKİ MAH.","zip":"53340"},{"name":"KASAPOĞLU MEVKİ MAH.","zip":"53340"},{"name":"KAYAĞANTAŞ KÖYÜ","zip":"53340"},{"name":"KESİKKÖPRÜ KÖYÜ","zip":"53340"},{"name":"KESİMAL MEVKİ MAH.","zip":"53340"},{"name":"KOCAKÖPRÜ KÖYÜ","zip":"53340"},{"name":"KOCAKÖPRÜ MÜCAVİR MAH.","zip":"53340"},{"name":"KOÇANLI MEVKİ MAH.","zip":"53340"},{"name":"KOÇOĞLU VE ÇEBİLER MEVKİ MAH.","zip":"53340"},{"name":"KORKMAZLAR MEVKİ MAH.","zip":"53340"},{"name":"KÖSOĞLU VE KOLSUZOĞLU MEVKİ MAH.","zip":"53340"},{"name":"KUZAYCA KÖYÜ","zip":"53340"},{"name":"KÜÇÜK CAMİ MEVKİ MAH.","zip":"53340"},{"name":"LİMAN MEVKİ MAH.","zip":"53340"},{"name":"MEMOĞLU MEVKİ MAH.","zip":"53340"},{"name":"MERDİVENLİ KÖYÜ","zip":"53340"},{"name":"MERKEZ CAMİ ESKİ PAZARYOLU MEVKİ MAH.","zip":"53340"},{"name":"MERKEZ CAMİ MEVKİ MAH.","zip":"53340"},{"name":"MERKEZ MEVKİ MAH.","zip":"53340"},{"name":"MOLLA ÖMER MEVKİİ MAH.","zip":"53340"},{"name":"MORÇUT MEVKİ MAH.","zip":"53340"},{"name":"OCAK (MÜCAVİR) MAH.","zip":"53340"},{"name":"OCAK KÖYÜ","zip":"53340"},{"name":"OCAOZON MEVKİ MAH.","zip":"53340"},{"name":"OKUL MEVKİ MAH.","zip":"53340"},{"name":"OKUL MEVKİİ MAH.","zip":"53340"},{"name":"OKUL VE CAMİ MEVKİİ MAH.","zip":"53340"},{"name":"OMOHALE VE MEZRALAR MEVKİ MAH.","zip":"53340"},{"name":"ORTA MAH. YOLU VE İSLAMOĞLU MEVKİ MAH.","zip":"53340"},{"name":"ORTA MAH.YOLU VE AYTEMİZLER MEVKİ MAH.","zip":"53340"},{"name":"ORTA MEVKİ MAH.","zip":"53340"},{"name":"ORTA MEVKİİ MAH.","zip":"53340"},{"name":"ORTAIRMAK KÖYÜ","zip":"53340"},{"name":"ORTAYOL KÖYÜ","zip":"53340"},{"name":"ORTAYOL MEVKİ MAH.","zip":"53340"},{"name":"ÖRNEK KÖYÜ","zip":"53340"},{"name":"PAPATYA KÖYÜ","zip":"53340"},{"name":"PAŞAKİNALAR MEVKİ MAH.","zip":"53340"},{"name":"PEHLİVANLAR MEVKİ MAH.","zip":"53340"},{"name":"PİYASTONİ MEVKİ MAH.","zip":"53340"},{"name":"RADAR MEVKİ MAH.","zip":"53340"},{"name":"SAĞLIK OCAĞI  YOLU VE ÇEVRESİ MEVKİ MAH.","zip":"53340"},{"name":"SAHİL CAMİ MEVKİ (MÜCAVİR) MAH.","zip":"53340"},{"name":"SAHİL MAH.","zip":"53340"},{"name":"SAHİL MEVKİ MAH.","zip":"53340"},{"name":"SAHİLKÖY KÖYÜ","zip":"53340"},{"name":"SAHİLKÖY MÜCAVİR MAH.","zip":"53340"},{"name":"SAPANCA MEVKİ MAH.","zip":"53340"},{"name":"SARIŞI MEVKİ MAH.","zip":"53340"},{"name":"SATOĞLU MEVKİ MAH.","zip":"53340"},{"name":"SEMTET MEVKİ MAH.","zip":"53340"},{"name":"SESSİZDERE KÖYÜ","zip":"53340"},{"name":"SEYDİOĞLU MEVKİ MAH.","zip":"53340"},{"name":"SHELL PETROL KARŞISI MEVKİ MAH.","zip":"53340"},{"name":"SIRT MEVKİ MAH.","zip":"53340"},{"name":"SİVRİKALE KÖYÜ","zip":"53340"},{"name":"SİVRİTEPE KÖYÜ","zip":"53340"},{"name":"SOĞUKSU MEVKİ MAH.","zip":"53340"},{"name":"SUBAŞI KÖYÜ","zip":"53340"},{"name":"SUÇATI KÖYÜ","zip":"53340"},{"name":"SULAK KÖYÜ","zip":"53340"},{"name":"ŞABANOĞLU MEVKİ MAH.","zip":"53340"},{"name":"ŞEHİTLİK KÖYÜ","zip":"53340"},{"name":"ŞENDERE KÖYÜ","zip":"53340"},{"name":"ŞENTEPE KÖYÜ","zip":"53340"},{"name":"ŞENTEPE MEVKİ MAH.","zip":"53340"},{"name":"TAPSİHON YOL ÜSTÜ VE KÖYİÇİ MEVKİ MAH.","zip":"53340"},{"name":"TASU MEVKİ MAH.","zip":"53340"},{"name":"TEKTAŞ KÖYÜ","zip":"53340"},{"name":"TEPE MEVKİ MAH.","zip":"53340"},{"name":"TOKİ MEVKİ (MÜCAVİR) MAH.","zip":"53340"},{"name":"TOPLUCA KÖYÜ","zip":"53340"},{"name":"TUNA MEVKİ MAH.","zip":"53340"},{"name":"TUTOĞLU MEVKİ MAH.","zip":"53340"},{"name":"TÜTÜNCÜLER KÖYÜ","zip":"53340"},{"name":"UÇANOĞLU MEVKİ MAH.","zip":"53340"},{"name":"UĞRAK KÖYÜ","zip":"53340"},{"name":"ÜRÜNLÜ DORO MEVKİ MAH.","zip":"53340"},{"name":"ÜRÜNLÜ MEVKİ MAH.","zip":"53340"},{"name":"ÜST MEVKİ MAH.","zip":"53340"},{"name":"Y.KARŞI MEVKİ MAH.","zip":"53340"},{"name":"YARBAŞI VE KIZILHANLAR MEVKİ MAH.","zip":"53340"},{"name":"YAVCALI MEVKİ MAH.","zip":"53340"},{"name":"YAVUZ KÖYÜ","zip":"53340"},{"name":"YEMİŞLİ KÖYÜ","zip":"53340"},{"name":"YENİ MEVKİ MAH.","zip":"53340"},{"name":"YEŞİLKÖY KÖYÜ","zip":"53340"},{"name":"YILDIZLAR MEVKİ MAH.","zip":"53340"},{"name":"YUKARI MEVKİ MAH.","zip":"53340"},{"name":"YÜCEHİSAR KÖYÜ","zip":"53340"}]},{"name":"PAZAR","cityName":null,"quarters":[{"name":"CUMHURİYET MAH.","zip":"53300"},{"name":"GAZİ MAH.","zip":"53300"},{"name":"GÜZELYALI MAH.","zip":"53300"},{"name":"İKİZTEPE MAH.","zip":"53300"},{"name":"KİRAZLIK MAH.","zip":"53300"},{"name":"PAZAR MAH.","zip":"53300"},{"name":"SOĞUKSU MAH.","zip":"53300"},{"name":"YUKARI SOĞUKSU MAH.","zip":"53300"},{"name":"ZAFER MAH.","zip":"53300"}]}]}]}