{"id":54,"name":"SAKARYA","cities":[{"name":"city","districts":[{"name":"ADAPAZARI","cityName":null,"quarters":[{"name":"ALANDÜZÜ MAH.","zip":"54100"},{"name":"AŞIRLAR MAH.","zip":"54100"},{"name":"BAĞLAR MAH.","zip":"54100"},{"name":"BAYRAKTAR MAH.","zip":"54100"},{"name":"BİLECİLER MAH.","zip":"54100"},{"name":"BUDAKLAR MAH.","zip":"54100"},{"name":"BÜYÜKHATAPLI MAH.","zip":"54100"},{"name":"CUMHURİYET MAH.","zip":"54100"},{"name":"ÇAĞLAYAN MAH.","zip":"54100"},{"name":"ÇALTICAK MAH.","zip":"54100"},{"name":"ÇAMYOLU MAH.","zip":"54100"},{"name":"ÇELEBİLER MAH.","zip":"54100"},{"name":"ÇERÇİLER MAH.","zip":"54100"},{"name":"ÇÖKEKLER MAH.","zip":"54100"},{"name":"ÇUKURAHMEDİYE MAH.","zip":"54100"},{"name":"DAĞDİBİ MAH.","zip":"54100"},{"name":"DEMİRBEY MAH.","zip":"54100"},{"name":"DOĞANCILAR MAH.","zip":"54100"},{"name":"ELMALI MAH.","zip":"54100"},{"name":"EVRENKÖY MAH.","zip":"54100"},{"name":"GÖKTEPE MAH.","zip":"54100"},{"name":"GÜLLÜK MAH.","zip":"54100"},{"name":"GÜNEŞLER MERKEZ MAH.","zip":"54100"},{"name":"GÜNEŞLER YENİ MAH.","zip":"54100"},{"name":"HACILAR MAH.","zip":"54100"},{"name":"HACIRAMAZANLAR MAH.","zip":"54100"},{"name":"HARMANTEPE MAH.","zip":"54100"},{"name":"HIZIRTEPE MAH.","zip":"54100"},{"name":"IŞIKLAR MAH.","zip":"54100"},{"name":"İKİZCE MÜSLİM MAH.","zip":"54100"},{"name":"İKİZCE OSMANİYE MAH.","zip":"54100"},{"name":"İLYASLAR MAH.","zip":"54100"},{"name":"İSTİKLAL MAH.","zip":"54100"},{"name":"KARADAVUTLU MAH.","zip":"54100"},{"name":"KARADERE MAH.","zip":"54100"},{"name":"KARAKAMIŞ MAH.","zip":"54100"},{"name":"KARAKÖY MAH.","zip":"54100"},{"name":"KARAOSMAN MAH.","zip":"54100"},{"name":"KARAPINAR MAH.","zip":"54100"},{"name":"KASIMLAR MAH.","zip":"54100"},{"name":"KAVAKLIORMAN MAH.","zip":"54100"},{"name":"KAYRANCIK MAH.","zip":"54100"},{"name":"KIŞLA MAH.","zip":"54100"},{"name":"KÖMÜRLÜK MAH.","zip":"54100"},{"name":"KÖPRÜBAŞI MAH.","zip":"54100"},{"name":"KURTBEYLER MAH.","zip":"54100"},{"name":"KURTULUŞ MAH.","zip":"54100"},{"name":"KÜÇÜKHATAPLI MAH.","zip":"54100"},{"name":"MAHMUDİYE MAH.","zip":"54100"},{"name":"MALTEPE MAH.","zip":"54100"},{"name":"MİTHATPAŞA MAH.","zip":"54100"},{"name":"NASUHLAR MAH.","zip":"54100"},{"name":"ORTA MAH.","zip":"54100"},{"name":"OZANLAR MAH.","zip":"54100"},{"name":"ÖRENTEPE MAH.","zip":"54100"},{"name":"PAPUÇÇULAR MAH.","zip":"54100"},{"name":"POYRAZLAR MAH.","zip":"54100"},{"name":"RÜSTEMLER MAH.","zip":"54100"},{"name":"SAKARYA MAH.","zip":"54100"},{"name":"SALMANLI MAH.","zip":"54100"},{"name":"SEMERCİLER MAH.","zip":"54100"},{"name":"SOLAKLAR MAH.","zip":"54100"},{"name":"SÜLEYMANBEY MAH.","zip":"54100"},{"name":"ŞEKER MAH.","zip":"54100"},{"name":"ŞİRİNEVLER MAH.","zip":"54100"},{"name":"TAŞKISIĞI MAH.","zip":"54100"},{"name":"TAŞLIK MAH.","zip":"54100"},{"name":"TEKELER MAH.","zip":"54100"},{"name":"TEPEKUM MAH.","zip":"54100"},{"name":"TIĞCILAR MAH.","zip":"54100"},{"name":"TURNADERE MAH.","zip":"54100"},{"name":"TUZLA MAH.","zip":"54100"},{"name":"YAĞCILAR MAH.","zip":"54100"},{"name":"YAHYALAR MAH.","zip":"54100"},{"name":"YENİCAMİ MAH.","zip":"54100"},{"name":"YENİDOĞAN MAH.","zip":"54100"},{"name":"YENİGÜN MAH.","zip":"54100"},{"name":"YEŞİLYURT MAH.","zip":"54100"}]},{"name":"KARAMAN","cityName":null,"quarters":[{"name":"KARAMAN MAH.","zip":"54290"},{"name":"KORUCUK MAH.","zip":"54290"}]},{"name":"AKYAZI","cityName":null,"quarters":[{"name":"ALAAĞAÇ MAH.","zip":"54400"},{"name":"ALTINDERE MAH.","zip":"54400"},{"name":"BALLIKAYA MAH.","zip":"54400"},{"name":"BATAKKÖY MAH.","zip":"54400"},{"name":"BEDİL KAZANCI MAH.","zip":"54400"},{"name":"BEDİLKADIRBEY MAH.","zip":"54400"},{"name":"BEDİLTAHİRBEY MAH.","zip":"54400"},{"name":"BELDİBİ MAH.","zip":"54400"},{"name":"BIÇKIDERE MAH.","zip":"54400"},{"name":"BOZTEPE MAH.","zip":"54400"},{"name":"BUĞDAYLI MAH.","zip":"54400"},{"name":"CUMHURİYET MAH.","zip":"54400"},{"name":"ÇAKIROĞLU MAH.","zip":"54400"},{"name":"ÇATALKÖPRÜ MAH.","zip":"54400"},{"name":"ÇILDIRLAR MAH.","zip":"54400"},{"name":"DEDELER MAH.","zip":"54400"},{"name":"DOKURCUN MAH.","zip":"54400"},{"name":"DURMUŞLAR MAH.","zip":"54400"},{"name":"DÜZYAZI MAH.","zip":"54400"},{"name":"ERDOĞDU MAH.","zip":"54400"},{"name":"ESKİBEDİL MAH.","zip":"54400"},{"name":"FATİH MAH.","zip":"54400"},{"name":"GAZİ SÜLEYMAN PAŞA MAH.","zip":"54400"},{"name":"GEBEŞ MAH.","zip":"54400"},{"name":"GÖKÇELER MAH.","zip":"54400"},{"name":"GÜVENÇLER MAH.","zip":"54400"},{"name":"GÜZLEK MAH.","zip":"54400"},{"name":"HANYATAK MAH.","zip":"54400"},{"name":"HARUNUSTA MAH.","zip":"54400"},{"name":"HASANBEY MAH.","zip":"54400"},{"name":"HASTAHANE MAH.","zip":"54400"},{"name":"HAYDARLAR MAH.","zip":"54400"},{"name":"İNÖNÜ MAH.","zip":"54400"},{"name":"KABAKULAK MAH.","zip":"54400"},{"name":"KARAÇALILIK MAH.","zip":"54400"},{"name":"KEPEKLİ MAH.","zip":"54400"},{"name":"KIZILCIKORMAN MAH.","zip":"54400"},{"name":"KONURALP MAH.","zip":"54400"},{"name":"KUMKÖPRÜ MAH.","zip":"54400"},{"name":"KUZULUK MAH.","zip":"54400"},{"name":"KÜÇÜCEK CUMHURİYET MAH.","zip":"54400"},{"name":"KÜÇÜCEK İSTİKLAL MAH.","zip":"54400"},{"name":"MADENLER MAH.","zip":"54400"},{"name":"MANSURLAR MAH.","zip":"54400"},{"name":"MERKEZYENİKÖY MAH.","zip":"54400"},{"name":"OSMANBEY MAH.","zip":"54400"},{"name":"ÖMERCİKLER MAH.","zip":"54400"},{"name":"PAZARKÖY MAH.","zip":"54400"},{"name":"REŞADİYE MAH.","zip":"54400"},{"name":"SALİHİYE MAH.","zip":"54400"},{"name":"SEYFELER MAH.","zip":"54400"},{"name":"SUKENARI MAH.","zip":"54400"},{"name":"ŞEREFİYE MAH.","zip":"54400"},{"name":"TAŞAĞIL MAH.","zip":"54400"},{"name":"TAŞBURUN MAH.","zip":"54400"},{"name":"TAŞYATAK MAH.","zip":"54400"},{"name":"TOPAĞAÇ MAH.","zip":"54400"},{"name":"TÜRKORMANKÖY MAH.","zip":"54400"},{"name":"UZUNÇINAR MAH.","zip":"54400"},{"name":"VAKIF MAH.","zip":"54400"},{"name":"YAĞCILAR MAH.","zip":"54400"},{"name":"YAHYALI MAH.","zip":"54400"},{"name":"YENİ MAH.","zip":"54400"},{"name":"YENİDOĞAN MAH.","zip":"54400"},{"name":"YENİORMAN MAH.","zip":"54400"},{"name":"YONGALIK MAH.","zip":"54400"},{"name":"YÖRÜKYERİ MAH.","zip":"54400"},{"name":"YUNUS EMRE MAH.","zip":"54400"},{"name":"YUVALAK MAH.","zip":"54400"}]},{"name":"ARİFİYE","cityName":null,"quarters":[{"name":"AHMEDİYE MAH.","zip":"54580"},{"name":"ARİFBEY MAH.","zip":"54580"},{"name":"AŞAĞI KİRAZCA MAH.","zip":"54580"},{"name":"CUMHURİYET MAH.","zip":"54580"},{"name":"ÇAYBAŞI FUADİYE MAH.","zip":"54580"},{"name":"ÇINARDİBİ MAH.","zip":"54580"},{"name":"FATİH MAH.","zip":"54580"},{"name":"HACIKÖY MAH.","zip":"54580"},{"name":"HANLI MERKEZ MAH.","zip":"54580"},{"name":"HANLI SAKARYA MAH.","zip":"54580"},{"name":"HANLIKÖY MAH.","zip":"54580"},{"name":"KARAAPTİLER MAH.","zip":"54580"},{"name":"KARAÇOMAKLAR MAH.","zip":"54580"},{"name":"KEMALİYE MAH.","zip":"54580"},{"name":"KIŞLAÇAY MAH.","zip":"54580"},{"name":"KİRAZCA MAH.","zip":"54580"},{"name":"KUMBAŞI MAH.","zip":"54580"},{"name":"MOLLAKÖY MAH.","zip":"54580"},{"name":"NEVİYE MAH.","zip":"54580"},{"name":"SAKARYA I.ORGANİZE SANAYİ BÖLGESİ MAH.","zip":"54580"},{"name":"SEMERCİLER MAH.","zip":"54580"},{"name":"TÜRKÇAYBAŞI MAH.","zip":"54580"},{"name":"YUKARIKİRAZCA MAH.","zip":"54580"}]},{"name":"ERENLER","cityName":null,"quarters":[{"name":"BAĞLAR MAH.","zip":"54200"},{"name":"BEKİRPAŞA MAH.","zip":"54200"},{"name":"BÜYÜKESENCE MAH.","zip":"54200"},{"name":"ÇAYBAŞIYENİKÖY MAH.","zip":"54200"},{"name":"ÇAYKIŞLA MAH.","zip":"54200"},{"name":"DEĞİRMENDERE MAH.","zip":"54200"},{"name":"DİLMEN MAH.","zip":"54200"},{"name":"EKİNLİ MAH.","zip":"54200"},{"name":"EMİRLER MAH.","zip":"54200"},{"name":"EPÇELLER MAH.","zip":"54200"},{"name":"ERENLER MAH.","zip":"54200"},{"name":"HACIOĞLU MAH.","zip":"54200"},{"name":"HASANBEY MAH.","zip":"54200"},{"name":"HOROZLAR MAH.","zip":"54200"},{"name":"HÜRRİYET MAH.","zip":"54200"},{"name":"KAMIŞLI MAH.","zip":"54200"},{"name":"KAYALARMEMDUHİYE MAH.","zip":"54200"},{"name":"KAYALARREŞİTBEY MAH.","zip":"54200"},{"name":"KOZLUK MAH.","zip":"54200"},{"name":"KÜÇÜKESENCE MAH.","zip":"54200"},{"name":"KÜPÇÜLER MAH.","zip":"54200"},{"name":"NAKIŞLAR MAH.","zip":"54200"},{"name":"PİRAHMETLER MAH.","zip":"54200"},{"name":"SARICALAR MAH.","zip":"54200"},{"name":"ŞEYHKÖY MAH.","zip":"54200"},{"name":"ŞÜKRİYE MAH.","zip":"54200"},{"name":"TABAKHANE MAH.","zip":"54200"},{"name":"TEPE MAH.","zip":"54200"},{"name":"TUAPSALAR MAH.","zip":"54200"},{"name":"YAZILI MAH.","zip":"54200"},{"name":"YENİ MAH.","zip":"54200"},{"name":"YEŞİLTEPE MAH.","zip":"54200"}]},{"name":"FERİZLİ","cityName":null,"quarters":[{"name":"AĞACIK MAH.","zip":"54110"},{"name":"AKÇUKUR MAH.","zip":"54110"},{"name":"BAKIRLI MAH.","zip":"54110"},{"name":"CEYLANDERE MAH.","zip":"54110"},{"name":"DAMLIK MAH.","zip":"54110"},{"name":"DEĞİRMENCİK MAH.","zip":"54110"},{"name":"DEVLET MAH.","zip":"54110"},{"name":"DOĞANCI MAH.","zip":"54110"},{"name":"FERİZLİOSB MAH.","zip":"54110"},{"name":"GÖLKENT MAH.","zip":"54110"},{"name":"HOCAOĞLU MAH.","zip":"54110"},{"name":"İNÖNÜ MAH.","zip":"54110"},{"name":"İSTİKLAL MAH.","zip":"54110"},{"name":"KARADİKEN MAH.","zip":"54110"},{"name":"KEMALPAŞA MAH.","zip":"54110"},{"name":"KUSCA MAH.","zip":"54110"},{"name":"NALKÖY MAH.","zip":"54110"},{"name":"OSMANAĞA ÇİFTLİĞİ MAH.","zip":"54110"},{"name":"SARIAHMETLER MAH.","zip":"54110"},{"name":"SEYİFLER MAH.","zip":"54110"},{"name":"SİNANOĞLU MAH.","zip":"54110"},{"name":"TEBERİK MAH.","zip":"54110"},{"name":"TOKAT MAH.","zip":"54110"},{"name":"YENİ MAH.","zip":"54110"}]},{"name":"GEYVE","cityName":null,"quarters":[{"name":"AKDOĞAN MAH.","zip":"54700"},{"name":"AKINCI MAH.","zip":"54700"},{"name":"AKKAYA MAH.","zip":"54700"},{"name":"ALIPLAR MAH.","zip":"54700"},{"name":"ALİFUATPAŞA MAH.","zip":"54700"},{"name":"AYDINLAR MAH.","zip":"54700"},{"name":"BAĞCAZ MAH.","zip":"54700"},{"name":"BAĞLARBAŞI MAH.","zip":"54700"},{"name":"BAYAT MAH.","zip":"54700"},{"name":"BELPINAR MAH.","zip":"54700"},{"name":"BOĞAZKÖY MAH.","zip":"54700"},{"name":"BOZÖREN MAH.","zip":"54700"},{"name":"BURHANİYE MAH.","zip":"54700"},{"name":"CAMİKEBİR MAH.","zip":"54700"},{"name":"CECELER MAH.","zip":"54700"},{"name":"ÇAMLIK MAH.","zip":"54700"},{"name":"ÇAYKÖY MAH.","zip":"54700"},{"name":"ÇELTİKLER MAH.","zip":"54700"},{"name":"ÇENGEL MAH.","zip":"54700"},{"name":"ÇİNE MAH.","zip":"54700"},{"name":"ÇUKURKÖY MAH.","zip":"54700"},{"name":"DEMİRLER MAH.","zip":"54700"},{"name":"DEREKÖY MAH.","zip":"54700"},{"name":"DOĞANCIL MAH.","zip":"54700"},{"name":"DOĞANÇAY MAH.","zip":"54700"},{"name":"DOĞANTEPE MAH.","zip":"54700"},{"name":"DÜZAKÇAŞEHİR MAH.","zip":"54700"},{"name":"EPÇELER MAH.","zip":"54700"},{"name":"ESENKÖY MAH.","zip":"54700"},{"name":"EŞME MAH.","zip":"54700"},{"name":"FINDIKSUYU MAH.","zip":"54700"},{"name":"GAZİ SÜLEYMAN PAŞA MAH.","zip":"54700"},{"name":"GÜNEY MAH.","zip":"54700"},{"name":"GÜNHOŞLAR MAH.","zip":"54700"},{"name":"HACILAR MAH.","zip":"54700"},{"name":"HACIOSMANLAR MAH.","zip":"54700"},{"name":"HALİDİYE MAH.","zip":"54700"},{"name":"HIRKA MAH.","zip":"54700"},{"name":"HİSARLIK MAH.","zip":"54700"},{"name":"ILICA MAH.","zip":"54700"},{"name":"İHSANİYE MAH.","zip":"54700"},{"name":"İLİMBEY MAH.","zip":"54700"},{"name":"İNCİKSUYU MAH.","zip":"54700"},{"name":"KAMIŞLI MAH.","zip":"54700"},{"name":"KARACAÖREN MAH.","zip":"54700"},{"name":"KARAÇAM MAH.","zip":"54700"},{"name":"KIZILKAYA MAH.","zip":"54700"},{"name":"KORU MAH.","zip":"54700"},{"name":"KOZAN MAH.","zip":"54700"},{"name":"KÖPRÜBAŞI MAH.","zip":"54700"},{"name":"KULFALLAR MAH.","zip":"54700"},{"name":"MAKSUDİYE MAH.","zip":"54700"},{"name":"MELEKŞEORUÇ MAH.","zip":"54700"},{"name":"MELEKŞESOLAK MAH.","zip":"54700"},{"name":"NURUOSMANİYE MAH.","zip":"54700"},{"name":"ORHANİYE MAH.","zip":"54700"},{"name":"ÖRENCİK MAH.","zip":"54700"},{"name":"POYDULAR MAH.","zip":"54700"},{"name":"SABIRLAR MAH.","zip":"54700"},{"name":"SAFİBEY MAH.","zip":"54700"},{"name":"SARAÇLI MAH.","zip":"54700"},{"name":"SARIGAZİ MAH.","zip":"54700"},{"name":"SEKİHARMAN MAH.","zip":"54700"},{"name":"SETÇE MAH.","zip":"54700"},{"name":"SUÇATI MAH.","zip":"54700"},{"name":"SÜTALAN MAH.","zip":"54700"},{"name":"ŞEHREN MAH.","zip":"54700"},{"name":"ŞEREFİYE MAH.","zip":"54700"},{"name":"TAŞOLUK MAH.","zip":"54700"},{"name":"TEPECİKLER MAH.","zip":"54700"},{"name":"UMURBEY MAH.","zip":"54700"},{"name":"YAYLAK MAH.","zip":"54700"},{"name":"YÖRÜKLER MAH.","zip":"54700"}]},{"name":"HENDEK","cityName":null,"quarters":[{"name":"AKÇAYIR MAH.","zip":"54300"},{"name":"AKOVA MAH.","zip":"54300"},{"name":"AKPINAR MAH.","zip":"54300"},{"name":"AKSU MAH.","zip":"54300"},{"name":"AKTEFEK MAH.","zip":"54300"},{"name":"AŞAĞIÇALICA MAH.","zip":"54300"},{"name":"BAKACAK MAH.","zip":"54300"},{"name":"BALIKLIİHSANİYE MAH.","zip":"54300"},{"name":"BAŞPINAR MAH.","zip":"54300"},{"name":"BAYRAKTEPE MAH.","zip":"54300"},{"name":"BEYKÖY MAH.","zip":"54300"},{"name":"BEYLİCE MAH.","zip":"54300"},{"name":"BIÇKIATİK MAH.","zip":"54300"},{"name":"BÜYÜKDERE MAH.","zip":"54300"},{"name":"ÇAKALLIK MAH.","zip":"54300"},{"name":"ÇAMLICA MAH.","zip":"54300"},{"name":"ÇAYIRBAŞI MAH.","zip":"54300"},{"name":"ÇİFTLİK MAH.","zip":"54300"},{"name":"ÇOBANYATAK MAH.","zip":"54300"},{"name":"ÇUKURHAN MAH.","zip":"54300"},{"name":"DEREBOĞAZI MAH.","zip":"54300"},{"name":"DEREKÖY MAH.","zip":"54300"},{"name":"DİKMEN MAH.","zip":"54300"},{"name":"ESENTEPE MAH.","zip":"54300"},{"name":"ESKİBIÇKI MAH.","zip":"54300"},{"name":"GÖKSU MAH.","zip":"54300"},{"name":"GÜLDİBİ MAH.","zip":"54300"},{"name":"GÜNDOĞAN MAH.","zip":"54300"},{"name":"GÜNEY MAH.","zip":"54300"},{"name":"HACIKIŞLA MAH.","zip":"54300"},{"name":"HACİMBEY MAH.","zip":"54300"},{"name":"HALAÇ MAH.","zip":"54300"},{"name":"HAMİTLİ MAH.","zip":"54300"},{"name":"HARMANTEPE MAH.","zip":"54300"},{"name":"HİCRİYE MAH.","zip":"54300"},{"name":"HÜSEYİNŞEYH MAH.","zip":"54300"},{"name":"İKBALİYE MAH.","zip":"54300"},{"name":"İKRAMİYE MAH.","zip":"54300"},{"name":"KADİFEKALE MAH.","zip":"54300"},{"name":"KAHRAMAN MAH.","zip":"54300"},{"name":"KALAYIK MAH.","zip":"54300"},{"name":"KARADERE MAH.","zip":"54300"},{"name":"KARATOPRAK MAH.","zip":"54300"},{"name":"KARGALI HANBABA MAH.","zip":"54300"},{"name":"KARGALI HANBABAOSB MAH.","zip":"54300"},{"name":"KARGALIYENİKÖY MAH.","zip":"54300"},{"name":"KAZIMİYE MAH.","zip":"54300"},{"name":"KEMALİYE MAH.","zip":"54300"},{"name":"KIRKTEPE MAH.","zip":"54300"},{"name":"KIZANLIK MAH.","zip":"54300"},{"name":"KOCAAHMETLER MAH.","zip":"54300"},{"name":"KOCATÖNGEL MAH.","zip":"54300"},{"name":"KÖPRÜBAŞI MAH.","zip":"54300"},{"name":"KURTKÖY MAH.","zip":"54300"},{"name":"KURTULUŞ MAH.","zip":"54300"},{"name":"LÜTFİYEKÖŞK MAH.","zip":"54300"},{"name":"MAHMUTBEY MAH.","zip":"54300"},{"name":"MARTİNLER MAH.","zip":"54300"},{"name":"MURADİYE MAH.","zip":"54300"},{"name":"NECATİPAŞA MAH.","zip":"54300"},{"name":"NURİYE MAH.","zip":"54300"},{"name":"PAŞAKÖY MAH.","zip":"54300"},{"name":"PINARLI MAH.","zip":"54300"},{"name":"PUNA ORTAKÖY MAH.","zip":"54300"},{"name":"RASİMPAŞA MAH.","zip":"54300"},{"name":"SARIDEDE MAH.","zip":"54300"},{"name":"SARIYER MAH.","zip":"54300"},{"name":"SERVETİYE MAH.","zip":"54300"},{"name":"SİVRİTEPE MAH.","zip":"54300"},{"name":"SOFULAR MAH.","zip":"54300"},{"name":"SOĞUKSU MAH.","zip":"54300"},{"name":"SUKENARI MAH.","zip":"54300"},{"name":"SÜLEYMANİYE MAH.","zip":"54300"},{"name":"SÜMBÜLLÜ MAH.","zip":"54300"},{"name":"ŞEYHLER MAH.","zip":"54300"},{"name":"TURANLAR MAH.","zip":"54300"},{"name":"TUZAK MAH.","zip":"54300"},{"name":"TÜRBE MAH.","zip":"54300"},{"name":"UZUNCAORMAN MAH.","zip":"54300"},{"name":"UZUNÇARŞI MAH.","zip":"54300"},{"name":"YAĞBASAN MAH.","zip":"54300"},{"name":"YARICA MAH.","zip":"54300"},{"name":"YAYALAR MAH.","zip":"54300"},{"name":"YENİ MAH.","zip":"54300"},{"name":"YENİKÖY MAH.","zip":"54300"},{"name":"YENİYAYLA MAH.","zip":"54300"},{"name":"YEŞİLKÖY MAH.","zip":"54300"},{"name":"YEŞİLVADİ MAH.","zip":"54300"},{"name":"YEŞİLYURT MAH.","zip":"54300"},{"name":"YUKARIÇALICA MAH.","zip":"54300"},{"name":"YUKARIHÜSEYİNŞEYH MAH.","zip":"54300"}]},{"name":"KARAPÜRÇEK","cityName":null,"quarters":[{"name":"AHMETLER MAH.","zip":"54430"},{"name":"CUMHURİYET MAH.","zip":"54430"},{"name":"HOCAKÖY MAH.","zip":"54430"},{"name":"İNÖNÜ MAH.","zip":"54430"},{"name":"KANLIÇAY MAH.","zip":"54430"},{"name":"KIZILBAYIR MAH.","zip":"54430"},{"name":"KÜÇÜKKARAPÜRÇEK MAH.","zip":"54430"},{"name":"MECİDİYE MAH.","zip":"54430"},{"name":"MESUDİYE MAH.","zip":"54430"},{"name":"MEŞEPINARI MAH.","zip":"54430"},{"name":"TEKETABAN MAH.","zip":"54430"},{"name":"YAZILIGÜRGEN MAH.","zip":"54430"},{"name":"YÜKSEL MAH.","zip":"54430"}]},{"name":"KARASU","cityName":null,"quarters":[{"name":"AKKUM MAH.","zip":"54500"},{"name":"ARDIÇBELİ MAH.","zip":"54500"},{"name":"AZİZİYE MAH.","zip":"54500"},{"name":"CAMİTEPE MAH.","zip":"54500"},{"name":"ÇATALÖVEZ MAH.","zip":"54500"},{"name":"DARIÇAYIRI MAH.","zip":"54500"},{"name":"DENİZKÖY MAH.","zip":"54500"},{"name":"GÖLKÖPRÜ MAH.","zip":"54500"},{"name":"HÜRRİYET MAH.","zip":"54500"},{"name":"İHSANİYE MAH.","zip":"54500"},{"name":"İNCİLLİ MAH.","zip":"54500"},{"name":"KABAKOZ MAH.","zip":"54500"},{"name":"KABAKOZ OSB MAH.","zip":"54500"},{"name":"KANCALAR MAH.","zip":"54500"},{"name":"KARAMÜEZZİNLER MAH.","zip":"54500"},{"name":"KARANLIKDERE MAH.","zip":"54500"},{"name":"KARAPINAR MAH.","zip":"54500"},{"name":"KARASU MAH.","zip":"54500"},{"name":"KIZILCIK MAH.","zip":"54500"},{"name":"KONACIK MAH.","zip":"54500"},{"name":"KURUDERE MAH.","zip":"54500"},{"name":"KURUMEŞE MAH.","zip":"54500"},{"name":"KUYUMCULLU MAH.","zip":"54500"},{"name":"KUZULUK MAH.","zip":"54500"},{"name":"LİMANDERE MAH.","zip":"54500"},{"name":"MANAVPINARI MAH.","zip":"54500"},{"name":"ORTAKÖY MAH.","zip":"54500"},{"name":"PARALI MAH.","zip":"54500"},{"name":"RESULLER MAH.","zip":"54500"},{"name":"SUBATAĞI MAH.","zip":"54500"},{"name":"TAŞLIGEÇİT MAH.","zip":"54500"},{"name":"TEPETARLA MAH.","zip":"54500"},{"name":"TUZLA MAH.","zip":"54500"},{"name":"ÜÇOLUK MAH.","zip":"54500"},{"name":"YALI MAH.","zip":"54500"},{"name":"YASSIGEÇİT MAH.","zip":"54500"},{"name":"YENİ MAH.","zip":"54500"},{"name":"YENİDOĞAN MAH.","zip":"54500"},{"name":"YEŞİLKÖY MAH.","zip":"54500"},{"name":"YUVALIDERE MAH.","zip":"54500"}]},{"name":"KAYNARCA","cityName":null,"quarters":[{"name":"ARİFAĞA MAH.","zip":"54650"},{"name":"BAŞOĞLU MAH.","zip":"54650"},{"name":"BİRLİK MAH.","zip":"54650"},{"name":"BÜYÜKYANIK MAH.","zip":"54650"},{"name":"CEBEK MAH.","zip":"54650"},{"name":"DUDUKÖY MAH.","zip":"54650"},{"name":"EĞRİOĞLU MAH.","zip":"54650"},{"name":"GAZİLER MAH.","zip":"54650"},{"name":"GÖLCE MAH.","zip":"54650"},{"name":"GÜRPINAR MAH.","zip":"54650"},{"name":"GÜVEN MAH.","zip":"54650"},{"name":"HATİPLER MAH.","zip":"54650"},{"name":"İMAMLAR MAH.","zip":"54650"},{"name":"İŞARET MAH.","zip":"54650"},{"name":"KALBURCU MAH.","zip":"54650"},{"name":"KARAÇALI MAH.","zip":"54650"},{"name":"KARAMANLAR MAH.","zip":"54650"},{"name":"KAYACIK MAH.","zip":"54650"},{"name":"KERTİL MAH.","zip":"54650"},{"name":"KIRKTEPE MAH.","zip":"54650"},{"name":"KIZILCAALİ MAH.","zip":"54650"},{"name":"KONAK MAH.","zip":"54650"},{"name":"KULAKLI MAH.","zip":"54650"},{"name":"KÜÇÜKKAYNARCA MAH.","zip":"54650"},{"name":"KÜÇÜKKIŞLA MAH.","zip":"54650"},{"name":"MERKEZ MAH.","zip":"54650"},{"name":"MÜEZZİNLER MAH.","zip":"54650"},{"name":"OKÇULAR MAH.","zip":"54650"},{"name":"ORTA MAH.","zip":"54650"},{"name":"ORTAKÖY MAH.","zip":"54650"},{"name":"OSMANLI MAH.","zip":"54650"},{"name":"ÖMERAĞA MAH.","zip":"54650"},{"name":"SABIRLI MAH.","zip":"54650"},{"name":"SARIBEYLİ MAH.","zip":"54650"},{"name":"ŞEYHTIMARI MAH.","zip":"54650"},{"name":"TAŞOLUK MAH.","zip":"54650"},{"name":"TOPÇU MAH.","zip":"54650"},{"name":"TURNALI MAH.","zip":"54650"},{"name":"UĞURLU MAH.","zip":"54650"},{"name":"UZAKKIŞLA MAH.","zip":"54650"},{"name":"UZUNALAN MAH.","zip":"54650"},{"name":"YENİÇAM MAH.","zip":"54650"},{"name":"YEŞİLOVA MAH.","zip":"54650"},{"name":"ZİAHMET MAH.","zip":"54650"}]},{"name":"KOCAALİ","cityName":null,"quarters":[{"name":"AĞALAR MAH.","zip":"54800"},{"name":"AKPINAR MAH.","zip":"54800"},{"name":"AKTAŞ MAH.","zip":"54800"},{"name":"ALANDERE MAH.","zip":"54800"},{"name":"AYDOĞAN MAH.","zip":"54800"},{"name":"BEYLER MAH.","zip":"54800"},{"name":"BEZİRGAN MAH.","zip":"54800"},{"name":"CAFERİYE MAH.","zip":"54800"},{"name":"ÇAKMAKLI MAH.","zip":"54800"},{"name":"ÇUKURKÖY MAH.","zip":"54800"},{"name":"DEMİRAÇMA MAH.","zip":"54800"},{"name":"GÖRELE MAH.","zip":"54800"},{"name":"GÜMÜŞOLUK MAH.","zip":"54800"},{"name":"HIZAR MAH.","zip":"54800"},{"name":"KADIKÖY MAH.","zip":"54800"},{"name":"KARALAR MAH.","zip":"54800"},{"name":"KARAPELİT MAH.","zip":"54800"},{"name":"KARŞI MAH.","zip":"54800"},{"name":"KESTANEPINARI MAH.","zip":"54800"},{"name":"KIZILÜZÜM MAH.","zip":"54800"},{"name":"KİRAZLI MAH.","zip":"54800"},{"name":"KOĞUTPELİT MAH.","zip":"54800"},{"name":"KOZLUK MAH.","zip":"54800"},{"name":"KÖYYERİ MAH.","zip":"54800"},{"name":"KÜPLÜK MAH.","zip":"54800"},{"name":"MELEN MAH.","zip":"54800"},{"name":"MERKEZ MAH.","zip":"54800"},{"name":"SELAHİYE MAH.","zip":"54800"},{"name":"SÜNGÜT MAH.","zip":"54800"},{"name":"ŞERBETPINAR MAH.","zip":"54800"},{"name":"YALI MAH.","zip":"54800"},{"name":"YALPANKAYA MAH.","zip":"54800"},{"name":"YANIKSAYVANT MAH.","zip":"54800"},{"name":"YAYLA MAH.","zip":"54800"},{"name":"YENİ MAH.","zip":"54800"}]},{"name":"PAMUKOVA","cityName":null,"quarters":[{"name":"AHILAR MAH.","zip":"54900"},{"name":"AKÇAKAYA MAH.","zip":"54900"},{"name":"BACIKÖY MAH.","zip":"54900"},{"name":"BAKACAK MAH.","zip":"54900"},{"name":"BAYIRAKÇAŞEHİR MAH.","zip":"54900"},{"name":"CİHADİYE MAH.","zip":"54900"},{"name":"CUMHURİYET MAH.","zip":"54900"},{"name":"ÇARDAK MAH.","zip":"54900"},{"name":"ÇİLEKLİ MAH.","zip":"54900"},{"name":"EĞRİÇAY MAH.","zip":"54900"},{"name":"ELPEREK MAH.","zip":"54900"},{"name":"ESKİYAYLA MAH.","zip":"54900"},{"name":"FEVZİYE MAH.","zip":"54900"},{"name":"GÖKGÖZ MAH.","zip":"54900"},{"name":"HAYRETTİN MAH.","zip":"54900"},{"name":"HÜSEYİNLİ MAH.","zip":"54900"},{"name":"İSABALI MAH.","zip":"54900"},{"name":"KADIKÖY MAH.","zip":"54900"},{"name":"KARAPINAR MAH.","zip":"54900"},{"name":"KAZIMİYE MAH.","zip":"54900"},{"name":"KEMALİYE MAH.","zip":"54900"},{"name":"MEKECE MAH.","zip":"54900"},{"name":"MESRURİYE MAH.","zip":"54900"},{"name":"ORUÇLU MAH.","zip":"54900"},{"name":"ÖZBEK MAH.","zip":"54900"},{"name":"PAŞALAR MAH.","zip":"54900"},{"name":"PINARLI MAH.","zip":"54900"},{"name":"ŞAHMELEK MAH.","zip":"54900"},{"name":"ŞEYHVARMAZ MAH.","zip":"54900"},{"name":"TEŞVİKİYE MAH.","zip":"54900"},{"name":"TURGUTLU MAH.","zip":"54900"},{"name":"YENİCE MAH.","zip":"54900"}]},{"name":"SAPANCA","cityName":null,"quarters":[{"name":"BALKAYA MAH.","zip":"54600"},{"name":"CAMİCEDİT MAH.","zip":"54600"},{"name":"ÇAYİÇİ MAH.","zip":"54600"},{"name":"FEVZİYE MAH.","zip":"54600"},{"name":"GAZİPAŞA MAH.","zip":"54600"},{"name":"GÖL MAH.","zip":"54600"},{"name":"GÜLDİBİ MAH.","zip":"54600"},{"name":"HACIMERCAN MAH.","zip":"54600"},{"name":"İKRAMİYE MAH.","zip":"54600"},{"name":"İLMİYE MAH.","zip":"54600"},{"name":"İSTANBULDERE MAH.","zip":"54600"},{"name":"KIRKPINAR HASANPAŞA MAH.","zip":"54600"},{"name":"KIRKPINAR SOĞUKSU MAH.","zip":"54600"},{"name":"KIRKPINAR TEPEBAŞI MAH.","zip":"54600"},{"name":"KURTKÖY DİBEKTAŞ MAH.","zip":"54600"},{"name":"KURTKÖY FATİH MAH.","zip":"54600"},{"name":"KURTKÖY YAVUZSELİM MAH.","zip":"54600"},{"name":"KURUÇEŞME MAH.","zip":"54600"},{"name":"MAHMUDİYE MAH.","zip":"54600"},{"name":"MEMNUNİYE MAH.","zip":"54600"},{"name":"MURADİYE MAH.","zip":"54600"},{"name":"NAİLİYE MAH.","zip":"54600"},{"name":"RÜSTEMPAŞA MAH.","zip":"54600"},{"name":"ŞÜKRİYE MAH.","zip":"54600"},{"name":"UZUNKUM MAH.","zip":"54600"},{"name":"ÜNLÜCE MAH.","zip":"54600"},{"name":"YANIK MAH.","zip":"54600"},{"name":"YENİ MAH.","zip":"54600"}]},{"name":"SERDİVAN","cityName":null,"quarters":[{"name":"ARALIK MAH.","zip":"54050"},{"name":"AŞAĞIDEREKÖY MAH.","zip":"54050"},{"name":"BAHÇELİEVLER MAH.","zip":"54050"},{"name":"BEŞEVLER MAH.","zip":"54050"},{"name":"BEŞKÖPRÜ MAH.","zip":"54050"},{"name":"ÇUBUKLU MAH.","zip":"54050"},{"name":"DAĞYONCALI MAH.","zip":"54050"},{"name":"ESENTEPE MAH.","zip":"54050"},{"name":"HAMİTABAT MAH.","zip":"54050"},{"name":"İSTİKLAL MAH.","zip":"54050"},{"name":"KAZIMPAŞA MAH.","zip":"54050"},{"name":"KEMALPAŞA MAH.","zip":"54050"},{"name":"KIZILCIKLI MAH.","zip":"54050"},{"name":"KURUÇEŞME MAH.","zip":"54050"},{"name":"MEŞELİ MAH.","zip":"54050"},{"name":"OTUZİKİ EVLER MAH.","zip":"54050"},{"name":"REŞADİYE MAH.","zip":"54050"},{"name":"SELAHİYE MAH.","zip":"54050"},{"name":"UZUNKÖY MAH.","zip":"54050"},{"name":"YUKARIDEREKÖY MAH.","zip":"54050"}]},{"name":"YAZLIK","cityName":null,"quarters":[{"name":"ORTA MAH.","zip":"54130"},{"name":"VATAN MAH.","zip":"54130"}]},{"name":"SÖĞÜTLÜ","cityName":null,"quarters":[{"name":"AKÇAKAMIŞ MAH.","zip":"54160"},{"name":"AKGÖL MAH.","zip":"54160"},{"name":"BEŞDEĞİRMEN MAH.","zip":"54160"},{"name":"CAMİ CEDİT MAH.","zip":"54160"},{"name":"FINDIKLI MAH.","zip":"54160"},{"name":"GÜNDOĞAN MAH.","zip":"54160"},{"name":"HASANFAKI MAH.","zip":"54160"},{"name":"İMAMLAR MAH.","zip":"54160"},{"name":"KANTAR MAH.","zip":"54160"},{"name":"KARATEKE MAH.","zip":"54160"},{"name":"KURUDİL MAH.","zip":"54160"},{"name":"KÜÇÜK SÖĞÜTLÜ MAH.","zip":"54160"},{"name":"LEVENT MAH.","zip":"54160"},{"name":"MAĞARA MAH.","zip":"54160"},{"name":"MAKSUDİYE MAH.","zip":"54160"},{"name":"ORTA MAH.","zip":"54160"},{"name":"RÜSTEMLER MAH.","zip":"54160"},{"name":"SIRAKÖY MAH.","zip":"54160"},{"name":"SOĞUCAK MAH.","zip":"54160"},{"name":"SOĞUCAKOSB MAH.","zip":"54160"},{"name":"TOKMAKLIDERE MAH.","zip":"54160"},{"name":"TÜRKBEYLİKKIŞLA MAH.","zip":"54160"},{"name":"YENİKÖY MAH.","zip":"54160"}]},{"name":"TARAKLI","cityName":null,"quarters":[{"name":"AKSU MAH.","zip":"54750"},{"name":"ALBALLAR MAH.","zip":"54750"},{"name":"AVDAN MAH.","zip":"54750"},{"name":"ÇAMTEPE MAH.","zip":"54750"},{"name":"DIŞDEDELER MAH.","zip":"54750"},{"name":"DUMAN MAH.","zip":"54750"},{"name":"ESENYURT MAH.","zip":"54750"},{"name":"HACIALİLER MAH.","zip":"54750"},{"name":"HACIMURAT MAH.","zip":"54750"},{"name":"HACIYAKUP MAH.","zip":"54750"},{"name":"HARKKÖY MAH.","zip":"54750"},{"name":"İÇDEDELER MAH.","zip":"54750"},{"name":"KEMALLER MAH.","zip":"54750"},{"name":"MAHDUMLAR MAH.","zip":"54750"},{"name":"PİRLER MAH.","zip":"54750"},{"name":"TUZLA MAH.","zip":"54750"},{"name":"UĞURLU MAH.","zip":"54750"},{"name":"ULUCAMİİ MAH.","zip":"54750"},{"name":"YENİDOĞAN MAH.","zip":"54750"},{"name":"YENİKÖY MAH.","zip":"54750"},{"name":"YUSUFBEY MAH.","zip":"54750"}]}]}]}