{"id":55,"name":"SAMSUN","cities":[{"name":"city","districts":[{"name":"ONDOKUZ MAYIS BALLICA","cityName":null,"quarters":[{"name":"BEYLİK MAH.","zip":"55420"},{"name":"CEREKLİ MAH.","zip":"55420"},{"name":"CUMHURİYET MAH.","zip":"55420"},{"name":"ÇAMLICA MAH.","zip":"55420"},{"name":"ÇANDIR MAH.","zip":"55420"},{"name":"ÇEPİNLER MAH.","zip":"55420"},{"name":"ÇETİRLİPINAR MAH.","zip":"55420"},{"name":"ÇİFTLİKKÖY MAH.","zip":"55420"},{"name":"DAĞKÖY MAH.","zip":"55420"},{"name":"DEREKÖY MAH.","zip":"55420"},{"name":"DÜZKÖY MAH.","zip":"55420"},{"name":"ENGİZ MAH.","zip":"55420"},{"name":"ESENTEPE MAH.","zip":"55420"},{"name":"ESENYER MAH.","zip":"55420"},{"name":"FINDIKLI MAH.","zip":"55420"},{"name":"HİBE MAH.","zip":"55420"},{"name":"İSTİKLAL MAH.","zip":"55420"},{"name":"KARACAOĞLU MAH.","zip":"55420"},{"name":"KARAGÖL MAH.","zip":"55420"},{"name":"KARŞIYAKA MAH.","zip":"55420"},{"name":"KERTME MAH.","zip":"55420"},{"name":"KÖSEDİK MAH.","zip":"55420"},{"name":"KUMCAĞIZ MAH.","zip":"55420"},{"name":"KUŞKAYASI MAH.","zip":"55420"},{"name":"MİMAR SİNAN MAH.","zip":"55420"},{"name":"ORMANCIK MAH.","zip":"55420"},{"name":"PAZAR MAH.","zip":"55420"},{"name":"TEPEKÖY MAH.","zip":"55420"},{"name":"YENİ MAH.","zip":"55420"},{"name":"YEŞİLKÖY MAH.","zip":"55420"},{"name":"YEŞİLOVA MAH.","zip":"55420"},{"name":"YEŞİLYURT MAH.","zip":"55420"},{"name":"YÖRÜKLER MAH.","zip":"55420"},{"name":"YUKARIENGİZ MAH.","zip":"55420"},{"name":"YÜKSELİŞ MAH.","zip":"55420"}]},{"name":"ALAÇAM","cityName":null,"quarters":[{"name":"AKGÜNEY MAH.","zip":"55800"},{"name":"ALİDEDEBÖLMESİ MAH.","zip":"55800"},{"name":"ALPARSLAN MAH.","zip":"55800"},{"name":"AŞAĞI AKGÜNEY MAH.","zip":"55800"},{"name":"AŞAĞIISIRGANLI MAH.","zip":"55800"},{"name":"AŞAĞIKOÇLU MAH.","zip":"55800"},{"name":"BAHŞİOYMAĞI MAH.","zip":"55800"},{"name":"BEKİROĞLU MAH.","zip":"55800"},{"name":"ÇEŞME MAH.","zip":"55800"},{"name":"DEMİRCİDERESİ MAH.","zip":"55800"},{"name":"DOĞANKENT MAH.","zip":"55800"},{"name":"DOYRAN MAH.","zip":"55800"},{"name":"ESENTEPE MAH.","zip":"55800"},{"name":"ETYEMEZ MAH.","zip":"55800"},{"name":"FATİH MAH.","zip":"55800"},{"name":"GÖÇKÜN MAH.","zip":"55800"},{"name":"GÖKÇEAĞAÇOYMAĞI MAH.","zip":"55800"},{"name":"GÖKÇEBOĞAZ MAH.","zip":"55800"},{"name":"GÜLKAYA MAH.","zip":"55800"},{"name":"GÜLTEPE MAH.","zip":"55800"},{"name":"GÜMÜŞOVA MAH.","zip":"55800"},{"name":"GÜVENLİ MAH.","zip":"55800"},{"name":"HABİLLİ MAH.","zip":"55800"},{"name":"HARMANCIK MAH.","zip":"55800"},{"name":"İNCİRLİ MAH.","zip":"55800"},{"name":"KADIKÖY MAH.","zip":"55800"},{"name":"KALIKDEMİRCİ MAH.","zip":"55800"},{"name":"KAPAKLI MAH.","zip":"55800"},{"name":"KARAÇUKUR MAH.","zip":"55800"},{"name":"KARAHÜSEYİNLİ MAH.","zip":"55800"},{"name":"KARLI MAH.","zip":"55800"},{"name":"KARŞIYAKA MAH.","zip":"55800"},{"name":"KIŞLAKONAK MAH.","zip":"55800"},{"name":"KIZLAN MAH.","zip":"55800"},{"name":"KİLLİK MAH.","zip":"55800"},{"name":"KÖSEKÖY MAH.","zip":"55800"},{"name":"MADENLER MAH.","zip":"55800"},{"name":"ORTAKÖY MAH.","zip":"55800"},{"name":"ÖRENLİ MAH.","zip":"55800"},{"name":"PELİTBÜKÜ MAH.","zip":"55800"},{"name":"PELİTBÜKÜSEKECEK MAH.","zip":"55800"},{"name":"SANCAR MAH.","zip":"55800"},{"name":"SARILIK MAH.","zip":"55800"},{"name":"SOĞUKÇAM MAH.","zip":"55800"},{"name":"ŞİRİNKÖY MAH.","zip":"55800"},{"name":"TAŞKELİK MAH.","zip":"55800"},{"name":"TEFEKLİ MAH.","zip":"55800"},{"name":"TEPEBÖLMESİ MAH.","zip":"55800"},{"name":"TERSKIRIK MAH.","zip":"55800"},{"name":"TOPLU MAH.","zip":"55800"},{"name":"UMUTLU MAH.","zip":"55800"},{"name":"UZUNKIRAÇ MAH.","zip":"55800"},{"name":"VİCİKLER MAH.","zip":"55800"},{"name":"YAKACIK MAH.","zip":"55800"},{"name":"YENİCAMİ MAH.","zip":"55800"},{"name":"YENİCE MAH.","zip":"55800"},{"name":"YENİKÖY MAH.","zip":"55800"},{"name":"YEŞİLKÖY MAH.","zip":"55800"},{"name":"YOĞUNPELİT MAH.","zip":"55800"},{"name":"YUKARIELMA MAH.","zip":"55800"},{"name":"YUKARIISIRGANLI MAH.","zip":"55800"},{"name":"YUKARIKOÇLU MAH.","zip":"55800"},{"name":"YUKARISOĞUKÇAM MAH.","zip":"55800"},{"name":"ZEYTİN MAH.","zip":"55800"}]},{"name":"ASARCIK","cityName":null,"quarters":[{"name":"AKYAZI MAH.","zip":"55860"},{"name":"ALAN MAH.","zip":"55860"},{"name":"ALİŞAR MAH.","zip":"55860"},{"name":"ARICAK MAH.","zip":"55860"},{"name":"ARMUTLU MAH.","zip":"55860"},{"name":"AŞURU MAH.","zip":"55860"},{"name":"ATATÜRK MAH.","zip":"55860"},{"name":"AYAKLIALAN MAH.","zip":"55860"},{"name":"AYDINKÖY MAH.","zip":"55860"},{"name":"BİÇİNCİK MAH.","zip":"55860"},{"name":"ÇULHAOĞLU MAH.","zip":"55860"},{"name":"DAĞCILAR MAH.","zip":"55860"},{"name":"EMİRMUSA MAH.","zip":"55860"},{"name":"ESENTEPE MAH.","zip":"55860"},{"name":"GÖKGÖL MAH.","zip":"55860"},{"name":"GÜLVEREN MAH.","zip":"55860"},{"name":"GÜNDOĞDU MAH.","zip":"55860"},{"name":"HİSARİYE MAH.","zip":"55860"},{"name":"İMAMLI MAH.","zip":"55860"},{"name":"KESEALAN MAH.","zip":"55860"},{"name":"KILAVUZLU MAH.","zip":"55860"},{"name":"KOŞACA MAH.","zip":"55860"},{"name":"KUYUMCUOĞLU MAH.","zip":"55860"},{"name":"MUSAAĞA MAH.","zip":"55860"},{"name":"SAKIZLIK MAH.","zip":"55860"},{"name":"ULUKÖY MAH.","zip":"55860"},{"name":"YARIMCA MAH.","zip":"55860"},{"name":"YAYLAKÖY MAH.","zip":"55860"},{"name":"YENİÖMERLİ MAH.","zip":"55860"},{"name":"YEŞİLDERE MAH.","zip":"55860"},{"name":"YEŞİLKÖY MAH.","zip":"55860"}]},{"name":"ATAKUM","cityName":null,"quarters":[{"name":"AKSU MAH.","zip":"55200"},{"name":"ALANLI MAH.","zip":"55200"},{"name":"ASLANDAMI MAH.","zip":"55200"},{"name":"ATATEPE MAH.","zip":"55200"},{"name":"AYVALI MAH.","zip":"55200"},{"name":"BALAÇ MAH.","zip":"55200"},{"name":"BEYPINAR MAH.","zip":"55200"},{"name":"BÜYÜKKOLPINAR MAH.","zip":"55200"},{"name":"CAMİİ MAH.","zip":"55200"},{"name":"CUMHURIYET MAH.","zip":"55200"},{"name":"ÇAKIRLAR YALI MAH.","zip":"55200"},{"name":"ÇAMLIYAZI MAH.","zip":"55200"},{"name":"ÇATMAOLUK MAH.","zip":"55200"},{"name":"ÇOBANLI MAH.","zip":"55200"},{"name":"ÇOBANÖZÜ MAH.","zip":"55200"},{"name":"DENİZEVLERİ MAH.","zip":"55200"},{"name":"ELMAÇUKURU MAH.","zip":"55200"},{"name":"ERİKLİ MAH.","zip":"55200"},{"name":"ESENEVLER MAH.","zip":"55200"},{"name":"GÜNEYKÖY MAH.","zip":"55200"},{"name":"İSTİKLAL MAH.","zip":"55200"},{"name":"KABADÜZ MAH.","zip":"55200"},{"name":"KAMALI MAH.","zip":"55200"},{"name":"KARAKAVUK MAH.","zip":"55200"},{"name":"KARAOYUMCA MAH.","zip":"55200"},{"name":"KASNAKCIMERMER MAH.","zip":"55200"},{"name":"KAYAGÜNEY MAH.","zip":"55200"},{"name":"KESİLİ MAH.","zip":"55200"},{"name":"KÖSELİ MAH.","zip":"55200"},{"name":"KULACADAĞ MAH.","zip":"55200"},{"name":"KURUGÖKÇE MAH.","zip":"55200"},{"name":"KÜÇÜKKOLPINAR MAH.","zip":"55200"},{"name":"MEVLANA MAH.","zip":"55200"},{"name":"MEYVALI MAH.","zip":"55200"},{"name":"MİMARSİNAN MAH.","zip":"55200"},{"name":"ÖZÖREN MAH.","zip":"55200"},{"name":"SARAYKÖY MAH.","zip":"55200"},{"name":"SARIIŞIK MAH.","zip":"55200"},{"name":"SARITAŞ MAH.","zip":"55200"},{"name":"SARIYUSUF MAH.","zip":"55200"},{"name":"ŞENYURT MAH.","zip":"55200"},{"name":"TAFLAN MERKEZ MAH.","zip":"55200"},{"name":"YEŞİLDERE MAH.","zip":"55200"},{"name":"YEŞİLTEPE MAH.","zip":"55200"},{"name":"YUKARIAKSU MAH.","zip":"55200"}]},{"name":"KURUPELİT","cityName":null,"quarters":[{"name":"ÇAKIRLAR MAH.","zip":"55270"},{"name":"GÜZELYALI MAH.","zip":"55270"},{"name":"GÜZELYURT MAH.","zip":"55270"},{"name":"İNCESU MAH.","zip":"55270"},{"name":"İNCESU YALI MAH.","zip":"55270"},{"name":"KÖRFEZ MAH.","zip":"55270"},{"name":"YALI MAH.","zip":"55270"},{"name":"YENİMAHALLE MAH.","zip":"55270"},{"name":"YEŞİLYURT MAH.","zip":"55270"}]},{"name":"AYVACIK","cityName":null,"quarters":[{"name":"BAŞALAN MAH.","zip":"55550"},{"name":"ÇAMALAN MAH.","zip":"55550"},{"name":"ÇAMLIKALE MAH.","zip":"55550"},{"name":"ÇARŞIKÖY MAH.","zip":"55550"},{"name":"ÇÖKEKLİ MAH.","zip":"55550"},{"name":"DÖNGEL MAH.","zip":"55550"},{"name":"DÖNGELYATAK MAH.","zip":"55550"},{"name":"ESENYURT MAH.","zip":"55550"},{"name":"EYNEL MAH.","zip":"55550"},{"name":"EYÜPSULTAN MAH.","zip":"55550"},{"name":"FATİH SULTAN MEHMET MAH.","zip":"55550"},{"name":"GÜLPINAR MAH.","zip":"55550"},{"name":"GÜLTEPE MAH.","zip":"55550"},{"name":"GÜRÇAM MAH.","zip":"55550"},{"name":"GÜZELYURT MAH.","zip":"55550"},{"name":"KABAKLIK MAH.","zip":"55550"},{"name":"KAPIKAYA MAH.","zip":"55550"},{"name":"KARAAĞAÇ MAH.","zip":"55550"},{"name":"KARŞIDÖNGEL MAH.","zip":"55550"},{"name":"KAZANCILI MAH.","zip":"55550"},{"name":"KESKİNOĞLU MAH.","zip":"55550"},{"name":"KOÇYURDU MAH.","zip":"55550"},{"name":"MEŞELİDÜZ MAH.","zip":"55550"},{"name":"ORHANGAZİ MAH.","zip":"55550"},{"name":"ORTA MAH.","zip":"55550"},{"name":"ORTAKÖY MAH.","zip":"55550"},{"name":"OSMANLI MAH.","zip":"55550"},{"name":"ÖRENCİK MAH.","zip":"55550"},{"name":"SAHİLKÖY MAH.","zip":"55550"},{"name":"SÖĞÜTPINAR MAH.","zip":"55550"},{"name":"ŞENPINAR MAH.","zip":"55550"},{"name":"TEPEALTI MAH.","zip":"55550"},{"name":"TERİCE MAH.","zip":"55550"},{"name":"TİRYAKİOĞLU MAH.","zip":"55550"},{"name":"UĞURLU MAH.","zip":"55550"},{"name":"YENİCE MAH.","zip":"55550"},{"name":"YENİKÖY MAH.","zip":"55550"},{"name":"YEŞİLÇAM MAH.","zip":"55550"},{"name":"YEŞİLDERE MAH.","zip":"55550"},{"name":"YEŞİLPINAR MAH.","zip":"55550"},{"name":"YUNUS EMRE MAH.","zip":"55550"},{"name":"ZAFER MAH.","zip":"55550"}]},{"name":"BAFRA","cityName":null,"quarters":[{"name":"AĞCAALAN MAH.","zip":"55400"},{"name":"AĞILLAR MAH.","zip":"55400"},{"name":"AKALAN MAH.","zip":"55400"},{"name":"AKTEKKE MAH.","zip":"55400"},{"name":"ALAÇAM MAH.","zip":"55400"},{"name":"ALPARSLAN MAH.","zip":"55400"},{"name":"ALTINAY MAH.","zip":"55400"},{"name":"ALTINKAYA MAH.","zip":"55400"},{"name":"ALTINOVA MAH.","zip":"55400"},{"name":"ALTINYAPRAK MAH.","zip":"55400"},{"name":"ASAR MAH.","zip":"55400"},{"name":"ASMAÇAM MAH.","zip":"55400"},{"name":"AZAY MAH.","zip":"55400"},{"name":"BAHÇELER MAH.","zip":"55400"},{"name":"BAKIRPINARI MAH.","zip":"55400"},{"name":"BALIKLAR MAH.","zip":"55400"},{"name":"BARIŞ MAH.","zip":"55400"},{"name":"BAŞARAN MAH.","zip":"55400"},{"name":"BAŞKAYA MAH.","zip":"55400"},{"name":"BENGÜ MAH.","zip":"55400"},{"name":"BOĞAZKAYA MAH.","zip":"55400"},{"name":"BURUNCA MAH.","zip":"55400"},{"name":"BÜYÜKCAMİ MAH.","zip":"55400"},{"name":"CUMHURİYET MAH.","zip":"55400"},{"name":"ÇALKÖY MAH.","zip":"55400"},{"name":"ÇAMALTI MAH.","zip":"55400"},{"name":"ÇATAK MAH.","zip":"55400"},{"name":"ÇATALTEPE MAH.","zip":"55400"},{"name":"ÇETİNKAYA MAH.","zip":"55400"},{"name":"ÇİLHANE MAH.","zip":"55400"},{"name":"ÇULHAKOCA MAH.","zip":"55400"},{"name":"DARBOĞAZ MAH.","zip":"55400"},{"name":"DEDEDAĞI MAH.","zip":"55400"},{"name":"DEDELİ MAH.","zip":"55400"},{"name":"DERBENT MAH.","zip":"55400"},{"name":"DERELER MAH.","zip":"55400"},{"name":"DİKENCİK MAH.","zip":"55400"},{"name":"DOĞANCA MAH.","zip":"55400"},{"name":"DOĞANKAYA MAH.","zip":"55400"},{"name":"DÜZKÖY MAH.","zip":"55400"},{"name":"ELALAN MAH.","zip":"55400"},{"name":"ELDAVUT MAH.","zip":"55400"},{"name":"ELİFLİ MAH.","zip":"55400"},{"name":"EMENLİ MAH.","zip":"55400"},{"name":"EMİREFENDİ MAH.","zip":"55400"},{"name":"ESENÇAY MAH.","zip":"55400"},{"name":"EVRENUŞAĞI MAH.","zip":"55400"},{"name":"EYNEGAZİ MAH.","zip":"55400"},{"name":"FATİH MAH.","zip":"55400"},{"name":"FENER MAH.","zip":"55400"},{"name":"FEVZİ ÇAKMAK MAH.","zip":"55400"},{"name":"GAZİBEYLİ MAH.","zip":"55400"},{"name":"GAZİOSMANPAŞA MAH.","zip":"55400"},{"name":"GAZİPAŞA MAH.","zip":"55400"},{"name":"GERZELİLER MAH.","zip":"55400"},{"name":"GÖKALAN MAH.","zip":"55400"},{"name":"GÖKÇEAĞAÇ MAH.","zip":"55400"},{"name":"GÖKÇEKENT MAH.","zip":"55400"},{"name":"GÖKÇESU MAH.","zip":"55400"},{"name":"GÖLTEPE MAH.","zip":"55400"},{"name":"GÜMÜŞYAPRAK MAH.","zip":"55400"},{"name":"HACINABİ MAH.","zip":"55400"},{"name":"HACIOĞLU MAH.","zip":"55400"},{"name":"HARIZ MAH.","zip":"55400"},{"name":"HIDIRELLEZ MAH.","zip":"55400"},{"name":"HÜSEYİNBEYLİ MAH.","zip":"55400"},{"name":"İĞDİR MAH.","zip":"55400"},{"name":"İKİZPINAR MAH.","zip":"55400"},{"name":"İKİZTEPE MAH.","zip":"55400"},{"name":"İLYASLI MAH.","zip":"55400"},{"name":"İNÖZÜKOŞACA MAH.","zip":"55400"},{"name":"İSHAKLI MAH.","zip":"55400"},{"name":"İSMETPAŞA MAH.","zip":"55400"},{"name":"KAHRAMAN MAH.","zip":"55400"},{"name":"KALAYCILI MAH.","zip":"55400"},{"name":"KAMBERLİ MAH.","zip":"55400"},{"name":"KANLIGÜNEY MAH.","zip":"55400"},{"name":"KAPIKAYA MAH.","zip":"55400"},{"name":"KARABURÇ MAH.","zip":"55400"},{"name":"KARAKÜTÜK MAH.","zip":"55400"},{"name":"KARINCAK MAH.","zip":"55400"},{"name":"KARPUZLU MAH.","zip":"55400"},{"name":"KAVAKPINAR MAH.","zip":"55400"},{"name":"KAYGUSUZ MAH.","zip":"55400"},{"name":"KELİKLER MAH.","zip":"55400"},{"name":"KEMALPAŞA MAH.","zip":"55400"},{"name":"KERESTECİ MAH.","zip":"55400"},{"name":"KIZILIRMAK MAH.","zip":"55400"},{"name":"KOLAY MAH.","zip":"55400"},{"name":"KOMŞUPINAR MAH.","zip":"55400"},{"name":"KORULUK MAH.","zip":"55400"},{"name":"KOŞU MAH.","zip":"55400"},{"name":"KOZAĞZI MAH.","zip":"55400"},{"name":"KÖSELİ MAH.","zip":"55400"},{"name":"KUŞÇULAR MAH.","zip":"55400"},{"name":"KUŞLUĞAN MAH.","zip":"55400"},{"name":"KUZALAN MAH.","zip":"55400"},{"name":"KÜÇÜKKAVAKPINAR MAH.","zip":"55400"},{"name":"LENGERLİ MAH.","zip":"55400"},{"name":"MEŞELİTÜRKMENLER MAH.","zip":"55400"},{"name":"MEVLANA MAH.","zip":"55400"},{"name":"MÜSTECEP MAH.","zip":"55400"},{"name":"ORTADURAK MAH.","zip":"55400"},{"name":"OSMANBEYLİ MAH.","zip":"55400"},{"name":"OZAN MAH.","zip":"55400"},{"name":"ÖRENCİK MAH.","zip":"55400"},{"name":"PAŞAŞEYH MAH.","zip":"55400"},{"name":"SAHİLKENT MAH.","zip":"55400"},{"name":"SARIÇEVRE MAH.","zip":"55400"},{"name":"SARIKAYA MAH.","zip":"55400"},{"name":"SARIKÖY MAH.","zip":"55400"},{"name":"SARPIN MAH.","zip":"55400"},{"name":"SELEMELİK MAH.","zip":"55400"},{"name":"SÜRMELİ MAH.","zip":"55400"},{"name":"ŞAHİNKAYA MAH.","zip":"55400"},{"name":"ŞEYHÖREN MAH.","zip":"55400"},{"name":"ŞEYHULAŞ MAH.","zip":"55400"},{"name":"ŞİRİNKÖY MAH.","zip":"55400"},{"name":"TABAKHANE MAH.","zip":"55400"},{"name":"TAŞKÖPRÜ MAH.","zip":"55400"},{"name":"TEPEBAŞI MAH.","zip":"55400"},{"name":"TEPECİK MAH.","zip":"55400"},{"name":"TERZİLİ MAH.","zip":"55400"},{"name":"TÜRBE MAH.","zip":"55400"},{"name":"TÜRKKÖYÜ MAH.","zip":"55400"},{"name":"TÜTÜNCÜLER MAH.","zip":"55400"},{"name":"ULUAĞAÇ MAH.","zip":"55400"},{"name":"ÜÇPINAR MAH.","zip":"55400"},{"name":"YAĞMURCA MAH.","zip":"55400"},{"name":"YAKA MAH.","zip":"55400"},{"name":"YAKINTAŞ MAH.","zip":"55400"},{"name":"YENİALAN MAH.","zip":"55400"},{"name":"YENİKÖY MAH.","zip":"55400"},{"name":"YERALTI MAH.","zip":"55400"},{"name":"YEŞİLKÖY MAH.","zip":"55400"},{"name":"YEŞİLYAZI MAH.","zip":"55400"},{"name":"YİĞİTALAN MAH.","zip":"55400"},{"name":"YÖRGÜÇ MAH.","zip":"55400"}]},{"name":"CANİK","cityName":null,"quarters":[{"name":"ALİBEYLİ MAH.","zip":"55080"},{"name":"AMBARPINAR MAH.","zip":"55080"},{"name":"ATATÜRK MAH.","zip":"55080"},{"name":"AVLUCA MAH.","zip":"55080"},{"name":"BAŞALAN MAH.","zip":"55080"},{"name":"BAŞKONAK MAH.","zip":"55080"},{"name":"BELEDİYE EVLERİ MAH.","zip":"55080"},{"name":"ÇAĞLAYAN MAH.","zip":"55080"},{"name":"ÇAMALAN MAH.","zip":"55080"},{"name":"DEMİRCİ MAH.","zip":"55080"},{"name":"DERELER MAH.","zip":"55080"},{"name":"DEVGERİŞ MAH.","zip":"55080"},{"name":"DÜVECİK MAH.","zip":"55080"},{"name":"DÜZARDIÇ MAH.","zip":"55080"},{"name":"DÜZÖREN MAH.","zip":"55080"},{"name":"FINDICAK MAH.","zip":"55080"},{"name":"GAZİOSMANPAŞA MAH.","zip":"55080"},{"name":"GECEHAN MAH.","zip":"55080"},{"name":"GÖDEKLİ MAH.","zip":"55080"},{"name":"GÖKÇEPINAR MAH.","zip":"55080"},{"name":"GÖLALAN MAH.","zip":"55080"},{"name":"GÜLTEPE MAH.","zip":"55080"},{"name":"GÜRGENYATAK MAH.","zip":"55080"},{"name":"HACI İSMAİL MAH.","zip":"55080"},{"name":"HACINAİPLİ MAH.","zip":"55080"},{"name":"HASKÖY MAH.","zip":"55080"},{"name":"HİLALTEPE MAH.","zip":"55080"},{"name":"İKİYÜZ EVLER MAH.","zip":"55080"},{"name":"İMAMLAR MAH.","zip":"55080"},{"name":"KALEBOĞAZI MAH.","zip":"55080"},{"name":"KARŞIYAKA MAH.","zip":"55080"},{"name":"KAŞYAYLA MAH.","zip":"55080"},{"name":"KESTANEPINAR MAH.","zip":"55080"},{"name":"KIZILOĞLAK MAH.","zip":"55080"},{"name":"KOZLU MAH.","zip":"55080"},{"name":"KUZEY YILDIZI MAH.","zip":"55080"},{"name":"MURATLI MAH.","zip":"55080"},{"name":"SARIBIYIK MAH.","zip":"55080"},{"name":"SOĞUKSU MAH.","zip":"55080"},{"name":"TEKKİRAZ MAH.","zip":"55080"},{"name":"TEKNEPINAR MAH.","zip":"55080"},{"name":"TOPTEPE MAH.","zip":"55080"},{"name":"TOYGAR MAH.","zip":"55080"},{"name":"TUZAKLI MAH.","zip":"55080"},{"name":"ULUÇAYIR MAH.","zip":"55080"},{"name":"ULUDAĞ MAH.","zip":"55080"},{"name":"ÜÇPINAR MAH.","zip":"55080"},{"name":"YAVUZ SELİM MAH.","zip":"55080"},{"name":"YAYLA MAH.","zip":"55080"},{"name":"YENİKÖY MAH.","zip":"55080"},{"name":"YENİMAHALLE MAH.","zip":"55080"},{"name":"YEŞİLPINAR MAH.","zip":"55080"}]},{"name":"ÇARŞAMBA","cityName":null,"quarters":[{"name":"AĞCAGÜNEY MAH.","zip":"55500"},{"name":"AHUBABA MAH.","zip":"55500"},{"name":"AKÇALTI MAH.","zip":"55500"},{"name":"AKÇATARLA MAH.","zip":"55500"},{"name":"AKKUZULU MAH.","zip":"55500"},{"name":"ALİBEYLİ MAH.","zip":"55500"},{"name":"ALLI MAH.","zip":"55500"},{"name":"ARIM KÖSELİ MAH.","zip":"55500"},{"name":"AŞAĞI DİKENCİK MAH.","zip":"55500"},{"name":"AŞAĞI DONURLU MAH.","zip":"55500"},{"name":"AŞAĞI ESENLİ MAH.","zip":"55500"},{"name":"AŞAĞI KAVACIK MAH.","zip":"55500"},{"name":"AŞAĞI MUSALLA MAH.","zip":"55500"},{"name":"AŞAĞI TURGUTLU MAH.","zip":"55500"},{"name":"AŞIKLI MAH.","zip":"55500"},{"name":"ATAKÖY MAH.","zip":"55500"},{"name":"BAFRACALI MAH.","zip":"55500"},{"name":"BAHÇELİEVLER MAH.","zip":"55500"},{"name":"BAYRAMLI MAH.","zip":"55500"},{"name":"BEYLERCE MAH.","zip":"55500"},{"name":"BEYYENİCE MAH.","zip":"55500"},{"name":"BEZİRGAN MAH.","zip":"55500"},{"name":"BOYACILI MAH.","zip":"55500"},{"name":"BÖLMEÇAYIR MAH.","zip":"55500"},{"name":"CANLI MAH.","zip":"55500"},{"name":"CUMHURİYET MAH.","zip":"55500"},{"name":"ÇALTI MAH.","zip":"55500"},{"name":"ÇATAK MAH.","zip":"55500"},{"name":"ÇAY MAH.","zip":"55500"},{"name":"ÇAYVAR MAH.","zip":"55500"},{"name":"ÇELİKLİ MAH.","zip":"55500"},{"name":"ÇERÇİLER MAH.","zip":"55500"},{"name":"ÇINARLIK MAH.","zip":"55500"},{"name":"DALBAHÇE MAH.","zip":"55500"},{"name":"DAMLATAŞ MAH.","zip":"55500"},{"name":"DEMİRASLAN MAH.","zip":"55500"},{"name":"DEMİRCİLİ MAH.","zip":"55500"},{"name":"DEMİRLİ MAH.","zip":"55500"},{"name":"DENİZLER MAH.","zip":"55500"},{"name":"DEYİNCEK MAH.","zip":"55500"},{"name":"DİKBIYIK MAH.","zip":"55500"},{"name":"DURAKBAŞI MAH.","zip":"55500"},{"name":"DURUSU MAH.","zip":"55500"},{"name":"EĞERCİLİ MAH.","zip":"55500"},{"name":"EĞRİDERE MAH.","zip":"55500"},{"name":"EĞRİKUM MAH.","zip":"55500"},{"name":"EPÇELİ MAH.","zip":"55500"},{"name":"ESENÇAY MAH.","zip":"55500"},{"name":"ESENTEPE MAH.","zip":"55500"},{"name":"GAZİ MAH.","zip":"55500"},{"name":"GÖKÇEÇAKMAK MAH.","zip":"55500"},{"name":"GÖKÇELİ MAH.","zip":"55500"},{"name":"GÜLDERE MAH.","zip":"55500"},{"name":"GÜLÖREN MAH.","zip":"55500"},{"name":"GÜLYAZI MAH.","zip":"55500"},{"name":"GÜNEŞLİ MAH.","zip":"55500"},{"name":"GÜZPINAR MAH.","zip":"55500"},{"name":"HACILIÇAY MAH.","zip":"55500"},{"name":"HASBAHÇE MAH.","zip":"55500"},{"name":"HELVACALI MAH.","zip":"55500"},{"name":"HÜRRİYET MAH.","zip":"55500"},{"name":"IRMAKSIRTI MAH.","zip":"55500"},{"name":"KABACEVİZ MAH.","zip":"55500"},{"name":"KARAAĞAÇ MAH.","zip":"55500"},{"name":"KARABAHÇE MAH.","zip":"55500"},{"name":"KARACALI MAH.","zip":"55500"},{"name":"KARAKAYA MAH.","zip":"55500"},{"name":"KARAKULAK MAH.","zip":"55500"},{"name":"KARAMUSTAFALI MAH.","zip":"55500"},{"name":"KAYDAN MAH.","zip":"55500"},{"name":"KEMER MAH.","zip":"55500"},{"name":"KESTANEPINAR MAH.","zip":"55500"},{"name":"KIZILOT MAH.","zip":"55500"},{"name":"KİRAZBUCAĞI MAH.","zip":"55500"},{"name":"KİRAZLIKÇAY MAH.","zip":"55500"},{"name":"KOCAKAVAK MAH.","zip":"55500"},{"name":"KOLDERE MAH.","zip":"55500"},{"name":"KONUKLUK MAH.","zip":"55500"},{"name":"KÖKLÜK MAH.","zip":"55500"},{"name":"KÖROĞLU MAH.","zip":"55500"},{"name":"KUMARLI MAH.","zip":"55500"},{"name":"KUMKÖY MAH.","zip":"55500"},{"name":"KUMTEPE MAH.","zip":"55500"},{"name":"KURTAHMETLİ MAH.","zip":"55500"},{"name":"KURTULUŞ MAH.","zip":"55500"},{"name":"KUŞÇULU MAH.","zip":"55500"},{"name":"KUŞHANE MAH.","zip":"55500"},{"name":"KÜRTÜN MAH.","zip":"55500"},{"name":"MAHMUTLU MAH.","zip":"55500"},{"name":"MELİK MAH.","zip":"55500"},{"name":"MUSÇALI MAH.","zip":"55500"},{"name":"NAMAZLI MAH.","zip":"55500"},{"name":"ORD. PRF. ALİ FUAT BAŞGİL MAH.","zip":"55500"},{"name":"ORDU MAH.","zip":"55500"},{"name":"ORDUBAŞI MAH.","zip":"55500"},{"name":"ORTA MAH.","zip":"55500"},{"name":"OTLUK MAH.","zip":"55500"},{"name":"OVACIK MAH.","zip":"55500"},{"name":"OYMALI MAH.","zip":"55500"},{"name":"ÖMERLİ MAH.","zip":"55500"},{"name":"PAŞAYAZI MAH.","zip":"55500"},{"name":"PORSUK MAH.","zip":"55500"},{"name":"SAHİL MAH.","zip":"55500"},{"name":"SARAÇLI MAH.","zip":"55500"},{"name":"SARICALI MAH.","zip":"55500"},{"name":"SEFALI MAH.","zip":"55500"},{"name":"SELİMİYE MAH.","zip":"55500"},{"name":"SIĞIRTMAÇ MAH.","zip":"55500"},{"name":"SOĞUCAK MAH.","zip":"55500"},{"name":"SUĞLUCA MAH.","zip":"55500"},{"name":"SUNGURLU MAH.","zip":"55500"},{"name":"ŞENYURT MAH.","zip":"55500"},{"name":"ŞEYHGÜVEN MAH.","zip":"55500"},{"name":"ŞEYHHABİL MAH.","zip":"55500"},{"name":"TAŞDEMİR MAH.","zip":"55500"},{"name":"TATARLI MAH.","zip":"55500"},{"name":"TİLKİLİ MAH.","zip":"55500"},{"name":"TOMBAZLAR MAH.","zip":"55500"},{"name":"TURGUTLU MAH.","zip":"55500"},{"name":"ULUKÖY MAH.","zip":"55500"},{"name":"ULUPINAR MAH.","zip":"55500"},{"name":"UMUT MAH.","zip":"55500"},{"name":"USTACALI MAH.","zip":"55500"},{"name":"UZUNLU MAH.","zip":"55500"},{"name":"ÜÇKÖPRÜ MAH.","zip":"55500"},{"name":"VAKIFKÖPRÜ MAH.","zip":"55500"},{"name":"YALI MAH.","zip":"55500"},{"name":"YAMANLI MAH.","zip":"55500"},{"name":"YAYCILAR MAH.","zip":"55500"},{"name":"YENİ KARACALI MAH.","zip":"55500"},{"name":"YENİ KIŞLA MAH.","zip":"55500"},{"name":"YENİ KÖSELİ MAH.","zip":"55500"},{"name":"YEŞİLDERE MAH.","zip":"55500"},{"name":"YEŞİLIRMAK MAH.","zip":"55500"},{"name":"YEŞİLOVA MAH.","zip":"55500"},{"name":"YUKARI AĞCAGÜNEY MAH.","zip":"55500"},{"name":"YUKARI DİKENCİK MAH.","zip":"55500"},{"name":"YUKARI DONURLU MAH.","zip":"55500"},{"name":"YUKARI ESENLİ MAH.","zip":"55500"},{"name":"YUKARI KARABAHÇE MAH.","zip":"55500"},{"name":"YUKARI KAVACIK MAH.","zip":"55500"},{"name":"ZÜMRÜT MAH.","zip":"55500"}]},{"name":"HAVZA","cityName":null,"quarters":[{"name":"25 MAYIS MAH.","zip":"55700"},{"name":"AĞCAMAHMUT MAH.","zip":"55700"},{"name":"AĞDIRHASAN MAH.","zip":"55700"},{"name":"ARSLANÇAYIRI MAH.","zip":"55700"},{"name":"AŞAĞI YAVUCAK MAH.","zip":"55700"},{"name":"AŞAĞISUSUZ MAH.","zip":"55700"},{"name":"BAHÇELİEVLER MAH.","zip":"55700"},{"name":"BAŞPELİT MAH.","zip":"55700"},{"name":"BEKDİĞİN MAH.","zip":"55700"},{"name":"BELALAN MAH.","zip":"55700"},{"name":"BEYKÖY MAH.","zip":"55700"},{"name":"BEYÖREN MAH.","zip":"55700"},{"name":"BOYALI MAH.","zip":"55700"},{"name":"BOYALICA MAH.","zip":"55700"},{"name":"CELİL MAH.","zip":"55700"},{"name":"CEVİZLİK MAH.","zip":"55700"},{"name":"ÇAKIRALAN MAH.","zip":"55700"},{"name":"ÇAMYATAĞI MAH.","zip":"55700"},{"name":"ÇAY MAH.","zip":"55700"},{"name":"ÇAYIRÖZÜ MAH.","zip":"55700"},{"name":"ÇELİKALAN MAH.","zip":"55700"},{"name":"ÇELTEK MAH.","zip":"55700"},{"name":"ÇİFTLİKKÖY MAH.","zip":"55700"},{"name":"DEĞİRMENÜSTÜ MAH.","zip":"55700"},{"name":"DEMİRYURT MAH.","zip":"55700"},{"name":"DEREKÖY MAH.","zip":"55700"},{"name":"DOĞANÇAYIR MAH.","zip":"55700"},{"name":"DÜNDARLI MAH.","zip":"55700"},{"name":"EKİNPINARI MAH.","zip":"55700"},{"name":"ELMACIK MAH.","zip":"55700"},{"name":"ERELİ MAH.","zip":"55700"},{"name":"ERİKBELEN MAH.","zip":"55700"},{"name":"ERSANDIK MAH.","zip":"55700"},{"name":"ESENBEY MAH.","zip":"55700"},{"name":"EYMİR MAH.","zip":"55700"},{"name":"GELİNCİK MAH.","zip":"55700"},{"name":"GİDİRLİ MAH.","zip":"55700"},{"name":"GÖÇMENLER MAH.","zip":"55700"},{"name":"GÜVERCİNLİK MAH.","zip":"55700"},{"name":"HACIBATTAL MAH.","zip":"55700"},{"name":"HACIDEDE MAH.","zip":"55700"},{"name":"HECİNLİ MAH.","zip":"55700"},{"name":"HİLMİYE MAH.","zip":"55700"},{"name":"ILICA MAH.","zip":"55700"},{"name":"İCADİYE MAH.","zip":"55700"},{"name":"İMARET MAH.","zip":"55700"},{"name":"İMİRCİK MAH.","zip":"55700"},{"name":"İNÖNÜ MAH.","zip":"55700"},{"name":"KALEKÖY MAH.","zip":"55700"},{"name":"KAMLIK MAH.","zip":"55700"},{"name":"KARABÜK MAH.","zip":"55700"},{"name":"KARAGEÇMİŞ MAH.","zip":"55700"},{"name":"KARAHALİL MAH.","zip":"55700"},{"name":"KARAMEŞE MAH.","zip":"55700"},{"name":"KARGA MAH.","zip":"55700"},{"name":"KARŞIYAKA MAH.","zip":"55700"},{"name":"KAYABAŞI MAH.","zip":"55700"},{"name":"KAYACIK MAH.","zip":"55700"},{"name":"KEMALİYE MAH.","zip":"55700"},{"name":"KIROĞLU MAH.","zip":"55700"},{"name":"KİRENLİK MAH.","zip":"55700"},{"name":"KOCAOĞLU MAH.","zip":"55700"},{"name":"KOCAPINAR MAH.","zip":"55700"},{"name":"KUŞKONAĞI MAH.","zip":"55700"},{"name":"KÜFLEK MAH.","zip":"55700"},{"name":"MEDRESE MAH.","zip":"55700"},{"name":"MEMDUHİYE MAH.","zip":"55700"},{"name":"MERYEMDERE MAH.","zip":"55700"},{"name":"MESUDİYE MAH.","zip":"55700"},{"name":"MISMILAĞAÇ MAH.","zip":"55700"},{"name":"MÜRSEL MAH.","zip":"55700"},{"name":"ORHANİYE MAH.","zip":"55700"},{"name":"ORTAKLAR MAH.","zip":"55700"},{"name":"PAŞAPINARI MAH.","zip":"55700"},{"name":"PINARÇAY MAH.","zip":"55700"},{"name":"SİVRİKESE MAH.","zip":"55700"},{"name":"SOFULAR MAH.","zip":"55700"},{"name":"SONDAJ MAH.","zip":"55700"},{"name":"ŞERİFALİ MAH.","zip":"55700"},{"name":"ŞEYHALİ MAH.","zip":"55700"},{"name":"ŞEYHKOYUN MAH.","zip":"55700"},{"name":"ŞEYHLER MAH.","zip":"55700"},{"name":"ŞEYHSAFİ MAH.","zip":"55700"},{"name":"TAŞKARACAÖREN MAH.","zip":"55700"},{"name":"TEKKEKÖY MAH.","zip":"55700"},{"name":"TUZLA MAH.","zip":"55700"},{"name":"ULUÇAL MAH.","zip":"55700"},{"name":"ÜNİVERSİTE MAH.","zip":"55700"},{"name":"YAĞCIMAHMUT MAH.","zip":"55700"},{"name":"YAYLAÇATI MAH.","zip":"55700"},{"name":"YAZIKIŞLA MAH.","zip":"55700"},{"name":"YENİ MAH.","zip":"55700"},{"name":"YENİCE MAH.","zip":"55700"},{"name":"YENİMESCİT MAH.","zip":"55700"},{"name":"YEŞİLALAN MAH.","zip":"55700"},{"name":"YUKARISUSUZ MAH.","zip":"55700"},{"name":"YUKARIYAVUCAK MAH.","zip":"55700"}]},{"name":"BAHÇELİEVLER","cityName":null,"quarters":[{"name":"YENİDOĞAN MAH.","zip":"55070"}]},{"name":"İSTASYON","cityName":null,"quarters":[{"name":"ÇAY MAH.","zip":"55060"},{"name":"ÇİFTLİK MAH.","zip":"55060"},{"name":"DEREBAHÇE MAH.","zip":"55060"},{"name":"GÜZELDERE MAH.","zip":"55060"},{"name":"İSTASYON MAH.","zip":"55060"},{"name":"KARADENİZ MAH.","zip":"55060"},{"name":"KILIÇDEDE MAH.","zip":"55060"},{"name":"ZAFER MAH.","zip":"55060"}]},{"name":"KADIKÖY","cityName":null,"quarters":[{"name":"ÇATALARMUT MAH.","zip":"55040"},{"name":"KADIKÖY MAH.","zip":"55040"},{"name":"ZEYTİNLİK MAH.","zip":"55040"}]},{"name":"KALE","cityName":null,"quarters":[{"name":"KALE MAH.","zip":"55030"},{"name":"SAİTBEY MAH.","zip":"55030"},{"name":"ULUGAZİ MAH.","zip":"55030"}]},{"name":"LİMAN","cityName":null,"quarters":[{"name":"CEDİT MAH.","zip":"55100"},{"name":"KADİFEKALE MAH.","zip":"55100"},{"name":"KARASAMSUN MAH.","zip":"55100"},{"name":"LİMAN MAH.","zip":"55100"},{"name":"SELAHİYE MAH.","zip":"55100"}]},{"name":"RASATHANE","cityName":null,"quarters":[{"name":"İLYASKÖY MAH.","zip":"55050"},{"name":"KIŞLA MAH.","zip":"55050"},{"name":"RASATHANE MAH.","zip":"55050"},{"name":"REŞADİYE MAH.","zip":"55050"},{"name":"YAŞARDOĞU MAH.","zip":"55050"}]},{"name":"UNKAPANI","cityName":null,"quarters":[{"name":"AKGÖL MAH.","zip":"55020"},{"name":"AŞAĞIAVDAN MAH.","zip":"55020"},{"name":"AVDAN MAH.","zip":"55020"},{"name":"BİLMECE MAH.","zip":"55020"},{"name":"ÇANAKÇI MAH.","zip":"55020"},{"name":"ÇANDIR MAH.","zip":"55020"},{"name":"ÇELİKALAN MAH.","zip":"55020"},{"name":"ÇİVRİL MAH.","zip":"55020"},{"name":"FEVZİ ÇAKMAK MAH.","zip":"55020"},{"name":"GÜRGENDAĞ MAH.","zip":"55020"},{"name":"HANÇERLİ MAH.","zip":"55020"},{"name":"HASTANE MAH.","zip":"55020"},{"name":"KADAMUT MAH.","zip":"55020"},{"name":"KALKANCI MAH.","zip":"55020"},{"name":"KAPAKLI MAH.","zip":"55020"},{"name":"KAZIM KARABEKİR MAH.","zip":"55020"},{"name":"KÖKÇÜOĞLU MAH.","zip":"55020"},{"name":"LİMAN SB MAH.","zip":"55020"},{"name":"PAZAR MAH.","zip":"55020"},{"name":"TOYBELEN MAH.","zip":"55020"},{"name":"UNKAPANI MAH.","zip":"55020"},{"name":"YEŞİLTEPE MAH.","zip":"55020"}]},{"name":"YEŞİLKENT","cityName":null,"quarters":[{"name":"ATAKÖY MAH.","zip":"55090"},{"name":"DERECİK MAH.","zip":"55090"},{"name":"KAVACIK MAH.","zip":"55090"},{"name":"KIRAN MAH.","zip":"55090"},{"name":"KUSÇULU MAH.","zip":"55090"},{"name":"TEPECİK MAH.","zip":"55090"},{"name":"UZGUR MAH.","zip":"55090"}]},{"name":"KAVAK","cityName":null,"quarters":[{"name":"AĞCAKİSE MAH.","zip":"55850"},{"name":"AHURLU MAH.","zip":"55850"},{"name":"AKBELEN MAH.","zip":"55850"},{"name":"ALAÇAM MAH.","zip":"55850"},{"name":"ALAÇAMDERESİ MAH.","zip":"55850"},{"name":"ALAGÖMLEK MAH.","zip":"55850"},{"name":"AŞAĞIÇİRİŞLİ MAH.","zip":"55850"},{"name":"ATAYURT MAH.","zip":"55850"},{"name":"AZAKLI MAH.","zip":"55850"},{"name":"BAHÇELİEVLER MAH.","zip":"55850"},{"name":"BAŞALAN MAH.","zip":"55850"},{"name":"BAYINDIR MAH.","zip":"55850"},{"name":"BAYRAKLI MAH.","zip":"55850"},{"name":"BEKDEMİR MAH.","zip":"55850"},{"name":"BELALAN MAH.","zip":"55850"},{"name":"BEYBESLİ MAH.","zip":"55850"},{"name":"BEYKÖY MAH.","zip":"55850"},{"name":"BOĞAZİÇİ MAH.","zip":"55850"},{"name":"BÜKCEĞİZ MAH.","zip":"55850"},{"name":"BÜYÜKÇUKUR MAH.","zip":"55850"},{"name":"CELALLI MAH.","zip":"55850"},{"name":"ÇAKALLI MAH.","zip":"55850"},{"name":"ÇALBAŞI MAH.","zip":"55850"},{"name":"ÇARIKLIBAŞI MAH.","zip":"55850"},{"name":"ÇATALTEPE MAH.","zip":"55850"},{"name":"ÇAYIRLI MAH.","zip":"55850"},{"name":"ÇİÇEKYAZI MAH.","zip":"55850"},{"name":"ÇİĞDEM MAH.","zip":"55850"},{"name":"ÇİVRİL MAH.","zip":"55850"},{"name":"ÇUKURBÜK MAH.","zip":"55850"},{"name":"DEĞİRMENCİLİ MAH.","zip":"55850"},{"name":"DEMİRCİ MAH.","zip":"55850"},{"name":"DEREKÖY MAH.","zip":"55850"},{"name":"DİVANBAŞI MAH.","zip":"55850"},{"name":"DORUK MAH.","zip":"55850"},{"name":"DUMAN MAH.","zip":"55850"},{"name":"DURA MAH.","zip":"55850"},{"name":"EMİRLİ MAH.","zip":"55850"},{"name":"GERMİYAN MAH.","zip":"55850"},{"name":"GÖÇEBE MAH.","zip":"55850"},{"name":"GÜNEYCE MAH.","zip":"55850"},{"name":"HACILI MAH.","zip":"55850"},{"name":"ILICAKÖY MAH.","zip":"55850"},{"name":"İDRİSLİ MAH.","zip":"55850"},{"name":"İKİZDERE MAH.","zip":"55850"},{"name":"KAPUHAYAT MAH.","zip":"55850"},{"name":"KARAASLAN MAH.","zip":"55850"},{"name":"KARACALAR MAH.","zip":"55850"},{"name":"KARADAĞ MAH.","zip":"55850"},{"name":"KARANTU MAH.","zip":"55850"},{"name":"KARAPINAR MAH.","zip":"55850"},{"name":"KARAYUSUFLU MAH.","zip":"55850"},{"name":"KARLI MAH.","zip":"55850"},{"name":"KARTEPE MAH.","zip":"55850"},{"name":"KAYABAŞI MAH.","zip":"55850"},{"name":"KAYAKÖY MAH.","zip":"55850"},{"name":"KAZANCI MAH.","zip":"55850"},{"name":"KETHÜDA MAH.","zip":"55850"},{"name":"KOZANSIKI MAH.","zip":"55850"},{"name":"KÖSELİ MAH.","zip":"55850"},{"name":"KURŞUNLU MAH.","zip":"55850"},{"name":"KUZALAN MAH.","zip":"55850"},{"name":"KÜÇÜKÇUKUR MAH.","zip":"55850"},{"name":"MAHMUTBEYLİ MAH.","zip":"55850"},{"name":"MAHMUTLU MAH.","zip":"55850"},{"name":"MEHMETPAŞA MAH.","zip":"55850"},{"name":"MERT MAH.","zip":"55850"},{"name":"MUHSİNLİ MAH.","zip":"55850"},{"name":"MURATBEYLİ MAH.","zip":"55850"},{"name":"ORTAKÖY MAH.","zip":"55850"},{"name":"SARALAN MAH.","zip":"55850"},{"name":"SEYİTALİ MAH.","zip":"55850"},{"name":"SIRALI MAH.","zip":"55850"},{"name":"SOĞUKSU MAH.","zip":"55850"},{"name":"SUSUZ MAH.","zip":"55850"},{"name":"ŞEYHLİ MAH.","zip":"55850"},{"name":"ŞEYHRESUL MAH.","zip":"55850"},{"name":"TABAKLI MAH.","zip":"55850"},{"name":"TALIŞMAN MAH.","zip":"55850"},{"name":"TATARMUSLU MAH.","zip":"55850"},{"name":"TEKKEKÖY MAH.","zip":"55850"},{"name":"TEPECİK MAH.","zip":"55850"},{"name":"TOPTEPE MAH.","zip":"55850"},{"name":"ÜÇHANLAR MAH.","zip":"55850"},{"name":"YAŞAR DOĞU MAH.","zip":"55850"},{"name":"YENİ CAMİ OSB MAH.","zip":"55850"},{"name":"YENİCAMİ MAH.","zip":"55850"},{"name":"YENİGÜN MAH.","zip":"55850"},{"name":"YERALAN MAH.","zip":"55850"},{"name":"YOSUNLU MAH.","zip":"55850"},{"name":"YUKARIÇİRİŞLİ MAH.","zip":"55850"}]},{"name":"LADİK","cityName":null,"quarters":[{"name":"AHMETSARAY MAH.","zip":"55760"},{"name":"AKPINAR MAH.","zip":"55760"},{"name":"AKTAŞ MAH.","zip":"55760"},{"name":"AKYAR MAH.","zip":"55760"},{"name":"ALAYURT MAH.","zip":"55760"},{"name":"ALIÇLI MAH.","zip":"55760"},{"name":"ARSLANTAŞ MAH.","zip":"55760"},{"name":"AŞAĞIGÖLYAZI MAH.","zip":"55760"},{"name":"AYVALI MAH.","zip":"55760"},{"name":"AYVALISOKAĞI MAH.","zip":"55760"},{"name":"BAHŞİ MAH.","zip":"55760"},{"name":"BAŞLAMIŞ MAH.","zip":"55760"},{"name":"BOLAT MAH.","zip":"55760"},{"name":"BUDAKDERE MAH.","zip":"55760"},{"name":"BÜYÜKALAN MAH.","zip":"55760"},{"name":"BÜYÜKKIZOĞLU MAH.","zip":"55760"},{"name":"CÜCE MAH.","zip":"55760"},{"name":"ÇADIRKAYA MAH.","zip":"55760"},{"name":"ÇAKIRGÜMÜŞ MAH.","zip":"55760"},{"name":"ÇAMLIKÖY MAH.","zip":"55760"},{"name":"DALDERE MAH.","zip":"55760"},{"name":"DELİAHMETOĞLU MAH.","zip":"55760"},{"name":"DERİNÖZ MAH.","zip":"55760"},{"name":"DOĞANKAŞ MAH.","zip":"55760"},{"name":"EYNEKARACA MAH.","zip":"55760"},{"name":"GÜNKORU MAH.","zip":"55760"},{"name":"GÜRÜN MAH.","zip":"55760"},{"name":"GÜVENLİ MAH.","zip":"55760"},{"name":"HACIALİPINAR MAH.","zip":"55760"},{"name":"HAMAMAYAĞI MAH.","zip":"55760"},{"name":"HAMİTKÖY MAH.","zip":"55760"},{"name":"HASIRCI MAH.","zip":"55760"},{"name":"HIZARBAŞI MAH.","zip":"55760"},{"name":"İBİ MAH.","zip":"55760"},{"name":"İSASOFTA MAH.","zip":"55760"},{"name":"İSKANİYE MAH.","zip":"55760"},{"name":"KABACAGÖZ MAH.","zip":"55760"},{"name":"KARAABDAL MAH.","zip":"55760"},{"name":"KIRANBOĞAZ MAH.","zip":"55760"},{"name":"KIZILSİNİ MAH.","zip":"55760"},{"name":"KİRAZPINAR MAH.","zip":"55760"},{"name":"KOĞA MAH.","zip":"55760"},{"name":"KÖSEOĞLU MAH.","zip":"55760"},{"name":"KUYUCAK MAH.","zip":"55760"},{"name":"KÜÇÜKKIZOĞLU MAH.","zip":"55760"},{"name":"KÜPECİK MAH.","zip":"55760"},{"name":"MAZLUMOĞLU MAH.","zip":"55760"},{"name":"MEŞEPINARI MAH.","zip":"55760"},{"name":"NUSRATLI MAH.","zip":"55760"},{"name":"OYMAPINAR MAH.","zip":"55760"},{"name":"SALUR MAH.","zip":"55760"},{"name":"SANAYİ MAH.","zip":"55760"},{"name":"SARAY MAH.","zip":"55760"},{"name":"SARIGAZEL MAH.","zip":"55760"},{"name":"SARIKSIZOĞLU MAH.","zip":"55760"},{"name":"SOĞANLI MAH.","zip":"55760"},{"name":"SÖĞÜTLÜ MAH.","zip":"55760"},{"name":"ŞEHREKÜSTÜ MAH.","zip":"55760"},{"name":"ŞIHLI MAH.","zip":"55760"},{"name":"TATLICAK MAH.","zip":"55760"},{"name":"TEBEROĞLU MAH.","zip":"55760"},{"name":"TÜFEKÇİDERE MAH.","zip":"55760"},{"name":"YENİCAMİ MAH.","zip":"55760"},{"name":"YUKARIGÖLYAZI MAH.","zip":"55760"},{"name":"YUMAKLI MAH.","zip":"55760"},{"name":"YUVACIK MAH.","zip":"55760"}]},{"name":"SALIPAZARI","cityName":null,"quarters":[{"name":"ALANYAYKIN MAH.","zip":"55530"},{"name":"ALBAK MAH.","zip":"55530"},{"name":"AVUT MAH.","zip":"55530"},{"name":"BEREKET MAH.","zip":"55530"},{"name":"BİÇME MAH.","zip":"55530"},{"name":"CEVİZLİ MAH.","zip":"55530"},{"name":"ÇAĞLAYAN MAH.","zip":"55530"},{"name":"ÇİÇEKLİ MAH.","zip":"55530"},{"name":"DİKENCİK MAH.","zip":"55530"},{"name":"DÜZKÖY MAH.","zip":"55530"},{"name":"ESATÇİFTLİĞİ MAH.","zip":"55530"},{"name":"FATSALILAR MAH.","zip":"55530"},{"name":"FINDIKLI MAH.","zip":"55530"},{"name":"FİDANCIK MAH.","zip":"55530"},{"name":"GÖKÇEBAŞI MAH.","zip":"55530"},{"name":"GÖKÇELİ MAH.","zip":"55530"},{"name":"GÜZELVATAN MAH.","zip":"55530"},{"name":"KALFALI MAH.","zip":"55530"},{"name":"KARACALAR MAH.","zip":"55530"},{"name":"KARACAÖREN MAH.","zip":"55530"},{"name":"KARADERE MAH.","zip":"55530"},{"name":"KARAMAN MAH.","zip":"55530"},{"name":"KARAYONCA MAH.","zip":"55530"},{"name":"KIRGIL MAH.","zip":"55530"},{"name":"KIZILOT MAH.","zip":"55530"},{"name":"KOCALAR MAH.","zip":"55530"},{"name":"KONAKÖREN MAH.","zip":"55530"},{"name":"KUŞCUĞAZ MAH.","zip":"55530"},{"name":"MERKEZ KOCALAR MAH.","zip":"55530"},{"name":"MUMLU MAH.","zip":"55530"},{"name":"MUSLUBEY MAH.","zip":"55530"},{"name":"ORTA MAH.","zip":"55530"},{"name":"SARIHASAN MAH.","zip":"55530"},{"name":"SULUCA MAH.","zip":"55530"},{"name":"TACALAN MAH.","zip":"55530"},{"name":"TAHNAL MAH.","zip":"55530"},{"name":"TEPEALTI MAH.","zip":"55530"},{"name":"YAVAŞBEY MAH.","zip":"55530"},{"name":"YAYLA MAH.","zip":"55530"},{"name":"YENİ MAH.","zip":"55530"},{"name":"YENİDOĞAN MAH.","zip":"55530"},{"name":"YEŞİL MAH.","zip":"55530"},{"name":"YUKARIKESTANEPINAR MAH.","zip":"55530"}]},{"name":"AŞAĞIÇİNİK","cityName":null,"quarters":null},{"name":"BÜYÜKLÜ","cityName":null,"quarters":[{"name":"İSTİKLAL MAH.","zip":"55310"}]},{"name":"KUTLUKENT","cityName":null,"quarters":[{"name":"ALTINKAYA MAH.","zip":"55330"},{"name":"ASARAĞAÇ MAH.","zip":"55330"},{"name":"ÇIRAKMAN MAH.","zip":"55330"},{"name":"KERİMBEY MAH.","zip":"55330"},{"name":"KİRAZLIK MAH.","zip":"55330"},{"name":"ŞABANOĞLU MAH.","zip":"55330"}]},{"name":"TEKKEKÖY","cityName":null,"quarters":[{"name":"23 NİSAN MAH.","zip":"55300"},{"name":"AKBAŞLAR MAH.","zip":"55300"},{"name":"ANTYERİ MAH.","zip":"55300"},{"name":"BAKACAK MAH.","zip":"55300"},{"name":"BALCALI MAH.","zip":"55300"},{"name":"BAŞKÖY MAH.","zip":"55300"},{"name":"BEYOĞLU MAH.","zip":"55300"},{"name":"BÜYÜKLÜ MAH.","zip":"55300"},{"name":"ÇAY MAH.","zip":"55300"},{"name":"ÇAYIRÇÖKEK MAH.","zip":"55300"},{"name":"ÇAYLEYİK MAH.","zip":"55300"},{"name":"ÇINARALAN MAH.","zip":"55300"},{"name":"ÇİFTLİK MAH.","zip":"55300"},{"name":"ÇİFTLİKOSB MAH.","zip":"55300"},{"name":"ÇİMENLİ MAH.","zip":"55300"},{"name":"ÇİNİK MAH.","zip":"55300"},{"name":"ERENKÖY MAH.","zip":"55300"},{"name":"GÖKÇE MAH.","zip":"55300"},{"name":"GÖKÇEDERE MAH.","zip":"55300"},{"name":"GÖLCEĞİZ MAH.","zip":"55300"},{"name":"GÜZELYURT MAH.","zip":"55300"},{"name":"HAMZALI MAH.","zip":"55300"},{"name":"HÜRRİYET MAH.","zip":"55300"},{"name":"KABABÜRÜK MAH.","zip":"55300"},{"name":"KAHYALI MAH.","zip":"55300"},{"name":"KARAOĞLAN MAH.","zip":"55300"},{"name":"KARAPERÇİN MAH.","zip":"55300"},{"name":"KARGILI MAH.","zip":"55300"},{"name":"KARIŞLAR MAH.","zip":"55300"},{"name":"KERİMBEYOSB MAH.","zip":"55300"},{"name":"KERPİÇLİ MAH.","zip":"55300"},{"name":"KIŞLA MAH.","zip":"55300"},{"name":"KİBARLAR MAH.","zip":"55300"},{"name":"KÖPRÜBAŞI MAH.","zip":"55300"},{"name":"KURTULUŞ MAH.","zip":"55300"},{"name":"KUTLUKENT MAH.","zip":"55300"},{"name":"OVABAŞI MAH.","zip":"55300"},{"name":"PINAR MAH.","zip":"55300"},{"name":"SANAYİ MAH.","zip":"55300"},{"name":"SARIYURT MAH.","zip":"55300"},{"name":"SELYERİ MAH.","zip":"55300"},{"name":"SEYMENLER MAH.","zip":"55300"},{"name":"SITMASUYU MAH.","zip":"55300"},{"name":"ŞABANOĞLUOSB MAH.","zip":"55300"},{"name":"YAĞBASAN MAH.","zip":"55300"},{"name":"YAYLAGERİŞ MAH.","zip":"55300"},{"name":"YAZILAR MAH.","zip":"55300"},{"name":"YENİ BÜYÜKLÜ MAH.","zip":"55300"},{"name":"YENİDOĞAN MAH.","zip":"55300"},{"name":"YENİKÖY MAH.","zip":"55300"},{"name":"YEŞİLALAN MAH.","zip":"55300"},{"name":"YEŞİLDERE MAH.","zip":"55300"},{"name":"YEŞİLYURT MAH.","zip":"55300"},{"name":"YUKARIÇİNİK MAH.","zip":"55300"},{"name":"ZAFER MAH.","zip":"55300"}]},{"name":"TERME","cityName":null,"quarters":[{"name":"AKBUCAK MAH.","zip":"55600"},{"name":"AKÇAGÜN MAH.","zip":"55600"},{"name":"AKÇAY MAH.","zip":"55600"},{"name":"AKÇAYKARACALI MAH.","zip":"55600"},{"name":"ALTUNLU MAH.","zip":"55600"},{"name":"AMBARTEPE MAH.","zip":"55600"},{"name":"AYBEDER MAH.","zip":"55600"},{"name":"BAFRACALI MAH.","zip":"55600"},{"name":"BAĞSARAY MAH.","zip":"55600"},{"name":"BAHÇELİEVLER MAH.","zip":"55600"},{"name":"BAZLAMAÇ MAH.","zip":"55600"},{"name":"BEŞİKLİ MAH.","zip":"55600"},{"name":"CILAR MAH.","zip":"55600"},{"name":"CUMHURİYET MAH.","zip":"55600"},{"name":"ÇAMLICA MAH.","zip":"55600"},{"name":"ÇANAKLI MAH.","zip":"55600"},{"name":"ÇANGALLAR MAH.","zip":"55600"},{"name":"ÇARDAK MAH.","zip":"55600"},{"name":"ÇAY MAH.","zip":"55600"},{"name":"DAĞDIRALI MAH.","zip":"55600"},{"name":"DEREYOL MAH.","zip":"55600"},{"name":"DİBEKLİ MAH.","zip":"55600"},{"name":"EĞERCİLİ MAH.","zip":"55600"},{"name":"ELMAKÖY MAH.","zip":"55600"},{"name":"ELMALIK MAH.","zip":"55600"},{"name":"EMİRYUSUF MAH.","zip":"55600"},{"name":"ERENKÖY MAH.","zip":"55600"},{"name":"ETYEMEZLİ MAH.","zip":"55600"},{"name":"EVCİ MAH.","zip":"55600"},{"name":"FENK MAH.","zip":"55600"},{"name":"GEÇMİŞ MAH.","zip":"55600"},{"name":"GÖLYAZI MAH.","zip":"55600"},{"name":"GÜNDOĞDU MAH.","zip":"55600"},{"name":"HÜSEYİNMESCİT MAH.","zip":"55600"},{"name":"İLİMDAĞ MAH.","zip":"55600"},{"name":"İMANALİSİ MAH.","zip":"55600"},{"name":"KARACAKÖY MAH.","zip":"55600"},{"name":"KARACALI MAH.","zip":"55600"},{"name":"KARAMAHMUT MAH.","zip":"55600"},{"name":"KARKUCAK MAH.","zip":"55600"},{"name":"KAZIMKARABEKİRPAŞA MAH.","zip":"55600"},{"name":"KESİKKAYA MAH.","zip":"55600"},{"name":"KOCAMAN MAH.","zip":"55600"},{"name":"KOCAMANBAŞI MAH.","zip":"55600"},{"name":"KOZLUK MAH.","zip":"55600"},{"name":"KÖYBUCAĞI MAH.","zip":"55600"},{"name":"KUMCIĞAZ MAH.","zip":"55600"},{"name":"KUŞCA MAH.","zip":"55600"},{"name":"KUŞCULU MAH.","zip":"55600"},{"name":"MESCİTLİ MAH.","zip":"55600"},{"name":"MEŞEYAZI MAH.","zip":"55600"},{"name":"MURATLI MAH.","zip":"55600"},{"name":"OĞUZLU MAH.","zip":"55600"},{"name":"ORTASÖĞÜTLÜ MAH.","zip":"55600"},{"name":"ÖRENCİK MAH.","zip":"55600"},{"name":"ÖZYURT MAH.","zip":"55600"},{"name":"SAKARLI MAH.","zip":"55600"},{"name":"SANCAKLI MAH.","zip":"55600"},{"name":"SARAYKÖY MAH.","zip":"55600"},{"name":"SİVASLILAR MAH.","zip":"55600"},{"name":"SÖĞÜTLÜ MAH.","zip":"55600"},{"name":"SÜTÖZÜ MAH.","zip":"55600"},{"name":"ŞEYHLİ MAH.","zip":"55600"},{"name":"ŞUAYİP MAH.","zip":"55600"},{"name":"TAŞLIK MAH.","zip":"55600"},{"name":"TAŞPINAR MAH.","zip":"55600"},{"name":"TUTLUK MAH.","zip":"55600"},{"name":"ULUDERE MAH.","zip":"55600"},{"name":"UZUNGAZİ MAH.","zip":"55600"},{"name":"YALI MAH.","zip":"55600"},{"name":"YENİ MAH.","zip":"55600"},{"name":"YENİCAMİ MAH.","zip":"55600"},{"name":"YENİDOĞAN MAH.","zip":"55600"},{"name":"YERLİ MAH.","zip":"55600"},{"name":"YUKARITAŞPINAR MAH.","zip":"55600"},{"name":"YUNUS EMRE MAH.","zip":"55600"},{"name":"YÜKSEKYAYLA MAH.","zip":"55600"}]},{"name":"VEZİRKÖPRÜ","cityName":null,"quarters":[{"name":"ADATEPE MAH.","zip":"55900"},{"name":"AĞCAALAN MAH.","zip":"55900"},{"name":"AĞCAYAZI MAH.","zip":"55900"},{"name":"AHMETBABA MAH.","zip":"55900"},{"name":"AKÖREN MAH.","zip":"55900"},{"name":"ALAN MAH.","zip":"55900"},{"name":"ALANBAŞI MAH.","zip":"55900"},{"name":"ALANCIK MAH.","zip":"55900"},{"name":"ALANŞEYHİ MAH.","zip":"55900"},{"name":"ALTINKAYA MAH.","zip":"55900"},{"name":"ARICA MAH.","zip":"55900"},{"name":"ATATÜRK MAH.","zip":"55900"},{"name":"AVDAN MAH.","zip":"55900"},{"name":"AYDINLI MAH.","zip":"55900"},{"name":"AYDOĞDU MAH.","zip":"55900"},{"name":"AYVALI MAH.","zip":"55900"},{"name":"BAHÇEKONAK MAH.","zip":"55900"},{"name":"BAHÇELİEVLER MAH.","zip":"55900"},{"name":"BAHÇESARAY MAH.","zip":"55900"},{"name":"BAKLA MAH.","zip":"55900"},{"name":"BAŞALAN MAH.","zip":"55900"},{"name":"BAŞFAKI MAH.","zip":"55900"},{"name":"BAYRAM MAH.","zip":"55900"},{"name":"BEKTAŞ MAH.","zip":"55900"},{"name":"BELALAN MAH.","zip":"55900"},{"name":"BEŞPINAR MAH.","zip":"55900"},{"name":"BOĞA MAH.","zip":"55900"},{"name":"BOĞAZKORU MAH.","zip":"55900"},{"name":"BORUK MAH.","zip":"55900"},{"name":"BURHANİYE MAH.","zip":"55900"},{"name":"BÜYÜKKALE MAH.","zip":"55900"},{"name":"CEBELİ MAH.","zip":"55900"},{"name":"CUMHURİYET MAH.","zip":"55900"},{"name":"ÇAKIRTAŞ MAH.","zip":"55900"},{"name":"ÇAL MAH.","zip":"55900"},{"name":"ÇALMAN MAH.","zip":"55900"},{"name":"ÇALTU MAH.","zip":"55900"},{"name":"ÇAMLICA MAH.","zip":"55900"},{"name":"ÇAMLIKONAK MAH.","zip":"55900"},{"name":"ÇANAKLI MAH.","zip":"55900"},{"name":"ÇAYIRBAŞI MAH.","zip":"55900"},{"name":"ÇEKALAN MAH.","zip":"55900"},{"name":"ÇEKMEDEN MAH.","zip":"55900"},{"name":"ÇELTEK MAH.","zip":"55900"},{"name":"ÇORAKDERE MAH.","zip":"55900"},{"name":"DANABAŞ MAH.","zip":"55900"},{"name":"DARIÇAY MAH.","zip":"55900"},{"name":"DARIÇAYALANI MAH.","zip":"55900"},{"name":"DEĞİRMENBAŞI MAH.","zip":"55900"},{"name":"DEVALAN MAH.","zip":"55900"},{"name":"DOYRAN MAH.","zip":"55900"},{"name":"DURUÇAY MAH.","zip":"55900"},{"name":"ELALDI MAH.","zip":"55900"},{"name":"ELBEĞİ MAH.","zip":"55900"},{"name":"ELMALI MAH.","zip":"55900"},{"name":"ESEN MAH.","zip":"55900"},{"name":"ESENTEPE (BEŞPINAR) MAH.","zip":"55900"},{"name":"ESENTEPE MAH.","zip":"55900"},{"name":"ESENYURT MAH.","zip":"55900"},{"name":"FAZIL AHMET PAŞA MAH.","zip":"55900"},{"name":"GÖL MAH.","zip":"55900"},{"name":"GÖL YENİ MAH.","zip":"55900"},{"name":"GÖLLÜALAN MAH.","zip":"55900"},{"name":"GÖMLEKHİSAR MAH.","zip":"55900"},{"name":"GÜDER MAH.","zip":"55900"},{"name":"GÜLDERE MAH.","zip":"55900"},{"name":"HABİBFAKI MAH.","zip":"55900"},{"name":"HACILI MAH.","zip":"55900"},{"name":"HALİLBABA MAH.","zip":"55900"},{"name":"HALKAHAVLI MAH.","zip":"55900"},{"name":"HAYRANLI MAH.","zip":"55900"},{"name":"HIDIRLIK MAH.","zip":"55900"},{"name":"İMİRCİK MAH.","zip":"55900"},{"name":"İNCESU MAH.","zip":"55900"},{"name":"İNKAYA MAH.","zip":"55900"},{"name":"KABALI MAH.","zip":"55900"},{"name":"KADIÇAYIRI MAH.","zip":"55900"},{"name":"KADIOĞLU MAH.","zip":"55900"},{"name":"KAPAKLI MAH.","zip":"55900"},{"name":"KAPAKLIEŞME MAH.","zip":"55900"},{"name":"KAPLANCIK MAH.","zip":"55900"},{"name":"KARABÜK MAH.","zip":"55900"},{"name":"KARACAÖREN MAH.","zip":"55900"},{"name":"KARADORUK MAH.","zip":"55900"},{"name":"KARAKÖY MAH.","zip":"55900"},{"name":"KARANAR MAH.","zip":"55900"},{"name":"KARAPINAR MAH.","zip":"55900"},{"name":"KARKUCAK MAH.","zip":"55900"},{"name":"KARLI MAH.","zip":"55900"},{"name":"KAVAKPINARI MAH.","zip":"55900"},{"name":"KILIÇGÜNEY MAH.","zip":"55900"},{"name":"KIRANALAN MAH.","zip":"55900"},{"name":"KIRATBÜKÜ MAH.","zip":"55900"},{"name":"KIRMA MAH.","zip":"55900"},{"name":"KIZILCAKORU MAH.","zip":"55900"},{"name":"KIZILCAÖREN MAH.","zip":"55900"},{"name":"KIZILKESE MAH.","zip":"55900"},{"name":"KOCAKAYA MAH.","zip":"55900"},{"name":"KOVALI MAH.","zip":"55900"},{"name":"KÖPRÜBAŞI MAH.","zip":"55900"},{"name":"KUMRAL MAH.","zip":"55900"},{"name":"KURUÇAY (MERKEZ) MAH.","zip":"55900"},{"name":"KURUÇAY MAH.","zip":"55900"},{"name":"KUŞCULAR MAH.","zip":"55900"},{"name":"KUYAŞ MAH.","zip":"55900"},{"name":"KUYUMCU MAH.","zip":"55900"},{"name":"KÜÇÜKKALE MAH.","zip":"55900"},{"name":"KÜLETEK MAH.","zip":"55900"},{"name":"MAHMATLI MAH.","zip":"55900"},{"name":"MEHMET PAŞA MAH.","zip":"55900"},{"name":"MELİKLİ MAH.","zip":"55900"},{"name":"MEŞELİ MAH.","zip":"55900"},{"name":"MEZRAA MAH.","zip":"55900"},{"name":"NALBANTLI MAH.","zip":"55900"},{"name":"NARLISARAY MAH.","zip":"55900"},{"name":"ORTA MAH.","zip":"55900"},{"name":"ORTACAMİ MAH.","zip":"55900"},{"name":"ORUÇ MAH.","zip":"55900"},{"name":"OVACIK MAH.","zip":"55900"},{"name":"OYMAAĞAÇ MAH.","zip":"55900"},{"name":"ÖĞÜRLÜ MAH.","zip":"55900"},{"name":"ÖRENCİK MAH.","zip":"55900"},{"name":"ÖZYÖRÜK MAH.","zip":"55900"},{"name":"PAŞA MAH.","zip":"55900"},{"name":"PAZARCI MAH.","zip":"55900"},{"name":"SAMUKALAN MAH.","zip":"55900"},{"name":"SAMUR MAH.","zip":"55900"},{"name":"SARAYCIK MAH.","zip":"55900"},{"name":"SARIALAN MAH.","zip":"55900"},{"name":"SARIDİBEK MAH.","zip":"55900"},{"name":"SARIYAR MAH.","zip":"55900"},{"name":"SIRBAŞMAK MAH.","zip":"55900"},{"name":"SOFULAR MAH.","zip":"55900"},{"name":"SOĞUCAK MAH.","zip":"55900"},{"name":"SUSUZ MAH.","zip":"55900"},{"name":"ŞENTEPE MAH.","zip":"55900"},{"name":"TABAKHANE MAH.","zip":"55900"},{"name":"TAHTAKÖPRÜ MAH.","zip":"55900"},{"name":"TAŞKALE MAH.","zip":"55900"},{"name":"TAŞLIYÜK MAH.","zip":"55900"},{"name":"TATARKALE MAH.","zip":"55900"},{"name":"TEBERÜK MAH.","zip":"55900"},{"name":"TEKKEKIRAN MAH.","zip":"55900"},{"name":"TEPEÖREN MAH.","zip":"55900"},{"name":"TİKENLİ MAH.","zip":"55900"},{"name":"TÜRKMEN MAH.","zip":"55900"},{"name":"YAĞCI MAH.","zip":"55900"},{"name":"YAĞINÖZÜ MAH.","zip":"55900"},{"name":"YARBAŞI MAH.","zip":"55900"},{"name":"YENİ MAH.","zip":"55900"},{"name":"YENİÇELİK MAH.","zip":"55900"},{"name":"YENİDÜZCE MAH.","zip":"55900"},{"name":"YEŞİLADA MAH.","zip":"55900"},{"name":"YEŞİLTEPE MAH.","zip":"55900"},{"name":"YOLPINAR MAH.","zip":"55900"},{"name":"YUKARINARLI MAH.","zip":"55900"},{"name":"YURTDAĞI MAH.","zip":"55900"},{"name":"YÜRÜKÇAL MAH.","zip":"55900"}]},{"name":"YAKAKENT","cityName":null,"quarters":[{"name":"BÜYÜKKIRIK MAH.","zip":"55810"},{"name":"ÇAMALAN MAH.","zip":"55810"},{"name":"ÇEPNİ MAH.","zip":"55810"},{"name":"GÜNDÜZLÜ MAH.","zip":"55810"},{"name":"KARAABA MAH.","zip":"55810"},{"name":"KAYALI MAH.","zip":"55810"},{"name":"KOZKÖY MAH.","zip":"55810"},{"name":"KUZÖREN MAH.","zip":"55810"},{"name":"KÜPLÜAĞZI MAH.","zip":"55810"},{"name":"KÜRÜZ MAH.","zip":"55810"},{"name":"LİMAN MAH.","zip":"55810"},{"name":"MERKEZ MAH.","zip":"55810"},{"name":"MUTAFLI MAH.","zip":"55810"},{"name":"SARIGÖL MAH.","zip":"55810"},{"name":"YASSIDAĞ MAH.","zip":"55810"},{"name":"YEŞİLKÖY MAH.","zip":"55810"}]}]}]}