{"id":56,"name":"SİİRT","cities":[{"name":"city","districts":[{"name":"BAYKAN","cityName":null,"quarters":[{"name":"KARŞIYAKA MAH.","zip":"56460"},{"name":"YENİDOĞAN MAH.","zip":"56460"}]},{"name":"DİLEKTEPE(ZİYARET)","cityName":null,"quarters":[{"name":"AYRANLI MAH.","zip":"56470"},{"name":"ÇEVRİMTEPE KÖYÜ","zip":"56470"},{"name":"DİLEKTEPE KÖYÜ","zip":"56470"},{"name":"DOKUZÇAVUŞ KÖYÜ","zip":"56470"},{"name":"ENGİN KÖYÜ","zip":"56470"},{"name":"GÜNDOĞDU KÖYÜ","zip":"56470"},{"name":"İKİZLER KÖYÜ","zip":"56470"},{"name":"KASIMLI KÖYÜ","zip":"56470"},{"name":"KUMLUCA MAH.","zip":"56470"},{"name":"NARLIYURT KÖYÜ","zip":"56470"},{"name":"OYMAKLI MAH.","zip":"56470"},{"name":"SARIDANA KÖYÜ","zip":"56470"},{"name":"SIRALI MAH.","zip":"56470"},{"name":"TOPRAKLI MAH.","zip":"56470"},{"name":"TOPTEPE MAH.","zip":"56470"},{"name":"UĞURLU MAH.","zip":"56470"},{"name":"ULAŞTI KÖYÜ","zip":"56470"},{"name":"ULUKAPI MAH.","zip":"56470"},{"name":"UZUNKAVAK MAH.","zip":"56470"}]},{"name":"MERKEZKÖYLER","cityName":null,"quarters":[{"name":"AKDİKEN MAH.","zip":"56462"},{"name":"ARDIÇDALI KÖYÜ","zip":"56462"},{"name":"AŞAĞI TÜTENOCAK MAH.","zip":"56462"},{"name":"ATABAĞI KÖYÜ","zip":"56462"},{"name":"ATABAĞI MAH.","zip":"56462"},{"name":"ATATÜRK MAH.","zip":"56462"},{"name":"BARDAKLI MAH.","zip":"56462"},{"name":"BİNEGÖL MAH.","zip":"56462"},{"name":"ÇAMTAŞI KÖYÜ","zip":"56462"},{"name":"ÇAY MAH.","zip":"56462"},{"name":"ÇAYKAYA KÖYÜ","zip":"56462"},{"name":"ÇELİKLİ KÖYÜ","zip":"56462"},{"name":"ÇUKURCA KÖYÜ","zip":"56462"},{"name":"ÇUKURTAŞ MAH.","zip":"56462"},{"name":"DEDEBAKIRI KÖYÜ","zip":"56462"},{"name":"DEMİRIŞIK KÖYÜ","zip":"56462"},{"name":"DERİNCE KÖYÜ","zip":"56462"},{"name":"DERİNCE MAH.","zip":"56462"},{"name":"DUMANLI MAH.","zip":"56462"},{"name":"EĞRİ MAH.","zip":"56462"},{"name":"EĞRİDERE MAH.","zip":"56462"},{"name":"GEÇİT MAH.","zip":"56462"},{"name":"GORAŞA MAH.","zip":"56462"},{"name":"GÜMÜŞKAŞ KÖYÜ","zip":"56462"},{"name":"GÜNBULDU KÖYÜ","zip":"56462"},{"name":"KARAKAYA KÖYÜ","zip":"56462"},{"name":"KARATAŞ MAH.","zip":"56462"},{"name":"KILIÇLI MAH.","zip":"56462"},{"name":"KÖKLÜ MAH.","zip":"56462"},{"name":"MEŞELİK KÖYÜ","zip":"56462"},{"name":"OBALI KÖYÜ","zip":"56462"},{"name":"OCAKLI MAH.","zip":"56462"},{"name":"ORMANPINAR KÖYÜ","zip":"56462"},{"name":"SARISALKIM KÖYÜ","zip":"56462"},{"name":"SARIYURT MAH.","zip":"56462"},{"name":"ŞEYHOSMAN MAH.","zip":"56462"},{"name":"TÜTENOCAK KÖYÜ","zip":"56462"},{"name":"ÜNLÜCE KÖYÜ","zip":"56462"},{"name":"VEYSELKARANİ KÖYÜ","zip":"56462"},{"name":"YARIMCA KÖYÜ","zip":"56462"},{"name":"YEŞİL MAH.","zip":"56462"},{"name":"YEŞİLÇEVRE KÖYÜ","zip":"56462"}]},{"name":"BAĞGÖZE","cityName":null,"quarters":[{"name":"BAĞGÖZE KÖYÜ","zip":"56540"},{"name":"BALLIKAVAK KÖYÜ","zip":"56540"},{"name":"BİNGÖL KÖYÜ","zip":"56540"},{"name":"BOZATLI KÖYÜ","zip":"56540"},{"name":"BOZKUŞ KÖYÜ","zip":"56540"},{"name":"ÇELTİKSUYU KÖYÜ","zip":"56540"},{"name":"ÇİMENCİK KÖYÜ","zip":"56540"},{"name":"DAĞDÖŞÜ KÖYÜ","zip":"56540"},{"name":"DİKBOĞAZ KÖYÜ","zip":"56540"},{"name":"DİREKLİ MAH.","zip":"56540"},{"name":"DÖNERDÖVER KÖYÜ","zip":"56540"},{"name":"DUAF MAH.","zip":"56540"},{"name":"DUYGULU MAH.","zip":"56540"},{"name":"EKİNYOLU KÖYÜ","zip":"56540"},{"name":"ERENKAYA KÖYÜ","zip":"56540"},{"name":"GÖNÜLALDI KÖYÜ","zip":"56540"},{"name":"GÜLBURNU KÖYÜ","zip":"56540"},{"name":"ILICA MAH.","zip":"56540"},{"name":"KARABIYIK MAH.","zip":"56540"},{"name":"KARADAYILAR KÖYÜ","zip":"56540"},{"name":"KAŞIKYAYLA KÖYÜ","zip":"56540"},{"name":"KEKLİKTEPE KÖYÜ","zip":"56540"},{"name":"KILIÇKAYA KÖYÜ","zip":"56540"},{"name":"KÖRÜKLÜKAYA KÖYÜ","zip":"56540"},{"name":"MİLAN MAH.","zip":"56540"},{"name":"ÖZLÜPELİT KÖYÜ","zip":"56540"},{"name":"SALKIMBAĞLAR KÖYÜ","zip":"56540"},{"name":"SAVAŞ KÖYÜ","zip":"56540"},{"name":"SEVİNDİK MAH.","zip":"56540"},{"name":"TÜNEKPINAR KÖYÜ","zip":"56540"},{"name":"YELKESEN KÖYÜ","zip":"56540"},{"name":"YERLİÇOBAN KÖYÜ","zip":"56540"},{"name":"YOKUŞLU KÖYÜ","zip":"56540"}]},{"name":"ERUH","cityName":null,"quarters":[{"name":"FATİH MAH.","zip":"56800"},{"name":"SARIGÜL MAH.","zip":"56800"}]},{"name":"MERKEZKÖYLER","cityName":null,"quarters":[{"name":"AKMEŞE KÖYÜ","zip":"56802"},{"name":"BAYIRYÜZÜ KÖYÜ","zip":"56802"},{"name":"BAYRAMLI KÖYÜ","zip":"56802"},{"name":"BİLGİLİ KÖYÜ","zip":"56802"},{"name":"BÖLÜKLÜ KÖYÜ","zip":"56802"},{"name":"BUDAMIŞ KÖYÜ","zip":"56802"},{"name":"CİNTEPE KÖYÜ","zip":"56802"},{"name":"ÇAYIRLI MAH.","zip":"56802"},{"name":"ÇETİNKOL KÖYÜ","zip":"56802"},{"name":"ÇIRPILI KÖYÜ","zip":"56802"},{"name":"ÇİZMELİ KÖYÜ","zip":"56802"},{"name":"DADAKLI KÖYÜ","zip":"56802"},{"name":"DALKORUR KÖYÜ","zip":"56802"},{"name":"DEMİRCİLER MAH.","zip":"56802"},{"name":"DEMİREMEK KÖYÜ","zip":"56802"},{"name":"GEDİKAŞAR KÖYÜ","zip":"56802"},{"name":"GELENKARDEŞ KÖYÜ","zip":"56802"},{"name":"GÖLGELİKONAK KÖYÜ","zip":"56802"},{"name":"GÖRENDORUK KÖYÜ","zip":"56802"},{"name":"KAVAKGÖLÜ KÖYÜ","zip":"56802"},{"name":"KOHAN MAH.","zip":"56802"},{"name":"KUŞDALI KÖYÜ","zip":"56802"},{"name":"OKÇULAR KÖYÜ","zip":"56802"},{"name":"ORTAKLI KÖYÜ","zip":"56802"},{"name":"OYMAKILIÇ KÖYÜ","zip":"56802"},{"name":"PAYAMLI KÖYÜ","zip":"56802"},{"name":"ŞETRÜK MAH.","zip":"56802"},{"name":"TATLIPINAR MAH.","zip":"56802"},{"name":"UFACA KÖYÜ","zip":"56802"},{"name":"ULAŞLAR MAH.","zip":"56802"},{"name":"ÜZÜMLÜK KÖYÜ","zip":"56802"},{"name":"YANIKSES KÖYÜ","zip":"56802"},{"name":"YANILMAZ KÖYÜ","zip":"56802"},{"name":"YEDİYAPRAK KÖYÜ","zip":"56802"},{"name":"YEŞİLÖREN KÖYÜ","zip":"56802"}]},{"name":"KURTALAN","cityName":null,"quarters":[{"name":"CUMHURİYET MAH.","zip":"56500"},{"name":"DİCLE MAH.","zip":"56500"},{"name":"FIRAT MAH.","zip":"56500"},{"name":"GARZAN MAH.","zip":"56500"},{"name":"GÜNEY MAH.","zip":"56500"},{"name":"KÜLTÜR MAH.","zip":"56500"},{"name":"SEYRANTEPE MAH.","zip":"56500"},{"name":"SÜMER MAH.","zip":"56500"},{"name":"TEKEL MAH.","zip":"56500"},{"name":"YAYIKDERE MAH.","zip":"56500"},{"name":"YENİ MAH.","zip":"56500"},{"name":"YENİDOĞAN MAH.","zip":"56500"}]},{"name":"MERKEZKÖYLER","cityName":null,"quarters":[{"name":"AKBULUT MAH.","zip":"56502"},{"name":"AKÇAGEDİK KÖYÜ","zip":"56502"},{"name":"AKÇALI KÖYÜ","zip":"56502"},{"name":"AKDEM KÖYÜ","zip":"56502"},{"name":"AKDOĞAN MAH.","zip":"56502"},{"name":"AKSÖĞÜT KÖYÜ","zip":"56502"},{"name":"AKTEPE MAH.","zip":"56502"},{"name":"AŞAĞI BİŞER MAH.","zip":"56502"},{"name":"AŞAĞI DİBEKLİ MAH.","zip":"56502"},{"name":"ATALAY KÖYÜ","zip":"56502"},{"name":"AVCILAR KÖYÜ","zip":"56502"},{"name":"AYDEMİR KÖYÜ","zip":"56502"},{"name":"AYDINCIK MAH.","zip":"56502"},{"name":"AZIKLI KÖYÜ","zip":"56502"},{"name":"BAĞLAR MAH.","zip":"56502"},{"name":"BAĞLICA KÖYÜ","zip":"56502"},{"name":"BAHÇELİ MAH.","zip":"56502"},{"name":"BALIKLI MAH.","zip":"56502"},{"name":"BALLIKAYA KÖYÜ","zip":"56502"},{"name":"BEŞLER KÖYÜ","zip":"56502"},{"name":"BEYKENT KÖYÜ","zip":"56502"},{"name":"BİRKE MAH.","zip":"56502"},{"name":"BOZDOĞAN MAH.","zip":"56502"},{"name":"BOZHÜYÜK KÖYÜ","zip":"56502"},{"name":"BÖLÜKTEPE KÖYÜ","zip":"56502"},{"name":"ÇAKILLI KÖYÜ","zip":"56502"},{"name":"ÇALIDÜZÜ KÖYÜ","zip":"56502"},{"name":"ÇATTEPE KÖYÜ","zip":"56502"},{"name":"ÇAY MAH.","zip":"56502"},{"name":"ÇAYIRLI KÖYÜ","zip":"56502"},{"name":"ÇELTİKBAŞI KÖYÜ","zip":"56502"},{"name":"ÇEŞME MAH.","zip":"56502"},{"name":"ÇEŞMELİ MAH.","zip":"56502"},{"name":"ÇUKURLU MAH.","zip":"56502"},{"name":"DEMİRBAŞI MAH.","zip":"56502"},{"name":"DEMİRKUYU KÖYÜ","zip":"56502"},{"name":"DERİNCE KÖYÜ","zip":"56502"},{"name":"DOĞANLI MAH.","zip":"56502"},{"name":"EKİNLİ KÖYÜ","zip":"56502"},{"name":"ERDURAĞI KÖYÜ","zip":"56502"},{"name":"ERGÜVEN MAH.","zip":"56502"},{"name":"EVCİLER MAH.","zip":"56502"},{"name":"GEDİKBAŞI MAH.","zip":"56502"},{"name":"GÖKDOĞAN KÖYÜ","zip":"56502"},{"name":"GÖZPINAR KÖYÜ","zip":"56502"},{"name":"GÖZTEPE MAH.","zip":"56502"},{"name":"GÜLTEPE MAH.","zip":"56502"},{"name":"GÜMÜŞSUYU MAH.","zip":"56502"},{"name":"GÜRGÖZE KÖYÜ","zip":"56502"},{"name":"GÜZELDERE KÖYÜ","zip":"56502"},{"name":"HUZUR MAH.","zip":"56502"},{"name":"IŞIKLI MAH.","zip":"56502"},{"name":"İĞDELİ KÖYÜ","zip":"56502"},{"name":"İNCİRLİK KÖYÜ","zip":"56502"},{"name":"KANİKARVANA MAH.","zip":"56502"},{"name":"KAPIKAYA KÖYÜ","zip":"56502"},{"name":"KARABAĞ KÖYÜ","zip":"56502"},{"name":"KARAMANLI MAH.","zip":"56502"},{"name":"KARGILI MAH.","zip":"56502"},{"name":"KAYABAĞLAR KÖYÜ","zip":"56502"},{"name":"KAYALI MAH.","zip":"56502"},{"name":"KAYALISU KÖYÜ","zip":"56502"},{"name":"KAYNAKLI MAH.","zip":"56502"},{"name":"KILIÇLI KÖYÜ","zip":"56502"},{"name":"KISMET MAH.","zip":"56502"},{"name":"KONAKPINAR KÖYÜ","zip":"56502"},{"name":"KUYUCUK MAH.","zip":"56502"},{"name":"KUYULU MAH.","zip":"56502"},{"name":"MAĞARALI MAH.","zip":"56502"},{"name":"PINARLI MAH.","zip":"56502"},{"name":"SAİPBEYLİ KÖYÜ","zip":"56502"},{"name":"SEYRANTEPE MAH.","zip":"56502"},{"name":"SICAKSU MAH.","zip":"56502"},{"name":"SOĞUKSU MAH.","zip":"56502"},{"name":"ŞENKÖY KÖYÜ","zip":"56502"},{"name":"TAŞOLUK KÖYÜ","zip":"56502"},{"name":"TATLI KÖYÜ","zip":"56502"},{"name":"TEPECİK MAH.","zip":"56502"},{"name":"TEYLAN KÖYÜ","zip":"56502"},{"name":"TOSUNBAĞI KÖYÜ","zip":"56502"},{"name":"TOYTEPE KÖYÜ","zip":"56502"},{"name":"TULUMTAŞ KÖYÜ","zip":"56502"},{"name":"TUZLA MAH.","zip":"56502"},{"name":"TÜTÜN KÖYÜ","zip":"56502"},{"name":"ULUAĞAÇ MAH.","zip":"56502"},{"name":"ULUKÖY KÖYÜ","zip":"56502"},{"name":"ÜÇPINAR KÖYÜ","zip":"56502"},{"name":"Y.DİBEKLİ MAH.","zip":"56502"},{"name":"YAKITTEPE KÖYÜ","zip":"56502"},{"name":"YANARSU KÖYÜ","zip":"56502"},{"name":"YAPILAR MAH.","zip":"56502"},{"name":"YAYIKLI KÖYÜ","zip":"56502"},{"name":"YAZILI MAH.","zip":"56502"},{"name":"YELLİCE KÖYÜ","zip":"56502"},{"name":"YENİKÖPRÜ KÖYÜ","zip":"56502"},{"name":"YENİKÖY MAH.","zip":"56502"},{"name":"YEŞİLKONAK KÖYÜ","zip":"56502"},{"name":"YOLBOYU MAH.","zip":"56502"},{"name":"YOLDURAĞI KÖYÜ","zip":"56502"},{"name":"YUNUSLAR MAH.","zip":"56502"},{"name":"YUVALI KÖYÜ","zip":"56502"},{"name":"YUVALI MAH.","zip":"56502"},{"name":"YUVALIK MAH.","zip":"56502"},{"name":"YÜREKVEREN KÖYÜ","zip":"56502"},{"name":"AKARSU MAH.","zip":"56220"},{"name":"AKDOĞMUŞ KÖYÜ","zip":"56220"},{"name":"AKINCILAR MAH.","zip":"56220"},{"name":"AKTAŞ KÖYÜ","zip":"56220"},{"name":"AKYAMAÇ KÖYÜ","zip":"56220"},{"name":"AYDOĞAN MAH.","zip":"56220"},{"name":"BAĞLAR MAH.","zip":"56220"},{"name":"BAĞLICA KÖYÜ","zip":"56220"},{"name":"BAKIRT MAH.","zip":"56220"},{"name":"BAYRAKTEPE KÖYÜ","zip":"56220"},{"name":"BEŞYOL KÖYÜ","zip":"56220"},{"name":"BOSTANCIK KÖYÜ","zip":"56220"},{"name":"ÇAĞBAŞI KÖYÜ","zip":"56220"},{"name":"ÇEVRE MAH.","zip":"56220"},{"name":"ÇİÇEKLİ MAH.","zip":"56220"},{"name":"DEMİRKAPI MAH.","zip":"56220"},{"name":"DEMİRKAYA KÖYÜ","zip":"56220"},{"name":"DOLUHARMAN KÖYÜ","zip":"56220"},{"name":"DÜZLÜCE MAH.","zip":"56220"},{"name":"EĞLENCE KÖYÜ","zip":"56220"},{"name":"EKİNLİ MAH.","zip":"56220"},{"name":"EKMEKÇİLER KÖYÜ","zip":"56220"},{"name":"ERDOĞDU MAH.","zip":"56220"},{"name":"GÖKÇEBAĞ KÖYÜ","zip":"56220"},{"name":"GÜNEŞLİ KÖYÜ","zip":"56220"},{"name":"İNKAPI KÖYÜ","zip":"56220"},{"name":"KALENDER KÖYÜ","zip":"56220"},{"name":"KARAKUYU MAH.","zip":"56220"},{"name":"KAVAKÖZÜ KÖYÜ","zip":"56220"},{"name":"KAYABOĞAZ KÖYÜ","zip":"56220"},{"name":"KAYACIK MAH.","zip":"56220"},{"name":"KAYIKLI KÖYÜ","zip":"56220"},{"name":"KELEKÇİ KÖYÜ","zip":"56220"},{"name":"KEMERLİ KÖYÜ","zip":"56220"},{"name":"KIŞLACIK KÖYÜ","zip":"56220"},{"name":"KOÇLU KÖYÜ","zip":"56220"},{"name":"KOÇPINAR MAH.","zip":"56220"},{"name":"KONACIK KÖYÜ","zip":"56220"},{"name":"KONAKLI MAH.","zip":"56220"},{"name":"KÖPRÜBAŞI KÖYÜ","zip":"56220"},{"name":"KUTLUCA MAH.","zip":"56220"},{"name":"MEŞELİDERE KÖYÜ","zip":"56220"},{"name":"MEYDANDERE KÖYÜ","zip":"56220"},{"name":"OĞULCAK MAH.","zip":"56220"},{"name":"ORGANİZE SANAYİ BÖLGESİ MAH.","zip":"56220"},{"name":"ORMANARDI KÖYÜ","zip":"56220"},{"name":"PINARCA KÖYÜ","zip":"56220"},{"name":"PINAROVA KÖYÜ","zip":"56220"},{"name":"SAĞIRSU KÖYÜ","zip":"56220"},{"name":"SAĞLARCA KÖYÜ","zip":"56220"},{"name":"SARITEPE KÖYÜ","zip":"56220"},{"name":"SÖĞÜT MAH.","zip":"56220"},{"name":"SÜTLÜCE MAH.","zip":"56220"},{"name":"TARAKLI MAH.","zip":"56220"},{"name":"TEPE MAH.","zip":"56220"},{"name":"TUZKUYUSU KÖYÜ","zip":"56220"},{"name":"YAĞMURTEPE KÖYÜ","zip":"56220"},{"name":"YAZLICA KÖYÜ","zip":"56220"},{"name":"YENİ MAH.","zip":"56220"},{"name":"YERLİBAHÇE KÖYÜ","zip":"56220"},{"name":"YIĞINLI MAH.","zip":"56220"},{"name":"YOKUŞBAĞLARI KÖYÜ","zip":"56220"},{"name":"YOLBULDU MAH.","zip":"56220"},{"name":"YURT MAH.","zip":"56220"},{"name":"YÜKLÜCE MAH.","zip":"56220"}]},{"name":"SİİRT","cityName":null,"quarters":[{"name":"ALAN MAH.","zip":"56100"},{"name":"ALGÜL MAH.","zip":"56100"},{"name":"BAHÇELİEVLER MAH.","zip":"56100"},{"name":"BARIŞ MAH.","zip":"56100"},{"name":"BATI MAH.","zip":"56100"},{"name":"CONKBAYIR MAH.","zip":"56100"},{"name":"ÇAL MAH.","zip":"56100"},{"name":"DOĞAN MAH.","zip":"56100"},{"name":"DUMLUPINAR MAH.","zip":"56100"},{"name":"HALENZE MAH.","zip":"56100"},{"name":"İNÖNÜ MAH.","zip":"56100"},{"name":"KARAKOL MAH.","zip":"56100"},{"name":"KOOPERATİF MAH.","zip":"56100"},{"name":"SAKARYA MAH.","zip":"56100"},{"name":"TINAZTEPE MAH.","zip":"56100"},{"name":"ULUS MAH.","zip":"56100"},{"name":"ÜLKÜ MAH.","zip":"56100"},{"name":"VEYSEL KARANİ MAH.","zip":"56100"},{"name":"YENİ MAH.","zip":"56100"}]},{"name":"MERKEZKÖYLER","cityName":null,"quarters":[{"name":"AŞAĞIBALCILAR KÖYÜ","zip":"56702"},{"name":"AYVALIBAĞ KÖYÜ","zip":"56702"},{"name":"BEĞENDİK KÖYÜ","zip":"56702"},{"name":"BELENOLUK KÖYÜ","zip":"56702"},{"name":"BENTKÖY KÖYÜ","zip":"56702"},{"name":"BERKEVİR MAH.","zip":"56702"},{"name":"BEŞAN MAH.","zip":"56702"},{"name":"ÇATKÖY KÖYÜ","zip":"56702"},{"name":"ÇAVUŞLU KÖYÜ","zip":"56702"},{"name":"ÇOBANÖREN KÖYÜ","zip":"56702"},{"name":"ÇUKURKÖY KÖYÜ","zip":"56702"},{"name":"DOĞANCA KÖYÜ","zip":"56702"},{"name":"DOĞANKÖY KÖYÜ","zip":"56702"},{"name":"DOLUSALKIM KÖYÜ","zip":"56702"},{"name":"DÜĞÜNCÜLER KÖYÜ","zip":"56702"},{"name":"EKİNDÜZÜ KÖYÜ","zip":"56702"},{"name":"ERKENT KÖYÜ","zip":"56702"},{"name":"GAZİ MAH.","zip":"56702"},{"name":"GÖKBEL MAH.","zip":"56702"},{"name":"GÖKBUDAK KÖYÜ","zip":"56702"},{"name":"GÖKÇEKORU KÖYÜ","zip":"56702"},{"name":"GÖLGELİ KÖYÜ","zip":"56702"},{"name":"GÖLKÖY MAH.","zip":"56702"},{"name":"GÖZLÜKUYU MAH.","zip":"56702"},{"name":"GÜLEÇLER KÖYÜ","zip":"56702"},{"name":"GÜMÜŞÖREN KÖYÜ","zip":"56702"},{"name":"GÜZELBAĞ MAH.","zip":"56702"},{"name":"KALE MAH.","zip":"56702"},{"name":"KARADAYI MAH.","zip":"56702"},{"name":"KARAMİK MAH.","zip":"56702"},{"name":"KARASUNGUR KÖYÜ","zip":"56702"},{"name":"KARŞIKAYA (KÖY MERKEZİ) MAH.","zip":"56702"},{"name":"KARŞIKAYA KÖYÜ","zip":"56702"},{"name":"KESKİN KÖYÜ","zip":"56702"},{"name":"KIŞLACIK KÖYÜ","zip":"56702"},{"name":"KİVERİK MAH.","zip":"56702"},{"name":"KOCAÇAVUŞ KÖYÜ","zip":"56702"},{"name":"KÖPRÜÇAY KÖYÜ","zip":"56702"},{"name":"KUBİK MAH.","zip":"56702"},{"name":"NARSUYU KÖYÜ","zip":"56702"},{"name":"NURS MAH.","zip":"56702"},{"name":"ORMANCIK MAH.","zip":"56702"},{"name":"ORMANDALI KÖYÜ","zip":"56702"},{"name":"PALAMUTLU KÖYÜ","zip":"56702"},{"name":"PINARBAŞI MAH.","zip":"56702"},{"name":"SARI ÇIÇEK MAH.","zip":"56702"},{"name":"SARIDAM KÖYÜ","zip":"56702"},{"name":"SARIYAPRAK KÖYÜ","zip":"56702"},{"name":"SIĞIRLI MAH.","zip":"56702"},{"name":"SÖĞÜTÖNÜ KÖYÜ","zip":"56702"},{"name":"SÖKMEN MAH.","zip":"56702"},{"name":"TAŞDİBEK KÖYÜ","zip":"56702"},{"name":"TOSUNTARLA KÖYÜ","zip":"56702"},{"name":"TUZCULAR KÖYÜ","zip":"56702"},{"name":"ULUPINAR MAH.","zip":"56702"},{"name":"UMURLU MAH.","zip":"56702"},{"name":"ÜÇOYUK KÖYÜ","zip":"56702"},{"name":"YAPRAKTEPE KÖYÜ","zip":"56702"},{"name":"YAZICIK MAH.","zip":"56702"},{"name":"YENİAYDIN KÖYÜ","zip":"56702"},{"name":"YUKARIAYVALIBAĞ MAH.","zip":"56702"},{"name":"YUKARIBALCILAR KÖYÜ","zip":"56702"},{"name":"YUKARIEKİNDÜZÜ MAH.","zip":"56702"}]},{"name":"PERVARİ","cityName":null,"quarters":[{"name":"ŞAKİRAN MAH.","zip":"56700"}]},{"name":"CEVİZLİK","cityName":null,"quarters":[{"name":"AYN KEBİR MAH.","zip":"56873"},{"name":"BİNDAL MAH.","zip":"56873"},{"name":"BİSTAN MAH.","zip":"56873"},{"name":"BOMBAT MAH.","zip":"56873"},{"name":"CEVİZLİK KÖYÜ","zip":"56873"},{"name":"CEVİZLİK MAH.","zip":"56873"},{"name":"ELMADALI KÖYÜ","zip":"56873"},{"name":"EVSEL MAH.","zip":"56873"},{"name":"HALENZE MAH.","zip":"56873"},{"name":"HATTİ MAH.","zip":"56873"},{"name":"HIDRAN MAH.","zip":"56873"},{"name":"KALE MAH.","zip":"56873"},{"name":"KAYAHİSAR KÖYÜ","zip":"56873"},{"name":"KAYALI MAH.","zip":"56873"},{"name":"KESMETAŞ KÖYÜ","zip":"56873"},{"name":"MERKEZ MAH.","zip":"56873"},{"name":"OYA KÖYÜ","zip":"56873"},{"name":"YAMAÇLI KÖYÜ","zip":"56873"}]},{"name":"MERKEZKÖYLER","cityName":null,"quarters":[{"name":"AKGEÇİT KÖYÜ","zip":"56762"},{"name":"AKYOKUŞ KÖYÜ","zip":"56762"},{"name":"ATMACA MAH.","zip":"56762"},{"name":"AYRANLI MAH.","zip":"56762"},{"name":"BAYINDIR KÖYÜ","zip":"56762"},{"name":"BOYLU KÖYÜ","zip":"56762"},{"name":"CÜM MAH.","zip":"56762"},{"name":"ÇAYAĞZI MAH.","zip":"56762"},{"name":"ÇELTİKYOLU KÖYÜ","zip":"56762"},{"name":"ÇÖĞÜRLÜ MAH.","zip":"56762"},{"name":"DAMLI KÖYÜ","zip":"56762"},{"name":"DAMLI MAH.","zip":"56762"},{"name":"DEMİRKAPI KÖYÜ","zip":"56762"},{"name":"DERİNÇAY KÖYÜ","zip":"56762"},{"name":"DİLECİK MAH.","zip":"56762"},{"name":"GÖZLÜCE KÖYÜ","zip":"56762"},{"name":"HÖRGÜÇ MAH.","zip":"56762"},{"name":"HÜRMÜZ KÖYÜ","zip":"56762"},{"name":"İKİZLER KÖYÜ","zip":"56762"},{"name":"İNCEKAYA KÖYÜ","zip":"56762"},{"name":"KARACA KÖYÜ","zip":"56762"},{"name":"KARAYEL MAH.","zip":"56762"},{"name":"KASIMLI KÖYÜ","zip":"56762"},{"name":"KİRAZLI KÖYÜ","zip":"56762"},{"name":"KÖMÜRLÜ KÖYÜ","zip":"56762"},{"name":"KUMLU MAH.","zip":"56762"},{"name":"MADENKÖY KÖYÜ","zip":"56762"},{"name":"MERKEZ MAH.","zip":"56762"},{"name":"MEŞECİK KÖYÜ","zip":"56762"},{"name":"NALLIKAYA KÖYÜ","zip":"56762"},{"name":"NERGİZLİ MAH.","zip":"56762"},{"name":"ORMANBAĞI KÖYÜ","zip":"56762"},{"name":"ORMANLI KÖYÜ","zip":"56762"},{"name":"OTLUK KÖYÜ","zip":"56762"},{"name":"ÖRDEKLİ MAH.","zip":"56762"},{"name":"SİVRİKAVAK MAH.","zip":"56762"},{"name":"SOĞANLI KÖYÜ","zip":"56762"},{"name":"SÖBETAŞ MAH.","zip":"56762"},{"name":"SULUDERE KÖYÜ","zip":"56762"},{"name":"SULUYAZI KÖYÜ","zip":"56762"},{"name":"TAŞLI KÖYÜ","zip":"56762"},{"name":"TAŞYAKA KÖYÜ","zip":"56762"},{"name":"TATLIPAYAM KÖYÜ","zip":"56762"},{"name":"TURGUTLU MAH.","zip":"56762"},{"name":"TÜYLÜCE MAH.","zip":"56762"},{"name":"YARIMTEPE KÖYÜ","zip":"56762"},{"name":"YATAĞAN MAH.","zip":"56762"},{"name":"YELKEN MAH.","zip":"56762"},{"name":"YOK (KALE) MAH.","zip":"56762"},{"name":"YOK(KÖŞK) MAH.","zip":"56762"},{"name":"YOK(ORTA) MAH.","zip":"56762"},{"name":"ZİNİHARİ MAH.","zip":"56762"}]},{"name":"ÖZPINAR","cityName":null,"quarters":[{"name":"ASMALIDERE MAH.","zip":"56763"},{"name":"BAŞÇAVUŞ MAH.","zip":"56763"},{"name":"BELENÇAY KÖYÜ","zip":"56763"},{"name":"ÇINARLI KÖYÜ","zip":"56763"},{"name":"DALTEPE KÖYÜ","zip":"56763"},{"name":"DERECİK MAH.","zip":"56763"},{"name":"DİŞLİNAR KÖYÜ","zip":"56763"},{"name":"DOĞRUCA KÖYÜ","zip":"56763"},{"name":"DURANKAYA KÖYÜ","zip":"56763"},{"name":"GÜMÜŞ KÖYÜ","zip":"56763"},{"name":"HİLKİ MAH.","zip":"56763"},{"name":"İNECİK MAH.","zip":"56763"},{"name":"KALKANCIK KÖYÜ","zip":"56763"},{"name":"KAPILI KÖYÜ","zip":"56763"},{"name":"KAPILI MAH.","zip":"56763"},{"name":"KISRAKLI MAH.","zip":"56763"},{"name":"MERKEZ MAH.","zip":"56763"},{"name":"MÜLKİ MAH.","zip":"56763"},{"name":"ÖZPINAR KÖYÜ","zip":"56763"},{"name":"PİRİNÇLİ KÖYÜ","zip":"56763"},{"name":"SARIDANA KÖYÜ","zip":"56763"},{"name":"SERİNPINAR MAH.","zip":"56763"},{"name":"SEVİNCİK MAH.","zip":"56763"},{"name":"SEVİNDİK MAH.","zip":"56763"},{"name":"SIRÇALI KÖYÜ","zip":"56763"},{"name":"SOĞUKSU KÖYÜ","zip":"56763"},{"name":"ÜMRANLI MAH.","zip":"56763"},{"name":"YAĞCILAR KÖYÜ","zip":"56763"},{"name":"YALKAYA KÖYÜ","zip":"56763"},{"name":"YAYLACI KÖYÜ","zip":"56763"},{"name":"YAYLADAĞ KÖYÜ","zip":"56763"},{"name":"YEDİKAPI KÖYÜ","zip":"56763"},{"name":"YOK(MERKEZ) MAH.","zip":"56763"},{"name":"YOK(SEVİNCİK MEZRASI) MAH.","zip":"56763"},{"name":"YOK(SEVİNDİK) MAH.","zip":"56763"},{"name":"YOLBAŞI KÖYÜ","zip":"56763"}]},{"name":"ŞİRVAN","cityName":null,"quarters":[{"name":"FATİH MAH.","zip":"56760"},{"name":"KIRTEPE MAH.","zip":"56760"},{"name":"KÜFRE MAH.","zip":"56760"},{"name":"SİT MAH.","zip":"56760"}]},{"name":"AYDINLAR","cityName":null,"quarters":[{"name":"MÜCAHİT MAH.","zip":"56870"},{"name":"SAYDANLAR MAH.","zip":"56870"}]},{"name":"MERKEZKÖYLER","cityName":null,"quarters":[{"name":"AYNSUÇ MAH.","zip":"56872"},{"name":"ERENLER MAH.","zip":"56872"},{"name":"FERSAF KÖYÜ","zip":"56872"},{"name":"HATRANT KÖYÜ","zip":"56872"},{"name":"İKİZBAĞLAR KÖYÜ","zip":"56872"},{"name":"KARGACIK MAH.","zip":"56872"},{"name":"KURŞUN MAH.","zip":"56872"},{"name":"SİNEP KÖYÜ","zip":"56872"},{"name":"TAŞBALTA KÖYÜ","zip":"56872"}]}]}]}