{"id":57,"name":"SİNOP","cities":[{"name":"city","districts":[{"name":"AYANCIK","cityName":null,"quarters":[{"name":"DENİZCİLER MAH.","zip":"57400"},{"name":"YALI MAH.","zip":"57400"}]},{"name":"MERKEZKÖYLER","cityName":null,"quarters":[{"name":"ABDULLAHOĞLU MAH.","zip":"57402"},{"name":"ABDÜLKADİRKÖY KÖYÜ","zip":"57402"},{"name":"AĞAÇLI KÖYÜ","zip":"57402"},{"name":"AKBIYIK MAH.","zip":"57402"},{"name":"AKÇAKESE KÖYÜ","zip":"57402"},{"name":"AKÖREN KÖYÜ","zip":"57402"},{"name":"AKPINAR MAH.","zip":"57402"},{"name":"AKSU MAH.","zip":"57402"},{"name":"AKTAŞ MAH.","zip":"57402"},{"name":"ALAYÜREK MAH.","zip":"57402"},{"name":"ALİ GEYŞİ MAH.","zip":"57402"},{"name":"ALİDEĞİRMEN MAH.","zip":"57402"},{"name":"ALİKÖY KÖYÜ","zip":"57402"},{"name":"ARMUTÇA MAH.","zip":"57402"},{"name":"ARMUTLUYAZI KÖYÜ","zip":"57402"},{"name":"AŞAĞI IŞIĞAN MAH.","zip":"57402"},{"name":"AŞAĞI MAH.","zip":"57402"},{"name":"AŞAĞIKÖY KÖYÜ","zip":"57402"},{"name":"AŞAĞIKÖY MAH.","zip":"57402"},{"name":"AŞAĞIKÖY MÜCAVİR MAH.","zip":"57402"},{"name":"AŞAĞITARAKÇI MAH.","zip":"57402"},{"name":"ATBAŞI MAH.","zip":"57402"},{"name":"AVDIÇLI MAH.","zip":"57402"},{"name":"AVDULLU KÖYÜ","zip":"57402"},{"name":"AYGÖRDÜ KÖYÜ","zip":"57402"},{"name":"AYIP MAH.","zip":"57402"},{"name":"BABAÇAY KÖYÜ","zip":"57402"},{"name":"BABAKÖY KÖYÜ","zip":"57402"},{"name":"BAĞMA MAH.","zip":"57402"},{"name":"BAHÇELİ KÖYÜ","zip":"57402"},{"name":"BAKIRLI KÖYÜ","zip":"57402"},{"name":"BAKIRLIZAVİYE KÖYÜ","zip":"57402"},{"name":"BAKLA MAH.","zip":"57402"},{"name":"BALCA MAH.","zip":"57402"},{"name":"BALÇUKURU MAH.","zip":"57402"},{"name":"BALOĞLU MAH.","zip":"57402"},{"name":"BAŞGELİK MAH.","zip":"57402"},{"name":"BEKİROĞLU MAH.","zip":"57402"},{"name":"BELPINAR KÖYÜ","zip":"57402"},{"name":"BERİGÜNEY MAH.","zip":"57402"},{"name":"BESTİLE MAH.","zip":"57402"},{"name":"BEŞPINAR MAH.","zip":"57402"},{"name":"BIÇAKÇI MAH.","zip":"57402"},{"name":"BIDAKLAR MAH.","zip":"57402"},{"name":"BOZAT MAH.","zip":"57402"},{"name":"BÖRKÜCEK MAH.","zip":"57402"},{"name":"BÜYÜK ÇUKİR MAH.","zip":"57402"},{"name":"BÜYÜKDÜZ KÖYÜ","zip":"57402"},{"name":"BÜYÜKDÜZ MAH.","zip":"57402"},{"name":"BÜYÜKPINAR KÖYÜ","zip":"57402"},{"name":"BÜYÜKPINAR MAH.","zip":"57402"},{"name":"CEBELİ MAH.","zip":"57402"},{"name":"CENİ MAH.","zip":"57402"},{"name":"CEVİZLİ MAH.","zip":"57402"},{"name":"CİMBİLOĞLU MAH.","zip":"57402"},{"name":"CİVREYİL MAH.","zip":"57402"},{"name":"CİYER MAH.","zip":"57402"},{"name":"CÖCÜ MAH.","zip":"57402"},{"name":"CUROĞLU MAH.","zip":"57402"},{"name":"ÇALI MAH.","zip":"57402"},{"name":"ÇAMCUĞAZ MAH.","zip":"57402"},{"name":"ÇAMCUVAZ MAH.","zip":"57402"},{"name":"ÇAMYAYLA KÖYÜ","zip":"57402"},{"name":"ÇANGAL MAH.","zip":"57402"},{"name":"ÇAY MAH.","zip":"57402"},{"name":"ÇAYBAŞI KÖYÜ","zip":"57402"},{"name":"ÇAYIR MAH.","zip":"57402"},{"name":"ÇAYİÇİ MAH.","zip":"57402"},{"name":"ÇAYLIOĞLU KÖYÜ","zip":"57402"},{"name":"ÇITAK MAH.","zip":"57402"},{"name":"ÇUKUR MAH.","zip":"57402"},{"name":"DAĞ MAH.","zip":"57402"},{"name":"DALIP MAH.","zip":"57402"},{"name":"DALMANCU MAH.","zip":"57402"},{"name":"DAVUT MERKEZ MAH.","zip":"57402"},{"name":"DAVUTLU KÖYÜ","zip":"57402"},{"name":"DAVUTOĞLU MAH.","zip":"57402"},{"name":"DEDEAĞAÇ KÖYÜ","zip":"57402"},{"name":"DEMİRCİ MAH.","zip":"57402"},{"name":"DERE KÖY MAH.","zip":"57402"},{"name":"DERE MAH.","zip":"57402"},{"name":"DEREKÖY KÖYÜ","zip":"57402"},{"name":"DEVRENT MAH.","zip":"57402"},{"name":"DİBEKLİ KÖYÜ","zip":"57402"},{"name":"DİBEKLİ MAH.","zip":"57402"},{"name":"DOGALAŞA MAH.","zip":"57402"},{"name":"DOĞACI MAH.","zip":"57402"},{"name":"DOĞANLI KÖYÜ","zip":"57402"},{"name":"DOLAMAY MAH.","zip":"57402"},{"name":"DOLAY KÖYÜ","zip":"57402"},{"name":"DOLAY MÜCAVİR MAH.","zip":"57402"},{"name":"DOLAYISÖKÜ MAH.","zip":"57402"},{"name":"DUGARSÖKÜ MAH.","zip":"57402"},{"name":"DURAKLI MAH.","zip":"57402"},{"name":"DÜDÜKLÜK MAH.","zip":"57402"},{"name":"EBCE MAH.","zip":"57402"},{"name":"ECEK MAH.","zip":"57402"},{"name":"EĞRİGÖZ MAH.","zip":"57402"},{"name":"ELEMİN MAH.","zip":"57402"},{"name":"ELEMİNBAŞI MAH.","zip":"57402"},{"name":"ELLEZ MAH.","zip":"57402"},{"name":"ERDEMLİ KÖYÜ","zip":"57402"},{"name":"ERİKLİ KÖYÜ","zip":"57402"},{"name":"ESE MAH.","zip":"57402"},{"name":"FASILLIK MAH.","zip":"57402"},{"name":"FINDIKLI KÖYÜ","zip":"57402"},{"name":"FIRINCIK MAH.","zip":"57402"},{"name":"FİDAN MAH.","zip":"57402"},{"name":"FİYE MAH.","zip":"57402"},{"name":"FURUNÇUKURU MAH.","zip":"57402"},{"name":"GEBELİT MAH.","zip":"57402"},{"name":"GELECEK MAH.","zip":"57402"},{"name":"GEMRE MAH.","zip":"57402"},{"name":"GENZE MAH.","zip":"57402"},{"name":"GERDAN MAH.","zip":"57402"},{"name":"GÖDENOĞLU MAH.","zip":"57402"},{"name":"GÖLDAĞI KÖYÜ","zip":"57402"},{"name":"GÖLKÖY KÖYÜ","zip":"57402"},{"name":"GÜNEY MAH.","zip":"57402"},{"name":"GÜNEYCİ MAH.","zip":"57402"},{"name":"GÜRPINAR KÖYÜ","zip":"57402"},{"name":"GÜRSÖKÜ KÖYÜ","zip":"57402"},{"name":"GÜZEREN MAH.","zip":"57402"},{"name":"HACI KÖYÜ MAH.","zip":"57402"},{"name":"HACI MAH.","zip":"57402"},{"name":"HACIBAKA MAH.","zip":"57402"},{"name":"HACILI KÖYÜ","zip":"57402"},{"name":"HACIOĞLU KÖYÜ","zip":"57402"},{"name":"HACIOĞLU MAH.","zip":"57402"},{"name":"HAMDİ MAH.","zip":"57402"},{"name":"HAMZAÇAY MAH.","zip":"57402"},{"name":"HARMANLAR MAH.","zip":"57402"},{"name":"HARZANA MAH.","zip":"57402"},{"name":"HASANÇE MAH.","zip":"57402"},{"name":"HATİP KÖYÜ","zip":"57402"},{"name":"HATLI MAH.","zip":"57402"},{"name":"HEBİR MAH.","zip":"57402"},{"name":"HOCA YAKASI MAH.","zip":"57402"},{"name":"HÖKOL OĞLU MAH.","zip":"57402"},{"name":"HULU MAH.","zip":"57402"},{"name":"HÜMER MAH.","zip":"57402"},{"name":"HÜSEYİN USTA MAH.","zip":"57402"},{"name":"HÜSEYİNBEY KÖYÜ","zip":"57402"},{"name":"IŞIKLAR MAH.","zip":"57402"},{"name":"İKLAMA MAH.","zip":"57402"},{"name":"İMAMOĞLU MAH.","zip":"57402"},{"name":"İNALTI KÖYÜ","zip":"57402"},{"name":"İNALTI MAH.","zip":"57402"},{"name":"İNALTI ORMAN MAH.","zip":"57402"},{"name":"KACAK MAH.","zip":"57402"},{"name":"KADİR MAH.","zip":"57402"},{"name":"KALABA MAH.","zip":"57402"},{"name":"KALDIRAYAK KÖYÜ","zip":"57402"},{"name":"KALENDER MAH.","zip":"57402"},{"name":"KAPANDİBİ MAH.","zip":"57402"},{"name":"KAPI MAH.","zip":"57402"},{"name":"KARACAAĞAÇ MEZİKGÜNEY MAH.","zip":"57402"},{"name":"KARACULHA MAH.","zip":"57402"},{"name":"KARAKESTANE KÖYÜ","zip":"57402"},{"name":"KARANCI MAH.","zip":"57402"},{"name":"KARAPINAR KÖYÜ","zip":"57402"},{"name":"KARATAŞ MAH.","zip":"57402"},{"name":"KARŞILÜVEP MAH.","zip":"57402"},{"name":"KAŞ ÜSTÜ MAH.","zip":"57402"},{"name":"KAYIM MAH.","zip":"57402"},{"name":"KEPEZ MAH.","zip":"57402"},{"name":"KESECİK MAH.","zip":"57402"},{"name":"KESTANELİK KÖYÜ","zip":"57402"},{"name":"KESTANEYANI MAH.","zip":"57402"},{"name":"KEŞ MAH.","zip":"57402"},{"name":"KIRAN MAH.","zip":"57402"},{"name":"KIRANARDI MAH.","zip":"57402"},{"name":"KIRINDI MAH.","zip":"57402"},{"name":"KIVAN MAH.","zip":"57402"},{"name":"KIZILCAELMA MAH.","zip":"57402"},{"name":"KIZILCAKAYA KÖYÜ","zip":"57402"},{"name":"KIZILOT MAH.","zip":"57402"},{"name":"KİBAROĞLU MAH.","zip":"57402"},{"name":"KOÇVAZ MAH.","zip":"57402"},{"name":"KOLCA MAH.","zip":"57402"},{"name":"KOLOĞLU MAH.","zip":"57402"},{"name":"KONAK MAH.","zip":"57402"},{"name":"KOVANLIK MAH.","zip":"57402"},{"name":"KOZCUĞAZ KÖYÜ","zip":"57402"},{"name":"KOZSÖKÜ KÖYÜ","zip":"57402"},{"name":"KÖKLEN MAH.","zip":"57402"},{"name":"KÖPRÜBAŞI MAH.","zip":"57402"},{"name":"KÖSE MAH.","zip":"57402"},{"name":"KÖSELER MAH.","zip":"57402"},{"name":"KÖSEYAKASI KÖYÜ","zip":"57402"},{"name":"KÖYCÜĞEZ MAH.","zip":"57402"},{"name":"KÖYYERİ MAH.","zip":"57402"},{"name":"KUMANI MAH.","zip":"57402"},{"name":"KUMLUK MAH.","zip":"57402"},{"name":"KURTKÖY KÖYÜ","zip":"57402"},{"name":"KUŞLAR MAH.","zip":"57402"},{"name":"KUZ MAH.","zip":"57402"},{"name":"KUZDAĞI MAH.","zip":"57402"},{"name":"KUZGUNCUK MAH.","zip":"57402"},{"name":"KUZLUK MAH.","zip":"57402"},{"name":"KÜÇÜK ÇOKİR MAH.","zip":"57402"},{"name":"KÜÇÜKLEFKEN MAH.","zip":"57402"},{"name":"KÜRT DÜZÜ AŞAĞI MAH.","zip":"57402"},{"name":"KÜRT DÜZÜ YUKARI MAH.","zip":"57402"},{"name":"KÜRÜKOĞLU MAH.","zip":"57402"},{"name":"KÜTÜKKÖY KÖYÜ","zip":"57402"},{"name":"LAZLAR MAH.","zip":"57402"},{"name":"MADEN KÖYÜ","zip":"57402"},{"name":"MADEN MAH.","zip":"57402"},{"name":"MAKAS MAH.","zip":"57402"},{"name":"MALI MAH.","zip":"57402"},{"name":"MAZİ MAH.","zip":"57402"},{"name":"MERKEZ AŞAĞI MAH.","zip":"57402"},{"name":"MERKEZ MAH.","zip":"57402"},{"name":"MERKEZ YUKARI MAH.","zip":"57402"},{"name":"MESTAN KÖYÜ","zip":"57402"},{"name":"MODU MAH.","zip":"57402"},{"name":"MUDAN MAH.","zip":"57402"},{"name":"MUSTAFAKEMALPAŞA KÖYÜ","zip":"57402"},{"name":"NOLUT MAH.","zip":"57402"},{"name":"OBRUK MAH.","zip":"57402"},{"name":"OCUK MAH.","zip":"57402"},{"name":"OKÇULAR MAH.","zip":"57402"},{"name":"OLUCAK MAH.","zip":"57402"},{"name":"OMURYERİ MAH.","zip":"57402"},{"name":"ONORTAK MAH.","zip":"57402"},{"name":"ORTA 1 MAH.","zip":"57402"},{"name":"ORTA 2 MAH.","zip":"57402"},{"name":"ORTA MAH.","zip":"57402"},{"name":"ORTALIK KÖYÜ","zip":"57402"},{"name":"OTMANLI KÖYÜ","zip":"57402"},{"name":"OTMANLI MAH.","zip":"57402"},{"name":"ÖDÜR MAH.","zip":"57402"},{"name":"ÖMER MAH.","zip":"57402"},{"name":"ÖMERDÜZ KÖYÜ","zip":"57402"},{"name":"ÖRENSE MAH.","zip":"57402"},{"name":"ÖTEGÜNEY MAH.","zip":"57402"},{"name":"PAZAR YERİ MAH.","zip":"57402"},{"name":"PAZARCIK KÖYÜ","zip":"57402"},{"name":"PAZARCIK MÜCAVİR MAH.","zip":"57402"},{"name":"PELİTCİK MAH.","zip":"57402"},{"name":"PINARI MAH.","zip":"57402"},{"name":"PİR MAH.","zip":"57402"},{"name":"SAĞ MAH.","zip":"57402"},{"name":"SANSAR MAH.","zip":"57402"},{"name":"SARAYCIK MAH.","zip":"57402"},{"name":"SARNIÇ MAH.","zip":"57402"},{"name":"SARP MAH.","zip":"57402"},{"name":"SEKECEK MAH.","zip":"57402"},{"name":"SEKİCEK MAH.","zip":"57402"},{"name":"SERÇEBACAK MAH.","zip":"57402"},{"name":"SEVİNÇ MAH.","zip":"57402"},{"name":"SIRCALI MAH.","zip":"57402"},{"name":"SOFU KÖYÜ","zip":"57402"},{"name":"SOFU MAH.","zip":"57402"},{"name":"SOĞUCAKSU MAH.","zip":"57402"},{"name":"SÖKÜ MAH.","zip":"57402"},{"name":"SÖKÜBELE MAH.","zip":"57402"},{"name":"SÖKÜÇAYIRI KÖYÜ","zip":"57402"},{"name":"SULUSÖKÜ KÖYÜ","zip":"57402"},{"name":"SUSAN MAH.","zip":"57402"},{"name":"SÜLEYMANPINARI MAH.","zip":"57402"},{"name":"SÜNGÜR MAH.","zip":"57402"},{"name":"ŞABANOĞLU MAH.","zip":"57402"},{"name":"ŞALI MAH.","zip":"57402"},{"name":"ŞERBETÇİ MAH.","zip":"57402"},{"name":"ŞEYHKÖY MAH.","zip":"57402"},{"name":"ŞIH MAH.","zip":"57402"},{"name":"ŞIHLAR MAH.","zip":"57402"},{"name":"TANIŞMAN MAH.","zip":"57402"},{"name":"TARAKÇI KÖYÜ","zip":"57402"},{"name":"TARAKÇI MAH.","zip":"57402"},{"name":"TAŞDİBEK MAH.","zip":"57402"},{"name":"TAŞMAN MAH.","zip":"57402"},{"name":"TATARCIK MAH.","zip":"57402"},{"name":"TEKFUR MAH.","zip":"57402"},{"name":"TEKKE MAH.","zip":"57402"},{"name":"TENETÜR MAH.","zip":"57402"},{"name":"TEPECİK KÖYÜ","zip":"57402"},{"name":"TEPECİK MAH.","zip":"57402"},{"name":"TERZE MAH.","zip":"57402"},{"name":"TEVFİKİYE KÖYÜ","zip":"57402"},{"name":"TIGLIOĞLU MAH.","zip":"57402"},{"name":"TIĞNA MAH.","zip":"57402"},{"name":"TOPAĞAÇ KÖYÜ","zip":"57402"},{"name":"TORMA OĞLU MAH.","zip":"57402"},{"name":"TÜNEK MAH.","zip":"57402"},{"name":"TÜRKKÖY MAH.","zip":"57402"},{"name":"TÜRKMEN KÖYÜ","zip":"57402"},{"name":"ULAŞ MAH.","zip":"57402"},{"name":"URGANGERİŞ MAH.","zip":"57402"},{"name":"UZUNAĞA MAH.","zip":"57402"},{"name":"UZUNÇAM KÖYÜ","zip":"57402"},{"name":"ÜNLÜCE KÖYÜ","zip":"57402"},{"name":"ÜNLÜCE MÜCAVİR MAH.","zip":"57402"},{"name":"VELET MAH.","zip":"57402"},{"name":"YALI MAH.","zip":"57402"},{"name":"YARENLER KÖYÜ","zip":"57402"},{"name":"YAVI MAH.","zip":"57402"},{"name":"YAYLAYANI MAH.","zip":"57402"},{"name":"YEMİŞEN KÖYÜ","zip":"57402"},{"name":"YEMİŞLİ MAH.","zip":"57402"},{"name":"YEMİŞLİ ORMAN İŞLETME MAH.","zip":"57402"},{"name":"YENİCE KÖYÜ","zip":"57402"},{"name":"YENİCEALTI MAH.","zip":"57402"},{"name":"YENİGÜLER KÖYÜ","zip":"57402"},{"name":"YEŞİLYURT KÖYÜ","zip":"57402"},{"name":"YUKARI IŞIĞAN MAH.","zip":"57402"},{"name":"YUKARI KUZDAĞI MAH.","zip":"57402"},{"name":"YUKARI MAH.","zip":"57402"},{"name":"YUKARIKÖY MAH.","zip":"57402"},{"name":"YUNUS MAH.","zip":"57402"},{"name":"ZAVİYE KÖYÜ","zip":"57402"},{"name":"ZİNDAN MAH.","zip":"57402"}]},{"name":"BOYABAT","cityName":null,"quarters":[{"name":"ÇAMLICA MAH.","zip":"57200"},{"name":"ESENTEPE MAH.","zip":"57200"},{"name":"GÖKDERE MAH.","zip":"57200"},{"name":"KUMLUK MAH.","zip":"57200"},{"name":"YENİ MAH.","zip":"57200"},{"name":"YILDIZ MAH.","zip":"57200"},{"name":"ZİNCİRLİKUYU MAH.","zip":"57200"}]},{"name":"MERKEZKÖYLER","cityName":null,"quarters":[{"name":"ADNAN MENDERES (DAYLI MÜCAVİR) MAH.","zip":"57202"},{"name":"AHLATLI YAYLASI MAH.","zip":"57202"},{"name":"AKÇAKESE KÖYÜ","zip":"57202"},{"name":"AKKAYA MAH.","zip":"57202"},{"name":"AKSU MAH.","zip":"57202"},{"name":"AKYÜRÜK KÖYÜ","zip":"57202"},{"name":"ALAMAN MERKEZ MAH.","zip":"57202"},{"name":"ALIÇATI MAH.","zip":"57202"},{"name":"ALİ YAZICI MAH.","zip":"57202"},{"name":"ALİBEYLİ KÖYÜ","zip":"57202"},{"name":"ALUCCUK MAH.","zip":"57202"},{"name":"ALUÇ MAH.","zip":"57202"},{"name":"ANAYURT MAH.","zip":"57202"},{"name":"ARDIÇ KÖYÜ","zip":"57202"},{"name":"ARIOĞLU KÖYÜ","zip":"57202"},{"name":"ASAR MAH.","zip":"57202"},{"name":"ASAR YAYLASI MAH.","zip":"57202"},{"name":"AŞAĞI MAH.","zip":"57202"},{"name":"AŞAĞIKÖPRÜCEK MAH.","zip":"57202"},{"name":"AŞAĞISEYRİCEK KÖYÜ","zip":"57202"},{"name":"AŞIKLI KÖYÜ","zip":"57202"},{"name":"AVLOUÇ MAH.","zip":"57202"},{"name":"AVLU MAH.","zip":"57202"},{"name":"AVUCA MAH.","zip":"57202"},{"name":"AVZARAĞI MAH.","zip":"57202"},{"name":"AYDINLI MAH.","zip":"57202"},{"name":"AYDOĞAN KÖYÜ","zip":"57202"},{"name":"AYI KAYASI MAH.","zip":"57202"},{"name":"BAĞLARBAŞI MAH.","zip":"57202"},{"name":"BAĞLICA KÖYÜ","zip":"57202"},{"name":"BALCIOĞLU MAH.","zip":"57202"},{"name":"BALICA MAH.","zip":"57202"},{"name":"BAŞKESEN MAH.","zip":"57202"},{"name":"BAYAMCA KÖYÜ","zip":"57202"},{"name":"BEKİRLİ MAH.","zip":"57202"},{"name":"BEKTAŞ KÖYÜ","zip":"57202"},{"name":"BENGÜBELEN KÖYÜ","zip":"57202"},{"name":"BENİŞLİ KÖYÜ","zip":"57202"},{"name":"BEŞEVLER MAH.","zip":"57202"},{"name":"BEYAZIT MAH.","zip":"57202"},{"name":"BEYZADE MAH.","zip":"57202"},{"name":"BIÇAKÇILI MAH.","zip":"57202"},{"name":"BİNERLİ KÖYÜ","zip":"57202"},{"name":"BOYALI KÖYÜ","zip":"57202"},{"name":"BOZYAZI MAH.","zip":"57202"},{"name":"BÖLÜKLÜ KÖYÜ","zip":"57202"},{"name":"BÖRÜKLÜ MAH.","zip":"57202"},{"name":"BÜRNÜK MAH.","zip":"57202"},{"name":"BÜRÜM KÖYÜ","zip":"57202"},{"name":"BÜYÜK KARASAKLI MAH.","zip":"57202"},{"name":"BÜYÜKKARAAĞAÇ KÖYÜ","zip":"57202"},{"name":"CABA MAH.","zip":"57202"},{"name":"CAMİLİ MAH.","zip":"57202"},{"name":"CEDİMOĞLU MAH.","zip":"57202"},{"name":"CEMALETTİNKÖY KÖYÜ","zip":"57202"},{"name":"CEPMİ MAH.","zip":"57202"},{"name":"CEPMİ YAYLASI MAH.","zip":"57202"},{"name":"CIKCIKLI MAH.","zip":"57202"},{"name":"CİHADİYE-ALINCİNEK MAH.","zip":"57202"},{"name":"CURKUŞLAR KÖYÜ","zip":"57202"},{"name":"ÇAKILLI YAY MAH.","zip":"57202"},{"name":"ÇAL MAH.","zip":"57202"},{"name":"ÇALIŞ MAH.","zip":"57202"},{"name":"ÇALIŞKAN MAH.","zip":"57202"},{"name":"ÇALTU KÖYÜ","zip":"57202"},{"name":"ÇAMLICA MAH.","zip":"57202"},{"name":"ÇAMLIK MAH.","zip":"57202"},{"name":"ÇARDAKPINARI YAY MAH.","zip":"57202"},{"name":"ÇARŞAK KÖYÜ","zip":"57202"},{"name":"ÇATPINAR KÖYÜ","zip":"57202"},{"name":"ÇATTEPE KÖYÜ","zip":"57202"},{"name":"ÇAYBAŞI KÖYÜ","zip":"57202"},{"name":"ÇAYIR MAH.","zip":"57202"},{"name":"ÇEKİÇ KÖY MAH.","zip":"57202"},{"name":"ÇEKİÇ MAH.","zip":"57202"},{"name":"ÇENE MAH.","zip":"57202"},{"name":"ÇERKEZLER MAH.","zip":"57202"},{"name":"ÇEŞNİGİR KÖYÜ","zip":"57202"},{"name":"ÇOBANLAR MAH.","zip":"57202"},{"name":"ÇORAK KÖYÜ","zip":"57202"},{"name":"ÇÖKECİK MAH.","zip":"57202"},{"name":"ÇUKURHAN KÖYÜ","zip":"57202"},{"name":"ÇULHALI KÖYÜ","zip":"57202"},{"name":"DAĞ MAH.","zip":"57202"},{"name":"DAĞTABAKLI KÖYÜ","zip":"57202"},{"name":"DALUOĞLU MAH.","zip":"57202"},{"name":"DAMALİ MAH.","zip":"57202"},{"name":"DAMLACA MAH.","zip":"57202"},{"name":"DARIÖZÜ KÖYÜ","zip":"57202"},{"name":"DAYLI KÖYÜ","zip":"57202"},{"name":"DEDELİ MAH.","zip":"57202"},{"name":"DERE KÖY MAH.","zip":"57202"},{"name":"DERE MAH.","zip":"57202"},{"name":"DEREÇATI KÖYÜ","zip":"57202"},{"name":"DİNLENECEK MAH.","zip":"57202"},{"name":"DODURGA KÖYÜ","zip":"57202"},{"name":"DOĞAÇAMYAY MAH.","zip":"57202"},{"name":"DOĞANBURNU MAH.","zip":"57202"},{"name":"DOĞRUL KÖYÜ","zip":"57202"},{"name":"DOĞRUL-YEMİŞLİ MAH.","zip":"57202"},{"name":"DOĞUCA KÖYÜ","zip":"57202"},{"name":"DUMANOĞLU MAH.","zip":"57202"},{"name":"DURHACILI MAH.","zip":"57202"},{"name":"DURMELİKLİ YAY MAH.","zip":"57202"},{"name":"DÜLÜKLER MAH.","zip":"57202"},{"name":"DÜZEN MAH.","zip":"57202"},{"name":"DÜZKARAAĞAÇ KÖYÜ","zip":"57202"},{"name":"EDİL KÖYÜ","zip":"57202"},{"name":"EĞLENCE KÖYÜ","zip":"57202"},{"name":"EKİNÖREN KÖYÜ","zip":"57202"},{"name":"ELEKKOZU MAH.","zip":"57202"},{"name":"ELİF DERESİ MAH.","zip":"57202"},{"name":"ELMACIK MAH.","zip":"57202"},{"name":"ELMACUK MAH.","zip":"57202"},{"name":"EMİRLİ YAYLASI MAH.","zip":"57202"},{"name":"EMİROĞLU KÖYÜ","zip":"57202"},{"name":"ENGİLEKİN KÖYÜ","zip":"57202"},{"name":"ERENLER MAH.","zip":"57202"},{"name":"ERKEÇ KÖYÜ","zip":"57202"},{"name":"ESENGAZİLİ KÖYÜ","zip":"57202"},{"name":"ESENTEPE KÖYÜ","zip":"57202"},{"name":"EVKUL MAH.","zip":"57202"},{"name":"FAHRA MAH.","zip":"57202"},{"name":"FERGÜLÜ MAH.","zip":"57202"},{"name":"FEVZİ ÇAKMAK MÜCAVİR MAH.","zip":"57202"},{"name":"FINDICAK MAH.","zip":"57202"},{"name":"FİLDANLAR MAH.","zip":"57202"},{"name":"GARANDU MAH.","zip":"57202"},{"name":"GAZİDERESİ KÖYÜ","zip":"57202"},{"name":"GAZİDERETABAKLI KÖYÜ","zip":"57202"},{"name":"GENCEK MAH.","zip":"57202"},{"name":"GIMIZ MAH.","zip":"57202"},{"name":"GÖKÇEAĞAÇSAKIZI KÖYÜ","zip":"57202"},{"name":"GÖKÇUKUR KÖYÜ","zip":"57202"},{"name":"GÖKDERE MAH.","zip":"57202"},{"name":"GÖLET-KERTİL MAH.","zip":"57202"},{"name":"GÖLLÜ MAH.","zip":"57202"},{"name":"GÖVE KÖYÜ","zip":"57202"},{"name":"GÖVEZ MAH.","zip":"57202"},{"name":"GÜLBET MAH.","zip":"57202"},{"name":"GÜNEY MAH.","zip":"57202"},{"name":"GÜNPINAR KÖYÜ","zip":"57202"},{"name":"GÜRGENAĞIL MAH.","zip":"57202"},{"name":"GÜZKÖY MAH.","zip":"57202"},{"name":"HACIAHMETLİ KÖYÜ","zip":"57202"},{"name":"HACIBABA MAH.","zip":"57202"},{"name":"HACIBAYRAM MAH.","zip":"57202"},{"name":"HACIYAHYA MAH.","zip":"57202"},{"name":"HAMZALI KÖYÜ","zip":"57202"},{"name":"HATİPOĞLU MAH.","zip":"57202"},{"name":"HELİMOĞLU MAH.","zip":"57202"},{"name":"HIBIYARLI MAH.","zip":"57202"},{"name":"HIDIRLI MAH.","zip":"57202"},{"name":"HİMMETOĞLU MAH.","zip":"57202"},{"name":"HOCALI MAH.","zip":"57202"},{"name":"HÜRREMŞAH MAH.","zip":"57202"},{"name":"ILICAKÖY KÖYÜ","zip":"57202"},{"name":"İMAMLI KÖYÜ","zip":"57202"},{"name":"İNEBEYLİ MAH.","zip":"57202"},{"name":"İSAOĞLU KÖYÜ","zip":"57202"},{"name":"İSPİROĞLU MAH.","zip":"57202"},{"name":"KABAELMA MAH.","zip":"57202"},{"name":"KADILAR MAH.","zip":"57202"},{"name":"KADINLI KÖYÜ","zip":"57202"},{"name":"KARABURUN MAH.","zip":"57202"},{"name":"KARACAÖREN 1 KÜMEEVLER MÜCAVİR MAH.","zip":"57202"},{"name":"KARACAÖREN 2 KÜMEEVLER MÜCAVİR MAH.","zip":"57202"},{"name":"KARACAÖREN KÖYÜ","zip":"57202"},{"name":"KARAÇAYIR MAH.","zip":"57202"},{"name":"KARAÇOMAK MAH.","zip":"57202"},{"name":"KARAÇUKUR MAH.","zip":"57202"},{"name":"KARAMUSALI KÖYÜ","zip":"57202"},{"name":"KARANDU MAH.","zip":"57202"},{"name":"KARAOLUK MAH.","zip":"57202"},{"name":"KARAPÜRCEK MAH.","zip":"57202"},{"name":"KARASOKAK MAH.","zip":"57202"},{"name":"KARAYAPRAK MAH.","zip":"57202"},{"name":"KARŞI MAH.","zip":"57202"},{"name":"KARTALOĞLU KÖYÜ","zip":"57202"},{"name":"KAŞ MAH.","zip":"57202"},{"name":"KAŞBAŞI MAH.","zip":"57202"},{"name":"KAVACIK KÖYÜ","zip":"57202"},{"name":"KAVAK ÇAYIRI MAH.","zip":"57202"},{"name":"KAVAK KÖYÜ","zip":"57202"},{"name":"KAYA DİBİ MAH.","zip":"57202"},{"name":"KAYABAŞI MAH.","zip":"57202"},{"name":"KAYABOĞAZI KÖYÜ","zip":"57202"},{"name":"KAYADİBİ MAH.","zip":"57202"},{"name":"KAYAÖNÜ MAH.","zip":"57202"},{"name":"KAYMAKCI DERESİ MAH.","zip":"57202"},{"name":"KAYMALOĞLU MAH.","zip":"57202"},{"name":"KEKLİK TEPE MAH.","zip":"57202"},{"name":"KEMALOĞLU MAH.","zip":"57202"},{"name":"KESEKÖY KÖYÜ","zip":"57202"},{"name":"KESEKÖYYAYLASI MAH.","zip":"57202"},{"name":"KILIÇLI KÖYÜ","zip":"57202"},{"name":"KIRAÇ MAH.","zip":"57202"},{"name":"KIRAN MAH.","zip":"57202"},{"name":"KIŞLA MAH.","zip":"57202"},{"name":"KIZILTEPE MAH.","zip":"57202"},{"name":"KIZLAR KAYASI MAH.","zip":"57202"},{"name":"KIZLARKAYASI YAYLASI MAH.","zip":"57202"},{"name":"KİLLİK KÖYÜ","zip":"57202"},{"name":"KİRENLİCE MAH.","zip":"57202"},{"name":"KOÇAK KÖYÜ","zip":"57202"},{"name":"KOVAÇAYIR KÖYÜ","zip":"57202"},{"name":"KOZANLI KÖYÜ","zip":"57202"},{"name":"KOZKULE KÖYÜ","zip":"57202"},{"name":"KOZLUCA MAH.","zip":"57202"},{"name":"KÖPRÜBAŞI MAH.","zip":"57202"},{"name":"KÖPRÜCEK KÖYÜ","zip":"57202"},{"name":"KURTLU KÖYÜ","zip":"57202"},{"name":"KURUSARAY KÖYÜ","zip":"57202"},{"name":"KUYUCAKPINAR KÖYÜ","zip":"57202"},{"name":"KUYUDİBİ MAH.","zip":"57202"},{"name":"KUZVEREN KÖYÜ","zip":"57202"},{"name":"KÜÇÜK MAH.","zip":"57202"},{"name":"KÜÇÜKKARASAKLI MAH.","zip":"57202"},{"name":"MAHMUTLU KÖYÜ","zip":"57202"},{"name":"MANİŞLER MAH.","zip":"57202"},{"name":"MANTARDÜZÜ YAYLASI MAH.","zip":"57202"},{"name":"MARTLI MAH.","zip":"57202"},{"name":"MARUF KÖYÜ","zip":"57202"},{"name":"MARUFALINCA KÖYÜ","zip":"57202"},{"name":"MAŞALI MAH.","zip":"57202"},{"name":"MERKEZ MAH.","zip":"57202"},{"name":"MEYTÜLÜ MAH.","zip":"57202"},{"name":"MEZARLIK ALTI MAH.","zip":"57202"},{"name":"MİLLİBEY MAH.","zip":"57202"},{"name":"MUMUNLU MAH.","zip":"57202"},{"name":"MURATLI KÖYÜ","zip":"57202"},{"name":"MUSA MAH.","zip":"57202"},{"name":"MUŞLU MAH.","zip":"57202"},{"name":"OBALI MAH.","zip":"57202"},{"name":"OGULKADIN MAH.","zip":"57202"},{"name":"OĞLAKÇI YAYLASI MAH.","zip":"57202"},{"name":"OĞLAKÇILAR KÖYÜ","zip":"57202"},{"name":"OKÇU MAH.","zip":"57202"},{"name":"OKÇUMEHMETLİ KÖYÜ","zip":"57202"},{"name":"OLUK KIYI MAH.","zip":"57202"},{"name":"ORGANİZE SANAYİ BÖLGESİ MAH.","zip":"57202"},{"name":"ORTA MAH.","zip":"57202"},{"name":"OSMANKÖY KÖYÜ","zip":"57202"},{"name":"OSMANKÖY KÜMEEVLER MÜCAVİR MAH.","zip":"57202"},{"name":"OVA MAH.","zip":"57202"},{"name":"ÖMERKÖY KÖYÜ","zip":"57202"},{"name":"ÖREN KÖYÜ","zip":"57202"},{"name":"ÖREN MAH.","zip":"57202"},{"name":"PAŞALIOĞLU KÖYÜ","zip":"57202"},{"name":"PEHLİVANLAR KÖYÜ","zip":"57202"},{"name":"PELİTÇİK MAH.","zip":"57202"},{"name":"PERCİNCİK MAH.","zip":"57202"},{"name":"PİREFENDİDERESİ KÖYÜ","zip":"57202"},{"name":"SAKIZ MAH.","zip":"57202"},{"name":"SALAR KÖYÜ","zip":"57202"},{"name":"SARIAĞAÇÇAYI KÖYÜ","zip":"57202"},{"name":"SARIAĞAÇÇAYI MAH.","zip":"57202"},{"name":"SARIYER KÖYÜ","zip":"57202"},{"name":"SEFEROĞLU MAH.","zip":"57202"},{"name":"SEME MAH.","zip":"57202"},{"name":"SÖKÜ MAH.","zip":"57202"},{"name":"SUCUOĞLU MAH.","zip":"57202"},{"name":"SUSUZ MAH.","zip":"57202"},{"name":"SÜYEME MAH.","zip":"57202"},{"name":"ŞADILI MAH.","zip":"57202"},{"name":"ŞADIRLI MAH.","zip":"57202"},{"name":"ŞEDEREK MAH.","zip":"57202"},{"name":"ŞEYHLER YAYLASI MAH.","zip":"57202"},{"name":"ŞIHLAR KÖYÜ","zip":"57202"},{"name":"ŞIHLI KÖYÜ","zip":"57202"},{"name":"TABAKDERESİ MAH.","zip":"57202"},{"name":"TANGILOĞ MAH.","zip":"57202"},{"name":"TAŞHANLI KÖYÜ","zip":"57202"},{"name":"TAŞLI YAYLA MAH.","zip":"57202"},{"name":"TEKKE KÖYÜ","zip":"57202"},{"name":"TEKKE MAH.","zip":"57202"},{"name":"TEKKELİ MAH.","zip":"57202"},{"name":"TENHELİ MAH.","zip":"57202"},{"name":"TEPE MAH.","zip":"57202"},{"name":"TEPEDELİK MAH.","zip":"57202"},{"name":"TERZİ AHMETLİ MAH.","zip":"57202"},{"name":"TIRNALI KÖYÜ","zip":"57202"},{"name":"TOKLAR MAH.","zip":"57202"},{"name":"TOKUŞOĞLU MAH.","zip":"57202"},{"name":"URLUCA MAH.","zip":"57202"},{"name":"UYSAL MAH.","zip":"57202"},{"name":"UZUNÇAY KÖYÜ","zip":"57202"},{"name":"ÜZÜMLÜ MAH.","zip":"57202"},{"name":"YABANLI KÖYÜ","zip":"57202"},{"name":"YAKA MAH.","zip":"57202"},{"name":"YAYLA MAH.","zip":"57202"},{"name":"YAYLACIK KÖYÜ","zip":"57202"},{"name":"YAYLACIK YAYLASI MAH.","zip":"57202"},{"name":"YAZIKÖY KÖYÜ","zip":"57202"},{"name":"YENİCAMİLİ KÖYÜ","zip":"57202"},{"name":"YENİKAYALI KÖYÜ","zip":"57202"},{"name":"YENİKÖY KÖYÜ","zip":"57202"},{"name":"YENİMEHMETLİ KÖYÜ","zip":"57202"},{"name":"YEŞİLÇAM KÖYÜ","zip":"57202"},{"name":"YEŞİLKÖY KÖYÜ","zip":"57202"},{"name":"YEŞİLYURT KÖYÜ","zip":"57202"},{"name":"YIZI MAH.","zip":"57202"},{"name":"YOLÇALI YAY MAH.","zip":"57202"},{"name":"YÖRÜK MAH.","zip":"57202"},{"name":"YÖRÜKOĞLU YAY MAH.","zip":"57202"},{"name":"YUKARI ERKEÇ MAH.","zip":"57202"},{"name":"YUKARI SARIYAR MAH.","zip":"57202"},{"name":"YUKARIMAH MAH.","zip":"57202"},{"name":"YUKARISEYRİCEK KÖYÜ","zip":"57202"},{"name":"YURT MAH.","zip":"57202"},{"name":"YUSUFLU MAH.","zip":"57202"},{"name":"YÜRÜKDERESİ MAH.","zip":"57202"},{"name":"ZİNCİRLİKUYU MAH.","zip":"57202"}]},{"name":"DİKMEN","cityName":null,"quarters":[{"name":"ÇORAK MAH.","zip":"57660"},{"name":"KIRÇAL MAH.","zip":"57660"}]},{"name":"MERKEZKÖYLER","cityName":null,"quarters":[{"name":"AĞCAALAN MAH.","zip":"57662"},{"name":"AHMETKOVANLIĞI MAH.","zip":"57662"},{"name":"AHMETLİ KIŞLA MAH.","zip":"57662"},{"name":"AHMETLİ YAYLA MAH.","zip":"57662"},{"name":"AHMETOĞLU MAH.","zip":"57662"},{"name":"AKÇAKESE KÖYÜ","zip":"57662"},{"name":"ALANCIK MAH.","zip":"57662"},{"name":"ARAPLI MAH.","zip":"57662"},{"name":"AŞAĞI MAH.","zip":"57662"},{"name":"AŞAĞI SARAY MAH.","zip":"57662"},{"name":"AŞAĞIÇEKMEZ MAH.","zip":"57662"},{"name":"AŞAĞIMAH. MAH.","zip":"57662"},{"name":"AYVA MAH.","zip":"57662"},{"name":"BALABAN MAH.","zip":"57662"},{"name":"BANAZ MAH.","zip":"57662"},{"name":"BAŞKÖY MAH.","zip":"57662"},{"name":"BEKİRO MAH.","zip":"57662"},{"name":"BIYIK MAH.","zip":"57662"},{"name":"BOLDAÇ MAH.","zip":"57662"},{"name":"BUCAK KÖYÜ","zip":"57662"},{"name":"BUZALAĞI MAH.","zip":"57662"},{"name":"BÜYÜKDAĞ KÖYÜ","zip":"57662"},{"name":"BÜYÜKKIZIK KÖYÜ","zip":"57662"},{"name":"CAMİYANI MAH.","zip":"57662"},{"name":"CEVİZLİDERE MAH.","zip":"57662"},{"name":"CİLİM MAH.","zip":"57662"},{"name":"CİNDO MAH.","zip":"57662"},{"name":"ÇAL YAYLASI MAH.","zip":"57662"},{"name":"ÇANAKÇI KÖYÜ","zip":"57662"},{"name":"ÇANDAĞI YAYLASI MAH.","zip":"57662"},{"name":"ÇATACIK MAH.","zip":"57662"},{"name":"ÇATAK MAH.","zip":"57662"},{"name":"ÇATAKDÜZÜ MAH.","zip":"57662"},{"name":"ÇAYAĞZI MAH.","zip":"57662"},{"name":"ÇELDİREMEZ MAH.","zip":"57662"},{"name":"ÇEVİKLİ KÖYÜ","zip":"57662"},{"name":"ÇIRALIKALIK MAH.","zip":"57662"},{"name":"ÇOTUKLAR MAH.","zip":"57662"},{"name":"ÇUKURCAALAN KÖYÜ","zip":"57662"},{"name":"ÇUKURCAALAN YAYLASI MAH.","zip":"57662"},{"name":"DAĞKÖY KÖYÜ","zip":"57662"},{"name":"DARISU MAH.","zip":"57662"},{"name":"DELİHASAN MAH.","zip":"57662"},{"name":"DEMİRCİ MAH.","zip":"57662"},{"name":"DERE MAH.","zip":"57662"},{"name":"DEREKÖY MAH.","zip":"57662"},{"name":"DERELOP MAH.","zip":"57662"},{"name":"DUDAŞ KÖYÜ","zip":"57662"},{"name":"DUMANLI KÖYÜ","zip":"57662"},{"name":"DURAK MAH.","zip":"57662"},{"name":"EDİLLİ MAH.","zip":"57662"},{"name":"ELLEZİ MAH.","zip":"57662"},{"name":"EMİR MAH.","zip":"57662"},{"name":"EPÇELİ MAH.","zip":"57662"},{"name":"ERENCİK MAH.","zip":"57662"},{"name":"ESKİCUMA MAH.","zip":"57662"},{"name":"FETİ MAH.","zip":"57662"},{"name":"GEVES MAH.","zip":"57662"},{"name":"GIYAS MAH.","zip":"57662"},{"name":"GONURÇAYI MAH.","zip":"57662"},{"name":"GÖDENLİ MAH.","zip":"57662"},{"name":"GÖLDİREN MAH.","zip":"57662"},{"name":"GÖLLÜ KÖYÜ","zip":"57662"},{"name":"GÖRÜMCEK KÖYÜ","zip":"57662"},{"name":"GUZ MAH.","zip":"57662"},{"name":"GÜPLÜCE MAH.","zip":"57662"},{"name":"GÜZELCEÇAY MAH.","zip":"57662"},{"name":"HACI MAH.","zip":"57662"},{"name":"HACIKÖY MAH.","zip":"57662"},{"name":"HALİTLİ MAH.","zip":"57662"},{"name":"HATİP MAH.","zip":"57662"},{"name":"HAVZOROĞLU MAH.","zip":"57662"},{"name":"HEBİ MAH.","zip":"57662"},{"name":"HEBİLLİ MAH.","zip":"57662"},{"name":"HEMİŞOĞLU MAH.","zip":"57662"},{"name":"HIDIR MAH.","zip":"57662"},{"name":"HIRLI MAH.","zip":"57662"},{"name":"İÇMESUYU MAH.","zip":"57662"},{"name":"İMAM MAH.","zip":"57662"},{"name":"İSHAK MAH.","zip":"57662"},{"name":"KADIKIŞLASI MAH.","zip":"57662"},{"name":"KADIKÖY KÖYÜ","zip":"57662"},{"name":"KADIKÖYÜ MAH.","zip":"57662"},{"name":"KADIOĞLU MAH.","zip":"57662"},{"name":"KAFAR MAH.","zip":"57662"},{"name":"KAHYA MAH.","zip":"57662"},{"name":"KALAÇ MAH.","zip":"57662"},{"name":"KALAFAT MAH.","zip":"57662"},{"name":"KALAYCI MAH.","zip":"57662"},{"name":"KALIKÇI MAH.","zip":"57662"},{"name":"KANLIKALIK MAH.","zip":"57662"},{"name":"KARAAĞAÇ KÖYÜ","zip":"57662"},{"name":"KARAAĞAÇ MAH.","zip":"57662"},{"name":"KARAAHMET MAH.","zip":"57662"},{"name":"KARACIK KIŞLA MAH.","zip":"57662"},{"name":"KARAKOYUN KÖYÜ","zip":"57662"},{"name":"KARAYAPLU MAH.","zip":"57662"},{"name":"KATIRCI MAH.","zip":"57662"},{"name":"KAVACIK MAH.","zip":"57662"},{"name":"KAVŞAK YAYLASI MAH.","zip":"57662"},{"name":"KAVUZOĞLU MAH.","zip":"57662"},{"name":"KAYMAÇARDAĞI MAH.","zip":"57662"},{"name":"KERİM KÖYÜ","zip":"57662"},{"name":"KESTANE MAH.","zip":"57662"},{"name":"KIRIKLI MAH.","zip":"57662"},{"name":"KIRIŞOĞLU MAH.","zip":"57662"},{"name":"KIŞLA MAH.","zip":"57662"},{"name":"KIZAKYOLU MAH.","zip":"57662"},{"name":"KOBOLAN MAH.","zip":"57662"},{"name":"KONARI MAH.","zip":"57662"},{"name":"KÖLEKALIĞI MAH.","zip":"57662"},{"name":"KÖSEAĞIL MAH.","zip":"57662"},{"name":"KÖSELİ MAH.","zip":"57662"},{"name":"KUZALAN KÖYÜ","zip":"57662"},{"name":"KUZFINDIK MAH.","zip":"57662"},{"name":"KÜÇÜKKIZIK KÖYÜ","zip":"57662"},{"name":"KÜPLÜCE KÖYÜ","zip":"57662"},{"name":"MACIKIŞLASI MAH.","zip":"57662"},{"name":"MEBİŞO MAH.","zip":"57662"},{"name":"MEĞLEMOĞLU MAH.","zip":"57662"},{"name":"MERKEZ MAH.","zip":"57662"},{"name":"MÜSELLİM MAH.","zip":"57662"},{"name":"OMURLU MAH.","zip":"57662"},{"name":"ORTA KÖY MAH.","zip":"57662"},{"name":"ÖREN MAH.","zip":"57662"},{"name":"ÖRENCİK MAH.","zip":"57662"},{"name":"ÖRENYANI MAH.","zip":"57662"},{"name":"PAMUKÇU MAH.","zip":"57662"},{"name":"PAŞALI MAH.","zip":"57662"},{"name":"SAKALLI MAH.","zip":"57662"},{"name":"SARAY KÖYÜ","zip":"57662"},{"name":"SARIYER MAH.","zip":"57662"},{"name":"SEKECEK MAH.","zip":"57662"},{"name":"SEPETÇİOĞLU MAH.","zip":"57662"},{"name":"SOFTOĞLU MAH.","zip":"57662"},{"name":"ŞEF MAH.","zip":"57662"},{"name":"ŞEHLİOĞLU MAH.","zip":"57662"},{"name":"ŞEYHHÜSEYİN KÖYÜ","zip":"57662"},{"name":"TEPE MAH.","zip":"57662"},{"name":"TERELİ MAH.","zip":"57662"},{"name":"TIYGARLAR MAH.","zip":"57662"},{"name":"TONGULLAR MAH.","zip":"57662"},{"name":"USTAOĞLU MAH.","zip":"57662"},{"name":"UZUN MAH.","zip":"57662"},{"name":"ÜÇPINAR KÖYÜ","zip":"57662"},{"name":"YAKAKÖYÜ MAH.","zip":"57662"},{"name":"YAKUPLU KÖYÜ","zip":"57662"},{"name":"YAYKIN KÖYÜ","zip":"57662"},{"name":"YAYLA MAH.","zip":"57662"},{"name":"YAYLABEYİ KÖYÜ","zip":"57662"},{"name":"YENİKÖY KÖYÜ","zip":"57662"},{"name":"YORTAN MAH.","zip":"57662"},{"name":"YUKARIÇEKMEZ KÖYÜ","zip":"57662"},{"name":"YUKARIMAH. MAH.","zip":"57662"},{"name":"YUMAKLI KÖYÜ","zip":"57662"},{"name":"YUMMAT MAH.","zip":"57662"}]},{"name":"DURAĞAN","cityName":null,"quarters":[{"name":"BUZLUK MAH.","zip":"57700"},{"name":"GÖKIRMAK MAH.","zip":"57700"},{"name":"MERKEZ MAH.","zip":"57700"},{"name":"YEŞİLYURT MAH.","zip":"57700"}]},{"name":"MERKEZKÖYLER","cityName":null,"quarters":[{"name":"AKBEL ÇAYI MAH.","zip":"57702"},{"name":"AKBEL KÖYÜ","zip":"57702"},{"name":"AKBELÇAYI MAH.","zip":"57702"},{"name":"AKÇAALAN KÖYÜ","zip":"57702"},{"name":"AKÇABÜK KÖYÜ","zip":"57702"},{"name":"AKISKA MAH.","zip":"57702"},{"name":"AKPINAR KÖYÜ","zip":"57702"},{"name":"ALAN MAH.","zip":"57702"},{"name":"ALINCA MAH.","zip":"57702"},{"name":"ALPAŞALI KÖYÜ","zip":"57702"},{"name":"ALPUĞAN KÖYÜ","zip":"57702"},{"name":"AMBARGERİŞİ MAH.","zip":"57702"},{"name":"ASARCIK MAH.","zip":"57702"},{"name":"AŞAĞIAKBEL MAH.","zip":"57702"},{"name":"AŞAĞIAKÇABÜK MAH.","zip":"57702"},{"name":"AŞAĞIALINCA KÖYÜ","zip":"57702"},{"name":"AŞAĞIBAYAT MAH.","zip":"57702"},{"name":"AŞAĞIKARACAÖREN KÖYÜ","zip":"57702"},{"name":"AYVACIK KÖYÜ","zip":"57702"},{"name":"AYVATLI MAH.","zip":"57702"},{"name":"BAHÇECİK MAH.","zip":"57702"},{"name":"BAŞAĞAÇ KÖYÜ","zip":"57702"},{"name":"BAYAT KÖYÜ","zip":"57702"},{"name":"BEYARDIÇ KÖYÜ","zip":"57702"},{"name":"BEYBÜKÜ KÖYÜ","zip":"57702"},{"name":"BOSTANDERESİ MAH.","zip":"57702"},{"name":"BOYABÜKÜ KÖYÜ","zip":"57702"},{"name":"BOYALICA KÖYÜ","zip":"57702"},{"name":"BOYALICA MAH.","zip":"57702"},{"name":"BÜRBÜK MAH.","zip":"57702"},{"name":"BÜYÜKGEÇE MAH.","zip":"57702"},{"name":"BÜYÜKKOZLUCA MAH.","zip":"57702"},{"name":"BÜYÜKKOZLUCA YAYLASI MAH.","zip":"57702"},{"name":"CEVİZLİBAĞ KÖYÜ","zip":"57702"},{"name":"CİNCON DERESİ MAH.","zip":"57702"},{"name":"ÇADIRCIOĞLU MAH.","zip":"57702"},{"name":"ÇAKMAKLIK MAH.","zip":"57702"},{"name":"ÇALTUCAK KÖYÜ","zip":"57702"},{"name":"ÇAMLICA KÖYÜ","zip":"57702"},{"name":"ÇAMPAŞASAKIZI KÖYÜ","zip":"57702"},{"name":"ÇANDAĞI KÖYÜ","zip":"57702"},{"name":"ÇAŞIR MAH.","zip":"57702"},{"name":"ÇATAK MAH.","zip":"57702"},{"name":"ÇAYAĞZI KÖYÜ","zip":"57702"},{"name":"ÇERÇİLER KÖYÜ","zip":"57702"},{"name":"ÇİĞDEMCİ MAH.","zip":"57702"},{"name":"ÇOBANDERESİ MAH.","zip":"57702"},{"name":"ÇORAKYÜZÜ KÖYÜ","zip":"57702"},{"name":"ÇÖLLENDERESİ MAH.","zip":"57702"},{"name":"ÇÖVE KÖYÜ","zip":"57702"},{"name":"DAĞDELEN KÖYÜ","zip":"57702"},{"name":"DEDEGERİŞİ MAH.","zip":"57702"},{"name":"DEDELİ MAH.","zip":"57702"},{"name":"DERE MAH.","zip":"57702"},{"name":"DERELİ KÖYÜ","zip":"57702"},{"name":"EDİLLİ MAH.","zip":"57702"},{"name":"EMİRTOLU KÖYÜ","zip":"57702"},{"name":"ERDUASI KÖYÜ","zip":"57702"},{"name":"ERENKÖY KÖYÜ","zip":"57702"},{"name":"ERİCEK MAH.","zip":"57702"},{"name":"ESKİDAĞ MEVKİİ MAH.","zip":"57702"},{"name":"GELİNÇUKURU MAH.","zip":"57702"},{"name":"GÖKÇEBELEN KÖYÜ","zip":"57702"},{"name":"GÖKDOĞAN KÖYÜ","zip":"57702"},{"name":"GÖLALAN KÖYÜ","zip":"57702"},{"name":"GÖLGERİŞİ KÖYÜ","zip":"57702"},{"name":"GÖLYERİ MAH.","zip":"57702"},{"name":"GÖMÜRGEN DERESİ MAH.","zip":"57702"},{"name":"GÜNEY MAH.","zip":"57702"},{"name":"GÜNGÖREN KÖYÜ","zip":"57702"},{"name":"GÜRPINAR KÖYÜ","zip":"57702"},{"name":"HACILAR MAH.","zip":"57702"},{"name":"HACIMAHMUTLU KÖYÜ","zip":"57702"},{"name":"HACIOĞLAN KÖYÜ","zip":"57702"},{"name":"HALLO MAH.","zip":"57702"},{"name":"HARMANCUKURU MAH.","zip":"57702"},{"name":"HASAN ÇAVUŞLAR MAH.","zip":"57702"},{"name":"HASANOĞLU MAH.","zip":"57702"},{"name":"ISIRGANLIM MAH.","zip":"57702"},{"name":"İNCİR KÖYÜ","zip":"57702"},{"name":"KABAKÇILAR MAH.","zip":"57702"},{"name":"KABUT MAH.","zip":"57702"},{"name":"KAPLANGI KÖYÜ","zip":"57702"},{"name":"KARABEY MAH.","zip":"57702"},{"name":"KARAÇAM MAH.","zip":"57702"},{"name":"KARAÇAMGERİŞİ MAH.","zip":"57702"},{"name":"KARAÇUKUR MAH.","zip":"57702"},{"name":"KARADEĞİN MAH.","zip":"57702"},{"name":"KARAGÜNEY KÖYÜ","zip":"57702"},{"name":"KARAKÖY MAH.","zip":"57702"},{"name":"KARAMATLI MAH.","zip":"57702"},{"name":"KARANDU MEVKİİ MAH.","zip":"57702"},{"name":"KARATAŞ KÖYÜ","zip":"57702"},{"name":"KAVACIK MAH.","zip":"57702"},{"name":"KAVAK MAH.","zip":"57702"},{"name":"KAVAKLI KÖYÜ","zip":"57702"},{"name":"KAYABAŞI MAH.","zip":"57702"},{"name":"KAYAÇİFTLİĞİ MAH.","zip":"57702"},{"name":"KEMERBAHÇE KÖYÜ","zip":"57702"},{"name":"KERPİÇ MAH.","zip":"57702"},{"name":"KILIÇASLAN KÖYÜ","zip":"57702"},{"name":"KIRIKLA MAH.","zip":"57702"},{"name":"KIŞLA MAH.","zip":"57702"},{"name":"KIZILCAPELİT KÖYÜ","zip":"57702"},{"name":"KİRENCİK KÖYÜ","zip":"57702"},{"name":"KİRENCİK MAH.","zip":"57702"},{"name":"KİRENCİKOVASI MAH.","zip":"57702"},{"name":"KİRLİK MAH.","zip":"57702"},{"name":"KİSEKAŞI MAH.","zip":"57702"},{"name":"KOZLUCA MAH.","zip":"57702"},{"name":"KÖKÇELİK MAH.","zip":"57702"},{"name":"KÖKLEN KÖYÜ","zip":"57702"},{"name":"KÖSELİ KÖYÜ","zip":"57702"},{"name":"KÖYALAN MAH.","zip":"57702"},{"name":"KUNDUZ MAH.","zip":"57702"},{"name":"KURTHASAN MAH.","zip":"57702"},{"name":"KUSGUNCUK MAH.","zip":"57702"},{"name":"KUZ KÖYÜ","zip":"57702"},{"name":"KUZ MEVKİİ MAH.","zip":"57702"},{"name":"KUZULUK KÖYÜ","zip":"57702"},{"name":"KÜÇÜKKOZLUCA MAH.","zip":"57702"},{"name":"KÜRTLER MAH.","zip":"57702"},{"name":"KÜTÜKLER MAH.","zip":"57702"},{"name":"MERKEZ MAH.","zip":"57702"},{"name":"MERKEZORTABAYAT MAH.","zip":"57702"},{"name":"NURHANCIK MAH.","zip":"57702"},{"name":"OKCULAR MAH.","zip":"57702"},{"name":"OLUCAK KÖYÜ","zip":"57702"},{"name":"OLUKBAŞI KÖYÜ","zip":"57702"},{"name":"ORTAKÖY KÖYÜ","zip":"57702"},{"name":"ORTATEPE MAH.","zip":"57702"},{"name":"SAKIZCIK MAH.","zip":"57702"},{"name":"SALARKOLU KÖYÜ","zip":"57702"},{"name":"SARIKADI KÖYÜ","zip":"57702"},{"name":"SARIKÖSELER MAH.","zip":"57702"},{"name":"SARIOĞLU MAH.","zip":"57702"},{"name":"SARITAŞ MAH.","zip":"57702"},{"name":"SARIYAR KÖYÜ","zip":"57702"},{"name":"SARNIÇ MAH.","zip":"57702"},{"name":"SARNIKALINCASI KÖYÜ","zip":"57702"},{"name":"SARPIN MAH.","zip":"57702"},{"name":"SOFULAR KÖYÜ","zip":"57702"},{"name":"SÖKÜ MAH.","zip":"57702"},{"name":"SULUÇUKUR MAH.","zip":"57702"},{"name":"ŞEHİTLİ MAH.","zip":"57702"},{"name":"TANTIR MAH.","zip":"57702"},{"name":"TATLISU MAH.","zip":"57702"},{"name":"TAVŞANLI MAH.","zip":"57702"},{"name":"TEKEOYNAĞI MAH.","zip":"57702"},{"name":"TEKİRYAYLASI MAH.","zip":"57702"},{"name":"ULUPINAR KÖYÜ","zip":"57702"},{"name":"UZUNÖZ KÖYÜ","zip":"57702"},{"name":"YAĞBASAN KÖYÜ","zip":"57702"},{"name":"YALNIZKAVAK KÖYÜ","zip":"57702"},{"name":"YANALAK KÖYÜ","zip":"57702"},{"name":"YANDAK KÖYÜ","zip":"57702"},{"name":"YAPRAKLI TARLA MAH.","zip":"57702"},{"name":"YASSIALAN KÖYÜ","zip":"57702"},{"name":"YEMİŞEN KÖYÜ","zip":"57702"},{"name":"YENİKÖY KÖYÜ","zip":"57702"},{"name":"YEŞİLKENT KÖYÜ","zip":"57702"},{"name":"YEŞİLYURT KÖYÜ","zip":"57702"},{"name":"YÖRÜK MAH.","zip":"57702"},{"name":"YUKARI KUGUNCUK MAH.","zip":"57702"},{"name":"YUKARI MAH.","zip":"57702"},{"name":"YUKARIAKÇABÜK MAH.","zip":"57702"},{"name":"YUKARIKARACAÖREN KÖYÜ","zip":"57702"},{"name":"YÜREK MAH.","zip":"57702"},{"name":"ZIPIROĞLU MAH.","zip":"57702"}]},{"name":"ERFELEK","cityName":null,"quarters":[{"name":"MERKEZ MAH.","zip":"57800"},{"name":"SALAVAT MAH.","zip":"57800"}]},{"name":"MERKEZKÖYLER","cityName":null,"quarters":[{"name":"ABDURRAHMANPAŞA KÖYÜ","zip":"57802"},{"name":"ABİDİNOĞLU MAH.","zip":"57802"},{"name":"ACISU MAH.","zip":"57802"},{"name":"AÇMA MAH.","zip":"57802"},{"name":"AĞARMUT MAH.","zip":"57802"},{"name":"AĞIT MAH.","zip":"57802"},{"name":"AHAT MAH.","zip":"57802"},{"name":"AHATLI MAH.","zip":"57802"},{"name":"AHMETMUHİPDIRANAS KÖYÜ","zip":"57802"},{"name":"AKCAÇAM KÖYÜ","zip":"57802"},{"name":"AKCASÖĞÜT KÖYÜ","zip":"57802"},{"name":"AKPINAR MAH.","zip":"57802"},{"name":"ALAKOCA MAH.","zip":"57802"},{"name":"ANDIR MAH.","zip":"57802"},{"name":"ARABADURAĞI MAH.","zip":"57802"},{"name":"ARAP HOCA MAH.","zip":"57802"},{"name":"ARAP MAH.","zip":"57802"},{"name":"AŞA MAH.","zip":"57802"},{"name":"AŞAĞI GİDİK MAH.","zip":"57802"},{"name":"AŞAĞI KARABAĞ MAH.","zip":"57802"},{"name":"AŞAĞI SALUR MAH.","zip":"57802"},{"name":"AŞAĞI TEKKE MAH.","zip":"57802"},{"name":"AŞAĞISÖKÜ MAH.","zip":"57802"},{"name":"AŞÇOĞLU MAH.","zip":"57802"},{"name":"ATBAKI MAH.","zip":"57802"},{"name":"AVCIOLUK MAH.","zip":"57802"},{"name":"AVLAĞASÖKÜ KÖYÜ","zip":"57802"},{"name":"AYDIN MAH.","zip":"57802"},{"name":"AYDINLAR KÖYÜ","zip":"57802"},{"name":"BAL MAH.","zip":"57802"},{"name":"BALCI MAH.","zip":"57802"},{"name":"BALIFAKI KÖYÜ","zip":"57802"},{"name":"BAŞARAN KÖYÜ","zip":"57802"},{"name":"BATI MAH.","zip":"57802"},{"name":"BAYKADIN MAH.","zip":"57802"},{"name":"BAYRAMLI MAH.","zip":"57802"},{"name":"BEKTAŞ MAH.","zip":"57802"},{"name":"BELEN MAH.","zip":"57802"},{"name":"BELENCİK MAH.","zip":"57802"},{"name":"BIÇAKCI MAH.","zip":"57802"},{"name":"BIYIKLIOĞLU MAH.","zip":"57802"},{"name":"BÜYÜKDÜZ MAH.","zip":"57802"},{"name":"ÇAKIR MAH.","zip":"57802"},{"name":"ÇAKMAKLI MAH.","zip":"57802"},{"name":"ÇAL MAH.","zip":"57802"},{"name":"ÇARDAKLI MAH.","zip":"57802"},{"name":"ÇATAK MAH.","zip":"57802"},{"name":"ÇAVUŞAĞA MAH.","zip":"57802"},{"name":"ÇAYIRKÖY KÖYÜ","zip":"57802"},{"name":"ÇAYKAŞI MAH.","zip":"57802"},{"name":"ÇELEN MAH.","zip":"57802"},{"name":"ÇELİK MAH.","zip":"57802"},{"name":"ÇİCELİ MAH.","zip":"57802"},{"name":"ÇOBANOĞLU MAH.","zip":"57802"},{"name":"ÇUKUR MAH.","zip":"57802"},{"name":"DACCAOĞLU MAH.","zip":"57802"},{"name":"DAĞLAR MAH.","zip":"57802"},{"name":"DAĞYERİ KÖYÜ","zip":"57802"},{"name":"DARLIK MAH.","zip":"57802"},{"name":"DAVUTÇU MAH.","zip":"57802"},{"name":"DEDE MAH.","zip":"57802"},{"name":"DEĞİRMENBAŞI MAH.","zip":"57802"},{"name":"DEĞİRMENCİLİ KÖYÜ","zip":"57802"},{"name":"DEMİRCİ MAH.","zip":"57802"},{"name":"DENİZGÖL MAH.","zip":"57802"},{"name":"DERE MAH.","zip":"57802"},{"name":"DEREKÖY KÖYÜ","zip":"57802"},{"name":"DİLBER MAH.","zip":"57802"},{"name":"DOĞANDAĞ MAH.","zip":"57802"},{"name":"DÜZLER MAH.","zip":"57802"},{"name":"EMİNE MAH.","zip":"57802"},{"name":"EMİRALİ MAH.","zip":"57802"},{"name":"EMİRHALİL KÖYÜ","zip":"57802"},{"name":"EROL MAH.","zip":"57802"},{"name":"ERPELEK MAH.","zip":"57802"},{"name":"ESKİCİ MAH.","zip":"57802"},{"name":"ETE MAH.","zip":"57802"},{"name":"GANİOĞLU MAH.","zip":"57802"},{"name":"GAZİ MAH.","zip":"57802"},{"name":"GEBEGÜNEYİ MAH.","zip":"57802"},{"name":"GOĞUZ MAH.","zip":"57802"},{"name":"GOSPARA MAH.","zip":"57802"},{"name":"GÖCÜK MAH.","zip":"57802"},{"name":"GÖÇERİ MAH.","zip":"57802"},{"name":"GÖÇGÜN MAH.","zip":"57802"},{"name":"GÖKÇAM MAH.","zip":"57802"},{"name":"GÖKÇEBEL KÖYÜ","zip":"57802"},{"name":"GÖKTEPE MAH.","zip":"57802"},{"name":"GÖLALTI MAH.","zip":"57802"},{"name":"GÖLLER MAH.","zip":"57802"},{"name":"GÜLİSTAN MAH.","zip":"57802"},{"name":"GÜLYAN MAH.","zip":"57802"},{"name":"GÜMÜŞSUYU KÖYÜ","zip":"57802"},{"name":"GÜNEY MAH.","zip":"57802"},{"name":"GÜNYAMA MAH.","zip":"57802"},{"name":"GÜRCÜLER MAH.","zip":"57802"},{"name":"GÜVEN KÖYÜ","zip":"57802"},{"name":"GÜVENDİK MAH.","zip":"57802"},{"name":"HACIBEY MAH.","zip":"57802"},{"name":"HACILAR KÖYÜ","zip":"57802"},{"name":"HACILAR MAH.","zip":"57802"},{"name":"HALİL USTAOĞLU MAH.","zip":"57802"},{"name":"HAMİDİYE KÖYÜ","zip":"57802"},{"name":"HAMZAOĞLU MAH.","zip":"57802"},{"name":"HASANAĞA MAH.","zip":"57802"},{"name":"HASANDERE KÖYÜ","zip":"57802"},{"name":"HAYTASUYU MAH.","zip":"57802"},{"name":"HIDIROĞLU MAH.","zip":"57802"},{"name":"HİMMETOĞLU KÖYÜ","zip":"57802"},{"name":"HODUL MAH.","zip":"57802"},{"name":"HOPAÇOĞLU MAH.","zip":"57802"},{"name":"HORZUM KÖYÜ","zip":"57802"},{"name":"HÜRREMŞAH KÖYÜ","zip":"57802"},{"name":"İĞNER MAH.","zip":"57802"},{"name":"İKİTCE MAH.","zip":"57802"},{"name":"İNCEKARA MAH.","zip":"57802"},{"name":"İNCEMEYDAN MAH.","zip":"57802"},{"name":"İNCİRPINARI KÖYÜ","zip":"57802"},{"name":"İNESÖKÜ KÖYÜ","zip":"57802"},{"name":"KABALI MAH.","zip":"57802"},{"name":"KADEM ÇAVUŞ MAH.","zip":"57802"},{"name":"KALAYCI MAH.","zip":"57802"},{"name":"KALDIRAYAK KÖYÜ","zip":"57802"},{"name":"KALDIRAYAK MAH.","zip":"57802"},{"name":"KANADOĞLU MAH.","zip":"57802"},{"name":"KANLICA MAH.","zip":"57802"},{"name":"KAPANDÜZÜ MAH.","zip":"57802"},{"name":"KAPUZ MAH.","zip":"57802"},{"name":"KARA İBRAHİM MAH.","zip":"57802"},{"name":"KARA KÖY MAH.","zip":"57802"},{"name":"KARABACAK MAH.","zip":"57802"},{"name":"KARABAĞ MAH.","zip":"57802"},{"name":"KARABAĞI MAH.","zip":"57802"},{"name":"KARABEY MAH.","zip":"57802"},{"name":"KARACAAĞAÇ MAH.","zip":"57802"},{"name":"KARACAKÖY KÖYÜ","zip":"57802"},{"name":"KARAÇAYIR MAH.","zip":"57802"},{"name":"KAŞBAŞ MAH.","zip":"57802"},{"name":"KAŞBAŞI MAH.","zip":"57802"},{"name":"KAYA BAŞI MAH.","zip":"57802"},{"name":"KAYAALTI MAH.","zip":"57802"},{"name":"KAYALI MAH.","zip":"57802"},{"name":"KAZMASÖKÜ KÖYÜ","zip":"57802"},{"name":"KEMERLİ MAH.","zip":"57802"},{"name":"KENAR MAH.","zip":"57802"},{"name":"KIRALI MAH.","zip":"57802"},{"name":"KIRAN MAH.","zip":"57802"},{"name":"KIRAYOL MAH.","zip":"57802"},{"name":"KIRIK ÖMER MAH.","zip":"57802"},{"name":"KIŞLA MAH.","zip":"57802"},{"name":"KIZILCAELMA KÖYÜ","zip":"57802"},{"name":"KIZILCAOT KÖYÜ","zip":"57802"},{"name":"KİRAZLI MAH.","zip":"57802"},{"name":"KİRAZLIK KÖYÜ","zip":"57802"},{"name":"KOCAOĞLU MAH.","zip":"57802"},{"name":"KOÇCUVAZ MAH.","zip":"57802"},{"name":"KONAK MAH.","zip":"57802"},{"name":"KOZAK MAH.","zip":"57802"},{"name":"KÖLE MAH.","zip":"57802"},{"name":"KÖLEÇ MAH.","zip":"57802"},{"name":"KÖMEÇ MAH.","zip":"57802"},{"name":"KÖRKUYU MAH.","zip":"57802"},{"name":"KURADA MAH.","zip":"57802"},{"name":"KURCALI KÖYÜ","zip":"57802"},{"name":"KURT MAH.","zip":"57802"},{"name":"KUSURİ MAH.","zip":"57802"},{"name":"KUZ MAH.","zip":"57802"},{"name":"KUZLU MAH.","zip":"57802"},{"name":"KÜMES MAH.","zip":"57802"},{"name":"KÜNEKLİ MAH.","zip":"57802"},{"name":"KÜRTKONAĞI MAH.","zip":"57802"},{"name":"MADENOĞLU MAH.","zip":"57802"},{"name":"MERKEZ MAH.","zip":"57802"},{"name":"MERKEZ SOĞUKCASU MAH.","zip":"57802"},{"name":"MESCİTDÜZÜ KÖYÜ","zip":"57802"},{"name":"MESTAN MAH.","zip":"57802"},{"name":"MEYDAN KÖYÜ","zip":"57802"},{"name":"MEYDAN MAH.","zip":"57802"},{"name":"MİYET MAH.","zip":"57802"},{"name":"MOLLA MAH.","zip":"57802"},{"name":"MORGÜL MAH.","zip":"57802"},{"name":"MUSAOĞLU MAH.","zip":"57802"},{"name":"MUSTAFA PAŞA MAH.","zip":"57802"},{"name":"MÜEZZİNOĞLU MAH.","zip":"57802"},{"name":"NAZAR MAH.","zip":"57802"},{"name":"OBRUK MAH.","zip":"57802"},{"name":"OLUKALTI MAH.","zip":"57802"},{"name":"OMUR MAH.","zip":"57802"},{"name":"ORAKLI MAH.","zip":"57802"},{"name":"ORDULULAR MAH.","zip":"57802"},{"name":"ORMANTEPE KÖYÜ","zip":"57802"},{"name":"ORNAMAZ MAH.","zip":"57802"},{"name":"ORTA MAH.","zip":"57802"},{"name":"OYMATAŞ MAH.","zip":"57802"},{"name":"OZAN MAH.","zip":"57802"},{"name":"ÖKÜZ KÖYÜ MAH.","zip":"57802"},{"name":"ÖTEGEÇE MAH.","zip":"57802"},{"name":"RAM MAH.","zip":"57802"},{"name":"RAMLI MAH.","zip":"57802"},{"name":"SABOĞLU MAH.","zip":"57802"},{"name":"SAKAOĞLU MAH.","zip":"57802"},{"name":"SAKUL MAH.","zip":"57802"},{"name":"SALBAT MAH.","zip":"57802"},{"name":"SALI KÖYÜ","zip":"57802"},{"name":"SAMÇOOĞLU MAH.","zip":"57802"},{"name":"SAPTUHAN MAH.","zip":"57802"},{"name":"SARIBOĞA KÖYÜ","zip":"57802"},{"name":"SAVUÇCU MAH.","zip":"57802"},{"name":"SELBEYİ KÖYÜ","zip":"57802"},{"name":"SELÇEK MAH.","zip":"57802"},{"name":"SIPKIN MAH.","zip":"57802"},{"name":"SOĞUCALI KÖYÜ","zip":"57802"},{"name":"SORGUN KÖYÜ","zip":"57802"},{"name":"SÖKÜ MAH.","zip":"57802"},{"name":"ŞAMI MAH.","zip":"57802"},{"name":"ŞAMLIOĞLU MAH.","zip":"57802"},{"name":"ŞEFOĞLU MAH.","zip":"57802"},{"name":"ŞEREFİYE KÖYÜ","zip":"57802"},{"name":"ŞEREFLOĞLU MAH.","zip":"57802"},{"name":"ŞEVİT MAH.","zip":"57802"},{"name":"ŞIFLAR MAH.","zip":"57802"},{"name":"TAFANA MAH.","zip":"57802"},{"name":"TAŞKİRİŞİ MAH.","zip":"57802"},{"name":"TAŞTEPE MAH.","zip":"57802"},{"name":"TATLICA KÖYÜ","zip":"57802"},{"name":"TATUR MAH.","zip":"57802"},{"name":"TAVŞAN MAH.","zip":"57802"},{"name":"TEKKE KÖYÜ","zip":"57802"},{"name":"TEKKE MAH.","zip":"57802"},{"name":"TEKNE MAH.","zip":"57802"},{"name":"TEPE MAH.","zip":"57802"},{"name":"TERZİYERİ MAH.","zip":"57802"},{"name":"TOMBUL KÖYÜ","zip":"57802"},{"name":"TOMBUL MAH.","zip":"57802"},{"name":"TOPCU MAH.","zip":"57802"},{"name":"TORUŞ MAH.","zip":"57802"},{"name":"UFACIK AĞAÇ MAH.","zip":"57802"},{"name":"UFACIKAĞAÇ MAH.","zip":"57802"},{"name":"UMUT MAH.","zip":"57802"},{"name":"USTA MAH.","zip":"57802"},{"name":"VEYSEL KÖYÜ","zip":"57802"},{"name":"Y.DOĞAN YUVASI MAH.","zip":"57802"},{"name":"YAĞCI MAH.","zip":"57802"},{"name":"YAKA MAH.","zip":"57802"},{"name":"YENİ KÖY MAH.","zip":"57802"},{"name":"YENİ MAH.","zip":"57802"},{"name":"YENİÇAM KÖYÜ","zip":"57802"},{"name":"YENİKÖY KÖYÜ","zip":"57802"},{"name":"YEŞİLOĞLU MAH.","zip":"57802"},{"name":"YILDIZ MAH.","zip":"57802"},{"name":"YOĞURCU MAH.","zip":"57802"},{"name":"YORTAN MAH.","zip":"57802"},{"name":"YOZGONAT MAH.","zip":"57802"},{"name":"YUKARI GİDİK MAH.","zip":"57802"},{"name":"YUKARI MAH.","zip":"57802"},{"name":"YUKARI SALUR MAH.","zip":"57802"},{"name":"YUKARI TEKKE MAH.","zip":"57802"}]},{"name":"GERZE","cityName":null,"quarters":[{"name":"ATATÜRK MAH.","zip":"57600"},{"name":"CUMHURİYET MAH.","zip":"57600"},{"name":"ÇARŞI MAH.","zip":"57600"},{"name":"HAMİDİYE MAH.","zip":"57600"},{"name":"KÖŞK MAH.","zip":"57600"},{"name":"YENİ MAH.","zip":"57600"}]},{"name":"MERKEZKÖYLER","cityName":null,"quarters":[{"name":"ABDALOĞLU MÜCAVİR MAH.","zip":"57602"},{"name":"ACISU KÖYÜ","zip":"57602"},{"name":"AĞUSTOSLU MAH.","zip":"57602"},{"name":"AHMETOĞLU MAH.","zip":"57602"},{"name":"AKBAŞ MAH.","zip":"57602"},{"name":"AKÇAKESE MAH.","zip":"57602"},{"name":"AKÇAÖREN MAH.","zip":"57602"},{"name":"AKGÜNEY KÖYÜ","zip":"57602"},{"name":"AKKIRAÇ KÖYÜ","zip":"57602"},{"name":"AKMANLI MAH.","zip":"57602"},{"name":"ALIÇLI MAH.","zip":"57602"},{"name":"ALİ YAZICI MAH.","zip":"57602"},{"name":"ALİBEY MAH.","zip":"57602"},{"name":"ALOĞLU MAH.","zip":"57602"},{"name":"ALTINYAYLA KÖYÜ","zip":"57602"},{"name":"AŞA MAH.","zip":"57602"},{"name":"AŞAĞI AKGÜNEY MAH.","zip":"57602"},{"name":"AŞAĞI MAH.","zip":"57602"},{"name":"AŞAĞI ŞAHİNOĞLU MAH.","zip":"57602"},{"name":"AŞAĞI YAMACIK MAH.","zip":"57602"},{"name":"AVLAĞISÖKÜ MAH.","zip":"57602"},{"name":"AVLANLI MAH.","zip":"57602"},{"name":"AVLO SÖKÜ KOOPERATİFİ MAH.","zip":"57602"},{"name":"AYVATLI MAH.","zip":"57602"},{"name":"BAĞŞILI MAH.","zip":"57602"},{"name":"BAHÇE MAH.","zip":"57602"},{"name":"BAKAOĞLU MAH.","zip":"57602"},{"name":"BARATOĞLU MAH.","zip":"57602"},{"name":"BAŞSÖKÜ KÖYÜ","zip":"57602"},{"name":"BAYRAKTAR MAH.","zip":"57602"},{"name":"BECEOĞLU MAH.","zip":"57602"},{"name":"BEHRAMOĞLU MAH.","zip":"57602"},{"name":"BEKTAŞOĞLU MAH.","zip":"57602"},{"name":"BELÖREN KÖYÜ","zip":"57602"},{"name":"BEYNİ MAH.","zip":"57602"},{"name":"BODUROĞLU MAH.","zip":"57602"},{"name":"BOLALI KÖYÜ","zip":"57602"},{"name":"BORGAN MAH.","zip":"57602"},{"name":"BOYALI KÖYÜ","zip":"57602"},{"name":"BOYALICA KÖYÜ","zip":"57602"},{"name":"BOYPINAR MAH.","zip":"57602"},{"name":"BULVAR YAPI KOOPARATİFİ MAH.","zip":"57602"},{"name":"BURUNCUK MAH.","zip":"57602"},{"name":"BÜYÜKSÜNOĞLU MAH.","zip":"57602"},{"name":"CİLAZ MAH.","zip":"57602"},{"name":"CİNGİLOĞLU MAH.","zip":"57602"},{"name":"CONGUROĞLU MAH.","zip":"57602"},{"name":"COROĞLU MAH.","zip":"57602"},{"name":"ÇAĞLAYAN KÖYÜ","zip":"57602"},{"name":"ÇAKALLI KÖYÜ","zip":"57602"},{"name":"ÇAKILLI MAH.","zip":"57602"},{"name":"ÇALBOĞAZ MAH.","zip":"57602"},{"name":"ÇALIK MAH.","zip":"57602"},{"name":"ÇALLI MAH.","zip":"57602"},{"name":"ÇAVDAR MAH.","zip":"57602"},{"name":"ÇEÇE MAH.","zip":"57602"},{"name":"ÇELEBİ MAH.","zip":"57602"},{"name":"ÇERKEZLİ MAH.","zip":"57602"},{"name":"ÇEŞLER MAH.","zip":"57602"},{"name":"ÇIRNIK KÖYÜ","zip":"57602"},{"name":"ÇİFTÇİ MAH.","zip":"57602"},{"name":"ÇOMOĞLU MAH.","zip":"57602"},{"name":"ÇOTOĞLU MAH.","zip":"57602"},{"name":"ÇÖREKÇİ MAH.","zip":"57602"},{"name":"DAYLI MAH.","zip":"57602"},{"name":"DEĞİRMENCİLLİ MAH.","zip":"57602"},{"name":"DEĞİRMENÇİ MAH.","zip":"57602"},{"name":"DELLOOĞLU MAH.","zip":"57602"},{"name":"DEMİR MAH.","zip":"57602"},{"name":"DEMİRCİ MAH.","zip":"57602"},{"name":"DEMİRCİOĞLU MAH.","zip":"57602"},{"name":"DENİZÇUKURU MAH.","zip":"57602"},{"name":"DERE KÖY MAH.","zip":"57602"},{"name":"DERE MAH.","zip":"57602"},{"name":"DEREAĞLI MAH.","zip":"57602"},{"name":"DERELİ MAH.","zip":"57602"},{"name":"DEVRET MAH.","zip":"57602"},{"name":"DIRASILLI MAH.","zip":"57602"},{"name":"DİVLİOĞLU MAH.","zip":"57602"},{"name":"DOMUZ DAMI MAH.","zip":"57602"},{"name":"DORAMAN MAH.","zip":"57602"},{"name":"DORO MAH.","zip":"57602"},{"name":"DRANAZ MAH.","zip":"57602"},{"name":"DÜZDEĞİRMEN MAH.","zip":"57602"},{"name":"EDÜLLÜ MAH.","zip":"57602"},{"name":"EKŞİOĞLU MAH.","zip":"57602"},{"name":"ELTİYEERİ MAH.","zip":"57602"},{"name":"EMİNÇAVUŞ MAH.","zip":"57602"},{"name":"EMİNKAHYA MAH.","zip":"57602"},{"name":"EMİR MAH.","zip":"57602"},{"name":"ERCE MAH.","zip":"57602"},{"name":"ESBELİ MAH.","zip":"57602"},{"name":"EYNEDÜL MAH.","zip":"57602"},{"name":"FALCIOĞLU MAH.","zip":"57602"},{"name":"FERHATLI MAH.","zip":"57602"},{"name":"GACER MAH.","zip":"57602"},{"name":"GAFFAR MAH.","zip":"57602"},{"name":"GALAÇ MAH.","zip":"57602"},{"name":"GAVLANPINARI MAH.","zip":"57602"},{"name":"GERDEME MAH.","zip":"57602"},{"name":"GONO MAH.","zip":"57602"},{"name":"GÖLÜ MAH.","zip":"57602"},{"name":"GÖZSÖKÜ MAH.","zip":"57602"},{"name":"GÜBROĞLU MAH.","zip":"57602"},{"name":"GÜRLÜK MAH.","zip":"57602"},{"name":"GÜRSÖKÜ KÖYÜ","zip":"57602"},{"name":"GÜZELYURT KÖYÜ","zip":"57602"},{"name":"HACI MAH.","zip":"57602"},{"name":"HACILAR MAH.","zip":"57602"},{"name":"HACIOSMAN MAH.","zip":"57602"},{"name":"HACISELLİ KÖYÜ","zip":"57602"},{"name":"HAMİTKAHYA MAH.","zip":"57602"},{"name":"HANÇER MAH.","zip":"57602"},{"name":"HASANOĞLU MAH.","zip":"57602"},{"name":"HATİPLER MAH.","zip":"57602"},{"name":"HATİPOĞLU MAH.","zip":"57602"},{"name":"HIDIRLI KÖYÜ","zip":"57602"},{"name":"HİZARÇAYI KÖYÜ","zip":"57602"},{"name":"HOCALI MAH.","zip":"57602"},{"name":"İBRAHİMLİ MAH.","zip":"57602"},{"name":"İDEMLİ MAH.","zip":"57602"},{"name":"İMAMLI MAH.","zip":"57602"},{"name":"İMAMOĞLU MAH.","zip":"57602"},{"name":"İSLAMOĞLU MAH.","zip":"57602"},{"name":"KABAAĞAÇ MAH.","zip":"57602"},{"name":"KABANLAR KÖYÜ","zip":"57602"},{"name":"KAÇAK MAH.","zip":"57602"},{"name":"KADAĞLU MAH.","zip":"57602"},{"name":"KADI MAH.","zip":"57602"},{"name":"KADILAR MAH.","zip":"57602"},{"name":"KADIOĞLU MAH.","zip":"57602"},{"name":"KAHRAMANELİ KÖYÜ","zip":"57602"},{"name":"KALAŞLI MAH.","zip":"57602"},{"name":"KAPTAN MAH.","zip":"57602"},{"name":"KARABAYRAM MAH.","zip":"57602"},{"name":"KARABİCOĞLU MAH.","zip":"57602"},{"name":"KARACAKAYA MAH.","zip":"57602"},{"name":"KARACOROĞLU MAH.","zip":"57602"},{"name":"KARAÇAYIR MAH.","zip":"57602"},{"name":"KARADERBENT MAH.","zip":"57602"},{"name":"KARAGÖL MAH.","zip":"57602"},{"name":"KARAHASAN MAH.","zip":"57602"},{"name":"KARAKAYA MAH.","zip":"57602"},{"name":"KARAKÜTÜK MAH.","zip":"57602"},{"name":"KARALI MAH.","zip":"57602"},{"name":"KARAMANLI MAH.","zip":"57602"},{"name":"KARANLIK MAH.","zip":"57602"},{"name":"KARAT MAH.","zip":"57602"},{"name":"KARBOĞ MAH.","zip":"57602"},{"name":"KAREVLİ MAH.","zip":"57602"},{"name":"KARLI KÖYÜ","zip":"57602"},{"name":"KARSLIOĞLU MAH.","zip":"57602"},{"name":"KARŞI MAH.","zip":"57602"},{"name":"KATIRCILAR MAH.","zip":"57602"},{"name":"KAVACIK MAH.","zip":"57602"},{"name":"KAVGACILI MAH.","zip":"57602"},{"name":"KAYA MAH.","zip":"57602"},{"name":"KAYABAŞI MAH.","zip":"57602"},{"name":"KAYIBUCAĞI MAH.","zip":"57602"},{"name":"KEKLOOĞLU MAH.","zip":"57602"},{"name":"KELLEŞOĞLU MAH.","zip":"57602"},{"name":"KEMER MAH.","zip":"57602"},{"name":"KEMERLİ MAH.","zip":"57602"},{"name":"KILAVUZ MAH.","zip":"57602"},{"name":"KIRAN MAH.","zip":"57602"},{"name":"KIRDILLI MAH.","zip":"57602"},{"name":"KIRIKLI MAH.","zip":"57602"},{"name":"KIŞLA MAH.","zip":"57602"},{"name":"KIZILCALI KÖYÜ","zip":"57602"},{"name":"KIZILCALI MAH.","zip":"57602"},{"name":"KİREN MAH.","zip":"57602"},{"name":"KİRENÇUKURU KÖYÜ","zip":"57602"},{"name":"KİRENLİ MAH.","zip":"57602"},{"name":"KORUZ MAH.","zip":"57602"},{"name":"KÖRÜKLÜ MAH.","zip":"57602"},{"name":"KÖSELLİ MAH.","zip":"57602"},{"name":"KÖSEOĞLU MAH.","zip":"57602"},{"name":"KULOĞLU MAH.","zip":"57602"},{"name":"KUMANDAN MAH.","zip":"57602"},{"name":"KURTİNİ MAH.","zip":"57602"},{"name":"KUŞ MAH.","zip":"57602"},{"name":"KUŞÇA MAH.","zip":"57602"},{"name":"KUZ MAH.","zip":"57602"},{"name":"KUZSÖKÜ KÖYÜ","zip":"57602"},{"name":"KÜÇÜK SANAYİ SİTESİ MAH.","zip":"57602"},{"name":"KÜÇÜKOĞLU MAH.","zip":"57602"},{"name":"KÜRTOĞLU MAH.","zip":"57602"},{"name":"KÜTOĞLU MAH.","zip":"57602"},{"name":"MAHMUTOĞLU MAH.","zip":"57602"},{"name":"MAHMUTTIRI KÖYÜ","zip":"57602"},{"name":"MEMİ MAH.","zip":"57602"},{"name":"MENOĞLU MAH.","zip":"57602"},{"name":"MERKEZ MAH.","zip":"57602"},{"name":"MEŞELİK MAH.","zip":"57602"},{"name":"MITRIZ MAH.","zip":"57602"},{"name":"MIZRAKLI MAH.","zip":"57602"},{"name":"MIZRALI MAH.","zip":"57602"},{"name":"MUTATLAR MAH.","zip":"57602"},{"name":"MÜLÇÜ MAH.","zip":"57602"},{"name":"NOĞUMLU MAH.","zip":"57602"},{"name":"ORTA MAH.","zip":"57602"},{"name":"ORTA YAMACIK MAH.","zip":"57602"},{"name":"ÖKSÜZOĞLU MAH.","zip":"57602"},{"name":"ÖMEROĞLU MAH.","zip":"57602"},{"name":"PİRAHMET KÖYÜ","zip":"57602"},{"name":"RANLI MAH.","zip":"57602"},{"name":"RESULOĞLU MAH.","zip":"57602"},{"name":"REŞLOLU MAH.","zip":"57602"},{"name":"SAĞIRKAHYA MAH.","zip":"57602"},{"name":"SAĞIROĞLU MAH.","zip":"57602"},{"name":"SALAR MAH.","zip":"57602"},{"name":"SARAÇLI MAH.","zip":"57602"},{"name":"SARI MAH.","zip":"57602"},{"name":"SARIMSAK KÖYÜ","zip":"57602"},{"name":"SARIYER KÖYÜ","zip":"57602"},{"name":"SARNIÇ KÖYÜ","zip":"57602"},{"name":"SARNIÇ MAH.","zip":"57602"},{"name":"SAZAK KÖYÜ","zip":"57602"},{"name":"SAZAKLIOĞLU MAH.","zip":"57602"},{"name":"SERDAR MAH.","zip":"57602"},{"name":"SEVİNCER MAH.","zip":"57602"},{"name":"SEYMENLİ MAH.","zip":"57602"},{"name":"SİNDELİ MAH.","zip":"57602"},{"name":"SOFUOĞLU MAH.","zip":"57602"},{"name":"SOĞUKSU MAH.","zip":"57602"},{"name":"SORKUN KÖYÜ","zip":"57602"},{"name":"SÖĞMELİ MAH.","zip":"57602"},{"name":"SUCAFUS MAH.","zip":"57602"},{"name":"SÜNETÇİ MAH.","zip":"57602"},{"name":"SÜTCÜLÜ MAH.","zip":"57602"},{"name":"ŞAHİNOĞLU MAH.","zip":"57602"},{"name":"ŞARAPÇIOĞLU MAH.","zip":"57602"},{"name":"ŞERBETLİ MAH.","zip":"57602"},{"name":"ŞEYH MAH.","zip":"57602"},{"name":"ŞEYHLİ KÖYÜ","zip":"57602"},{"name":"ŞEYHLİ MAH.","zip":"57602"},{"name":"ŞIHLI MAH.","zip":"57602"},{"name":"ŞİRİN BELDE YAPI KOOPARATİFİ MAH.","zip":"57602"},{"name":"TANGA MAH.","zip":"57602"},{"name":"TANGALOĞLU MAH.","zip":"57602"},{"name":"TAŞÇIOĞLU MAH.","zip":"57602"},{"name":"TAŞLI MAH.","zip":"57602"},{"name":"TAŞLIOĞLU MAH.","zip":"57602"},{"name":"TATLICAK KÖYÜ","zip":"57602"},{"name":"TAZIOĞLU MAH.","zip":"57602"},{"name":"TEKASANOĞLU MAH.","zip":"57602"},{"name":"TEKKE MAH.","zip":"57602"},{"name":"TELBİSOĞLU MAH.","zip":"57602"},{"name":"TEPE MAH.","zip":"57602"},{"name":"TEPEALTI KÖYÜ","zip":"57602"},{"name":"TIYIR MAH.","zip":"57602"},{"name":"TİLKİLİK ALTI MAH.","zip":"57602"},{"name":"TİRYAKİ MAH.","zip":"57602"},{"name":"TOKUŞLAR KÖYÜ","zip":"57602"},{"name":"TONGELSOKAĞI MAH.","zip":"57602"},{"name":"TOPALOĞLU MAH.","zip":"57602"},{"name":"TÜKETLİ MAH.","zip":"57602"},{"name":"TÜLO MAH.","zip":"57602"},{"name":"TÜRKMEN KÖYÜ","zip":"57602"},{"name":"TÜRKMENLİOĞLU KÖYÜ","zip":"57602"},{"name":"USTAOĞLU MAH.","zip":"57602"},{"name":"UZUNMUSA MAH.","zip":"57602"},{"name":"YAKADİBİ KÖYÜ","zip":"57602"},{"name":"YAMACIK KÖYÜ","zip":"57602"},{"name":"YANGIÇ MAH.","zip":"57602"},{"name":"YANIÇ MAH.","zip":"57602"},{"name":"YAYAOĞLU MAH.","zip":"57602"},{"name":"YAYKIL KÖYÜ","zip":"57602"},{"name":"YAYLA MAH.","zip":"57602"},{"name":"YELHASAN MAH.","zip":"57602"},{"name":"YEMİŞEN MAH.","zip":"57602"},{"name":"YENİ MAH.","zip":"57602"},{"name":"YENİKENT KÖYÜ","zip":"57602"},{"name":"YEYMİŞ MAH.","zip":"57602"},{"name":"YOROĞLU MAH.","zip":"57602"},{"name":"YUKARI AKGÜNEY MAH.","zip":"57602"},{"name":"YUKARI MAH.","zip":"57602"},{"name":"YUKARI YAMACIK MAH.","zip":"57602"},{"name":"YUSUFOĞLU MAH.","zip":"57602"},{"name":"YUVALI KÖYÜ","zip":"57602"},{"name":"ABALI KÖYÜ","zip":"57002"},{"name":"ABALI MÜCAVİR MAH.","zip":"57002"},{"name":"ABAZALAR MAH.","zip":"57002"},{"name":"ACEMOĞLU MAH.","zip":"57002"},{"name":"AFET EVLERİ KONUTLARI MAH.","zip":"57002"},{"name":"AGCELLİ MAH.","zip":"57002"},{"name":"AHÇILAR MAH.","zip":"57002"},{"name":"AHLATÇIK MAH.","zip":"57002"},{"name":"AHMATLI MAH.","zip":"57002"},{"name":"AHMEDÜL MAH.","zip":"57002"},{"name":"AHMETYERİ KÖYÜ","zip":"57002"},{"name":"AHUTOĞLU MAH.","zip":"57002"},{"name":"AKBAŞ KÖYÜ","zip":"57002"},{"name":"AKÇAAĞAÇ MAH.","zip":"57002"},{"name":"AKÇAAĞAÇ MÜCAVİR MAH.","zip":"57002"},{"name":"AKDOĞAN MAH.","zip":"57002"},{"name":"AKKUŞLAR MAH.","zip":"57002"},{"name":"AKLIMAN MAH.","zip":"57002"},{"name":"AKLİMAN MAH.","zip":"57002"},{"name":"AKYAMAÇ MAH.","zip":"57002"},{"name":"ALAGÖZ MAH.","zip":"57002"},{"name":"ALASÖKÜ KÖYÜ","zip":"57002"},{"name":"ALAYLI MAH.","zip":"57002"},{"name":"ALİBAŞOĞLU MAH.","zip":"57002"},{"name":"ALİBEYLİ MAH.","zip":"57002"},{"name":"ALİKÖYÜ MAH.","zip":"57002"},{"name":"ALOĞLU KÖYÜ","zip":"57002"},{"name":"ALTINOĞLU MAH.","zip":"57002"},{"name":"AMBARLIK MAH.","zip":"57002"},{"name":"ARAP MAH.","zip":"57002"},{"name":"ARZAOĞLU MAH.","zip":"57002"},{"name":"AŞAĞI ASARCIK MAH.","zip":"57002"},{"name":"AŞAĞI KARAPINAR MAH.","zip":"57002"},{"name":"AŞAĞI MAH.","zip":"57002"},{"name":"AŞAĞI MÜCAVİR MAH.","zip":"57002"},{"name":"ATABEY MAH.","zip":"57002"},{"name":"AVDAN KÖYÜ","zip":"57002"},{"name":"AYDIN MAH.","zip":"57002"},{"name":"AZAKLI MAH.","zip":"57002"},{"name":"BAGILAR MAH.","zip":"57002"},{"name":"BALCILAR MAH.","zip":"57002"},{"name":"BAYRAKTAROĞLU MAH.","zip":"57002"},{"name":"BEDELLER MAH.","zip":"57002"},{"name":"BEHRAMOĞLU MAH.","zip":"57002"},{"name":"BEKİROĞLU MAH.","zip":"57002"},{"name":"BEKTAŞAĞA KÖYÜ","zip":"57002"},{"name":"BOSTANCI MAH.","zip":"57002"},{"name":"BOSTANCILI KÖYÜ","zip":"57002"},{"name":"BOSTANCILI MAH.","zip":"57002"},{"name":"BOZLU MAH.","zip":"57002"},{"name":"CABBAROĞLU MAH.","zip":"57002"},{"name":"CAMBAZOĞLU MAH.","zip":"57002"},{"name":"CAMİ ALTI MAH.","zip":"57002"},{"name":"CAMİ YANI MAH.","zip":"57002"},{"name":"CAMİYANI MAH.","zip":"57002"},{"name":"CANİK MAH.","zip":"57002"},{"name":"COROĞLU MAH.","zip":"57002"},{"name":"ÇAKILDAK KÖYÜ","zip":"57002"},{"name":"ÇALI MAH.","zip":"57002"},{"name":"ÇAMLI MAH.","zip":"57002"},{"name":"ÇAVDAROĞLU MAH.","zip":"57002"},{"name":"ÇAYHARMANI MAH.","zip":"57002"},{"name":"ÇIRAKLAR MAH.","zip":"57002"},{"name":"ÇİFTLİK KÖYÜ","zip":"57002"},{"name":"ÇİLİNGİROĞLU MAH.","zip":"57002"},{"name":"ÇOBAN MAH.","zip":"57002"},{"name":"ÇOBANLAR KÖYÜ","zip":"57002"},{"name":"DAĞLAR MAH.","zip":"57002"},{"name":"DEDEOĞLU MAH.","zip":"57002"},{"name":"DELİLER MAH.","zip":"57002"},{"name":"DEMİRCİ KÖYÜ","zip":"57002"},{"name":"DEMİRCİ MAH.","zip":"57002"},{"name":"DEMİRCİKÖYOSB MAH.","zip":"57002"},{"name":"DEMİRCİLER MAH.","zip":"57002"},{"name":"DENİZLER MEVKİİ AŞAĞI MAH.","zip":"57002"},{"name":"DEVRANT MAH.","zip":"57002"},{"name":"DIRANAZ MAH.","zip":"57002"},{"name":"DİBEKLİ KÖYÜ","zip":"57002"},{"name":"DİBEKLİ MÜCAVİR MAH.","zip":"57002"},{"name":"DİKENLİ MAH.","zip":"57002"},{"name":"DİZDAROĞLU KÖYÜ","zip":"57002"},{"name":"DOLAYSÖKÜ MAH.","zip":"57002"},{"name":"DÜZ EYMÜR MAH.","zip":"57002"},{"name":"DÜZPARA MAH.","zip":"57002"},{"name":"DÜZYAZI MAH.","zip":"57002"},{"name":"EKŞEOĞLU MAH.","zip":"57002"},{"name":"EKŞİOĞLU MAH.","zip":"57002"},{"name":"ELDEVİZ MAH.","zip":"57002"},{"name":"EMİN MAH.","zip":"57002"},{"name":"ERAS MAH.","zip":"57002"},{"name":"ERİKLİ KÖYÜ","zip":"57002"},{"name":"ESKİ AFET EVLERİ MAH.","zip":"57002"},{"name":"ESKİ DİBEKLİ MAH.","zip":"57002"},{"name":"EYMİR KÖYÜ","zip":"57002"},{"name":"FENERCİ MAH.","zip":"57002"},{"name":"FINDICAK MAH.","zip":"57002"},{"name":"FINDIK PINARI MAH.","zip":"57002"},{"name":"FİDANLIK KÖYÜ","zip":"57002"},{"name":"FRENK MAH.","zip":"57002"},{"name":"GAYBI MAH.","zip":"57002"},{"name":"GEDİ MAH.","zip":"57002"},{"name":"GEDİOĞLU MAH.","zip":"57002"},{"name":"GİDRE MAH.","zip":"57002"},{"name":"GÖKMENOĞLU MAH.","zip":"57002"},{"name":"GÖLLER KÖYÜ","zip":"57002"},{"name":"GÖLLER MAH.","zip":"57002"},{"name":"GÖLLÜ KÖYÜ","zip":"57002"},{"name":"GÖZLÜGÖL MAH.","zip":"57002"},{"name":"GÖZÖREN MAH.","zip":"57002"},{"name":"GÜNCÜLLÜ MAH.","zip":"57002"},{"name":"GÜVENDİK MAH.","zip":"57002"},{"name":"HACILAR MAH.","zip":"57002"},{"name":"HACIOĞLU KÖYÜ","zip":"57002"},{"name":"HACIOĞLUM MAH.","zip":"57002"},{"name":"HACIOSMAN MAH.","zip":"57002"},{"name":"HAMALLAR MAH.","zip":"57002"},{"name":"HAPOLOĞLU MAH.","zip":"57002"},{"name":"HARMANLAR MAH.","zip":"57002"},{"name":"HASAN KOCA MAH.","zip":"57002"},{"name":"HATUN MAH.","zip":"57002"},{"name":"HODUL MAH.","zip":"57002"},{"name":"HOTONOĞLU MAH.","zip":"57002"},{"name":"HÜMMELİ MAH.","zip":"57002"},{"name":"HÜSEYİN USTALAR MAH.","zip":"57002"},{"name":"HÜSEYİNBEY MAH.","zip":"57002"},{"name":"İMAM MAH.","zip":"57002"},{"name":"İMAMOĞLU MAH.","zip":"57002"},{"name":"İPEKCİ MAH.","zip":"57002"},{"name":"İSLAMOĞLU MAH.","zip":"57002"},{"name":"KABALI KÖYÜ","zip":"57002"},{"name":"KADIOĞLU MAH.","zip":"57002"},{"name":"KAHRAMANOĞLU MAH.","zip":"57002"},{"name":"KAHYAOĞLU MAH.","zip":"57002"},{"name":"KALAŞLI MAH.","zip":"57002"},{"name":"KAPUS MAH.","zip":"57002"},{"name":"KARACALAR MAH.","zip":"57002"},{"name":"KARADAYI MAH.","zip":"57002"},{"name":"KARADENİZ MAH.","zip":"57002"},{"name":"KARAGÖL MAH.","zip":"57002"},{"name":"KARAGÖZ MAH.","zip":"57002"},{"name":"KARAGÜLLE MAH.","zip":"57002"},{"name":"KARAHACI MAH.","zip":"57002"},{"name":"KARAPINAR KÖYÜ","zip":"57002"},{"name":"KARPUZ MAH.","zip":"57002"},{"name":"KARŞI MAH.","zip":"57002"},{"name":"KARŞIKÖY MAH.","zip":"57002"},{"name":"KASIMAĞA MAH.","zip":"57002"},{"name":"KAVAKLI MAH.","zip":"57002"},{"name":"KAYABAŞI MAH.","zip":"57002"},{"name":"KAYADİBİ MAH.","zip":"57002"},{"name":"KAYBI MAH.","zip":"57002"},{"name":"KAZ MAH.","zip":"57002"},{"name":"KAZLI MAH.","zip":"57002"},{"name":"KEÇİOĞLU MAH.","zip":"57002"},{"name":"KELEKÖYÜ MAH.","zip":"57002"},{"name":"KEREMPEROĞLU MAH.","zip":"57002"},{"name":"KESER MAH.","zip":"57002"},{"name":"KILIÇLI KÖYÜ","zip":"57002"},{"name":"KIŞLA MAH.","zip":"57002"},{"name":"KİRAZCIOĞLU MAH.","zip":"57002"},{"name":"KİRENÇUKURU KÖYÜ","zip":"57002"},{"name":"KİRENLİK MAH.","zip":"57002"},{"name":"KİRENPARA MAH.","zip":"57002"},{"name":"KONAT MAH.","zip":"57002"},{"name":"KONUTLAR MAH.","zip":"57002"},{"name":"KORUCUK KÖYÜ","zip":"57002"},{"name":"KOVUKBAŞ MAH.","zip":"57002"},{"name":"KOZCUĞAZ KÖYÜ","zip":"57002"},{"name":"KÖLE MAH.","zip":"57002"},{"name":"KÖSELİ MAH.","zip":"57002"},{"name":"KÖSEOĞLU MAH.","zip":"57002"},{"name":"KÖSEÖNÜ MAH.","zip":"57002"},{"name":"KUNMAT MAH.","zip":"57002"},{"name":"KURTÇA MAH.","zip":"57002"},{"name":"KURTKUYUSU MAH.","zip":"57002"},{"name":"KUZOLUK MAH.","zip":"57002"},{"name":"KÜLLÜZOĞLU MAH.","zip":"57002"},{"name":"KÜMES MAH.","zip":"57002"},{"name":"KÜNDEŞOĞLU MAH.","zip":"57002"},{"name":"LALA KÖYÜ","zip":"57002"},{"name":"MACİLLER MAH.","zip":"57002"},{"name":"MARUL MAH.","zip":"57002"},{"name":"MECİT YANI MAH.","zip":"57002"},{"name":"MEHMETBEYOĞLU MAH.","zip":"57002"},{"name":"MELEZİN MAH.","zip":"57002"},{"name":"MELİKOĞLU MAH.","zip":"57002"},{"name":"MELİKŞAH KÖYÜ","zip":"57002"},{"name":"MERKEZ MAH.","zip":"57002"},{"name":"MERTOĞLU KÖYÜ","zip":"57002"},{"name":"MOLLA MAH.","zip":"57002"},{"name":"MOLLOOĞLU MAH.","zip":"57002"},{"name":"MUHSUNLU MAH.","zip":"57002"},{"name":"MUHTAROĞLU MAH.","zip":"57002"},{"name":"MUSA MAH.","zip":"57002"},{"name":"OĞUZELİ KÖYÜ","zip":"57002"},{"name":"ORDU KÖYÜ","zip":"57002"},{"name":"ORDU MÜCAVİR MAH.","zip":"57002"},{"name":"ORTA MAH.","zip":"57002"},{"name":"OSMANİYE AKÇAAĞAÇ MAH.","zip":"57002"},{"name":"OSMANİYE KARAGÖL MAH.","zip":"57002"},{"name":"OSMANİYE KÖYÜ","zip":"57002"},{"name":"OSMANİYE MÜCAVİR MAH.","zip":"57002"},{"name":"OVA MAH.","zip":"57002"},{"name":"ÖMERBAŞOĞLU MAH.","zip":"57002"},{"name":"ÖSELİ MAH.","zip":"57002"},{"name":"PATLAKLIK MAH.","zip":"57002"},{"name":"PINAR MAH.","zip":"57002"},{"name":"RUMELİ MAH.","zip":"57002"},{"name":"SAĞIR MAH.","zip":"57002"},{"name":"SAHİLKENT MAH.","zip":"57002"},{"name":"SAKÇA MAH.","zip":"57002"},{"name":"SALAMOĞLU MAH.","zip":"57002"},{"name":"SANCIOĞLU MAH.","zip":"57002"},{"name":"SAPI MAH.","zip":"57002"},{"name":"SARAÇ MAH.","zip":"57002"},{"name":"SARAYCIK MAH.","zip":"57002"},{"name":"SARIDÜZ MAH.","zip":"57002"},{"name":"SARIGÜZEL MAH.","zip":"57002"},{"name":"SARIKUM KÖYÜ","zip":"57002"},{"name":"SARISÖKÜ MAH.","zip":"57002"},{"name":"SARSI MAH.","zip":"57002"},{"name":"SAZLI KÖYÜ","zip":"57002"},{"name":"SİNECAN KÖYÜ","zip":"57002"},{"name":"SOFTAOĞLU MAH.","zip":"57002"},{"name":"SOFTOOĞLU MAH.","zip":"57002"},{"name":"SOĞUKSU MAH.","zip":"57002"},{"name":"SOĞULCAK MAH.","zip":"57002"},{"name":"SSK YANI MAH.","zip":"57002"},{"name":"SULTANPINARI MAH.","zip":"57002"},{"name":"SÜLEYMANOĞLU MAH.","zip":"57002"},{"name":"SÜLÜKGÖLÜ MAH.","zip":"57002"},{"name":"ŞAHİN MAH.","zip":"57002"},{"name":"ŞAMLIOĞLU KÖYÜ","zip":"57002"},{"name":"ŞANLI MAH.","zip":"57002"},{"name":"ŞEHİT HASAN YILMAZ MAH.","zip":"57002"},{"name":"ŞEKERLİ MAH.","zip":"57002"},{"name":"ŞERBETÇİ MAH.","zip":"57002"},{"name":"TABANOĞLU MAH.","zip":"57002"},{"name":"TABYALAR MAH.","zip":"57002"},{"name":"TAKAOĞLU MAH.","zip":"57002"},{"name":"TANGALOĞLU KÖYÜ","zip":"57002"},{"name":"TANGALOĞLU MAH.","zip":"57002"},{"name":"TAŞLICA MAH.","zip":"57002"},{"name":"TAŞMANLI KÖYÜ","zip":"57002"},{"name":"TATLIGÖL MAH.","zip":"57002"},{"name":"TAVUKÇU MAH.","zip":"57002"},{"name":"TAYPAKLI KÖYÜ","zip":"57002"},{"name":"TEFNELİK MAH.","zip":"57002"},{"name":"TEKNEOĞLU MAH.","zip":"57002"},{"name":"TEPE MAH.","zip":"57002"},{"name":"TEPECİK MAH.","zip":"57002"},{"name":"TERESLİ MAH.","zip":"57002"},{"name":"TERESU MAH.","zip":"57002"},{"name":"TIĞLIOĞLU MAH.","zip":"57002"},{"name":"TINGIRLAR MAH.","zip":"57002"},{"name":"TINGIROĞLU KÖYÜ","zip":"57002"},{"name":"TIRKIŞLAR MAH.","zip":"57002"},{"name":"TIRMIK MAH.","zip":"57002"},{"name":"TİKENLİ MAH.","zip":"57002"},{"name":"TOPÇULAR MEVKİİ SANAYİ MAH.","zip":"57002"},{"name":"TOSUNBEY MAH.","zip":"57002"},{"name":"TOYLUK MAH.","zip":"57002"},{"name":"TOYLUK MÜCAVİR MAH.","zip":"57002"},{"name":"TRAFO MAH.","zip":"57002"},{"name":"TUNUSTOĞLU MAH.","zip":"57002"},{"name":"ULU MAH.","zip":"57002"},{"name":"UZUNGÜRGEN KÖYÜ","zip":"57002"},{"name":"YAGCI MAH.","zip":"57002"},{"name":"YAKA MAH.","zip":"57002"},{"name":"YALI KÖYÜ","zip":"57002"},{"name":"YALIBOYU (HEYAMOLA) MAH.","zip":"57002"},{"name":"YARIMOKKA MAH.","zip":"57002"},{"name":"YENİ AFET EVLERİ MAH.","zip":"57002"},{"name":"YENİ MAH.","zip":"57002"},{"name":"YERLİ MAH.","zip":"57002"},{"name":"YEŞİLPINAR MAH.","zip":"57002"},{"name":"YETİMOĞLU MAH.","zip":"57002"},{"name":"YÖRÜKLÜ MAH.","zip":"57002"},{"name":"YUKARI ASARCIK MAH.","zip":"57002"},{"name":"YUKARI MAH.","zip":"57002"},{"name":"YUKARI MÜCAVİR MAH.","zip":"57002"},{"name":"YUKARIKARAPINAR MAH.","zip":"57002"},{"name":"YUKARIKÖY MAH.","zip":"57002"},{"name":"YÜREKLİ MAH.","zip":"57002"},{"name":"ZARFLI MAH.","zip":"57002"},{"name":"ZENGİNOĞLU MAH.","zip":"57002"},{"name":"ZEYTİNLİK MAH.","zip":"57002"}]},{"name":"SİNOP","cityName":null,"quarters":[{"name":"CAMİKEBİR MAH.","zip":"57010"},{"name":"GELİNCİK MAH.","zip":"57010"},{"name":"İNCEDAYI MAH.","zip":"57010"},{"name":"KALEYAZISI MAH.","zip":"57010"},{"name":"KEFEVİ MAH.","zip":"57010"},{"name":"MEYDANKAPI MAH.","zip":"57010"},{"name":"YENİ MAH.","zip":"57010"}]},{"name":"MERKEZKÖYLER","cityName":null,"quarters":[{"name":"ALUÇ MAH.","zip":"57302"},{"name":"ARIM KÖYÜ","zip":"57302"},{"name":"ASARCIKCAMİLİ KÖYÜ","zip":"57302"},{"name":"ASARCIKHACIKÖY KÖYÜ","zip":"57302"},{"name":"ASARCIKKAYALI KÖYÜ","zip":"57302"},{"name":"ASARCIKKAZAKLI KÖYÜ","zip":"57302"},{"name":"AŞAĞI MAH.","zip":"57302"},{"name":"AŞAĞIAKPINAR KÖYÜ","zip":"57302"},{"name":"AŞAĞIDARIÇAY MAH.","zip":"57302"},{"name":"AVLUCA KÖYÜ","zip":"57302"},{"name":"BAHÇEKÖY KÖYÜ","zip":"57302"},{"name":"BAHŞAŞLI KÖYÜ","zip":"57302"},{"name":"BALCILAR MAH.","zip":"57302"},{"name":"BAŞEKİN KÖYÜ","zip":"57302"},{"name":"BÜRÜM MAH.","zip":"57302"},{"name":"CUMAKAYALI KÖYÜ","zip":"57302"},{"name":"CUMAKÖY KÖYÜ","zip":"57302"},{"name":"CUMATABAKLI KÖYÜ","zip":"57302"},{"name":"ÇALAPLI MAH.","zip":"57302"},{"name":"ÇALCA MAH.","zip":"57302"},{"name":"ÇALPINAR KÖYÜ","zip":"57302"},{"name":"ÇAMPAŞALI KÖYÜ","zip":"57302"},{"name":"ÇEVLİK MAH.","zip":"57302"},{"name":"ÇOBANLI MAH.","zip":"57302"},{"name":"ÇORMAN KÖYÜ","zip":"57302"},{"name":"DERE MAH.","zip":"57302"},{"name":"DİMBİLOGLU MAH.","zip":"57302"},{"name":"ELİCEK MAH.","zip":"57302"},{"name":"FAKILI KÖYÜ","zip":"57302"},{"name":"GÖYNÜKÖREN KÖYÜ","zip":"57302"},{"name":"GÜLÖREN MAH.","zip":"57302"},{"name":"GÜNEY MAH.","zip":"57302"},{"name":"GÜR PINAR MAH.","zip":"57302"},{"name":"GÜRLEN MAH.","zip":"57302"},{"name":"HACIÇAY KÖYÜ","zip":"57302"},{"name":"HANOĞLU KÖYÜ","zip":"57302"},{"name":"HEMİTLİ MAH.","zip":"57302"},{"name":"KADIOĞLU MAH.","zip":"57302"},{"name":"KARAÇAYGÖLETİ KÖYÜ","zip":"57302"},{"name":"KENDİRLİ MAH.","zip":"57302"},{"name":"KIŞLA MAH.","zip":"57302"},{"name":"KORUCUK KÖYÜ","zip":"57302"},{"name":"KORUK MAH.","zip":"57302"},{"name":"KOZLUCA MAH.","zip":"57302"},{"name":"KÖÇBEYENDİ MAH.","zip":"57302"},{"name":"MERKEZ MAH.","zip":"57302"},{"name":"ORTA MAH.","zip":"57302"},{"name":"SALMANLI MAH.","zip":"57302"},{"name":"SÖGÜTLÜ MAH.","zip":"57302"},{"name":"ŞIH MAH.","zip":"57302"},{"name":"TEPEKÖY KÖYÜ","zip":"57302"},{"name":"ULUKÖY KÖYÜ","zip":"57302"},{"name":"YALMANSARAY KÖYÜ","zip":"57302"},{"name":"YAYLACILI KÖYÜ","zip":"57302"},{"name":"YENİCE KÖYÜ","zip":"57302"},{"name":"YONCA MAH.","zip":"57302"},{"name":"YUKARI ELİCEK MAH.","zip":"57302"},{"name":"YUKARI MAH.","zip":"57302"},{"name":"YUKARIAKPINAR KÖYÜ","zip":"57302"},{"name":"YUKARIARIM KÖYÜ","zip":"57302"},{"name":"ZAİMKÖY KÖYÜ","zip":"57302"},{"name":"ZEYVE MAH.","zip":"57302"}]},{"name":"SARAYDÜZÜ","cityName":null,"quarters":null},{"name":"MERKEZKÖYLER","cityName":null,"quarters":[{"name":"ACA MAH.","zip":"57902"},{"name":"AĞA MAH.","zip":"57902"},{"name":"AKBUDAK MAH.","zip":"57902"},{"name":"AKÇABÜK KÖYÜ","zip":"57902"},{"name":"AKÇAY MAH.","zip":"57902"},{"name":"AKTAŞ MAH.","zip":"57902"},{"name":"ALAGÖZ KÖYÜ","zip":"57902"},{"name":"APDİ MAH.","zip":"57902"},{"name":"ARAPLAR MAH.","zip":"57902"},{"name":"ARPATARLASI MAH.","zip":"57902"},{"name":"AŞAĞI MAH.","zip":"57902"},{"name":"AŞAĞI MARBEL MAH.","zip":"57902"},{"name":"AŞAĞI TARLA MAH.","zip":"57902"},{"name":"AŞPİŞEN MAH.","zip":"57902"},{"name":"AYAN ÇEŞME MAH.","zip":"57902"},{"name":"AYAZ KÖYÜ","zip":"57902"},{"name":"AYDAĞLAR MAH.","zip":"57902"},{"name":"AYDINOĞLU MAH.","zip":"57902"},{"name":"BALAYCIK MAH.","zip":"57902"},{"name":"BAŞ CİBLE MAH.","zip":"57902"},{"name":"BAŞOCAK MAH.","zip":"57902"},{"name":"BEKİROĞLU MAH.","zip":"57902"},{"name":"BİLGİLİ MAH.","zip":"57902"},{"name":"BİRNİT MAH.","zip":"57902"},{"name":"CAMİ YANI MAH.","zip":"57902"},{"name":"CAYLA MAH.","zip":"57902"},{"name":"CELALLER MAH.","zip":"57902"},{"name":"CEVİZLİK MAH.","zip":"57902"},{"name":"CİZMECİ MAH.","zip":"57902"},{"name":"CÖVE MAH.","zip":"57902"},{"name":"ÇAĞLAYAN MAH.","zip":"57902"},{"name":"ÇARŞAMBA MAH.","zip":"57902"},{"name":"ÇATAKDÜZÜ MAH.","zip":"57902"},{"name":"ÇATAKGERİŞ KÖYÜ","zip":"57902"},{"name":"ÇATAKGÜNEY KÖYÜ","zip":"57902"},{"name":"ÇATAKÖRENCİK KÖYÜ","zip":"57902"},{"name":"ÇAY MAH.","zip":"57902"},{"name":"ÇAYAĞZI MAH.","zip":"57902"},{"name":"ÇAYIRLAR MAH.","zip":"57902"},{"name":"ÇAYLA MAH.","zip":"57902"},{"name":"ÇEŞMELİ MAH.","zip":"57902"},{"name":"ÇINAR MAH.","zip":"57902"},{"name":"ÇOLAKLAR MAH.","zip":"57902"},{"name":"ÇOLAKOĞLU MAH.","zip":"57902"},{"name":"ÇÖMEZ MAH.","zip":"57902"},{"name":"DAYI MAH.","zip":"57902"},{"name":"DE MAH.","zip":"57902"},{"name":"DEĞİRMEN MAH.","zip":"57902"},{"name":"DEĞİRMENÖNÜ MAH.","zip":"57902"},{"name":"DEMİRCİ MAH.","zip":"57902"},{"name":"DEMİRKAPI MAH.","zip":"57902"},{"name":"DENİZ MAH.","zip":"57902"},{"name":"DİBEK YANI MAH.","zip":"57902"},{"name":"DİREKLİ KÖYÜ","zip":"57902"},{"name":"DÜRE MAH.","zip":"57902"},{"name":"DÜZ KÖYÜ","zip":"57902"},{"name":"DÜZ TARLA MAH.","zip":"57902"},{"name":"DÜZLER KÖYÜ","zip":"57902"},{"name":"EBE MAH.","zip":"57902"},{"name":"EKSE MAH.","zip":"57902"},{"name":"EMRELLİ MAH.","zip":"57902"},{"name":"ERDOĞDU MAH.","zip":"57902"},{"name":"ESKİ AYADON MAH.","zip":"57902"},{"name":"EYREK MAH.","zip":"57902"},{"name":"FAKIOĞLU MAH.","zip":"57902"},{"name":"GAZİLER KÖYÜ","zip":"57902"},{"name":"GEDOY MAH.","zip":"57902"},{"name":"GENCEK KÖYÜ","zip":"57902"},{"name":"GERGÜ MAH.","zip":"57902"},{"name":"GERİŞ HARMAN MAH.","zip":"57902"},{"name":"GERİŞ MAH.","zip":"57902"},{"name":"GÖKÇEALAN KÖYÜ","zip":"57902"},{"name":"GÖLGECİ MAH.","zip":"57902"},{"name":"GÖRKÖY MAH.","zip":"57902"},{"name":"GÜLLÜ SU MAH.","zip":"57902"},{"name":"GÜLTEPE MAH.","zip":"57902"},{"name":"GÜMLE MAH.","zip":"57902"},{"name":"GÜNDOĞDU KÖYÜ","zip":"57902"},{"name":"GÜNEY MAH.","zip":"57902"},{"name":"GÜRCÜLER MAH.","zip":"57902"},{"name":"GÜZELKENT KÖYÜ","zip":"57902"},{"name":"HACI KÖYÜ","zip":"57902"},{"name":"HACILAR MAH.","zip":"57902"},{"name":"HAMAMLI KÖYÜ","zip":"57902"},{"name":"HAMUZLAR MAH.","zip":"57902"},{"name":"HARMAN MAH.","zip":"57902"},{"name":"HARMANYANI MAH.","zip":"57902"},{"name":"HASAN DAĞI MAH.","zip":"57902"},{"name":"HATİP MAH.","zip":"57902"},{"name":"HOCAKÖY MAH.","zip":"57902"},{"name":"HÖSGÜDEN MAH.","zip":"57902"},{"name":"IŞIKLI KÖYÜ","zip":"57902"},{"name":"KABAOĞLU MAH.","zip":"57902"},{"name":"KABBEZ MAH.","zip":"57902"},{"name":"KALAYCI MAH.","zip":"57902"},{"name":"KAPAN MAH.","zip":"57902"},{"name":"KARABEY KÖYÜ","zip":"57902"},{"name":"KARAŞLAR MAH.","zip":"57902"},{"name":"KARŞI MAH.","zip":"57902"},{"name":"KAYA MAH.","zip":"57902"},{"name":"KAYABAŞI KÖYÜ","zip":"57902"},{"name":"KAYADİBİ MAH.","zip":"57902"},{"name":"KAYRACI MAH.","zip":"57902"},{"name":"KESTANECİK MAH.","zip":"57902"},{"name":"KEŞ KÖYÜ","zip":"57902"},{"name":"KIRAN MAH.","zip":"57902"},{"name":"KIŞLA MAH.","zip":"57902"},{"name":"KİLİSE ARKASI MAH.","zip":"57902"},{"name":"KİRAZLIK MAH.","zip":"57902"},{"name":"KOCA MAH.","zip":"57902"},{"name":"KOCADÜZÜ MAH.","zip":"57902"},{"name":"KOZ SÖKÜ MAH.","zip":"57902"},{"name":"KÖSEKÖY MAH.","zip":"57902"},{"name":"KÖSEOĞLU MAH.","zip":"57902"},{"name":"KÖSERETAŞI MAH.","zip":"57902"},{"name":"KURTKÖY MAH.","zip":"57902"},{"name":"KURVANA MAH.","zip":"57902"},{"name":"KUŞÇULAR KÖYÜ","zip":"57902"},{"name":"KUZ KÖYÜ","zip":"57902"},{"name":"KUZ MAH.","zip":"57902"},{"name":"KUZGEÇE MAH.","zip":"57902"},{"name":"KÜTÜLEP MAH.","zip":"57902"},{"name":"MANAV MAH.","zip":"57902"},{"name":"MANTARLIK MAH.","zip":"57902"},{"name":"MEMİŞ MAH.","zip":"57902"},{"name":"MERKEZ MAH.","zip":"57902"},{"name":"MİTA MAH.","zip":"57902"},{"name":"OKUL MAH.","zip":"57902"},{"name":"OLUPYANI MAH.","zip":"57902"},{"name":"ORTA MAH.","zip":"57902"},{"name":"OSMANÇAYIRI MAH.","zip":"57902"},{"name":"OTCA MAH.","zip":"57902"},{"name":"OVANAZ MAH.","zip":"57902"},{"name":"OYMAYAKA KÖYÜ","zip":"57902"},{"name":"ÖRENLER MAH.","zip":"57902"},{"name":"ÖREY MAH.","zip":"57902"},{"name":"ÖTE MAH.","zip":"57902"},{"name":"ÖTEKÖY MAH.","zip":"57902"},{"name":"PALAMAR MAH.","zip":"57902"},{"name":"PAZARYERİ MAH.","zip":"57902"},{"name":"REYFEZ MAH.","zip":"57902"},{"name":"SAFRANLI MAH.","zip":"57902"},{"name":"SAHİL MAH.","zip":"57902"},{"name":"SAHİLKENT MAH.","zip":"57902"},{"name":"SALAH MAH.","zip":"57902"},{"name":"SANCAKTAROĞLU MAH.","zip":"57902"},{"name":"SARMAŞIK KÖYÜ","zip":"57902"},{"name":"SARPACA MAH.","zip":"57902"},{"name":"SATI KÖYÜ","zip":"57902"},{"name":"SATI MAH.","zip":"57902"},{"name":"SAZAK MAH.","zip":"57902"},{"name":"SAZKIŞLA KÖYÜ","zip":"57902"},{"name":"SEMİYE MAH.","zip":"57902"},{"name":"SİLAHCI MAH.","zip":"57902"},{"name":"SİYEM MAH.","zip":"57902"},{"name":"SOĞU MAH.","zip":"57902"},{"name":"SÖKÜ MAH.","zip":"57902"},{"name":"SULUÇUKUR MAH.","zip":"57902"},{"name":"ŞAVŞAT MAH.","zip":"57902"},{"name":"TAÇAHMET KÖYÜ","zip":"57902"},{"name":"TAŞGÜNEY KÖYÜ","zip":"57902"},{"name":"TAVACA MAH.","zip":"57902"},{"name":"TECİROĞLU MAH.","zip":"57902"},{"name":"TURHAN KÖYÜ","zip":"57902"},{"name":"TÜMEN MAH.","zip":"57902"},{"name":"TÜRKELİ CADDESİ MAH.","zip":"57902"},{"name":"YALI MAH.","zip":"57902"},{"name":"YAMAYOL MAH.","zip":"57902"},{"name":"YAPRAKLI KÖYÜ","zip":"57902"},{"name":"YAYLA MAH.","zip":"57902"},{"name":"YAZICI KÖYÜ","zip":"57902"},{"name":"YAZYURDU MAH.","zip":"57902"},{"name":"YENİ MAH.","zip":"57902"},{"name":"YENİCE MAH.","zip":"57902"},{"name":"YEŞİLOBA KÖYÜ","zip":"57902"},{"name":"YILANLIK MAH.","zip":"57902"},{"name":"YILDIRIM MAH.","zip":"57902"},{"name":"YORGANCIOĞLU MAH.","zip":"57902"},{"name":"YUKARI GÜNEY MAH.","zip":"57902"},{"name":"YUKARI MAH.","zip":"57902"},{"name":"YUKARI MARBEL MAH.","zip":"57902"},{"name":"YUKARI USVA MAH.","zip":"57902"},{"name":"YUSUFLU KÖYÜ","zip":"57902"}]},{"name":"TÜRKELİ","cityName":null,"quarters":[{"name":"GÜZELYURT MAH.","zip":"57900"},{"name":"TÜMERKAN MAH.","zip":"57900"}]}]}]}