{"id":58,"name":"SİVAS","cities":[{"name":"city","districts":[{"name":"AKINCILAR","cityName":null,"quarters":[{"name":"YAYLA MAH.","zip":"58550"},{"name":"YENİ MAH.","zip":"58550"},{"name":"YEŞİLYAZI MAH.","zip":"58550"},{"name":"YUKARI MAH.","zip":"58550"}]},{"name":"MERKEZKÖYLER","cityName":null,"quarters":[{"name":"AĞIL MAH.","zip":"58552"},{"name":"AŞAĞIYENİKÖY KÖYÜ","zip":"58552"},{"name":"AVŞAR KÖYÜ","zip":"58552"},{"name":"AZİZ MAH.","zip":"58552"},{"name":"BALÇIK KÖYÜ","zip":"58552"},{"name":"BALLIDERE KÖYÜ","zip":"58552"},{"name":"BULAK MAH.","zip":"58552"},{"name":"ÇİÇEKLİ KÖYÜ","zip":"58552"},{"name":"ÇÖRENGEÇ MAH.","zip":"58552"},{"name":"DERECİK KÖYÜ","zip":"58552"},{"name":"DOĞANTEPE KÖYÜ","zip":"58552"},{"name":"DÜNDAR KÖYÜ","zip":"58552"},{"name":"EKENEK KÖYÜ","zip":"58552"},{"name":"ELİBÜYÜK KÖYÜ","zip":"58552"},{"name":"ESKİBAĞ KÖYÜ","zip":"58552"},{"name":"GEYİKPINAR KÖYÜ","zip":"58552"},{"name":"GÖLLÜCE KÖYÜ","zip":"58552"},{"name":"HAREMUŞAĞI MAH.","zip":"58552"},{"name":"İKİZYURT KÖYÜ","zip":"58552"},{"name":"KAVAK KÖYÜ","zip":"58552"},{"name":"KAYI KÖYÜ","zip":"58552"},{"name":"KILIÇ KÖYÜ","zip":"58552"},{"name":"ONARI KÖYÜ","zip":"58552"},{"name":"ORTAKÖY KÖYÜ","zip":"58552"},{"name":"SAPANLI KÖYÜ","zip":"58552"},{"name":"SEVİNDİK KÖYÜ","zip":"58552"},{"name":"SIYRINDI KÖYÜ","zip":"58552"},{"name":"ŞENBAĞLAR KÖYÜ","zip":"58552"},{"name":"TIRÇİK MAH.","zip":"58552"},{"name":"UĞRUNCA KÖYÜ","zip":"58552"},{"name":"ÜZENGİ KÖYÜ","zip":"58552"},{"name":"YAĞLIÇAYIR KÖYÜ","zip":"58552"},{"name":"YUKARISARICA KÖYÜ","zip":"58552"},{"name":"YUSUFŞEYH KÖYÜ","zip":"58552"},{"name":"YÜNLÜCE KÖYÜ","zip":"58552"}]},{"name":"ALTINYAYLA","cityName":null,"quarters":[{"name":"KALE MAH.","zip":"58470"},{"name":"RIFAT ÖÇTEN MAH.","zip":"58470"},{"name":"ŞAFAK MAH.","zip":"58470"}]},{"name":"MERKEZKÖYLER","cityName":null,"quarters":[{"name":"BAŞYAYLA KÖYÜ","zip":"58472"},{"name":"BAYINDIR KÖYÜ","zip":"58472"},{"name":"BAYINDIR MAH.","zip":"58472"},{"name":"DELİİLYAS KÖYÜ","zip":"58472"},{"name":"DOĞUPINAR KÖYÜ","zip":"58472"},{"name":"GAZİOSMANPAŞA MAH.","zip":"58472"},{"name":"GÜMÜŞDİĞİN KÖYÜ","zip":"58472"},{"name":"GÜZELOĞLAN KÖYÜ","zip":"58472"},{"name":"HARMANDALI KÖYÜ","zip":"58472"},{"name":"KIZILHÜYÜK KÖYÜ","zip":"58472"},{"name":"KÜRKÇÜYURT KÖYÜ","zip":"58472"},{"name":"MERKEZ MAH.","zip":"58472"},{"name":"MUTUBEY KÖYÜ","zip":"58472"},{"name":"PAŞAKÖY KÖYÜ","zip":"58472"},{"name":"SERİNYAYLA KÖYÜ","zip":"58472"},{"name":"ŞEKERPINARI MAH.","zip":"58472"},{"name":"TAHYURT KÖYÜ","zip":"58472"},{"name":"TAŞLIHÜYÜK KÖYÜ","zip":"58472"},{"name":"YASSIPINAR MAH.","zip":"58472"},{"name":"YEŞİLYURT MAH.","zip":"58472"}]},{"name":"DİVRİĞİ","cityName":null,"quarters":[{"name":"AHMETPAŞA MAH.","zip":"58300"},{"name":"ARHUSU MAH.","zip":"58300"},{"name":"AŞAĞIHAMAM MAH.","zip":"58300"},{"name":"CEDİTPAŞA MAH.","zip":"58300"},{"name":"DEMİRDAĞ MAH.","zip":"58300"},{"name":"DİLLİOĞLU MAH.","zip":"58300"},{"name":"GÖKÇECAMİİ MAH.","zip":"58300"},{"name":"GÜLLÜBAĞ MAH.","zip":"58300"},{"name":"HACIKUMRU MAH.","zip":"58300"},{"name":"HACIOSMANMESCİDİ MAH.","zip":"58300"},{"name":"İMAMOĞLU MAH.","zip":"58300"},{"name":"KALE MAH.","zip":"58300"},{"name":"KALEALTI MAH.","zip":"58300"},{"name":"KARAMAHMUT MAH.","zip":"58300"},{"name":"KARAYUSUF MAH.","zip":"58300"},{"name":"KEMENKEŞ MAH.","zip":"58300"},{"name":"KOCAPAŞA MAH.","zip":"58300"},{"name":"KÜÇÜK HÜSEYİN MAH.","zip":"58300"},{"name":"KÜLTÜRLÜ MAH.","zip":"58300"},{"name":"MADEN MAH.","zip":"58300"},{"name":"MERCANTEPE MAH.","zip":"58300"},{"name":"SÜLEYMANAĞA MAH.","zip":"58300"},{"name":"TURABALİ MAH.","zip":"58300"},{"name":"ULUCAMİİ MAH.","zip":"58300"},{"name":"ZELİHA HATUN MAH.","zip":"58300"}]},{"name":"MERKEZKÖYLER","cityName":null,"quarters":[{"name":"ADATEPE KÖYÜ","zip":"58302"},{"name":"AĞAÇLIGÖL KÖYÜ","zip":"58302"},{"name":"AĞAR MAH.","zip":"58302"},{"name":"AĞCADAM MAH.","zip":"58302"},{"name":"AHİ MAH.","zip":"58302"},{"name":"AHMETLER MAH.","zip":"58302"},{"name":"AHMETÖREN MAH.","zip":"58302"},{"name":"AKAĞIL MAH.","zip":"58302"},{"name":"AKBABA KÖYÜ","zip":"58302"},{"name":"AKMEŞE KÖYÜ","zip":"58302"},{"name":"AKPELİT KÖYÜ","zip":"58302"},{"name":"APSAL MAH.","zip":"58302"},{"name":"ARIKBAŞI KÖYÜ","zip":"58302"},{"name":"ATMALIOĞLU KÖYÜ","zip":"58302"},{"name":"AVŞARCIK KÖYÜ","zip":"58302"},{"name":"BAĞDERE MAH.","zip":"58302"},{"name":"BAHÇELİ KÖYÜ","zip":"58302"},{"name":"BAHTİYAR KÖYÜ","zip":"58302"},{"name":"BALOVA KÖYÜ","zip":"58302"},{"name":"BAŞMUHTAR MAH.","zip":"58302"},{"name":"BAŞÖREN KÖYÜ","zip":"58302"},{"name":"BAYIRLI KÖYÜ","zip":"58302"},{"name":"BAYIRÜSTÜ KÖYÜ","zip":"58302"},{"name":"BELDİBİ KÖYÜ","zip":"58302"},{"name":"BEYKÖY KÖYÜ","zip":"58302"},{"name":"BURMAHAN MAH.","zip":"58302"},{"name":"ÇAKIRAĞA KÖYÜ","zip":"58302"},{"name":"ÇAKIRTARLA KÖYÜ","zip":"58302"},{"name":"ÇAKMAKDÜZÜ KÖYÜ","zip":"58302"},{"name":"ÇALTI MAH.","zip":"58302"},{"name":"ÇAMLIK KÖYÜ","zip":"58302"},{"name":"ÇAMURLU KÖYÜ","zip":"58302"},{"name":"ÇARTIL MAH.","zip":"58302"},{"name":"ÇATILI MAH.","zip":"58302"},{"name":"ÇAYÖREN KÖYÜ","zip":"58302"},{"name":"ÇAYÖZÜ KÖYÜ","zip":"58302"},{"name":"ÇEVİRME MAH.","zip":"58302"},{"name":"ÇİĞDEMLİ KÖYÜ","zip":"58302"},{"name":"ÇİTME KÖYÜ","zip":"58302"},{"name":"ÇOBANDURAĞI KÖYÜ","zip":"58302"},{"name":"ÇOBANLI MAH.","zip":"58302"},{"name":"ÇOKMEŞAT MAH.","zip":"58302"},{"name":"ÇUKURÖZ KÖYÜ","zip":"58302"},{"name":"DAM MAH.","zip":"58302"},{"name":"DAZLAK MAH.","zip":"58302"},{"name":"DEMİRDAĞ KÖYÜ","zip":"58302"},{"name":"DEREKAYA MAH.","zip":"58302"},{"name":"DERİMLİ KÖYÜ","zip":"58302"},{"name":"DİKMEÇAY KÖYÜ","zip":"58302"},{"name":"DİKTAŞ KÖYÜ","zip":"58302"},{"name":"DİŞBUDAK KÖYÜ","zip":"58302"},{"name":"DİŞLER MAH.","zip":"58302"},{"name":"DOĞAN MAH.","zip":"58302"},{"name":"DOĞANCIK MAH.","zip":"58302"},{"name":"DOLAÇAYI MAH.","zip":"58302"},{"name":"DUMLUCA KÖYÜ","zip":"58302"},{"name":"DURUKÖY KÖYÜ","zip":"58302"},{"name":"EĞRİSU KÖYÜ","zip":"58302"},{"name":"EKİNBAŞI KÖYÜ","zip":"58302"},{"name":"ERİKLİ KÖYÜ","zip":"58302"},{"name":"ESKİBEYLİ KÖYÜ","zip":"58302"},{"name":"GEDİKBAŞI KÖYÜ","zip":"58302"},{"name":"GEZEY KÖYÜ","zip":"58302"},{"name":"GÖKÇEBEL KÖYÜ","zip":"58302"},{"name":"GÖKÇEHARMAN KÖYÜ","zip":"58302"},{"name":"GÖLÖREN KÖYÜ","zip":"58302"},{"name":"GÖNDÜREN KÖYÜ","zip":"58302"},{"name":"GÖRGÜREN MAH.","zip":"58302"},{"name":"GÖZECİK (MERKEZ BUCAĞI) KÖYÜ","zip":"58302"},{"name":"GÖZECİK (SİNCAN BUCAĞI) KÖYÜ","zip":"58302"},{"name":"GÜÇLÜ MAH.","zip":"58302"},{"name":"GÜDGE MAH.","zip":"58302"},{"name":"GÜLLÜCE KÖYÜ","zip":"58302"},{"name":"GÜNBAHÇE KÖYÜ","zip":"58302"},{"name":"GÜNEŞ KÖYÜ","zip":"58302"},{"name":"GÜNEŞTEPE MAH.","zip":"58302"},{"name":"GÜNEYEVLER KÖYÜ","zip":"58302"},{"name":"GÜRESİN KÖYÜ","zip":"58302"},{"name":"GÜRPINAR KÖYÜ","zip":"58302"},{"name":"GÜVENKAYA KÖYÜ","zip":"58302"},{"name":"GÜVENLİ MAH.","zip":"58302"},{"name":"HACIBOŞLAR MAH.","zip":"58302"},{"name":"HALİLBEY MAH.","zip":"58302"},{"name":"HAMUÇİMEN MAH.","zip":"58302"},{"name":"HANDERE KÖYÜ","zip":"58302"},{"name":"HIDIRLIK MAH.","zip":"58302"},{"name":"HÖBEK KÖYÜ","zip":"58302"},{"name":"ILICA MAH.","zip":"58302"},{"name":"İKİZBAŞAK KÖYÜ","zip":"58302"},{"name":"İMİRHAN KÖYÜ","zip":"58302"},{"name":"İNANLI KÖYÜ","zip":"58302"},{"name":"İNANLI MAH.","zip":"58302"},{"name":"İNCİRLİPINAR KÖYÜ","zip":"58302"},{"name":"İSTASYON MAH.","zip":"58302"},{"name":"KAHRAMAN MAH.","zip":"58302"},{"name":"KAHRAMANLAR MAH.","zip":"58302"},{"name":"KALEDERESİ MAH.","zip":"58302"},{"name":"KALEDİBİ KÖYÜ","zip":"58302"},{"name":"KARAAĞAÇLI KÖYÜ","zip":"58302"},{"name":"KARAALİ MAH.","zip":"58302"},{"name":"KARAKALE KÖYÜ","zip":"58302"},{"name":"KARAKAYA MAH.","zip":"58302"},{"name":"KARAKUZULU KÖYÜ","zip":"58302"},{"name":"KARAMAN KÖYÜ","zip":"58302"},{"name":"KARASAR KÖYÜ","zip":"58302"},{"name":"KARASARBELİ MAH.","zip":"58302"},{"name":"KARIKLARAĞILI MAH.","zip":"58302"},{"name":"KARŞIKONAK KÖYÜ","zip":"58302"},{"name":"KARYAĞAN MAH.","zip":"58302"},{"name":"KAVAKLISU KÖYÜ","zip":"58302"},{"name":"KAYABURUN KÖYÜ","zip":"58302"},{"name":"KAYACIK KÖYÜ","zip":"58302"},{"name":"KAYGISIZ MAH.","zip":"58302"},{"name":"KEÇİKAYA KÖYÜ","zip":"58302"},{"name":"KEKLİKPINAR MAH.","zip":"58302"},{"name":"KEKLİKTEPE KÖYÜ","zip":"58302"},{"name":"KESME KÖYÜ","zip":"58302"},{"name":"KIMILLAR MAH.","zip":"58302"},{"name":"KIRKGÖZ KÖYÜ","zip":"58302"},{"name":"KIŞLA MAH.","zip":"58302"},{"name":"KIZILCAÖREN KÖYÜ","zip":"58302"},{"name":"KONAK MAH.","zip":"58302"},{"name":"KOZLU MAH.","zip":"58302"},{"name":"KOZLUCA MAH.","zip":"58302"},{"name":"KÖRKÜSÜ MAH.","zip":"58302"},{"name":"KULUNCAK KÖYÜ","zip":"58302"},{"name":"KUTLU MAH.","zip":"58302"},{"name":"MADENLİ KÖYÜ","zip":"58302"},{"name":"MALTEPE KÖYÜ","zip":"58302"},{"name":"MİKAİL MAH.","zip":"58302"},{"name":"MURSAL KÖYÜ","zip":"58302"},{"name":"OĞULBEY KÖYÜ","zip":"58302"},{"name":"OLUKMAN KÖYÜ","zip":"58302"},{"name":"ORTAKÖY KÖYÜ","zip":"58302"},{"name":"OVACIK KÖYÜ","zip":"58302"},{"name":"OYUKTEPE KÖYÜ","zip":"58302"},{"name":"ÖDEK KÖYÜ","zip":"58302"},{"name":"ÖLÇEKLİ KÖYÜ","zip":"58302"},{"name":"ÖMERLİ MAH.","zip":"58302"},{"name":"ÖZBAĞI KÖYÜ","zip":"58302"},{"name":"ÖZDEMİR MAH.","zip":"58302"},{"name":"ÖZLÜCE MAH.","zip":"58302"},{"name":"PAŞA MAH.","zip":"58302"},{"name":"SAĞIRTAŞ MAH.","zip":"58302"},{"name":"SAĞLIK MAH.","zip":"58302"},{"name":"SARPAN MAH.","zip":"58302"},{"name":"SELİMOĞLU KÖYÜ","zip":"58302"},{"name":"SEYFEDAMI MAH.","zip":"58302"},{"name":"SIRÇALI KÖYÜ","zip":"58302"},{"name":"SİNCAN KÖYÜ","zip":"58302"},{"name":"SOĞUCAK KÖYÜ","zip":"58302"},{"name":"SUSUZLAR KÖYÜ","zip":"58302"},{"name":"SUSUZÖREN KÖYÜ","zip":"58302"},{"name":"SÜTLÜCE MAH.","zip":"58302"},{"name":"ŞAHİNKÖY KÖYÜ","zip":"58302"},{"name":"ŞİNGO MAH.","zip":"58302"},{"name":"TEKKE MAH.","zip":"58302"},{"name":"TEPEHAN KÖYÜ","zip":"58302"},{"name":"TİPİK MAH.","zip":"58302"},{"name":"TİROLLAR MAH.","zip":"58302"},{"name":"TOPLUCA MAH.","zip":"58302"},{"name":"TORTU MAH.","zip":"58302"},{"name":"TÖTÜK MAH.","zip":"58302"},{"name":"TÜRKALİ MAH.","zip":"58302"},{"name":"ULUÇAYIR KÖYÜ","zip":"58302"},{"name":"UZUNBAĞ KÖYÜ","zip":"58302"},{"name":"UZUNKAYA KÖYÜ","zip":"58302"},{"name":"ÜÇPINAR KÖYÜ","zip":"58302"},{"name":"ÜRÜK KÖYÜ","zip":"58302"},{"name":"YAĞBASAN KÖYÜ","zip":"58302"},{"name":"YALNIZSÖĞÜT KÖYÜ","zip":"58302"},{"name":"YAZI KÖYÜ","zip":"58302"},{"name":"YERLİÇAY KÖYÜ","zip":"58302"},{"name":"YEŞİLKÖY MAH.","zip":"58302"},{"name":"YEŞİLYAYLA KÖYÜ","zip":"58302"},{"name":"YEŞİLYOL KÖYÜ","zip":"58302"},{"name":"YILAN MAH.","zip":"58302"},{"name":"YUSUFŞEYH KÖYÜ","zip":"58302"},{"name":"YUVA KÖYÜ","zip":"58302"},{"name":"YUVA MAH.","zip":"58302"},{"name":"YÜNLÜCE MAH.","zip":"58302"},{"name":"ZEYNİKLER MAH.","zip":"58302"}]},{"name":"DOĞANŞAR","cityName":null,"quarters":[{"name":"CİNCİ MAH.","zip":"58780"},{"name":"ÇAY MAH.","zip":"58780"},{"name":"DEVRİŞAĞA MAH.","zip":"58780"},{"name":"KALE MAH.","zip":"58780"},{"name":"ÖMERAĞA MAH.","zip":"58780"}]},{"name":"MERKEZKÖYLER","cityName":null,"quarters":[{"name":"ALAZLI KÖYÜ","zip":"58782"},{"name":"ASLANTAŞ KÖYÜ","zip":"58782"},{"name":"AŞAĞI MAH.","zip":"58782"},{"name":"AVCIÇAYI KÖYÜ","zip":"58782"},{"name":"BAĞDERESİ MEZRASI MAH.","zip":"58782"},{"name":"BAŞEKİN KÖYÜ","zip":"58782"},{"name":"BEŞAĞAÇ KÖYÜ","zip":"58782"},{"name":"BEŞAĞAÇ MAH.","zip":"58782"},{"name":"BOYALI KÖYÜ","zip":"58782"},{"name":"BURUNCUK MAH.","zip":"58782"},{"name":"ÇALICI KÖYÜ","zip":"58782"},{"name":"ÇATPINAR KÖYÜ","zip":"58782"},{"name":"DARIKOL KÖYÜ","zip":"58782"},{"name":"DERE MAH.","zip":"58782"},{"name":"DEVECİ MEZRASI MAH.","zip":"58782"},{"name":"DEVELİ MAH.","zip":"58782"},{"name":"DÖNEDERE MEZRASI MAH.","zip":"58782"},{"name":"EKİNCİLER KÖYÜ","zip":"58782"},{"name":"ESKİKÖY KÖYÜ","zip":"58782"},{"name":"GÖÇÜKÖY KÖYÜ","zip":"58782"},{"name":"GÜLŞEHİR MEZRASI MAH.","zip":"58782"},{"name":"HAMAM MAH.","zip":"58782"},{"name":"İÇDERE KÖYÜ","zip":"58782"},{"name":"KARACAALİ MAH.","zip":"58782"},{"name":"KARACAKAYA 1 MAH.","zip":"58782"},{"name":"KARACAKAYA 2 MAH.","zip":"58782"},{"name":"KARKIN KÖYÜ","zip":"58782"},{"name":"KARKIN MAH.","zip":"58782"},{"name":"KELOSMANGİL MAH.","zip":"58782"},{"name":"KIPCAK KÖYÜ","zip":"58782"},{"name":"KOZAĞAÇ KÖYÜ","zip":"58782"},{"name":"KOZLU KÖYÜ","zip":"58782"},{"name":"OKCULU KÖYÜ","zip":"58782"},{"name":"ORTA MEZRA MAH.","zip":"58782"},{"name":"ORTAKÖY KÖYÜ","zip":"58782"},{"name":"SARISUVAT KÖYÜ","zip":"58782"},{"name":"SÖBÜLER KÖYÜ","zip":"58782"},{"name":"TAVZA KÖYÜ","zip":"58782"},{"name":"ÜTÜK KÖYÜ","zip":"58782"},{"name":"YAVŞANCIK KÖYÜ","zip":"58782"},{"name":"YEŞİLÇUKUR KÖYÜ","zip":"58782"}]},{"name":"ÇEPNİ","cityName":null,"quarters":[{"name":"ÇEPNİ KÖYÜ","zip":"58843"},{"name":"Ş.BİNBAŞI MEHMET ARAS MAH.","zip":"58843"},{"name":"UĞUR MUMCU MAH.","zip":"58843"}]},{"name":"EĞERCİ","cityName":null,"quarters":[{"name":"EĞERCİ KÖYÜ","zip":"58002"},{"name":"GÖKSU MAH.","zip":"58002"},{"name":"KARŞIYAKA MAH.","zip":"58002"}]},{"name":"GEMEREK","cityName":null,"quarters":[{"name":"ALPEREN MAH.","zip":"58840"},{"name":"BAHÇELİ MAH.","zip":"58840"},{"name":"FEVZİÇAKMAK MAH.","zip":"58840"},{"name":"HORUK MAH.","zip":"58840"},{"name":"YUKARI MAH.","zip":"58840"}]},{"name":"iNKIŞLA","cityName":null,"quarters":[{"name":"BAHÇELİEVLER MAH.","zip":"58001"},{"name":"İNKIŞLA KÖYÜ","zip":"58001"}]},{"name":"MERKEZKÖYLER","cityName":null,"quarters":[{"name":"ADEMİN YAYLASI MAH.","zip":"58842"},{"name":"AKÇAŞAR KÖYÜ","zip":"58842"},{"name":"ALİGİLLERİN YAYLASI MAH.","zip":"58842"},{"name":"AŞAĞI KAZAKLI MEZRASI MAH.","zip":"58842"},{"name":"BAŞTEPELER KÖYÜ","zip":"58842"},{"name":"BULHASAN KÖYÜ","zip":"58842"},{"name":"BURHAN KÖYÜ","zip":"58842"},{"name":"CESURLAR KÖYÜ","zip":"58842"},{"name":"CEVİZCİK MAH.","zip":"58842"},{"name":"ÇAT KÖYÜ","zip":"58842"},{"name":"ÇİÇEKOĞLU KÖYÜ","zip":"58842"},{"name":"DENDİL KÖYÜ","zip":"58842"},{"name":"DURGUNSU KÖYÜ","zip":"58842"},{"name":"EBİLLER MAH.","zip":"58842"},{"name":"EKİZCE KÖYÜ","zip":"58842"},{"name":"ESKİÇUBUK KÖYÜ","zip":"58842"},{"name":"ESKİYURT KÖYÜ","zip":"58842"},{"name":"EŞİKLİ KÖYÜ","zip":"58842"},{"name":"HACIYUSUF KÖYÜ","zip":"58842"},{"name":"HATABALANI YAYLASI MAH.","zip":"58842"},{"name":"KABAKTEPE MAH.","zip":"58842"},{"name":"KARAAĞIL KÖYÜ","zip":"58842"},{"name":"KARAERKEK KÖYÜ","zip":"58842"},{"name":"KARAGÖL KÖYÜ","zip":"58842"},{"name":"KARTALKAYA KÖYÜ","zip":"58842"},{"name":"KEKLİCEK KÖYÜ","zip":"58842"},{"name":"KİLİSEALAN YAYLASI MAH.","zip":"58842"},{"name":"KOCAOĞLU KÖYÜ","zip":"58842"},{"name":"KÖSELİ KÖYÜ","zip":"58842"},{"name":"KUŞKAYASI MAH.","zip":"58842"},{"name":"KÜÇÜKTUZHİSAR KÖYÜ","zip":"58842"},{"name":"KÜMEÖREN KÖYÜ","zip":"58842"},{"name":"NECİPLERİN YAYLASI MAH.","zip":"58842"},{"name":"OSMANUŞAĞI KÖYÜ","zip":"58842"},{"name":"ÖMERÇAVUŞ YAYLASI MAH.","zip":"58842"},{"name":"ÖRENYURT KÖYÜ","zip":"58842"},{"name":"ÖZİÇİ KÖYÜ","zip":"58842"},{"name":"SARIKAYA MAH.","zip":"58842"},{"name":"SEYDİNALİ KÖYÜ","zip":"58842"},{"name":"SIYIRMALI MAH.","zip":"58842"},{"name":"TALAZOĞLU KÖYÜ","zip":"58842"},{"name":"TATLIPINAR KÖYÜ","zip":"58842"},{"name":"TEKMEN KÖYÜ","zip":"58842"},{"name":"ÜÇAIL MEZRASI MAH.","zip":"58842"},{"name":"YAYLA EVİ MAH.","zip":"58842"},{"name":"YENİKÖY KÖYÜ","zip":"58842"},{"name":"YEŞİLÖZ KÖYÜ","zip":"58842"},{"name":"YUKARI KAZAKLI MEZRASI MAH.","zip":"58842"}]},{"name":"SIZIR","cityName":null,"quarters":[{"name":"KALEBAŞI MAH.","zip":"58880"},{"name":"KÖPRÜBAŞI MAH.","zip":"58880"},{"name":"SIZIR KÖYÜ","zip":"58880"},{"name":"SUBAŞI MAH.","zip":"58880"},{"name":"YENİ MAH.","zip":"58880"}]},{"name":"YENİÇUBUK","cityName":null,"quarters":[{"name":"KARACALAR MAH.","zip":"58580"},{"name":"MUHSİN YAZICIOĞLU MAH.","zip":"58580"},{"name":"YENİDOĞAN MAH.","zip":"58580"},{"name":"YENİHAYAT MAH.","zip":"58580"}]},{"name":"GÖLOVA","cityName":null,"quarters":[{"name":"ALSANCAK MAH.","zip":"58640"},{"name":"ÇALKAYA MAH.","zip":"58640"},{"name":"FEVZİ ÇAKMAK MAH.","zip":"58640"}]},{"name":"MERKEZKÖYLER","cityName":null,"quarters":[{"name":"ARSLANCA KÖYÜ","zip":"58642"},{"name":"AŞAGI MAH.","zip":"58642"},{"name":"AŞAĞITEPECİK KÖYÜ","zip":"58642"},{"name":"AYDOĞDU KÖYÜ","zip":"58642"},{"name":"BEZGİN MAH.","zip":"58642"},{"name":"BOĞAZKÖY KÖYÜ","zip":"58642"},{"name":"BOZAT KÖYÜ","zip":"58642"},{"name":"CANKÖY KÖYÜ","zip":"58642"},{"name":"ÇAKIRŞEYH KÖYÜ","zip":"58642"},{"name":"ÇATAKLI KÖYÜ","zip":"58642"},{"name":"ÇEVRECİK KÖYÜ","zip":"58642"},{"name":"ÇOBANLI KÖYÜ","zip":"58642"},{"name":"ÇUBUK MAH.","zip":"58642"},{"name":"ÇUKURYURT KÖYÜ","zip":"58642"},{"name":"DEMİRKONAK KÖYÜ","zip":"58642"},{"name":"DİKKÖY KÖYÜ","zip":"58642"},{"name":"DUTLUCA MAH.","zip":"58642"},{"name":"GEDİK MAH.","zip":"58642"},{"name":"GÖZLÜCE KÖYÜ","zip":"58642"},{"name":"GÖZÜKÜÇÜK KÖYÜ","zip":"58642"},{"name":"GÜNALAN KÖYÜ","zip":"58642"},{"name":"GÜZÖREN KÖYÜ","zip":"58642"},{"name":"İLYASKÖY KÖYÜ","zip":"58642"},{"name":"KARACA KÖYÜ","zip":"58642"},{"name":"KARAYAKUP KÖYÜ","zip":"58642"},{"name":"KAYAOĞLU MAH.","zip":"58642"},{"name":"KOLBAŞI MAH.","zip":"58642"},{"name":"OKÇAÖREN KÖYÜ","zip":"58642"},{"name":"ÖDEMİŞ MAH.","zip":"58642"},{"name":"SARIÇİÇEK MAH.","zip":"58642"},{"name":"SARIYUSUF KÖYÜ","zip":"58642"},{"name":"SOĞUKSU KÖYÜ","zip":"58642"},{"name":"SUBAŞI KÖYÜ","zip":"58642"},{"name":"ULUÇUKUR KÖYÜ","zip":"58642"},{"name":"YAYLAÇAYI KÖYÜ","zip":"58642"},{"name":"YUKARI DİK MAH.","zip":"58642"},{"name":"YUKARITEPECİK KÖYÜ","zip":"58642"},{"name":"YUVACIK KÖYÜ","zip":"58642"}]},{"name":"GÜRÜN","cityName":null,"quarters":[{"name":"BOĞAZİÇİ MAH.","zip":"58800"},{"name":"BURÇEVİ MAH.","zip":"58800"},{"name":"ÇAYBOYU MAH.","zip":"58800"},{"name":"ÇÖRTEN MAH.","zip":"58800"},{"name":"GÖKPINAR MAH.","zip":"58800"},{"name":"HACILAR MAH.","zip":"58800"},{"name":"IŞITAN MAH.","zip":"58800"},{"name":"KARATEPE MAH.","zip":"58800"},{"name":"KARAYAR MAH.","zip":"58800"},{"name":"KARŞIYAKA MAH.","zip":"58800"},{"name":"KETENÇAYIR MAH.","zip":"58800"},{"name":"KİRAZLIK MAH.","zip":"58800"},{"name":"KURULTAY MAH.","zip":"58800"},{"name":"PINARÖNÜ MAH.","zip":"58800"},{"name":"ŞUĞUL MAH.","zip":"58800"},{"name":"YASSICATEPE MAH.","zip":"58800"},{"name":"YENİ MAH.","zip":"58800"},{"name":"YEŞİLYURT MAH.","zip":"58800"}]},{"name":"MERKEZKÖYLER","cityName":null,"quarters":[{"name":"AKDERE KÖYÜ","zip":"58802"},{"name":"AKPINAR KÖYÜ","zip":"58802"},{"name":"ALGIN MEZRASI MAH.","zip":"58802"},{"name":"ARPAÇUKURU MEZRASI MAH.","zip":"58802"},{"name":"AŞAĞI ÇATKARA MEZRASI MAH.","zip":"58802"},{"name":"AŞAĞI KÜRKÇÜ MEZRASI MAH.","zip":"58802"},{"name":"AŞAĞI YAYLACIK MEZRASI MAH.","zip":"58802"},{"name":"AVGUN MEZRASI MAH.","zip":"58802"},{"name":"AYRANCA MEZRASI MAH.","zip":"58802"},{"name":"AYVALI KÖYÜ","zip":"58802"},{"name":"BAĞLIÇAY KÖYÜ","zip":"58802"},{"name":"BAHÇEİÇİ KÖYÜ","zip":"58802"},{"name":"BAŞÖREN KÖYÜ","zip":"58802"},{"name":"BAŞPINAR MEZRASI MAH.","zip":"58802"},{"name":"BEHRAM MEZRASI MAH.","zip":"58802"},{"name":"BEYPINAR KÖYÜ","zip":"58802"},{"name":"BOZHÜYÜK KÖYÜ","zip":"58802"},{"name":"BOZTAŞ MEZRASI MAH.","zip":"58802"},{"name":"BÖĞRÜDELİK KÖYÜ","zip":"58802"},{"name":"CAMİLİYURT KÖYÜ","zip":"58802"},{"name":"CIRIKPINARI MEZRASI MAH.","zip":"58802"},{"name":"CIVCIK MEZRASI MAH.","zip":"58802"},{"name":"ÇAMLICA KÖYÜ","zip":"58802"},{"name":"ÇAPAK MEZRASI MAH.","zip":"58802"},{"name":"ÇEVİRME MAH.","zip":"58802"},{"name":"ÇEVİRME MEZRASI MAH.","zip":"58802"},{"name":"ÇİÇEKYURT KÖYÜ","zip":"58802"},{"name":"ÇÖPLÜ MAH.","zip":"58802"},{"name":"ÇÖPLÜ MEZRASI MAH.","zip":"58802"},{"name":"DAVULHÜYÜK KÖYÜ","zip":"58802"},{"name":"DAYAKPINAR KÖYÜ","zip":"58802"},{"name":"DEVEÇAYIRI KÖYÜ","zip":"58802"},{"name":"DIRIŞLAR MEZRASI MAH.","zip":"58802"},{"name":"DÜĞÜNYURDU MEZRASI MAH.","zip":"58802"},{"name":"DÜRMEPINAR KÖYÜ","zip":"58802"},{"name":"ERDOĞAN KÖYÜ","zip":"58802"},{"name":"ERGEÇ MEZRASI MAH.","zip":"58802"},{"name":"ESKİBEKTAŞLI KÖYÜ","zip":"58802"},{"name":"ESKİHAMAL KÖYÜ","zip":"58802"},{"name":"FATMADERVİŞ MEZRASI MAH.","zip":"58802"},{"name":"GELİNCİK MEZRASI MAH.","zip":"58802"},{"name":"GÖBEKÖREN KÖYÜ","zip":"58802"},{"name":"GÖKÇEYAZI KÖYÜ","zip":"58802"},{"name":"GÜBÜNÖREN MEZRASI MAH.","zip":"58802"},{"name":"GÜLDEDE KÖYÜ","zip":"58802"},{"name":"GÜLLÜBUCAK KÖYÜ","zip":"58802"},{"name":"GÜLPINAR MEZRASI MAH.","zip":"58802"},{"name":"GÜNEŞ KÖYÜ","zip":"58802"},{"name":"HAMURKESEN MEVKİ MAH.","zip":"58802"},{"name":"HÜYÜKLÜYURT KÖYÜ","zip":"58802"},{"name":"İNCESU KÖYÜ","zip":"58802"},{"name":"KAFİLE ÇAYIRI MEZRASI MAH.","zip":"58802"},{"name":"KALEDERE KÖYÜ","zip":"58802"},{"name":"KALOYAK YAYLASI MAH.","zip":"58802"},{"name":"KARADORUK KÖYÜ","zip":"58802"},{"name":"KARAHİSAR KÖYÜ","zip":"58802"},{"name":"KARAKUYU KÖYÜ","zip":"58802"},{"name":"KARAÖREN KÖYÜ","zip":"58802"},{"name":"KARAPINAR KÖYÜ","zip":"58802"},{"name":"KARAYOLU ÜZERİ MAH.","zip":"58802"},{"name":"KAŞKÖY KÖYÜ","zip":"58802"},{"name":"KAVAKKÖY KÖYÜ","zip":"58802"},{"name":"KAYALAR KÖYÜ","zip":"58802"},{"name":"KAYNARCA KÖYÜ","zip":"58802"},{"name":"KILIÇDOĞAN KÖYÜ","zip":"58802"},{"name":"KINDIRALIK KÖYÜ","zip":"58802"},{"name":"KIŞLA MEVKİ MAH.","zip":"58802"},{"name":"KIŞLA MEZRASI MAH.","zip":"58802"},{"name":"KIZILBURUN KÖYÜ","zip":"58802"},{"name":"KIZILÖREN KÖYÜ","zip":"58802"},{"name":"KIZILPINAR KÖYÜ","zip":"58802"},{"name":"KONAKGÖRMEZ MEZRASI MAH.","zip":"58802"},{"name":"KONAKPINAR KÖYÜ","zip":"58802"},{"name":"KOVALIPINAR MEZRASI MAH.","zip":"58802"},{"name":"KOYUNLU KÖYÜ","zip":"58802"},{"name":"KOYUNLUKOCA MEZRASI MAH.","zip":"58802"},{"name":"KOZAKMAĞARA MEZRASI MAH.","zip":"58802"},{"name":"KÖRPINAR MEZRASI MAH.","zip":"58802"},{"name":"KÖTÜKÖY MEZRASI MAH.","zip":"58802"},{"name":"KUŞKAYASI MEZRASI MAH.","zip":"58802"},{"name":"KUZ MEZRASI MAH.","zip":"58802"},{"name":"KUZULUK MEZRASI MAH.","zip":"58802"},{"name":"KÜLAHLI KÖYÜ","zip":"58802"},{"name":"KÜRKCÜ KÖYÜ","zip":"58802"},{"name":"MAĞARA KÖYÜ","zip":"58802"},{"name":"MAHKENLİ KÖYÜ","zip":"58802"},{"name":"MUDAFAR MEZRASI MAH.","zip":"58802"},{"name":"ORTA ÇATKARA MEZRASI MAH.","zip":"58802"},{"name":"OSMANDEDE KÖYÜ","zip":"58802"},{"name":"REŞADİYE KÖYÜ","zip":"58802"},{"name":"SAKALTUTAN MEZRASI MAH.","zip":"58802"},{"name":"SARICA KÖYÜ","zip":"58802"},{"name":"SARIÖREN MEZRASI MAH.","zip":"58802"},{"name":"SULARBAŞI KÖYÜ","zip":"58802"},{"name":"SÜMBÜLLÜYURT MEZRASI MAH.","zip":"58802"},{"name":"ŞIKLAR YAYLASI MAH.","zip":"58802"},{"name":"TAŞLIHÜYÜK MEZRASI MAH.","zip":"58802"},{"name":"TEPECİK KÖYÜ","zip":"58802"},{"name":"TEPECİK YOLU MEVKİ MAH.","zip":"58802"},{"name":"TERSAKAN MEZRASI MAH.","zip":"58802"},{"name":"TİKEN AĞASI MEZRASI MAH.","zip":"58802"},{"name":"TİKEN OCAĞI MEZRASI MAH.","zip":"58802"},{"name":"TÖKLER MEZRASI MAH.","zip":"58802"},{"name":"ULUPINAR MEZRASI MAH.","zip":"58802"},{"name":"YAYLACIK KÖYÜ","zip":"58802"},{"name":"YAZYURDU KÖYÜ","zip":"58802"},{"name":"YELKEN KÖYÜ","zip":"58802"},{"name":"YENİBEKTAŞLI KÖYÜ","zip":"58802"},{"name":"YEŞİLDERE KÖYÜ","zip":"58802"},{"name":"YEŞİLYURT MEZRASI MAH.","zip":"58802"},{"name":"YILANHÜYÜK KÖYÜ","zip":"58802"},{"name":"YOLGEÇEN KÖYÜ","zip":"58802"},{"name":"YUKARI ÇAKKARA MEZRASI MAH.","zip":"58802"},{"name":"YUVA KÖYÜ","zip":"58802"}]},{"name":"HAFİK","cityName":null,"quarters":[{"name":"FATİH MAH.","zip":"58760"},{"name":"GÜNYAMAÇ MAH.","zip":"58760"},{"name":"KOÇ MAH.","zip":"58760"},{"name":"TEPE MAH.","zip":"58760"},{"name":"YENİ MAH.","zip":"58760"}]},{"name":"MERKEZKÖYLER","cityName":null,"quarters":[{"name":"ADAMLI KÖYÜ","zip":"58762"},{"name":"AHMETUŞAĞI MAH.","zip":"58762"},{"name":"AKKAYA KÖYÜ","zip":"58762"},{"name":"AKTAŞ KÖYÜ","zip":"58762"},{"name":"ALANYURT KÖYÜ","zip":"58762"},{"name":"ALÇIÖREN KÖYÜ","zip":"58762"},{"name":"ALİBEYLİ KÖYÜ","zip":"58762"},{"name":"AŞAĞI ÇALTILI MAH.","zip":"58762"},{"name":"AYLIOĞLU KÖYÜ","zip":"58762"},{"name":"BAHÇECİK KÖYÜ","zip":"58762"},{"name":"BAKIMLI KÖYÜ","zip":"58762"},{"name":"BARCIN MAH.","zip":"58762"},{"name":"BAYIRALTI KÖYÜ","zip":"58762"},{"name":"BAYRAMTEPE KÖYÜ","zip":"58762"},{"name":"BENLİKAYA KÖYÜ","zip":"58762"},{"name":"BESİNLİ KÖYÜ","zip":"58762"},{"name":"BEYDİLİ KÖYÜ","zip":"58762"},{"name":"BEYKONAĞI KÖYÜ","zip":"58762"},{"name":"CELALLİ KÖYÜ","zip":"58762"},{"name":"ÇAKMAK KÖYÜ","zip":"58762"},{"name":"ÇALTILI KÖYÜ","zip":"58762"},{"name":"ÇATMA MAH.","zip":"58762"},{"name":"ÇINARLI KÖYÜ","zip":"58762"},{"name":"ÇİMENYENİCE KÖYÜ","zip":"58762"},{"name":"ÇÖMLEKLİ KÖYÜ","zip":"58762"},{"name":"ÇUKURTARLA MAH.","zip":"58762"},{"name":"DEĞİRMENBOĞAZI KÖYÜ","zip":"58762"},{"name":"DEĞİRMENSEKİ KÖYÜ","zip":"58762"},{"name":"DEMİRCİLİK KÖYÜ","zip":"58762"},{"name":"DERİNCE KÖYÜ","zip":"58762"},{"name":"DIŞKAPI KÖYÜ","zip":"58762"},{"name":"DOSTUROĞLU MAH.","zip":"58762"},{"name":"DURULMUŞ KÖYÜ","zip":"58762"},{"name":"DÜĞER KÖYÜ","zip":"58762"},{"name":"DÜNDAR KÖYÜ","zip":"58762"},{"name":"DÜZYAYLA KÖYÜ","zip":"58762"},{"name":"EKİNGÖLÜ KÖYÜ","zip":"58762"},{"name":"EMRAHINAĞILI MAH.","zip":"58762"},{"name":"EMRE KÖYÜ","zip":"58762"},{"name":"ESENLİ KÖYÜ","zip":"58762"},{"name":"ESENTEPE KÖYÜ","zip":"58762"},{"name":"ESKİHEZE MAH.","zip":"58762"},{"name":"ESKİKÖY MAH.","zip":"58762"},{"name":"EVCİ KÖYÜ","zip":"58762"},{"name":"EYMİR KÖYÜ","zip":"58762"},{"name":"GEDİKÇAYIRI KÖYÜ","zip":"58762"},{"name":"GÖLCÜK KÖYÜ","zip":"58762"},{"name":"GÖYDÜN KÖYÜ","zip":"58762"},{"name":"GÜLPINAR KÖYÜ","zip":"58762"},{"name":"GÜNYAMAÇ KÖYÜ","zip":"58762"},{"name":"HIDIRUŞAĞI MAH.","zip":"58762"},{"name":"HOPLAMAZ MAH.","zip":"58762"},{"name":"İNANDIK KÖYÜ","zip":"58762"},{"name":"İNKÖY KÖYÜ","zip":"58762"},{"name":"İSMAİLHANI MAH.","zip":"58762"},{"name":"KABALI KÖYÜ","zip":"58762"},{"name":"KAMIŞKÖY KÖYÜ","zip":"58762"},{"name":"KARAPINAR MAH.","zip":"58762"},{"name":"KARAYAPRAK KÖYÜ","zip":"58762"},{"name":"KARLI KÖYÜ","zip":"58762"},{"name":"KAVAK MAH.","zip":"58762"},{"name":"KAVAKDERESİ MAH.","zip":"58762"},{"name":"KAYTARMIŞ KÖYÜ","zip":"58762"},{"name":"KEKLİCEK MAH.","zip":"58762"},{"name":"KELEŞ MAH.","zip":"58762"},{"name":"KIZILCAÖREN KÖYÜ","zip":"58762"},{"name":"KIZILÖREN KÖYÜ","zip":"58762"},{"name":"KOÇALİ MAH.","zip":"58762"},{"name":"KOŞUTDERE KÖYÜ","zip":"58762"},{"name":"KOZAĞACI MAH.","zip":"58762"},{"name":"KURTİNİ MAH.","zip":"58762"},{"name":"KURUGÖL KÖYÜ","zip":"58762"},{"name":"KÜPECİK KÖYÜ","zip":"58762"},{"name":"MADEN KÖYÜ","zip":"58762"},{"name":"MANSURLU KÖYÜ","zip":"58762"},{"name":"MERCİMEK DERESİ MAH.","zip":"58762"},{"name":"MOLLA MAH.","zip":"58762"},{"name":"OLUKBAŞI KÖYÜ","zip":"58762"},{"name":"OTMANALAN KÖYÜ","zip":"58762"},{"name":"OYMADERE KÖYÜ","zip":"58762"},{"name":"ÖREĞİL KÖYÜ","zip":"58762"},{"name":"ÖZEN KÖYÜ","zip":"58762"},{"name":"PİRHÜSEYİN KÖYÜ","zip":"58762"},{"name":"PUSAT KÖYÜ","zip":"58762"},{"name":"SARAY MAH.","zip":"58762"},{"name":"SARIKÖY MAH.","zip":"58762"},{"name":"SARIMSAK MAH.","zip":"58762"},{"name":"SOFULAR KÖYÜ","zip":"58762"},{"name":"SOĞUK PINAR MAH.","zip":"58762"},{"name":"SÜLEYMANİYE KÖYÜ","zip":"58762"},{"name":"ŞAHİN KÖYÜ","zip":"58762"},{"name":"TAVŞANLI KÖYÜ","zip":"58762"},{"name":"TEREKLİ MAH.","zip":"58762"},{"name":"TOPÇUYENİKÖY KÖYÜ","zip":"58762"},{"name":"TUZHİSAR KÖYÜ","zip":"58762"},{"name":"UZAMIŞ MAH.","zip":"58762"},{"name":"ÜZEYİR KÖYÜ","zip":"58762"},{"name":"VELİIŞIK MAH.","zip":"58762"},{"name":"YAĞCILAR MAH.","zip":"58762"},{"name":"YAKABOYU KÖYÜ","zip":"58762"},{"name":"YALINCAK KÖYÜ","zip":"58762"},{"name":"YALNIZAĞIL KÖYÜ","zip":"58762"},{"name":"YARHİSAR KÖYÜ","zip":"58762"},{"name":"YAZLIKYURDU MAH.","zip":"58762"},{"name":"YELLİCE MAH.","zip":"58762"},{"name":"YENİ GÜNYAMAÇ MAH.","zip":"58762"},{"name":"YENİKÖY KÖYÜ","zip":"58762"},{"name":"YUKARIOBA MAH.","zip":"58762"},{"name":"YUVA MAH.","zip":"58762"}]},{"name":"İMRANLI","cityName":null,"quarters":[{"name":"DURCAN MAH.","zip":"58980"},{"name":"KARATEKİN MAH.","zip":"58980"},{"name":"KARŞIYAKA MAH.","zip":"58980"},{"name":"KIZILIRMAK MAH.","zip":"58980"},{"name":"VALİTUNCEL MAH.","zip":"58980"},{"name":"YAYLACIK MAH.","zip":"58980"},{"name":"YENİ MAH.","zip":"58980"},{"name":"YENİDOĞAN MAH.","zip":"58980"}]},{"name":"MERKEZKÖYLER","cityName":null,"quarters":[{"name":"AKKAYA KÖYÜ","zip":"58982"},{"name":"ALACAHACI KÖYÜ","zip":"58982"},{"name":"ALANYURT MAH.","zip":"58982"},{"name":"ALTINCA KÖYÜ","zip":"58982"},{"name":"ARAPLAR MAH.","zip":"58982"},{"name":"ARDIÇALAN KÖYÜ","zip":"58982"},{"name":"ARIK KÖYÜ","zip":"58982"},{"name":"AŞAĞIBOĞAZ KÖYÜ","zip":"58982"},{"name":"AŞAĞICULHA KÖYÜ","zip":"58982"},{"name":"AŞAĞIŞEYHLİ KÖYÜ","zip":"58982"},{"name":"ATLICA KÖYÜ","zip":"58982"},{"name":"AVŞAR KÖYÜ","zip":"58982"},{"name":"AYDIN KÖYÜ","zip":"58982"},{"name":"AYDOĞAN KÖYÜ","zip":"58982"},{"name":"AYRANCI MAH.","zip":"58982"},{"name":"BAĞYAZI KÖYÜ","zip":"58982"},{"name":"BAHADUN KÖYÜ","zip":"58982"},{"name":"BAHTİYAR KÖYÜ","zip":"58982"},{"name":"BALKAYA MAH.","zip":"58982"},{"name":"BANDIRA MAH.","zip":"58982"},{"name":"BARDAKLI KÖYÜ","zip":"58982"},{"name":"BAŞLICA KÖYÜ","zip":"58982"},{"name":"BECEK KÖYÜ","zip":"58982"},{"name":"BEĞENDİK KÖYÜ","zip":"58982"},{"name":"BOĞANAK KÖYÜ","zip":"58982"},{"name":"BOĞAZÖREN KÖYÜ","zip":"58982"},{"name":"BORULAR KÖYÜ","zip":"58982"},{"name":"BULGURLUK KÖYÜ","zip":"58982"},{"name":"CELALDAMI KÖYÜ","zip":"58982"},{"name":"CERİT KÖYÜ","zip":"58982"},{"name":"ÇALIYURDU MAH.","zip":"58982"},{"name":"ÇALIYURT KÖYÜ","zip":"58982"},{"name":"ÇAMLIK GÜL MUSTAFA MAH.","zip":"58982"},{"name":"ÇANDIR KÖYÜ","zip":"58982"},{"name":"ÇATMA MAH.","zip":"58982"},{"name":"ÇAVUŞDERE MAH.","zip":"58982"},{"name":"ÇAYKÖY MAH.","zip":"58982"},{"name":"ÇİMEN MAH.","zip":"58982"},{"name":"ÇUKURYURT KÖYÜ","zip":"58982"},{"name":"DAĞYURDU KÖYÜ","zip":"58982"},{"name":"DARISEKİ KÖYÜ","zip":"58982"},{"name":"DEĞİRMENDERE MAH.","zip":"58982"},{"name":"DELİ MAHMUT MAH.","zip":"58982"},{"name":"DELİCE KÖYÜ","zip":"58982"},{"name":"DEMİRTAŞ KÖYÜ","zip":"58982"},{"name":"DEREKÖY KÖYÜ","zip":"58982"},{"name":"DOĞANÇAL KÖYÜ","zip":"58982"},{"name":"EKİNCİK KÖYÜ","zip":"58982"},{"name":"EKREK MAH.","zip":"58982"},{"name":"ELMASEKİ MAH.","zip":"58982"},{"name":"ERDEMŞAH KÖYÜ","zip":"58982"},{"name":"ESKİDERE KÖYÜ","zip":"58982"},{"name":"ESKİKAPIMAHMUT KÖYÜ","zip":"58982"},{"name":"ESKİKEŞLİK KÖYÜ","zip":"58982"},{"name":"GELENLİ KÖYÜ","zip":"58982"},{"name":"GELİNTARLA KÖYÜ","zip":"58982"},{"name":"GÖKÇEBEL KÖYÜ","zip":"58982"},{"name":"GÖKÇEBEL MEZRASI MAH.","zip":"58982"},{"name":"GÖKDERE KÖYÜ","zip":"58982"},{"name":"GÖLAĞIL MAH.","zip":"58982"},{"name":"GÖRÜNMEZKALE KÖYÜ","zip":"58982"},{"name":"GÜL MUSTAFA MEZRASI MAH.","zip":"58982"},{"name":"GÜRGEN MAH.","zip":"58982"},{"name":"GÜVEN KÖYÜ","zip":"58982"},{"name":"HALİLLER KÖYÜ","zip":"58982"},{"name":"HALLAS MAH.","zip":"58982"},{"name":"HANDERE MAH.","zip":"58982"},{"name":"HANKÖY MAH.","zip":"58982"},{"name":"HASKÖY MAH.","zip":"58982"},{"name":"HEMOLAR MAH.","zip":"58982"},{"name":"HÜSEYİN ONBAŞI MAH.","zip":"58982"},{"name":"KAPIKAYA KÖYÜ","zip":"58982"},{"name":"KAPUMAHMUT KÖYÜ","zip":"58982"},{"name":"KARABOĞAZ KÖYÜ","zip":"58982"},{"name":"KARACAHİSAR KÖYÜ","zip":"58982"},{"name":"KARACAÖREN KÖYÜ","zip":"58982"},{"name":"KARAÇAYIR KÖYÜ","zip":"58982"},{"name":"KARAHÜSEYİN KÖYÜ","zip":"58982"},{"name":"KARAPINAR KÖYÜ","zip":"58982"},{"name":"KARATAŞ KÖYÜ","zip":"58982"},{"name":"KARATAŞ MAH.","zip":"58982"},{"name":"KARLIK KÖYÜ","zip":"58982"},{"name":"KARŞİKİ MAH.","zip":"58982"},{"name":"KASAPLAR KÖYÜ","zip":"58982"},{"name":"KAVAKLIDERE MAH.","zip":"58982"},{"name":"KAVALCIK KÖYÜ","zip":"58982"},{"name":"KELEK MAH.","zip":"58982"},{"name":"KEMRELİ KÖYÜ","zip":"58982"},{"name":"KEPEZ MAH.","zip":"58982"},{"name":"KERİMOĞLU KÖYÜ","zip":"58982"},{"name":"KEVENLİ KÖYÜ","zip":"58982"},{"name":"KILIÇKÖY KÖYÜ","zip":"58982"},{"name":"KILIÇLAR KÖYÜ","zip":"58982"},{"name":"KIZILMEZRA KÖYÜ","zip":"58982"},{"name":"KIZILOLUK MAH.","zip":"58982"},{"name":"KIZILTEPE KÖYÜ","zip":"58982"},{"name":"KOÇGEDİĞİ KÖYÜ","zip":"58982"},{"name":"KORUKÖY KÖYÜ","zip":"58982"},{"name":"KOYUNKAYA KÖYÜ","zip":"58982"},{"name":"KÖRABBAS KÖYÜ","zip":"58982"},{"name":"KÖRHEMO MAH.","zip":"58982"},{"name":"KUZKÖY KÖYÜ","zip":"58982"},{"name":"MADEN KÖYÜ","zip":"58982"},{"name":"MADEN MEZRASI MAH.","zip":"58982"},{"name":"MELEKLER MAH.","zip":"58982"},{"name":"MELEKLER MEZRASI MAH.","zip":"58982"},{"name":"ORTAKDARACIK KÖYÜ","zip":"58982"},{"name":"ORTAKÖY KÖYÜ","zip":"58982"},{"name":"ORTAKÖY MAH.","zip":"58982"},{"name":"PALANGA MAH.","zip":"58982"},{"name":"PERÇEMLİ MAH.","zip":"58982"},{"name":"PİREDEDE KÖYÜ","zip":"58982"},{"name":"PUR MAH.","zip":"58982"},{"name":"PÜR MAH.","zip":"58982"},{"name":"REFİK KÖYÜ","zip":"58982"},{"name":"SANDAL KÖYÜ","zip":"58982"},{"name":"SIDDIKLAR MAH.","zip":"58982"},{"name":"SİNEK KÖYÜ","zip":"58982"},{"name":"SÖĞÜTLÜ KÖYÜ","zip":"58982"},{"name":"SÖĞÜTLÜ-GELENLİ MAH.","zip":"58982"},{"name":"ŞAHBAZ MAH.","zip":"58982"},{"name":"ŞIHLAR MAH.","zip":"58982"},{"name":"TAŞDELEN KÖYÜ","zip":"58982"},{"name":"TAŞLICA KÖYÜ","zip":"58982"},{"name":"TAŞLICA MAH.","zip":"58982"},{"name":"TOKLUCAK KÖYÜ","zip":"58982"},{"name":"TOPALLAR KÖYÜ","zip":"58982"},{"name":"TOPTAŞ KÖYÜ","zip":"58982"},{"name":"TUZÖZÜ KÖYÜ","zip":"58982"},{"name":"TÜRKKEŞLİK KÖYÜ","zip":"58982"},{"name":"TÜRKYENİCE KÖYÜ","zip":"58982"},{"name":"UYANIK KÖYÜ","zip":"58982"},{"name":"UZUNTEMUR KÖYÜ","zip":"58982"},{"name":"YAKAYERİ KÖYÜ","zip":"58982"},{"name":"YAPRAKLIPINAR KÖYÜ","zip":"58982"},{"name":"YAYLA EVLERİ MAH.","zip":"58982"},{"name":"YAZIKAVAK KÖYÜ","zip":"58982"},{"name":"YAZILI KÖYÜ","zip":"58982"},{"name":"YENİKENT KÖYÜ","zip":"58982"},{"name":"YENİKÖY KÖYÜ","zip":"58982"},{"name":"YENİMAHALLE MAH.","zip":"58982"},{"name":"YONCABAYIRI KÖYÜ","zip":"58982"},{"name":"YOZYATAĞI KÖYÜ","zip":"58982"},{"name":"YUKARIBOĞAZ KÖYÜ","zip":"58982"},{"name":"YUKARICULHA KÖYÜ","zip":"58982"},{"name":"YÜNÖREN KÖYÜ","zip":"58982"},{"name":"YÜREKTAŞI KÖYÜ","zip":"58982"}]},{"name":"KANGAL","cityName":null,"quarters":[{"name":"GÜRSEL MAH.","zip":"58900"},{"name":"HÜRRİYET MAH.","zip":"58900"},{"name":"KARŞIYAKA MAH.","zip":"58900"},{"name":"REŞADİYE MAH.","zip":"58900"},{"name":"SULARBAŞI MAH.","zip":"58900"},{"name":"YENİ MAH.","zip":"58900"},{"name":"ZAFER MAH.","zip":"58900"}]},{"name":"MERKEZKÖYLER","cityName":null,"quarters":[{"name":"AKÇAMAĞARA KÖYÜ","zip":"58902"},{"name":"AKÇAŞEHİR KÖYÜ","zip":"58902"},{"name":"AKDERE KÖYÜ","zip":"58902"},{"name":"AKGEDİK KÖYÜ","zip":"58902"},{"name":"AKGEDİK MAH.","zip":"58902"},{"name":"AKPINAR KÖYÜ","zip":"58902"},{"name":"AKTEPE KÖYÜ","zip":"58902"},{"name":"ALACAHAN KÖYÜ","zip":"58902"},{"name":"ALACAHAN YENİKÖY KÖYÜ","zip":"58902"},{"name":"ARMAĞAN KÖYÜ","zip":"58902"},{"name":"ARPALI KÖYÜ","zip":"58902"},{"name":"AŞAĞIHÜYÜK KÖYÜ","zip":"58902"},{"name":"ATATÜRK MAH.","zip":"58902"},{"name":"AVŞARÖREN KÖYÜ","zip":"58902"},{"name":"BAHÇELİYURT KÖYÜ","zip":"58902"},{"name":"BAYINDIR MAH.","zip":"58902"},{"name":"BEKTAŞKÖY KÖYÜ","zip":"58902"},{"name":"BEYYURDU KÖYÜ","zip":"58902"},{"name":"BOĞAZ KÖYÜ","zip":"58902"},{"name":"BOZARMUT KÖYÜ","zip":"58902"},{"name":"BULAK KÖYÜ","zip":"58902"},{"name":"CEVİZKÖY KÖYÜ","zip":"58902"},{"name":"CUMHURİYET MAH.","zip":"58902"},{"name":"ÇAĞLICAÖREN KÖYÜ","zip":"58902"},{"name":"ÇAKIRIN KÖYÜ MAH.","zip":"58902"},{"name":"ÇAKIRINKÖY MAH.","zip":"58902"},{"name":"ÇAKIRINKÖYÜ MAH.","zip":"58902"},{"name":"ÇALÖZÜ MAH.","zip":"58902"},{"name":"ÇAMLIK MAH.","zip":"58902"},{"name":"ÇAMURLU KÖYÜ","zip":"58902"},{"name":"ÇARŞIBAŞI MAH.","zip":"58902"},{"name":"ÇATALAĞIL MAH.","zip":"58902"},{"name":"ÇATKÖY KÖYÜ","zip":"58902"},{"name":"ÇAYIROVA KÖYÜ","zip":"58902"},{"name":"ÇETİNKAYA KÖYÜ","zip":"58902"},{"name":"ÇİFTLİKÖREN KÖYÜ","zip":"58902"},{"name":"ÇİPİL KÖYÜ","zip":"58902"},{"name":"ÇUKURÇAYIR MAH.","zip":"58902"},{"name":"DABANÖZÜ MAH.","zip":"58902"},{"name":"DAĞÖNÜ KÖYÜ","zip":"58902"},{"name":"DAVULBAZ KÖYÜ","zip":"58902"},{"name":"DAVUTOĞLU MAH.","zip":"58902"},{"name":"DAYILI KÖYÜ","zip":"58902"},{"name":"DEĞİRMEN DERE MAH.","zip":"58902"},{"name":"DELİ HACI MAH.","zip":"58902"},{"name":"DELİGAZİLİ KÖYÜ","zip":"58902"},{"name":"DELİKTAŞ KÖYÜ","zip":"58902"},{"name":"DELİOĞLANDERESİ KÖYÜ","zip":"58902"},{"name":"DEREKÖY KÖYÜ","zip":"58902"},{"name":"DIŞLIK KÖYÜ","zip":"58902"},{"name":"DİPOĞLU MAH.","zip":"58902"},{"name":"DÜZCE KÖYÜ","zip":"58902"},{"name":"EĞRİCEK KÖYÜ","zip":"58902"},{"name":"EKİZCE MAH.","zip":"58902"},{"name":"ELALİBEY KÖYÜ","zip":"58902"},{"name":"ELKONDU KÖYÜ","zip":"58902"},{"name":"ETYEMEZ KÖYÜ","zip":"58902"},{"name":"EYMİR KÖYÜ","zip":"58902"},{"name":"FATİH MAH.","zip":"58902"},{"name":"GEBELİKATRAN KÖYÜ","zip":"58902"},{"name":"GELİNCİK KAYASI MAH.","zip":"58902"},{"name":"GEMALMAZ MAH.","zip":"58902"},{"name":"GENÇALİ KÖYÜ","zip":"58902"},{"name":"GÖKTAŞ MAH.","zip":"58902"},{"name":"GÖLLER MAH.","zip":"58902"},{"name":"GÜNEYPINAR KÖYÜ","zip":"58902"},{"name":"GÜNLİCE MAH.","zip":"58902"},{"name":"GÜRSEL MAH.","zip":"58902"},{"name":"GÜRÜKBEKİR KÖYÜ","zip":"58902"},{"name":"HACI HASANLAR MAH.","zip":"58902"},{"name":"HAMAL KÖYÜ","zip":"58902"},{"name":"HAMAL MÜCAVİR MAH.","zip":"58902"},{"name":"HAMZABEY KÖYÜ","zip":"58902"},{"name":"HATUNÇAYIRI KÖYÜ","zip":"58902"},{"name":"HAVUZ KÖYÜ","zip":"58902"},{"name":"HUMARLI KÖYÜ","zip":"58902"},{"name":"HÜRRİYET MAH.","zip":"58902"},{"name":"HÜYÜKLÜYURT KÖYÜ","zip":"58902"},{"name":"IRMAÇ KÖYÜ","zip":"58902"},{"name":"İĞDELİ KÖYÜ","zip":"58902"},{"name":"İĞDELİDERE KÖYÜ","zip":"58902"},{"name":"İLYASIN AĞILI MAH.","zip":"58902"},{"name":"İMAMINKÖYÜ KÖYÜ","zip":"58902"},{"name":"KABAKÇEVLİĞİ KÖYÜ","zip":"58902"},{"name":"KABAKYAZI MAH.","zip":"58902"},{"name":"KALKIM KÖYÜ","zip":"58902"},{"name":"KANGALTEKKESİ KÖYÜ","zip":"58902"},{"name":"KAPÇIL MAH.","zip":"58902"},{"name":"KARAABDİ MAH.","zip":"58902"},{"name":"KARACAÖREN KÖYÜ","zip":"58902"},{"name":"KARAGÜCÜK KÖYÜ","zip":"58902"},{"name":"KARAMEHMETLİ KÖYÜ","zip":"58902"},{"name":"KARANLIK KÖYÜ","zip":"58902"},{"name":"KARASÜVER KÖYÜ","zip":"58902"},{"name":"KARGAKALESİ MAH.","zip":"58902"},{"name":"KARŞIYAKA MAH.","zip":"58902"},{"name":"KAVAK KÖYÜ","zip":"58902"},{"name":"KAVAK MESCİT KÖYÜ","zip":"58902"},{"name":"KAVAK MÜCAVİR MAH.","zip":"58902"},{"name":"KAYAPINAR MAH.","zip":"58902"},{"name":"KEÇECİ MAH.","zip":"58902"},{"name":"KERVANSARAY MAH.","zip":"58902"},{"name":"KEŞPINAR MAH.","zip":"58902"},{"name":"KILIÇDERE MAH.","zip":"58902"},{"name":"KINALAR MAH.","zip":"58902"},{"name":"KIRKPINAR KÖYÜ","zip":"58902"},{"name":"KIRLANGIÇ MAH.","zip":"58902"},{"name":"KIZILDİKME KÖYÜ","zip":"58902"},{"name":"KIZILENİŞ KÖYÜ","zip":"58902"},{"name":"KİLLİK KÖYÜ","zip":"58902"},{"name":"KOCAKURT KÖYÜ","zip":"58902"},{"name":"KOÇKÖPRÜ KÖYÜ","zip":"58902"},{"name":"KURUAYŞE KÖYÜ","zip":"58902"},{"name":"KUŞKAYASI KÖYÜ","zip":"58902"},{"name":"KÜLEKLİ KÖYÜ","zip":"58902"},{"name":"KÜRKÇÜ KÖYÜ","zip":"58902"},{"name":"MAKSUTLU KÖYÜ","zip":"58902"},{"name":"MANCILIK KÖYÜ","zip":"58902"},{"name":"MESCİT KÖYÜ","zip":"58902"},{"name":"MISIRÖREN KÖYÜ","zip":"58902"},{"name":"MİNAREKAYA KÖYÜ","zip":"58902"},{"name":"MÜHÜRKULAK KÖYÜ","zip":"58902"},{"name":"MÜRSEL KÖYÜ","zip":"58902"},{"name":"NADİR'İN AĞILI MAH.","zip":"58902"},{"name":"OĞLAKLI KÖYÜ","zip":"58902"},{"name":"ONARAN KÖYÜ","zip":"58902"},{"name":"ORTAKÖY MAH.","zip":"58902"},{"name":"ÖRENCİK KÖYÜ","zip":"58902"},{"name":"PAŞAMÇAYIRI KÖYÜ","zip":"58902"},{"name":"PINARGÖZÜ KÖYÜ","zip":"58902"},{"name":"SACAYAĞI KÖYÜ","zip":"58902"},{"name":"SARIKADI KÖYÜ","zip":"58902"},{"name":"SARIPINAR KÖYÜ","zip":"58902"},{"name":"SATIÖREN MAH.","zip":"58902"},{"name":"SEÇENYURDU KÖYÜ","zip":"58902"},{"name":"SEKİLİYURT MAH.","zip":"58902"},{"name":"SİPAHİ KÖYÜ","zip":"58902"},{"name":"SİPAHİ MAH.","zip":"58902"},{"name":"SOĞUKPINAR KÖYÜ","zip":"58902"},{"name":"SULTANPINARI KÖYÜ","zip":"58902"},{"name":"SUTAŞI KÖYÜ","zip":"58902"},{"name":"SÜLÜKGÖLÜ MAH.","zip":"58902"},{"name":"ŞATÖREN MAH.","zip":"58902"},{"name":"ŞEKERPINAR KÖYÜ","zip":"58902"},{"name":"ŞIHLAR MAH.","zip":"58902"},{"name":"TAHTALI KÖYÜ","zip":"58902"},{"name":"TAŞGEÇİT MAH.","zip":"58902"},{"name":"TAŞLI KÖYÜ","zip":"58902"},{"name":"TAŞLIK KÖYÜ","zip":"58902"},{"name":"TATLIPINAR KÖYÜ","zip":"58902"},{"name":"TEMURUN KÖYÜ MAH.","zip":"58902"},{"name":"TERSEKAN MAH.","zip":"58902"},{"name":"TİLKİHÜYÜK KÖYÜ","zip":"58902"},{"name":"TOPARDIÇ KÖYÜ","zip":"58902"},{"name":"TURNALI KÖYÜ","zip":"58902"},{"name":"UFACIKÖREN MAH.","zip":"58902"},{"name":"YAKIN GEBELİ MAH.","zip":"58902"},{"name":"YAKINGEBELİ MAH.","zip":"58902"},{"name":"YARHİSAR KÖYÜ","zip":"58902"},{"name":"YAYLACIK KÖYÜ","zip":"58902"},{"name":"YELLİCE KÖYÜ","zip":"58902"},{"name":"YEŞİLDERE KÖYÜ","zip":"58902"},{"name":"YEŞİLKALE KÖYÜ","zip":"58902"},{"name":"YEŞİLVADİ KÖYÜ","zip":"58902"},{"name":"YEŞİLYURT KÖYÜ","zip":"58902"},{"name":"YUKARIHÜYÜK KÖYÜ","zip":"58902"},{"name":"ZAAL MAH.","zip":"58902"},{"name":"ZAFER MAH.","zip":"58902"},{"name":"ZERK KÖYÜ","zip":"58902"}]},{"name":"KOYULHİSAR","cityName":null,"quarters":[{"name":"CAMİİKEBİR MAH.","zip":"58660"},{"name":"ORTA MAH.","zip":"58660"},{"name":"SUBAŞI MAH.","zip":"58660"},{"name":"ŞEYHLER MAH.","zip":"58660"},{"name":"TUĞLADAĞI MAH.","zip":"58660"},{"name":"YUKARIKALE MAH.","zip":"58660"}]},{"name":"MERKEZKÖYLER","cityName":null,"quarters":[{"name":"ACIDERE MAH.","zip":"58662"},{"name":"AĞCA TAŞ MAH.","zip":"58662"},{"name":"AĞCAHİSAR MAH.","zip":"58662"},{"name":"AĞILYAZI MAH.","zip":"58662"},{"name":"AKBULUT MAH.","zip":"58662"},{"name":"AKÇABEL YAYLASI MAH.","zip":"58662"},{"name":"AKSEKİ KÖYÜ","zip":"58662"},{"name":"AKSU KÖYÜ","zip":"58662"},{"name":"ALAÇAM MAH.","zip":"58662"},{"name":"ARDIÇALAN MAH.","zip":"58662"},{"name":"ARDIÇALAN MEVKİİ MAH.","zip":"58662"},{"name":"ASARCIK MAH.","zip":"58662"},{"name":"AŞAĞI MAH.","zip":"58662"},{"name":"AYDINLAR KÖYÜ","zip":"58662"},{"name":"AYDINLI MAH.","zip":"58662"},{"name":"BAĞLICA MAH.","zip":"58662"},{"name":"BAĞLIYURT MAH.","zip":"58662"},{"name":"BAHÇE KÖYÜ","zip":"58662"},{"name":"BALLICA BAŞYAYLA MAH.","zip":"58662"},{"name":"BALLICA BÜYÜKDÜZ MAH.","zip":"58662"},{"name":"BALLICA EVELİKLİ MAH.","zip":"58662"},{"name":"BALLICA KÖYÜ","zip":"58662"},{"name":"BAŞ MAH.","zip":"58662"},{"name":"BAŞALAN YAYLASI MAH.","zip":"58662"},{"name":"BEŞOLUK MAH.","zip":"58662"},{"name":"BEYDERESİ MAH.","zip":"58662"},{"name":"BOSTANDERESİ MAH.","zip":"58662"},{"name":"BOYALI KÖYÜ","zip":"58662"},{"name":"BOZKUŞ KÖYÜ","zip":"58662"},{"name":"BOZKUŞ MAH.","zip":"58662"},{"name":"BOZKUŞ TEKİRALAN MAH.","zip":"58662"},{"name":"BUDAMA MAH.","zip":"58662"},{"name":"CEVİZLİ MAH.","zip":"58662"},{"name":"ÇALIŞKANLAR MAH.","zip":"58662"},{"name":"ÇALOVA YAYLASI MAH.","zip":"58662"},{"name":"ÇANDIR KÖYÜ","zip":"58662"},{"name":"ÇAYLI İLEFOLU MAH.","zip":"58662"},{"name":"ÇAYLI KÖYÜ","zip":"58662"},{"name":"ÇİCEK KAYASI MAH.","zip":"58662"},{"name":"ÇİÇEKÖZÜ KÖYÜ","zip":"58662"},{"name":"ÇİFTLİK (ESKİKÖY) MAH.","zip":"58662"},{"name":"ÇİĞSELİ MAH.","zip":"58662"},{"name":"ÇİMENLİ MAH.","zip":"58662"},{"name":"ÇUKUROBA KÖYÜ","zip":"58662"},{"name":"ÇULHASAMANLIĞI MAH.","zip":"58662"},{"name":"DAĞÖNÜ MAH.","zip":"58662"},{"name":"DAMATLAR MAH.","zip":"58662"},{"name":"DANIŞMANLI MAH.","zip":"58662"},{"name":"DEĞİRMENTAŞ KÖYÜ","zip":"58662"},{"name":"DEMİRASAR MAH.","zip":"58662"},{"name":"DERE MAH.","zip":"58662"},{"name":"DERE TARLA MAH.","zip":"58662"},{"name":"DEREKIYISI MAH.","zip":"58662"},{"name":"DERYAPINARI MAH.","zip":"58662"},{"name":"DİLEKLİ KÖYÜ","zip":"58662"},{"name":"DİPSİZGÖL MAH.","zip":"58662"},{"name":"DİREKLİ MAH.","zip":"58662"},{"name":"DİREKLİ MH. MAH.","zip":"58662"},{"name":"DOLUCA MAH.","zip":"58662"},{"name":"DÜZPELİT MAH.","zip":"58662"},{"name":"ECEK MAH.","zip":"58662"},{"name":"EKİNÖZÜ KÖYÜ","zip":"58662"},{"name":"ELMAALAN MAH.","zip":"58662"},{"name":"ELMALI MAH.","zip":"58662"},{"name":"ESKİ KÖY MAH.","zip":"58662"},{"name":"ESKİ MAH.","zip":"58662"},{"name":"ESKİKÖY MAH.","zip":"58662"},{"name":"EVELİKLİ MAH.","zip":"58662"},{"name":"FINDIKLI MAH.","zip":"58662"},{"name":"GESTELİÇ MAH.","zip":"58662"},{"name":"GÖDÜK DERESİ MAH.","zip":"58662"},{"name":"GÖKDERE KÖYÜ","zip":"58662"},{"name":"GÖLCÜK HANDÜZÜ MAH.","zip":"58662"},{"name":"GÖLCÜK KÖYÜ","zip":"58662"},{"name":"GÖLCÜK SAZAK MAH.","zip":"58662"},{"name":"GÜMÜŞCEK MAH.","zip":"58662"},{"name":"GÜMÜŞLÜ ÇAKMAKLI MAH.","zip":"58662"},{"name":"GÜMÜŞLÜ KÖYÜ","zip":"58662"},{"name":"GÜMÜŞLÜ ŞABDAŞ MAH.","zip":"58662"},{"name":"GÜNIŞIK KARABAYIR MAH.","zip":"58662"},{"name":"GÜNIŞIK KÖYÜ","zip":"58662"},{"name":"GÜNIŞIK SULTAN YAZISI MAH.","zip":"58662"},{"name":"GÜVENDİK MAH.","zip":"58662"},{"name":"GÜZELYURT KÖYÜ","zip":"58662"},{"name":"HACIİLYAS ARPACIK MAH.","zip":"58662"},{"name":"HACIİLYAS KÖYÜ","zip":"58662"},{"name":"HALAÇKAŞI MAH.","zip":"58662"},{"name":"HASAN TAMI MAH.","zip":"58662"},{"name":"HAVZUL MAH.","zip":"58662"},{"name":"HOROZALAN MAH.","zip":"58662"},{"name":"HOŞGADEM YAYLASI MAH.","zip":"58662"},{"name":"İKİZYAKA KENGERCİK MAH.","zip":"58662"},{"name":"İKİZYAKA KÖYÜ","zip":"58662"},{"name":"İLYASLI MAH.","zip":"58662"},{"name":"İSKENDERŞEYH KÖYÜ","zip":"58662"},{"name":"KABAOĞLU MAH.","zip":"58662"},{"name":"KADİFE KÖYÜ","zip":"58662"},{"name":"KALEBAŞI KÖYÜ","zip":"58662"},{"name":"KALIN PINAR MAH.","zip":"58662"},{"name":"KALINPINAR MAH.","zip":"58662"},{"name":"KARACA ALİ MAH.","zip":"58662"},{"name":"KARAÇAM KÖYÜ","zip":"58662"},{"name":"KARAÇAY MAH.","zip":"58662"},{"name":"KARADAĞ MAH.","zip":"58662"},{"name":"KARAKUM MAH.","zip":"58662"},{"name":"KARANLICA YAYLASI MAH.","zip":"58662"},{"name":"KARŞI MAH.","zip":"58662"},{"name":"KARTALLI MAH.","zip":"58662"},{"name":"KAVACIK KÖYÜ","zip":"58662"},{"name":"KAYAÖREN KÖYÜ","zip":"58662"},{"name":"KECİNİ MAH.","zip":"58662"},{"name":"KILIÇPINARI KÖYÜ","zip":"58662"},{"name":"KIR YAYLA MAH.","zip":"58662"},{"name":"KIZIL KAYA MAH.","zip":"58662"},{"name":"KIZILCALAR ÇİFTLİĞİ MAH.","zip":"58662"},{"name":"KIZILÇUKUR MAH.","zip":"58662"},{"name":"KIZILELMA KÖYÜ","zip":"58662"},{"name":"KIZILELMA MAH.","zip":"58662"},{"name":"KIZILTAŞ MAH.","zip":"58662"},{"name":"KOÇA BAHÇESİ ÇİFLİĞİ MAH.","zip":"58662"},{"name":"KOÇALI MAH.","zip":"58662"},{"name":"KONCALAN MAH.","zip":"58662"},{"name":"KOZALAĞAN MAH.","zip":"58662"},{"name":"KÖLE TARLASI MAH.","zip":"58662"},{"name":"KÖRCE TUZLA MAH.","zip":"58662"},{"name":"KÖSEDAĞ (ESKİYAYLA) MAH.","zip":"58662"},{"name":"KÖSEDAĞ MAH.","zip":"58662"},{"name":"KÖSEDAĞI MAH.","zip":"58662"},{"name":"KURŞUNLU ÇAKMAKLI MAH.","zip":"58662"},{"name":"KURŞUNLU KÖYÜ","zip":"58662"},{"name":"KURŞUNLU MADEN MAH.","zip":"58662"},{"name":"KURŞUNLU ŞABTAŞ MAH.","zip":"58662"},{"name":"KURUSEKİ MAH.","zip":"58662"},{"name":"KÜBBET YAYLALARI MAH.","zip":"58662"},{"name":"KÜMBET MAH.","zip":"58662"},{"name":"KÜPLÜCE KÖYÜ","zip":"58662"},{"name":"LEYKÜN MAH.","zip":"58662"},{"name":"MADEN FABRİKASI MAH.","zip":"58662"},{"name":"MEDRESE MAH.","zip":"58662"},{"name":"MEKAN MAH.","zip":"58662"},{"name":"MERKEZ MAH.","zip":"58662"},{"name":"MİMLİ MAH.","zip":"58662"},{"name":"ORTA MAH.","zip":"58662"},{"name":"ORTAKÖY KÖYÜ","zip":"58662"},{"name":"ORTASEKİ KÖYÜ","zip":"58662"},{"name":"ÖKÜZ UÇURAN MAH.","zip":"58662"},{"name":"PAŞAPINAR MAH.","zip":"58662"},{"name":"PINARLIYURT MAH.","zip":"58662"},{"name":"SARI ÇİÇEK MAH.","zip":"58662"},{"name":"SARIALAN MAH.","zip":"58662"},{"name":"SARIÇİÇEK YAYLASI MAH.","zip":"58662"},{"name":"SARIHARMAN KÖYÜ","zip":"58662"},{"name":"SARIKAYA KÖYÜ","zip":"58662"},{"name":"SARIKAYA YAYLASI MAH.","zip":"58662"},{"name":"SAYDERESİ MAH.","zip":"58662"},{"name":"SEYFETTİN YAYLASI MAH.","zip":"58662"},{"name":"SIRGANLI MAH.","zip":"58662"},{"name":"SOĞANLI MAH.","zip":"58662"},{"name":"SORHUN MAH.","zip":"58662"},{"name":"SUGÖZÜ KÖYÜ","zip":"58662"},{"name":"SULUDERE MAH.","zip":"58662"},{"name":"SULUPARA MAH.","zip":"58662"},{"name":"SÜTLÜCE KÖYÜ","zip":"58662"},{"name":"SÜTLÜCE YAYLASI MAH.","zip":"58662"},{"name":"ŞAPKAMA MAH.","zip":"58662"},{"name":"TARLABAŞI MAH.","zip":"58662"},{"name":"TAŞPINAR ARPACIK MAH.","zip":"58662"},{"name":"TAŞPINAR KOŞOLUK MAH.","zip":"58662"},{"name":"TAŞPINAR KÖYÜ","zip":"58662"},{"name":"TEKİRALAN MAH.","zip":"58662"},{"name":"TEREKEME MAH.","zip":"58662"},{"name":"TOPALAĞAN MAH.","zip":"58662"},{"name":"TORUNLAR MAH.","zip":"58662"},{"name":"TURHU MAH.","zip":"58662"},{"name":"ÜÇMEREK MAH.","zip":"58662"},{"name":"Y.SÖĞÜTLÜ MAH.","zip":"58662"},{"name":"YAĞCILAR KÖYÜ","zip":"58662"},{"name":"YAĞCILAR YAYLASI MAH.","zip":"58662"},{"name":"YAĞLICA MAH.","zip":"58662"},{"name":"YAĞMURLU MAH.","zip":"58662"},{"name":"YALNIZTEPE KÖYÜ","zip":"58662"},{"name":"YANIKAĞIL MAH.","zip":"58662"},{"name":"YANIKYURT MAH.","zip":"58662"},{"name":"YAPI MH. MAH.","zip":"58662"},{"name":"YAYLALAR MAH.","zip":"58662"},{"name":"YAZI MAH.","zip":"58662"},{"name":"YEMİŞLİ MAH.","zip":"58662"},{"name":"YENİ MAH.","zip":"58662"},{"name":"YENİ YAYLA MAH.","zip":"58662"},{"name":"YENİARSLAN KÖYÜ","zip":"58662"},{"name":"YENİASLAN YAYLASI MAH.","zip":"58662"},{"name":"YENİCE KÖY MAH.","zip":"58662"},{"name":"YENİCE KÖYÜ","zip":"58662"},{"name":"YENİCE YAYLASI MAH.","zip":"58662"},{"name":"YEŞİLYURT KÖYÜ","zip":"58662"},{"name":"YETİMLER MAH.","zip":"58662"},{"name":"YOKUŞDİBİ MAH.","zip":"58662"},{"name":"YOLÜSTÜ KÖYÜ","zip":"58662"},{"name":"YUKARI AĞILLAR MAH.","zip":"58662"},{"name":"YUKARI MAH.","zip":"58662"}]},{"name":"ALİBABA","cityName":null,"quarters":[{"name":"ALİBABA MAH.","zip":"58030"},{"name":"BAHTİYARBOSTAN MAH.","zip":"58030"},{"name":"DEDEBALI MAH.","zip":"58030"},{"name":"GÖKÇEBOSTAN MAH.","zip":"58030"},{"name":"GÜLYURT MAH.","zip":"58030"},{"name":"İNÖNÜ MAH.","zip":"58030"},{"name":"KILAVUZ MAH.","zip":"58030"},{"name":"KÜÇÜKMİNARE MAH.","zip":"58030"},{"name":"MISMILIRMAK MAH.","zip":"58030"},{"name":"ORHANGAZİ MAH.","zip":"58030"},{"name":"SEYRANTEPE MAH.","zip":"58030"},{"name":"YİĞİTLER MAH.","zip":"58030"}]},{"name":"AYDOĞAN","cityName":null,"quarters":[{"name":"AYDOĞAN MAH.","zip":"58020"},{"name":"ÇAYYURT MAH.","zip":"58020"},{"name":"ESENTEPE MAH.","zip":"58020"},{"name":"FATİH MAH.","zip":"58020"},{"name":"MEHMETPAŞA MAH.","zip":"58020"},{"name":"MEVLANA MAH.","zip":"58020"},{"name":"YENİDOĞAN MAH.","zip":"58020"},{"name":"YUNUSEMRE MAH.","zip":"58020"},{"name":"YÜCEYURT MAH.","zip":"58020"}]},{"name":"ÇARŞI","cityName":null,"quarters":[{"name":"ÇARŞIBAŞI MAH.","zip":"58040"},{"name":"DEMİRCİLERARDI MAH.","zip":"58040"},{"name":"ESKİKALE MAH.","zip":"58040"},{"name":"FERHATBOSTAN MAH.","zip":"58040"},{"name":"GÖKMEDRESE MAH.","zip":"58040"},{"name":"KALEARDI MAH.","zip":"58040"},{"name":"ÖRTÜLÜPINAR MAH.","zip":"58040"},{"name":"PAŞABEY MAH.","zip":"58040"},{"name":"PULUR MAH.","zip":"58040"},{"name":"SULARBAŞI MAH.","zip":"58040"},{"name":"ÜÇLERBEY MAH.","zip":"58040"},{"name":"YAHYABEY MAH.","zip":"58040"}]},{"name":"KÜMBET","cityName":null,"quarters":[{"name":"ÇİÇEKLİ MAH.","zip":"58010"},{"name":"DİRİLİŞ MAH.","zip":"58010"},{"name":"DÖRTEYLÜL MAH.","zip":"58010"},{"name":"ECE MAH.","zip":"58010"},{"name":"EMEK MAH.","zip":"58010"},{"name":"GÜLTEPE MAH.","zip":"58010"},{"name":"HALİL RIFATPAŞA MAH.","zip":"58010"},{"name":"İSTİKLAL MAH.","zip":"58010"},{"name":"KADI BURHANETTİN MAH.","zip":"58010"},{"name":"KÜMBET MAH.","zip":"58010"},{"name":"MİMAR SİNAN MAH.","zip":"58010"},{"name":"SELÇUKLU MAH.","zip":"58010"},{"name":"TUZLUGÖL MAH.","zip":"58010"},{"name":"YENİ MAH.","zip":"58010"}]},{"name":"MERKEZ-KÖYLER","cityName":null,"quarters":[{"name":"ACIDERE KÖYÜ","zip":"58060"},{"name":"ACIPINAR KÖYÜ","zip":"58060"},{"name":"AĞILKAYA KÖYÜ","zip":"58060"},{"name":"AĞILLAR MAH.","zip":"58060"},{"name":"AHMET TURANGAZİ MAH.","zip":"58060"},{"name":"AHMETTURANGAZİ OSB MAH.","zip":"58060"},{"name":"AKÇAHAN KÖYÜ","zip":"58060"},{"name":"AKÇAİNİŞ KÖYÜ","zip":"58060"},{"name":"AKÇAMESCİT KÖYÜ","zip":"58060"},{"name":"AKKOÇ KÖYÜ","zip":"58060"},{"name":"AKKUZULU KÖYÜ","zip":"58060"},{"name":"AKÖREN KÖYÜ","zip":"58060"},{"name":"AKPINAR KÖYÜ","zip":"58060"},{"name":"AKSEKİ MAH.","zip":"58060"},{"name":"ALAHACI KÖYÜ","zip":"58060"},{"name":"APA KÖYÜ","zip":"58060"},{"name":"ARABINYAZISI MAH.","zip":"58060"},{"name":"ARMUTLU KÖYÜ","zip":"58060"},{"name":"ARPAYAZI KÖYÜ","zip":"58060"},{"name":"ASARCIK KÖYÜ","zip":"58060"},{"name":"AŞAĞIYILDIZLI KÖYÜ","zip":"58060"},{"name":"AYDOĞMUŞ KÖYÜ","zip":"58060"},{"name":"AYLI KÖYÜ","zip":"58060"},{"name":"BADEMKAYA KÖYÜ","zip":"58060"},{"name":"BAHÇELİ MAH.","zip":"58060"},{"name":"BAHÇELİEVLER MAH.","zip":"58060"},{"name":"BARCIN KÖYÜ","zip":"58060"},{"name":"BAŞIBÜYÜK KÖYÜ","zip":"58060"},{"name":"BAŞSÖĞÜT KÖYÜ","zip":"58060"},{"name":"BATTALAĞILI MAH.","zip":"58060"},{"name":"BEDİRLİ KÖYÜ","zip":"58060"},{"name":"BEŞPINAR KÖYÜ","zip":"58060"},{"name":"BEŞTEPE KÖYÜ","zip":"58060"},{"name":"BEYPINARI KÖYÜ","zip":"58060"},{"name":"BİNGÖL KÖYÜ","zip":"58060"},{"name":"BOSTANCIK KÖYÜ","zip":"58060"},{"name":"BOYNUZÖZÜ MAH.","zip":"58060"},{"name":"BUDAKLI KÖYÜ","zip":"58060"},{"name":"CUMHURİYET MAH.","zip":"58060"},{"name":"ÇALLI KÖYÜ","zip":"58060"},{"name":"ÇATALKAYA KÖYÜ","zip":"58060"},{"name":"ÇAYBOYU MAH.","zip":"58060"},{"name":"ÇAYGÖREN KÖYÜ","zip":"58060"},{"name":"ÇAYPINAR KÖYÜ","zip":"58060"},{"name":"ÇELEBİLER KÖYÜ","zip":"58060"},{"name":"ÇELTEK KÖYÜ","zip":"58060"},{"name":"ÇERÇİDERESİ KÖYÜ","zip":"58060"},{"name":"ÇEVRİM ÇAYIR MAH.","zip":"58060"},{"name":"ÇİFTLİK MAH.","zip":"58060"},{"name":"ÇONGAR KÖYÜ","zip":"58060"},{"name":"ÇÖKEN MAH.","zip":"58060"},{"name":"ÇUKURBELEN KÖYÜ","zip":"58060"},{"name":"DAMILI KÖYÜ","zip":"58060"},{"name":"DAMLACIK KÖYÜ","zip":"58060"},{"name":"DANİŞMENTGAZİ MAH.","zip":"58060"},{"name":"DAYI DERESİ MAH.","zip":"58060"},{"name":"DEMİRYAZI KÖYÜ","zip":"58060"},{"name":"DERVENT MAH.","zip":"58060"},{"name":"DİKMENCİK KÖYÜ","zip":"58060"},{"name":"DOĞANCA KÖYÜ","zip":"58060"},{"name":"DOĞANCA OSB MAH.","zip":"58060"},{"name":"DÖRTEYLÜL KÖYÜ","zip":"58060"},{"name":"DURDULU KÖYÜ","zip":"58060"},{"name":"DURSUNOĞLU MAH.","zip":"58060"},{"name":"DÜZOVA KÖYÜ","zip":"58060"},{"name":"EBUHAN KÖYÜ","zip":"58060"},{"name":"EĞRİBUCAK KÖYÜ","zip":"58060"},{"name":"EMİRHAN KÖYÜ","zip":"58060"},{"name":"ESENYURT MAH.","zip":"58060"},{"name":"ESKİAPARDI KÖYÜ","zip":"58060"},{"name":"ESKİBOĞAZKESEN KÖYÜ","zip":"58060"},{"name":"ESKİKÖY KÖYÜ","zip":"58060"},{"name":"FATİH MAH.","zip":"58060"},{"name":"FEVZİÇAKMAK MAH.","zip":"58060"},{"name":"GAZİBEY KÖYÜ","zip":"58060"},{"name":"GAZİKÖY KÖYÜ","zip":"58060"},{"name":"GÖĞÜSAĞILI MAH.","zip":"58060"},{"name":"GÖKKUŞAĞI MAH.","zip":"58060"},{"name":"GÖZMEN KÖYÜ","zip":"58060"},{"name":"GÖZPINAR MAH.","zip":"58060"},{"name":"GÜLLÜCE KÖYÜ","zip":"58060"},{"name":"GÜLLÜK KÖYÜ","zip":"58060"},{"name":"GÜMÜŞDERE KÖYÜ","zip":"58060"},{"name":"GÜMÜŞOVA MAH.","zip":"58060"},{"name":"GÜNDÜZKÖY KÖYÜ","zip":"58060"},{"name":"GÜNECE KÖYÜ","zip":"58060"},{"name":"GÜNELİ KÖYÜ","zip":"58060"},{"name":"GÜNEY KÖYÜ","zip":"58060"},{"name":"GÜNÖREN KÖYÜ","zip":"58060"},{"name":"HACIALİ KÖYÜ","zip":"58060"},{"name":"HALİMİNHANI MAH.","zip":"58060"},{"name":"HANLI KÖYÜ","zip":"58060"},{"name":"HARMANCIK KÖYÜ","zip":"58060"},{"name":"HARMANYERİ MAH.","zip":"58060"},{"name":"HASBEY KÖYÜ","zip":"58060"},{"name":"HAVA ALANI MAH.","zip":"58060"},{"name":"HAYDARLI KÖYÜ","zip":"58060"},{"name":"HAYIRBEY KÖYÜ","zip":"58060"},{"name":"HAYRANLI KÖYÜ","zip":"58060"},{"name":"HEREKLİ KÖYÜ","zip":"58060"},{"name":"HIDIRNALI KÖYÜ","zip":"58060"},{"name":"HİMMETFAKI KÖYÜ","zip":"58060"},{"name":"HOCABEY KÖYÜ","zip":"58060"},{"name":"HUYKESEN MAH.","zip":"58060"},{"name":"HÜSEYİN AĞA MAH.","zip":"58060"},{"name":"IRMAK ÜSTÜ MAH.","zip":"58060"},{"name":"İLKİNDİ KÖYÜ","zip":"58060"},{"name":"İMARET KÖYÜ","zip":"58060"},{"name":"İNCEAĞA KÖYÜ","zip":"58060"},{"name":"İNCESU MAH.","zip":"58060"},{"name":"İNCEYOL KÖYÜ","zip":"58060"},{"name":"İSMAİLBEYÇİFTLİĞİ KÖYÜ","zip":"58060"},{"name":"İŞHANI KÖYÜ","zip":"58060"},{"name":"KABASAKAL KÖYÜ","zip":"58060"},{"name":"KAÇAK MAH.","zip":"58060"},{"name":"KADİROĞULLARI MAH.","zip":"58060"},{"name":"KAHYALI KÖYÜ","zip":"58060"},{"name":"KALIN İSTASYONU MAH.","zip":"58060"},{"name":"KARABALÇIK KÖYÜ","zip":"58060"},{"name":"KARACAÖREN KÖYÜ","zip":"58060"},{"name":"KARAÇAYIR KÖYÜ","zip":"58060"},{"name":"KARAGÖMLEK KÖYÜ","zip":"58060"},{"name":"KARALAR KÖYÜ","zip":"58060"},{"name":"KARALI KÖYÜ","zip":"58060"},{"name":"KARAMEHMET KÖYÜ","zip":"58060"},{"name":"KARAPINAR KÖYÜ","zip":"58060"},{"name":"KARATAŞ MAH.","zip":"58060"},{"name":"KARAYÜN KÖYÜ","zip":"58060"},{"name":"KARŞIYAKA MAH.","zip":"58060"},{"name":"KARTALCA KÖYÜ","zip":"58060"},{"name":"KAVLAK KÖYÜ","zip":"58060"},{"name":"KAYADİBİ KÖYÜ","zip":"58060"},{"name":"KEÇİLİ KÖYÜ","zip":"58060"},{"name":"KERVANSARAY KÖYÜ","zip":"58060"},{"name":"KIZILALAN KÖYÜ","zip":"58060"},{"name":"KIZILCA KÖYÜ","zip":"58060"},{"name":"KIZILCAKIŞLA KÖYÜ","zip":"58060"},{"name":"KIZILKAVRAZ KÖYÜ","zip":"58060"},{"name":"KIZILOVA KÖYÜ","zip":"58060"},{"name":"KIZILÖZ KÖYÜ","zip":"58060"},{"name":"KIZKAPAN KÖYÜ","zip":"58060"},{"name":"KOLLUCA KÖYÜ","zip":"58060"},{"name":"KOYUNCU KÖYÜ","zip":"58060"},{"name":"KÖKLÜCE KÖYÜ","zip":"58060"},{"name":"KÖPRÜBAŞI MAH.","zip":"58060"},{"name":"KÖR İSMAİL MAH.","zip":"58060"},{"name":"KÖRHASAN MAH.","zip":"58060"},{"name":"KÖRTUZLA KÖYÜ","zip":"58060"},{"name":"KÖSRELİK MAH.","zip":"58060"},{"name":"KULYUSUF KÖYÜ","zip":"58060"},{"name":"KUMYURT KÖYÜ","zip":"58060"},{"name":"KURTLAPA KÖYÜ","zip":"58060"},{"name":"KUŞLU KÖYÜ","zip":"58060"},{"name":"KUZKÖY MAH.","zip":"58060"},{"name":"KUZÖREN KÖYÜ","zip":"58060"},{"name":"MENŞURLU KÖYÜ","zip":"58060"},{"name":"MERMER KÖYÜ","zip":"58060"},{"name":"MESCİTLİ KÖYÜ","zip":"58060"},{"name":"OĞUZLAR MAH.","zip":"58060"},{"name":"OLUKMAN KÖYÜ","zip":"58060"},{"name":"ONBAŞILAR KÖYÜ","zip":"58060"},{"name":"OVACIK KÖYÜ","zip":"58060"},{"name":"OZMUŞ KÖYÜ","zip":"58060"},{"name":"ÖRENCİK KÖYÜ","zip":"58060"},{"name":"ÖZ MAH.","zip":"58060"},{"name":"PINARCA KÖYÜ","zip":"58060"},{"name":"PINARLI MAH.","zip":"58060"},{"name":"PİNTİPINAR MAH.","zip":"58060"},{"name":"PORSUK KÖYÜ","zip":"58060"},{"name":"SAKLI KÖYÜ","zip":"58060"},{"name":"SARIDEMİR KÖYÜ","zip":"58060"},{"name":"SARIHACI MAH.","zip":"58060"},{"name":"SARIHASAN MAH.","zip":"58060"},{"name":"SAVCUN KÖYÜ","zip":"58060"},{"name":"SERPİNCİK KÖYÜ","zip":"58060"},{"name":"SIRIKLI MAH.","zip":"58060"},{"name":"SİVRİTEPE KÖYÜ","zip":"58060"},{"name":"SOĞUK ÇERMİK MAH.","zip":"58060"},{"name":"SORKUNCUK KÖYÜ","zip":"58060"},{"name":"SÖĞÜTCÜK KÖYÜ","zip":"58060"},{"name":"ŞABAN KÖYÜ","zip":"58060"},{"name":"ŞAHBEY KÖYÜ","zip":"58060"},{"name":"ŞEHİTLER MAH.","zip":"58060"},{"name":"ŞEHİTÖMERYILDIRIM MAH.","zip":"58060"},{"name":"TAHDİT. MAH.","zip":"58060"},{"name":"TAHTIKEMENT KÖYÜ","zip":"58060"},{"name":"TAŞLIDERE MAH.","zip":"58060"},{"name":"TATLICAK KÖYÜ","zip":"58060"},{"name":"TATLICAK MAH.","zip":"58060"},{"name":"TEPE MAH.","zip":"58060"},{"name":"TEPEÖNÜ KÖYÜ","zip":"58060"},{"name":"TOKUŞ KÖYÜ","zip":"58060"},{"name":"TÖRNÜK KÖYÜ","zip":"58060"},{"name":"TUTMAÇ KÖYÜ","zip":"58060"},{"name":"ULUKAPI KÖYÜ","zip":"58060"},{"name":"UZUNTEPE MAH.","zip":"58060"},{"name":"ÜÇTEPE KÖYÜ","zip":"58060"},{"name":"YAĞMURLUSEKİ KÖYÜ","zip":"58060"},{"name":"YAKUPOĞLAN KÖYÜ","zip":"58060"},{"name":"YANALAK KÖYÜ","zip":"58060"},{"name":"YARAMIŞ KÖYÜ","zip":"58060"},{"name":"YASSICABEL KÖYÜ","zip":"58060"},{"name":"YAVU KÖYÜ","zip":"58060"},{"name":"YAZIBAŞI KÖYÜ","zip":"58060"},{"name":"YENİ MAH.","zip":"58060"},{"name":"YENİAPARDI KÖYÜ","zip":"58060"},{"name":"YENİBOĞAZKESEN KÖYÜ","zip":"58060"},{"name":"YENİCE KÖYÜ","zip":"58060"},{"name":"YENİKERVANSARAY KÖYÜ","zip":"58060"},{"name":"YENİKIZILCAKIŞLA KÖYÜ","zip":"58060"},{"name":"YENİKÖY MAH.","zip":"58060"},{"name":"YILDIZ KÖYÜ","zip":"58060"},{"name":"YUKARI MAH.","zip":"58060"},{"name":"YUKARIYILDIZLI KÖYÜ","zip":"58060"},{"name":"YÜCEYAYLA MAH.","zip":"58060"},{"name":"ZENGİ KÖYÜ","zip":"58060"}]},{"name":"YENİŞEHİR","cityName":null,"quarters":[{"name":"HUZUR MAH.","zip":"58050"},{"name":"KARDEŞLER MAH.","zip":"58050"},{"name":"KIZILIRMAK MAH.","zip":"58050"},{"name":"MEHMET AKİF ERSOY MAH.","zip":"58050"},{"name":"ŞEYH ŞAMİL MAH.","zip":"58050"},{"name":"ŞEYH ŞAMİL OSB MAH.","zip":"58050"},{"name":"YENİŞEHİR MAH.","zip":"58050"},{"name":"YEŞİLYURT MAH.","zip":"58050"}]},{"name":"MERKEZKÖYLER","cityName":null,"quarters":[{"name":"ABDİLER MAH.","zip":"58602"},{"name":"AĞIL MAH.","zip":"58602"},{"name":"AKÇAAĞIL KÖYÜ","zip":"58602"},{"name":"AKINCI KÖYÜ","zip":"58602"},{"name":"AKSU KÖYÜ","zip":"58602"},{"name":"AKŞAR KÖYÜ","zip":"58602"},{"name":"ARPACI KÖYÜ","zip":"58602"},{"name":"ARPAYAZI KÖYÜ","zip":"58602"},{"name":"AŞAĞIAKÖREN KÖYÜ","zip":"58602"},{"name":"AŞAĞIÇİTLİCE MAH.","zip":"58602"},{"name":"AŞAĞISARICA KÖYÜ","zip":"58602"},{"name":"AYDINLAR MAH.","zip":"58602"},{"name":"BAĞDERESİ MAH.","zip":"58602"},{"name":"BAĞLAR MAH.","zip":"58602"},{"name":"BAKACAK MAH.","zip":"58602"},{"name":"BALKARA KÖYÜ","zip":"58602"},{"name":"BAYIR MAH.","zip":"58602"},{"name":"BEDİLLİ MAH.","zip":"58602"},{"name":"BEYDEĞİRMENİ KÖYÜ","zip":"58602"},{"name":"BİLEĞLİ MAH.","zip":"58602"},{"name":"BOSTANCIK KÖYÜ","zip":"58602"},{"name":"BOYALICA KÖYÜ","zip":"58602"},{"name":"BUĞDAYLIK MAH.","zip":"58602"},{"name":"BÜYÜKGÜZEL KÖYÜ","zip":"58602"},{"name":"CAMİLİ KÖYÜ","zip":"58602"},{"name":"CEVİZLİ KÖYÜ","zip":"58602"},{"name":"ÇAKIRLI KÖYÜ","zip":"58602"},{"name":"ÇAMLICA MAH.","zip":"58602"},{"name":"ÇAMLIDERE KÖYÜ","zip":"58602"},{"name":"ÇATALOLUK KÖYÜ","zip":"58602"},{"name":"ÇAVUŞLU MAH.","zip":"58602"},{"name":"ÇİFTÇİLİ MAH.","zip":"58602"},{"name":"ÇİTLİCE KÖYÜ","zip":"58602"},{"name":"ÇOKRAK KÖYÜ","zip":"58602"},{"name":"ÇORAKLIK MAH.","zip":"58602"},{"name":"DİKİLİTAŞ MAH.","zip":"58602"},{"name":"ELMASEKİ KÖYÜ","zip":"58602"},{"name":"ERENCE KÖYÜ","zip":"58602"},{"name":"ESENYAKA KÖYÜ","zip":"58602"},{"name":"ESKİKÖY MAH.","zip":"58602"},{"name":"ESKİMEŞE KÖYÜ","zip":"58602"},{"name":"ESKİŞAR KÖYÜ","zip":"58602"},{"name":"ESKİTOPRAK KÖYÜ","zip":"58602"},{"name":"GELENGEÇ KÖYÜ","zip":"58602"},{"name":"GÖKÇEKAŞ KÖYÜ","zip":"58602"},{"name":"GÖKÇEKENT KARAAĞAÇ KÖYÜ","zip":"58602"},{"name":"GÖKÇEKENT KÖYÜ","zip":"58602"},{"name":"GÖYNÜK MAH.","zip":"58602"},{"name":"GÖZKÖY KÖYÜ","zip":"58602"},{"name":"GÜDELİ KÖYÜ","zip":"58602"},{"name":"GÜMÜŞTAŞ KÖYÜ","zip":"58602"},{"name":"GÜNEYLİ KÖYÜ","zip":"58602"},{"name":"GÜNGÖREN KÖYÜ","zip":"58602"},{"name":"GÜNLÜCE KÖYÜ","zip":"58602"},{"name":"HAMAM MAH.","zip":"58602"},{"name":"HÖDÜCEK KÖYÜ","zip":"58602"},{"name":"IŞIKLAR MAH.","zip":"58602"},{"name":"İSAKLI MAH.","zip":"58602"},{"name":"KALE KÖYÜ","zip":"58602"},{"name":"KARAAĞAÇ KÖYÜ","zip":"58602"},{"name":"KARACAÖREN KÖYÜ","zip":"58602"},{"name":"KARALAR KÖYÜ","zip":"58602"},{"name":"KARATAŞ MAH.","zip":"58602"},{"name":"KARGIN MAH.","zip":"58602"},{"name":"KATIRCI MAH.","zip":"58602"},{"name":"KAVŞUT KÖYÜ","zip":"58602"},{"name":"KAYADELEN KÖYÜ","zip":"58602"},{"name":"KEKEÇ KÖYÜ","zip":"58602"},{"name":"KEMALLI KÖYÜ","zip":"58602"},{"name":"KESİKKAŞ KÖYÜ","zip":"58602"},{"name":"KILIÇLAR MAH.","zip":"58602"},{"name":"KIZILTAŞ KÖYÜ","zip":"58602"},{"name":"KİZİRYURDU KÖYÜ","zip":"58602"},{"name":"KONAK MAH.","zip":"58602"},{"name":"KOZÇUKUR KÖYÜ","zip":"58602"},{"name":"KURUGÖL KÖYÜ","zip":"58602"},{"name":"KUZDERE KÖYÜ","zip":"58602"},{"name":"KÜÇÜKGÜZEL KÖYÜ","zip":"58602"},{"name":"MAFADAR MAH.","zip":"58602"},{"name":"MENEKŞELİ MAH.","zip":"58602"},{"name":"MERKEZ MAH.","zip":"58602"},{"name":"MOLLA OSMAN MAH.","zip":"58602"},{"name":"OLUCAK KÖYÜ","zip":"58602"},{"name":"OYUK MAH.","zip":"58602"},{"name":"PEÇENE MAH.","zip":"58602"},{"name":"POLAT KÖYÜ","zip":"58602"},{"name":"SAĞPAZAR KÖYÜ","zip":"58602"},{"name":"SARAYCIK KÖYÜ","zip":"58602"},{"name":"SELİMLER MAH.","zip":"58602"},{"name":"SELPİNTİ MAH.","zip":"58602"},{"name":"SOLAK KÖYÜ","zip":"58602"},{"name":"SÖKÜN KÖYÜ","zip":"58602"},{"name":"SÜLÜKLÜ MAH.","zip":"58602"},{"name":"ŞARKÖY KÖYÜ","zip":"58602"},{"name":"TAKLAK KÖYÜ","zip":"58602"},{"name":"TANDIRCIK MAH.","zip":"58602"},{"name":"TAPAN MAH.","zip":"58602"},{"name":"TAPANÇİFLİĞİ MAH.","zip":"58602"},{"name":"TAŞBAYIR KÖYÜ","zip":"58602"},{"name":"TATAR KÖYÜ","zip":"58602"},{"name":"TEPE MAH.","zip":"58602"},{"name":"TÜRKMENLER KÖYÜ","zip":"58602"},{"name":"ÜZÜMLÜ KÖYÜ","zip":"58602"},{"name":"YAMAÇ KÖYÜ","zip":"58602"},{"name":"YAYGINSÖĞÜT KÖYÜ","zip":"58602"},{"name":"YELKESEN KÖYÜ","zip":"58602"},{"name":"YENİKÖY MAH.","zip":"58602"},{"name":"YEŞİLYAYLA KÖYÜ","zip":"58602"},{"name":"YONCALI KÖYÜ","zip":"58602"},{"name":"YUKARIAKÖREN KÖYÜ","zip":"58602"},{"name":"YÜREKLİ KÖYÜ","zip":"58602"}]},{"name":"SUŞEHRİ","cityName":null,"quarters":[{"name":"CAMİİORTA MAH.","zip":"58600"},{"name":"CUMHURİYET MAH.","zip":"58600"},{"name":"GÖLLÜKÖY MAH.","zip":"58600"},{"name":"GÖNÜLOĞLU MAH.","zip":"58600"},{"name":"KARŞIYAKA MAH.","zip":"58600"},{"name":"KEMALPAŞA MAH.","zip":"58600"},{"name":"KIŞLALAR MAH.","zip":"58600"},{"name":"ÖKSÜLÜ MAH.","zip":"58600"},{"name":"TAŞKÖPRÜ MAH.","zip":"58600"},{"name":"TEPEARDI MAH.","zip":"58600"},{"name":"YALNIZBAĞLAR MAH.","zip":"58600"},{"name":"YENİ MAH.","zip":"58600"}]},{"name":"MERKEZKÖYLER","cityName":null,"quarters":[{"name":"ADAMKAYA MAH.","zip":"58402"},{"name":"AHMETLİ KÖYÜ","zip":"58402"},{"name":"AKÇAKIŞLA KÖYÜ","zip":"58402"},{"name":"AKÇASU KÖYÜ","zip":"58402"},{"name":"AKKAYA MAH.","zip":"58402"},{"name":"ALAÇAYIR KÖYÜ","zip":"58402"},{"name":"ALAMAN KÖYÜ","zip":"58402"},{"name":"ALIÇLI MAH.","zip":"58402"},{"name":"ALIKÖREN KÖYÜ","zip":"58402"},{"name":"ARIKLAR KÖYÜ","zip":"58402"},{"name":"AŞAĞI MAH.","zip":"58402"},{"name":"BAĞLAMA MAH.","zip":"58402"},{"name":"BAĞLARARASI KÖYÜ","zip":"58402"},{"name":"BAHÇEALAN KÖYÜ","zip":"58402"},{"name":"BAHÇELİEVLER MAH.","zip":"58402"},{"name":"BALTALAR KÖYÜ","zip":"58402"},{"name":"BAŞAĞAÇ KÖYÜ","zip":"58402"},{"name":"BAŞÖREN KÖYÜ","zip":"58402"},{"name":"BENLİHASAN KÖYÜ","zip":"58402"},{"name":"BEYYURDU KÖYÜ","zip":"58402"},{"name":"BOZKURT KÖYÜ","zip":"58402"},{"name":"BURNUKARA KÖYÜ","zip":"58402"},{"name":"BÜYÜKTOPAÇ KÖYÜ","zip":"58402"},{"name":"BÜYÜKYÜREĞİL KÖYÜ","zip":"58402"},{"name":"CANABDAL KÖYÜ","zip":"58402"},{"name":"CEMEL KÖYÜ","zip":"58402"},{"name":"ÇAMLICA KÖYÜ","zip":"58402"},{"name":"ÇANAKÇI KÖYÜ","zip":"58402"},{"name":"ÇATALYOL KÖYÜ","zip":"58402"},{"name":"ÇAYKARA MAH.","zip":"58402"},{"name":"ÇEKEM KÖYÜ","zip":"58402"},{"name":"ÇİÇEKLİ MAH.","zip":"58402"},{"name":"ÇİÇEKLİYURT KÖYÜ","zip":"58402"},{"name":"DEMİRBOĞA KÖYÜ","zip":"58402"},{"name":"DEMİRKÖPRÜ KÖYÜ","zip":"58402"},{"name":"DİKİLİ KÖYÜ","zip":"58402"},{"name":"DOĞU MAH.","zip":"58402"},{"name":"DÖKMETAŞ KÖYÜ","zip":"58402"},{"name":"DÖLLÜK KÖYÜ","zip":"58402"},{"name":"ELMALI KÖYÜ","zip":"58402"},{"name":"EMLAKKARACAÖREN KÖYÜ","zip":"58402"},{"name":"FAKILI KÖYÜ","zip":"58402"},{"name":"FARAŞDERESİ KÖYÜ","zip":"58402"},{"name":"FATİH MAH.","zip":"58402"},{"name":"GAZİKÖY KÖYÜ","zip":"58402"},{"name":"GÖÇMEN MAH.","zip":"58402"},{"name":"GÜCÜK KÖYÜ","zip":"58402"},{"name":"GÜDÜL MAH.","zip":"58402"},{"name":"GÜLÖREN KÖYÜ","zip":"58402"},{"name":"GÜMÜŞTEPE KÖYÜ","zip":"58402"},{"name":"GÜRÇAYIR KÖYÜ","zip":"58402"},{"name":"HARDAL KÖYÜ","zip":"58402"},{"name":"HARUNKÖY KÖYÜ","zip":"58402"},{"name":"HOCABEY KÖYÜ","zip":"58402"},{"name":"HÜYÜKKÖY KÖYÜ","zip":"58402"},{"name":"İĞDECİK KÖYÜ","zip":"58402"},{"name":"İĞDELİÖREN KÖYÜ","zip":"58402"},{"name":"İĞECİK KÖYÜ","zip":"58402"},{"name":"İLYASHACI KÖYÜ","zip":"58402"},{"name":"İSMETPAŞA MAH.","zip":"58402"},{"name":"KADILI MAH.","zip":"58402"},{"name":"KAHVEPINAR KÖYÜ","zip":"58402"},{"name":"KALECİK KÖYÜ","zip":"58402"},{"name":"KALEKÖY KÖYÜ","zip":"58402"},{"name":"KAPAKLIPINAR KÖYÜ","zip":"58402"},{"name":"KARACAÖREN KÖYÜ","zip":"58402"},{"name":"KARAKUZ KÖYÜ","zip":"58402"},{"name":"KARŞIYAKA MAH.","zip":"58402"},{"name":"KAVAK KÖYÜ","zip":"58402"},{"name":"KAYAPINAR KÖYÜ","zip":"58402"},{"name":"KAYMAK KÖYÜ","zip":"58402"},{"name":"KAZANCIK KÖYÜ","zip":"58402"},{"name":"KEVENLİK KÖYÜ","zip":"58402"},{"name":"KILIÇÇI KÖYÜ","zip":"58402"},{"name":"KIŞLAKÖY KÖYÜ","zip":"58402"},{"name":"KIZILCAKIŞLA KÖYÜ","zip":"58402"},{"name":"KONAKYAZI KÖYÜ","zip":"58402"},{"name":"KONALGA KÖYÜ","zip":"58402"},{"name":"KÖMÜRKAYA KÖYÜ","zip":"58402"},{"name":"KÖSELİ BELİ MAH.","zip":"58402"},{"name":"KÜÇÜK KARAKUZ MAH.","zip":"58402"},{"name":"KÜÇÜKTOPAÇ KÖYÜ","zip":"58402"},{"name":"KÜÇÜKYÜREĞİL KÖYÜ","zip":"58402"},{"name":"KÜMBET KÖYÜ","zip":"58402"},{"name":"MAKSUTLU KÖYÜ","zip":"58402"},{"name":"MENDERES MAH.","zip":"58402"},{"name":"MENGENSOFULAR KÖYÜ","zip":"58402"},{"name":"MESCİTLİ KÖYÜ","zip":"58402"},{"name":"MEZRAA KÖYÜ","zip":"58402"},{"name":"MUHACİR MAH.","zip":"58402"},{"name":"OLUKTAŞ KÖYÜ","zip":"58402"},{"name":"ORTAKÖY KÖYÜ","zip":"58402"},{"name":"ORTATOPAÇ KÖYÜ","zip":"58402"},{"name":"OSMANFAZILPOLAT MAH.","zip":"58402"},{"name":"OSMANPINARI KÖYÜ","zip":"58402"},{"name":"OTLUK KÖYÜ","zip":"58402"},{"name":"ÖRNEK MEZRA MAH.","zip":"58402"},{"name":"ÖRTÜLÜ KÖYÜ","zip":"58402"},{"name":"POLATPAŞA KÖYÜ","zip":"58402"},{"name":"SAMANKAYA KÖYÜ","zip":"58402"},{"name":"SARAÇ KÖYÜ","zip":"58402"},{"name":"SARIÇİÇEK KÖYÜ","zip":"58402"},{"name":"SARIKAVAK KÖYÜ","zip":"58402"},{"name":"SARIKAYA KÖYÜ","zip":"58402"},{"name":"SARITEKKE KÖYÜ","zip":"58402"},{"name":"SİVRİALAN KÖYÜ","zip":"58402"},{"name":"SULTAN KÖYÜ","zip":"58402"},{"name":"TAVLADERE KÖYÜ","zip":"58402"},{"name":"TEMECİK KÖYÜ","zip":"58402"},{"name":"UÇUK KÖYÜ","zip":"58402"},{"name":"ÜYÜK KÖYÜ","zip":"58402"},{"name":"YAHYALI KÖYÜ","zip":"58402"},{"name":"YALANI KÖYÜ","zip":"58402"},{"name":"YAPRACIK KÖYÜ","zip":"58402"},{"name":"YENİ MAH.","zip":"58402"},{"name":"YENİYAPAN KÖYÜ","zip":"58402"},{"name":"YERLİ MAH.","zip":"58402"},{"name":"YUKARI MAH.","zip":"58402"},{"name":"YUNUSÖREN KÖYÜ","zip":"58402"},{"name":"YÜKSELEN KÖYÜ","zip":"58402"},{"name":"ZİHNİ MAH.","zip":"58402"}]},{"name":"ŞARKIŞLA","cityName":null,"quarters":[{"name":"ESENTEPE MAH.","zip":"58400"},{"name":"GÜLTEKİN MAH.","zip":"58400"},{"name":"İSTİKLAL MAH.","zip":"58400"},{"name":"KALE MAH.","zip":"58400"},{"name":"KANDEMİR MAH.","zip":"58400"},{"name":"KAYALIYOKUŞ MAH.","zip":"58400"},{"name":"PINARÖNÜ MAH.","zip":"58400"},{"name":"SAĞIR MAH.","zip":"58400"},{"name":"SAĞIROSB MAH.","zip":"58400"},{"name":"YENİ MAH.","zip":"58400"},{"name":"YILDIRIM MAH.","zip":"58400"},{"name":"YUKARI MAH.","zip":"58400"}]},{"name":"MERKEZKÖYLER","cityName":null,"quarters":[{"name":"AĞIL MAH.","zip":"58382"},{"name":"AKKAYA KÖYÜ","zip":"58382"},{"name":"AŞAĞI DEMİRCİLİK MAH.","zip":"58382"},{"name":"AŞAĞIADA KÖYÜ","zip":"58382"},{"name":"BAHARÖZÜ KÖYÜ","zip":"58382"},{"name":"BAŞÇAYIR KÖYÜ","zip":"58382"},{"name":"BEŞEVLER MAH.","zip":"58382"},{"name":"BİLFER MADENCİLİK VE TURİZİM A.Ş ŞANTİYESİ MAH.","zip":"58382"},{"name":"BOĞAZDERE KÖYÜ","zip":"58382"},{"name":"BOSTANKAYA İSTASYONU MAH.","zip":"58382"},{"name":"BOSTANKAYA KÖYÜ","zip":"58382"},{"name":"ÇAKILPINAR MAH.","zip":"58382"},{"name":"ÇAVDAR KÖYÜ","zip":"58382"},{"name":"ÇEVİRME KÖYÜ","zip":"58382"},{"name":"ÇİFTEAĞILLAR MAH.","zip":"58382"},{"name":"DEMİRCİLİK KÖYÜ","zip":"58382"},{"name":"EKİNCİOĞLU KÖYÜ","zip":"58382"},{"name":"ESKİKARAHİSAR KÖYÜ","zip":"58382"},{"name":"EZENTERE KÖYÜ","zip":"58382"},{"name":"FATİH MAH.","zip":"58382"},{"name":"GÜLBAHÇE MAH.","zip":"58382"},{"name":"GÜMÜŞPINAR KÖYÜ","zip":"58382"},{"name":"GÜNEŞLİ KÖYÜ","zip":"58382"},{"name":"GÜRPINAR KÖYÜ","zip":"58382"},{"name":"HACIMİRZA KÖYÜ","zip":"58382"},{"name":"HALİLAĞA ÇİFTLİĞİ MAH.","zip":"58382"},{"name":"İSTASYON  A MAH.","zip":"58382"},{"name":"İSTASYON  B MAH.","zip":"58382"},{"name":"KADİR AĞA MAH.","zip":"58382"},{"name":"KAPUKAYA KÖYÜ","zip":"58382"},{"name":"KARACALAR KÖYÜ","zip":"58382"},{"name":"KARAGÖL KÖYÜ","zip":"58382"},{"name":"KARAŞAR KÖYÜ","zip":"58382"},{"name":"KARATAŞ KÖYÜ","zip":"58382"},{"name":"KARŞIYAKA MAH.","zip":"58382"},{"name":"KAYAPINAR KÖYÜ","zip":"58382"},{"name":"KAZANPINAR KÖYÜ","zip":"58382"},{"name":"KERTMEKARACAÖREN KÖYÜ","zip":"58382"},{"name":"KORUBAŞI KÖYÜ","zip":"58382"},{"name":"KOVALI KÖYÜ","zip":"58382"},{"name":"KÖTÜYURT MAH.","zip":"58382"},{"name":"KURTLUKAYA KÖYÜ","zip":"58382"},{"name":"KURTOĞLU KÖYÜ","zip":"58382"},{"name":"KÜÇÜKYAPALI MAH.","zip":"58382"},{"name":"KÜPELİ KÖYÜ","zip":"58382"},{"name":"OVACIK KÖYÜ","zip":"58382"},{"name":"ÖMER AĞA MAH.","zip":"58382"},{"name":"ÖREN MAH.","zip":"58382"},{"name":"ÖRENLİCE KÖYÜ","zip":"58382"},{"name":"PAŞAÇİFTLİĞİ MAH.","zip":"58382"},{"name":"ŞENYURT KÖYÜ","zip":"58382"},{"name":"TAŞ OCAĞI  A MAH.","zip":"58382"},{"name":"TAŞ OCAĞI B MAH.","zip":"58382"},{"name":"TAŞ OCAĞI MAH.","zip":"58382"},{"name":"TECER KÖYÜ","zip":"58382"},{"name":"ÜÇ EVLER MAH.","zip":"58382"},{"name":"YAĞDONDURAN KÖYÜ","zip":"58382"},{"name":"YAPALI KÖYÜ","zip":"58382"},{"name":"YAZICIK KÖYÜ","zip":"58382"},{"name":"YENİ MAH.","zip":"58382"},{"name":"YEŞİLDİYAR MAH.","zip":"58382"},{"name":"YEŞİLYURT MAH.","zip":"58382"},{"name":"YUKARIADA KÖYÜ","zip":"58382"}]},{"name":"ULAŞ","cityName":null,"quarters":[{"name":"HÜRRİYET MAH.","zip":"58380"},{"name":"YENİKARAHİSAR MAH.","zip":"58380"},{"name":"YEŞİLYURT MAH.","zip":"58380"}]},{"name":"MERKEZKÖYLER","cityName":null,"quarters":[{"name":"AKÇALI KÖYÜ","zip":"58502"},{"name":"AKKOCA KÖYÜ","zip":"58502"},{"name":"AKÖREN KÖYÜ","zip":"58502"},{"name":"AKPINAR KÖYÜ","zip":"58502"},{"name":"AKPINARBELENİ KÖYÜ","zip":"58502"},{"name":"ALACA KÖYÜ","zip":"58502"},{"name":"ALTINOLUK KÖYÜ","zip":"58502"},{"name":"ARSLANDOĞMUŞ KÖYÜ","zip":"58502"},{"name":"AŞAĞI NAVRUZ MAH.","zip":"58502"},{"name":"AŞAĞIÇAKMAK KÖYÜ","zip":"58502"},{"name":"AŞAĞIEKECİK KÖYÜ","zip":"58502"},{"name":"AVCIPINARI KÖYÜ","zip":"58502"},{"name":"AYDIN MAH.","zip":"58502"},{"name":"BAKIRCIOĞLU KÖYÜ","zip":"58502"},{"name":"BANAZ KÖYÜ","zip":"58502"},{"name":"BAŞKÖY KÖYÜ","zip":"58502"},{"name":"BAYAT KÖYÜ","zip":"58502"},{"name":"BEDEL KÖYÜ","zip":"58502"},{"name":"BELCİK KÖYÜ","zip":"58502"},{"name":"BUĞDAYÖREN KÖYÜ","zip":"58502"},{"name":"BÜYÜKAKÖREN KÖYÜ","zip":"58502"},{"name":"CAMİİ MAH.","zip":"58502"},{"name":"CİZÖZÜ KÖYÜ","zip":"58502"},{"name":"CUMHURİYET KÖYÜ","zip":"58502"},{"name":"CUMHURİYET MAH.","zip":"58502"},{"name":"ÇAĞLAYAN KÖYÜ","zip":"58502"},{"name":"ÇIRÇIR KÖYÜ","zip":"58502"},{"name":"ÇOBANSARAY KÖYÜ","zip":"58502"},{"name":"ÇÖTE KÖYÜ","zip":"58502"},{"name":"ÇUBUK KÖYÜ","zip":"58502"},{"name":"ÇUKURSARAY KÖYÜ","zip":"58502"},{"name":"DANAÖREN KÖYÜ","zip":"58502"},{"name":"DANİŞMENT KÖYÜ","zip":"58502"},{"name":"DAVULALAN KÖYÜ","zip":"58502"},{"name":"DELİKKAYA KÖYÜ","zip":"58502"},{"name":"DEMİRCİLİK KÖYÜ","zip":"58502"},{"name":"DEMİROLUK KÖYÜ","zip":"58502"},{"name":"DEMİRÖZÜ KÖYÜ","zip":"58502"},{"name":"DEREKÖY KÖYÜ","zip":"58502"},{"name":"DİKİLİTAŞ KÖYÜ","zip":"58502"},{"name":"DİREKLİ KÖYÜ","zip":"58502"},{"name":"DİREKLİ SARIKAYA KÖYÜ","zip":"58502"},{"name":"DOĞANLI KÖYÜ","zip":"58502"},{"name":"EMİRLER KÖYÜ","zip":"58502"},{"name":"ERENLER KÖYÜ","zip":"58502"},{"name":"ERİKLİ MAH.","zip":"58502"},{"name":"ESENÇAY KÖYÜ","zip":"58502"},{"name":"EŞMEBAŞI KÖYÜ","zip":"58502"},{"name":"FATİH MAH.","zip":"58502"},{"name":"FINDICAK KÖYÜ","zip":"58502"},{"name":"GEYNİK KÖYÜ","zip":"58502"},{"name":"GÖKÇELİ KÖYÜ","zip":"58502"},{"name":"GÖKKAYA KÖYÜ","zip":"58502"},{"name":"GÜNEYKAYA KÖYÜ","zip":"58502"},{"name":"HALKAÇAYIR KÖYÜ","zip":"58502"},{"name":"HAMZAŞEYH KÖYÜ","zip":"58502"},{"name":"ILICA KÖYÜ","zip":"58502"},{"name":"İĞDECİKLER KÖYÜ","zip":"58502"},{"name":"İĞNEBEY KÖYÜ","zip":"58502"},{"name":"İNCETAŞ KÖYÜ","zip":"58502"},{"name":"İSLİM KÖYÜ","zip":"58502"},{"name":"KADIKÖY KÖYÜ","zip":"58502"},{"name":"KADILI KÖYÜ","zip":"58502"},{"name":"KALE MAH.","zip":"58502"},{"name":"KALEKÖY KÖYÜ","zip":"58502"},{"name":"KALIN KÖYÜ","zip":"58502"},{"name":"KAMAN KÖYÜ","zip":"58502"},{"name":"KAPAKLIKAYA KÖYÜ","zip":"58502"},{"name":"KAPI KÖYÜ","zip":"58502"},{"name":"KARACAÖREN KÖYÜ","zip":"58502"},{"name":"KARAKAYA KÖYÜ","zip":"58502"},{"name":"KARAKOÇ KÖYÜ","zip":"58502"},{"name":"KARALAR KÖYÜ","zip":"58502"},{"name":"KARALEYLEK KÖYÜ","zip":"58502"},{"name":"KARGIN MAH.","zip":"58502"},{"name":"KAVAK KÖYÜ","zip":"58502"},{"name":"KAVAKDERE KÖYÜ","zip":"58502"},{"name":"KAYALIPINAR KÖYÜ","zip":"58502"},{"name":"KERİMMÜMİN KÖYÜ","zip":"58502"},{"name":"KILDIR KÖYÜ","zip":"58502"},{"name":"KIRKPINAR KÖYÜ","zip":"58502"},{"name":"KIVŞAK KÖYÜ","zip":"58502"},{"name":"KIZILKÖY KÖYÜ","zip":"58502"},{"name":"KİLLİK KÖYÜ","zip":"58502"},{"name":"KİREMİTLİ KÖYÜ","zip":"58502"},{"name":"KONAKÖZÜ KÖYÜ","zip":"58502"},{"name":"KÜÇÜKAKÖREN KÖYÜ","zip":"58502"},{"name":"KÜMBET KÖYÜ","zip":"58502"},{"name":"MEHMETAKİFERSOY MAH.","zip":"58502"},{"name":"MENTEŞE KÖYÜ","zip":"58502"},{"name":"MERKEZ SARIKAYA KÖYÜ","zip":"58502"},{"name":"MERKEZYENİKÖY KÖYÜ","zip":"58502"},{"name":"MUMCUÇİFTLİĞİ KÖYÜ","zip":"58502"},{"name":"NALLI KÖYÜ","zip":"58502"},{"name":"NEVRUZ KÖYÜ","zip":"58502"},{"name":"NEVRUZYAYLASI KÖYÜ","zip":"58502"},{"name":"ORTAÇAKMAK KÖYÜ","zip":"58502"},{"name":"ORTAKLAR KÖYÜ","zip":"58502"},{"name":"SANDAL KÖYÜ","zip":"58502"},{"name":"SARIÇAL KÖYÜ","zip":"58502"},{"name":"SARIYAR KÖYÜ","zip":"58502"},{"name":"SELÇUKLU MAH.","zip":"58502"},{"name":"SEREN KÖYÜ","zip":"58502"},{"name":"SÖĞÜTPINAR KÖYÜ","zip":"58502"},{"name":"SUBAŞI KÖYÜ","zip":"58502"},{"name":"ŞEHİTLER MAH.","zip":"58502"},{"name":"ŞEHİTNADİRBEKAR MAH.","zip":"58502"},{"name":"ŞEHİTOSMAN MAH.","zip":"58502"},{"name":"ŞEYHHALİL KÖYÜ","zip":"58502"},{"name":"TAHTAKÖPRÜ MAH.","zip":"58502"},{"name":"TATKÖY KÖYÜ","zip":"58502"},{"name":"TAYALAN KÖYÜ","zip":"58502"},{"name":"TERMAL MAH.","zip":"58502"},{"name":"TOPULYURDU KÖYÜ","zip":"58502"},{"name":"TÖNGEL KÖYÜ","zip":"58502"},{"name":"ÜYÜK KÖYÜ","zip":"58502"},{"name":"ÜYÜKYAYLASI KÖYÜ","zip":"58502"},{"name":"YAĞLIDERE KÖYÜ","zip":"58502"},{"name":"YAKACIKÇAVUŞLU KÖYÜ","zip":"58502"},{"name":"YAKUPKÖY KÖYÜ","zip":"58502"},{"name":"YASSIKARA KÖYÜ","zip":"58502"},{"name":"YAYLAGÖZE KÖYÜ","zip":"58502"},{"name":"YENİCAMİİ MAH.","zip":"58502"},{"name":"YENİYAPAN KÖYÜ","zip":"58502"},{"name":"YEŞİLALAN KÖYÜ","zip":"58502"},{"name":"YEŞİLYURT MAH.","zip":"58502"},{"name":"YILANLIKAYA KÖYÜ","zip":"58502"},{"name":"YİĞİTLER KÖYÜ","zip":"58502"},{"name":"YOLKAYA KÖYÜ","zip":"58502"},{"name":"YUKARIÇAKMAK KÖYÜ","zip":"58502"},{"name":"YUKARIEKECİK KÖYÜ","zip":"58502"},{"name":"YUSUFOĞLAN KÖYÜ","zip":"58502"},{"name":"YUVALIÇAYIR KÖYÜ","zip":"58502"},{"name":"YÜCEBACA KÖYÜ","zip":"58502"},{"name":"ZAFER MAH.","zip":"58502"}]},{"name":"YILDIZELİ","cityName":null,"quarters":[{"name":"CUMHURİYET MAH.","zip":"58500"},{"name":"ÇAMLIBEL MAH.","zip":"58500"},{"name":"FATİHSULTANMEHMET MAH.","zip":"58500"},{"name":"FEVZİ ÇAKMAK MAH.","zip":"58500"},{"name":"KARŞIYAKA MAH.","zip":"58500"},{"name":"MEHMETAKİFERSOY MAH.","zip":"58500"},{"name":"REŞADİYE MAH.","zip":"58500"},{"name":"SALİHİYE MAH.","zip":"58500"},{"name":"SELAMET MAH.","zip":"58500"},{"name":"YAVU KÖYÜ","zip":"58500"},{"name":"YENİ MAH.","zip":"58500"}]},{"name":"MERKEZKÖYLER","cityName":null,"quarters":[{"name":"AĞILÖNÜ MAH.","zip":"58702"},{"name":"AĞKAYA MAH.","zip":"58702"},{"name":"AĞLIKÇAY KÖYÜ","zip":"58702"},{"name":"AHMETHACI KÖYÜ","zip":"58702"},{"name":"AKDEDE KÖYÜ","zip":"58702"},{"name":"AKDEĞİRMEN KÖYÜ","zip":"58702"},{"name":"AKKOGİL MAH.","zip":"58702"},{"name":"AKMAŞAD MAH.","zip":"58702"},{"name":"AKÖREN KÖYÜ","zip":"58702"},{"name":"AKSU MAH.","zip":"58702"},{"name":"AKTAŞ MAH.","zip":"58702"},{"name":"AKYAZI KÖYÜ","zip":"58702"},{"name":"ALINPINAR MAH.","zip":"58702"},{"name":"ALİBAZAĞILI MAH.","zip":"58702"},{"name":"ALİÇAVUŞ MAH.","zip":"58702"},{"name":"ALİEFENDİ MAH.","zip":"58702"},{"name":"ALİPINAR MAH.","zip":"58702"},{"name":"ALİŞANAĞILI KÖYÜ","zip":"58702"},{"name":"ALİŞİR KÖYÜ","zip":"58702"},{"name":"ALUÇ MAH.","zip":"58702"},{"name":"ALUÇLUBEL KÖYÜ","zip":"58702"},{"name":"ALUÇLUSEKİ KÖYÜ","zip":"58702"},{"name":"ARAPÇA MAH.","zip":"58702"},{"name":"ARAPLAR MAH.","zip":"58702"},{"name":"ARDUÇLU MAH.","zip":"58702"},{"name":"ARKAN MAH.","zip":"58702"},{"name":"ARMUTÇAYIRI KÖYÜ","zip":"58702"},{"name":"ARMUTLU MAH.","zip":"58702"},{"name":"ASIMBEY MAH.","zip":"58702"},{"name":"AŞAĞI ADAMFAKI MAH.","zip":"58702"},{"name":"AŞAĞI MAH.","zip":"58702"},{"name":"AŞAĞI SEDİLLE MAH.","zip":"58702"},{"name":"AŞAĞIÇAMÖZÜ KÖYÜ","zip":"58702"},{"name":"AŞAĞIÇAMURCU KÖYÜ","zip":"58702"},{"name":"AŞAĞIEKİNLİ MAH.","zip":"58702"},{"name":"AŞAĞIKOVACIK KÖYÜ","zip":"58702"},{"name":"AŞAĞIKÜRÜNLÜ MAH.","zip":"58702"},{"name":"AŞAĞIMESCİT KÖYÜ","zip":"58702"},{"name":"AŞAĞIPEYNİK MAH.","zip":"58702"},{"name":"ATALAN KÖYÜ","zip":"58702"},{"name":"ATATÜRK MAH.","zip":"58702"},{"name":"ATGEÇMEZ KÖYÜ","zip":"58702"},{"name":"ATKIRAN KÖYÜ","zip":"58702"},{"name":"AVŞAR KÖYÜ","zip":"58702"},{"name":"AYANOĞLU MAH.","zip":"58702"},{"name":"AYLAYÜZ MAH.","zip":"58702"},{"name":"AZİZAĞA MAH.","zip":"58702"},{"name":"BAĞLAMA KÖYÜ","zip":"58702"},{"name":"BAHARŞEYH KÖYÜ","zip":"58702"},{"name":"BAHÇE MAH.","zip":"58702"},{"name":"BAHÇELİ MAH.","zip":"58702"},{"name":"BALLIDERE MAH.","zip":"58702"},{"name":"BALLIKLAR KÖYÜ","zip":"58702"},{"name":"BARHANA MAH.","zip":"58702"},{"name":"BAŞYURT ÇİFTLİĞİ MAH.","zip":"58702"},{"name":"BAŞYURT MAH.","zip":"58702"},{"name":"BAYRAMLI MAH.","zip":"58702"},{"name":"BAYTARLAR MAH.","zip":"58702"},{"name":"BECEKLİ KÖYÜ","zip":"58702"},{"name":"BECEKLİ MAH.","zip":"58702"},{"name":"BEDİRÖREN KÖYÜ","zip":"58702"},{"name":"BEKTAŞ KÖYÜ","zip":"58702"},{"name":"BELENTARLA KÖYÜ","zip":"58702"},{"name":"BEYGELEN MAH.","zip":"58702"},{"name":"BEYPINARI KÖYÜ","zip":"58702"},{"name":"BOĞAZ MAH.","zip":"58702"},{"name":"BOLUCAN KÖYÜ","zip":"58702"},{"name":"BOZBEL MAH.","zip":"58702"},{"name":"BOZKIR KÖYÜ","zip":"58702"},{"name":"BOZO MAH.","zip":"58702"},{"name":"BOZOKLUOĞLU MAH.","zip":"58702"},{"name":"BÖLÜKLER MAH.","zip":"58702"},{"name":"BUĞDAYLI (ŞAHİN ÇAVUŞLAR) MAH.","zip":"58702"},{"name":"BURHANİYE KÖYÜ","zip":"58702"},{"name":"BÜYÜKGÜNEY KÖYÜ","zip":"58702"},{"name":"BÜYÜKKAYA KÖYÜ","zip":"58702"},{"name":"BÜYÜKKÖY KÖYÜ","zip":"58702"},{"name":"CANBERKLİ MAH.","zip":"58702"},{"name":"CANOVA KÖYÜ","zip":"58702"},{"name":"CEFOLAR MAH.","zip":"58702"},{"name":"CEMAL KÖYÜ","zip":"58702"},{"name":"CEVAHİR PINARI MAH.","zip":"58702"},{"name":"CULHALI KÖYÜ","zip":"58702"},{"name":"ÇAMLIKALE MAH.","zip":"58702"},{"name":"ÇAMLIKAYAK MAH.","zip":"58702"},{"name":"ÇATAK MAH.","zip":"58702"},{"name":"ÇATÖREN KÖYÜ","zip":"58702"},{"name":"ÇAYKÖY MAH.","zip":"58702"},{"name":"ÇAYLI KÖYÜ","zip":"58702"},{"name":"ÇAYLICA KÖYÜ","zip":"58702"},{"name":"ÇAYPINAR KÖYÜ","zip":"58702"},{"name":"ÇEKEMLER MAH.","zip":"58702"},{"name":"ÇELİKLER MAH.","zip":"58702"},{"name":"ÇEVİRME MAH.","zip":"58702"},{"name":"ÇEVİRMEÇIĞRIK MAH.","zip":"58702"},{"name":"ÇEVİRMEHAN KÖYÜ","zip":"58702"},{"name":"ÇIRIKLI MAH.","zip":"58702"},{"name":"ÇOĞU MAH.","zip":"58702"},{"name":"ÇORAĞINDERE MAH.","zip":"58702"},{"name":"ÇORAK KÖYÜ","zip":"58702"},{"name":"ÇORAK MAH.","zip":"58702"},{"name":"ÇOTUKLAR MAH.","zip":"58702"},{"name":"ÇUKUR (YEŞİLOVO) MAH.","zip":"58702"},{"name":"DANIŞIK KÖYÜ","zip":"58702"},{"name":"DAVUT MAH.","zip":"58702"},{"name":"DELEV MAH.","zip":"58702"},{"name":"DELİ HÜSEYİN MAH.","zip":"58702"},{"name":"DELİKTAŞ MAH.","zip":"58702"},{"name":"DERBENT KÖYÜ","zip":"58702"},{"name":"DEREDAM KÖYÜ","zip":"58702"},{"name":"DEREKÖY KÖYÜ","zip":"58702"},{"name":"DEREKÖY MAH.","zip":"58702"},{"name":"DERENİN AĞILLARI MAH.","zip":"58702"},{"name":"DERVİŞ CEMAL MAH.","zip":"58702"},{"name":"DERVİŞ MAH.","zip":"58702"},{"name":"DİKİLİTAŞ MAH.","zip":"58702"},{"name":"DİLEKPINARI KÖYÜ","zip":"58702"},{"name":"DİPSİZGÖL KÖYÜ","zip":"58702"},{"name":"DOKTORUNAĞILI MAH.","zip":"58702"},{"name":"DÜZARMUT MAH.","zip":"58702"},{"name":"DÜZCELİ KÖYÜ","zip":"58702"},{"name":"EKİNLİ KÖYÜ","zip":"58702"},{"name":"ELMABELİ MAH.","zip":"58702"},{"name":"EMİRHAN KÖYÜ","zip":"58702"},{"name":"EPSİLEYURDU MAH.","zip":"58702"},{"name":"ESENLER KÖYÜ","zip":"58702"},{"name":"ETOLAR MAH.","zip":"58702"},{"name":"EVELİKLİ MAH.","zip":"58702"},{"name":"EVRENCİK KÖYÜ","zip":"58702"},{"name":"EYMİR KÖYÜ","zip":"58702"},{"name":"FATİH MAH.","zip":"58702"},{"name":"GEÇİBELİ MAH.","zip":"58702"},{"name":"GENCİKLER MAH.","zip":"58702"},{"name":"GENÇALİ MAH.","zip":"58702"},{"name":"GEYİKBABA MAH.","zip":"58702"},{"name":"GİLGİL MAH.","zip":"58702"},{"name":"GİRİT KÖYÜ","zip":"58702"},{"name":"GÖHERTAŞ KÖYÜ","zip":"58702"},{"name":"GÖKDERE MAH.","zip":"58702"},{"name":"GÖKTEPE KÖYÜ","zip":"58702"},{"name":"GÖLBAŞI KÖYÜ","zip":"58702"},{"name":"GÖLLER MAH.","zip":"58702"},{"name":"GÖLYAYLA MAH.","zip":"58702"},{"name":"GÖZEL MAH.","zip":"58702"},{"name":"GÜCÜKALİ MAH.","zip":"58702"},{"name":"GÜLABİ MAH.","zip":"58702"},{"name":"GÜLABİLER MAH.","zip":"58702"},{"name":"GÜLLER MAH.","zip":"58702"},{"name":"GÜLLÜALİ KÖYÜ","zip":"58702"},{"name":"GÜMÜŞÇEVRE KÖYÜ","zip":"58702"},{"name":"GÜNÇALDI MAH.","zip":"58702"},{"name":"GÜRGEN MAH.","zip":"58702"},{"name":"GÜRLEVİK MAH.","zip":"58702"},{"name":"HAÇYURT MAH.","zip":"58702"},{"name":"HAMO TUZLASI MAH.","zip":"58702"},{"name":"HANDERESİ MAH.","zip":"58702"},{"name":"HARAMİ MAH.","zip":"58702"},{"name":"HASAĞIL MAH.","zip":"58702"},{"name":"HASAN ÇAVUŞ MAH.","zip":"58702"},{"name":"HASANAĞA MAH.","zip":"58702"},{"name":"HASANAĞILI MAH.","zip":"58702"},{"name":"HASANKAYA MAH.","zip":"58702"},{"name":"HIDIR MAH.","zip":"58702"},{"name":"HORUNDERE MAH.","zip":"58702"},{"name":"HÜSEYİN MAH.","zip":"58702"},{"name":"HÜZOL MAH.","zip":"58702"},{"name":"ILICA KÖYÜ","zip":"58702"},{"name":"İBO MAH.","zip":"58702"},{"name":"İĞDELİ KÖYÜ","zip":"58702"},{"name":"İĞDİR KÖYÜ","zip":"58702"},{"name":"İKİDEĞİRMEN KÖYÜ","zip":"58702"},{"name":"İMİRHAN MAH.","zip":"58702"},{"name":"İNÖNÜ MAH.","zip":"58702"},{"name":"KABAKTEPELER KÖYÜ","zip":"58702"},{"name":"KABALAKLI MAH.","zip":"58702"},{"name":"KADRİYE KÖYÜ","zip":"58702"},{"name":"KALACIK MAH.","zip":"58702"},{"name":"KALECİK MAH.","zip":"58702"},{"name":"KALINCA MAH.","zip":"58702"},{"name":"KANLIÇAYIR KÖYÜ","zip":"58702"},{"name":"KANLIDERE MAH.","zip":"58702"},{"name":"KAPLAN KÖYÜ","zip":"58702"},{"name":"KARAALİ MAH.","zip":"58702"},{"name":"KARACAHİSAR KÖYÜ","zip":"58702"},{"name":"KARACAOVA MAH.","zip":"58702"},{"name":"KARAÇAM MAH.","zip":"58702"},{"name":"KARAÇAMURLUK MAH.","zip":"58702"},{"name":"KARAÇAYIR KÖYÜ","zip":"58702"},{"name":"KARAGÖZ MAH.","zip":"58702"},{"name":"KARAHASAN KÖYÜ","zip":"58702"},{"name":"KARAKAYA MAH.","zip":"58702"},{"name":"KARAKUŞ MAH.","zip":"58702"},{"name":"KARAMAN (HASAN YILDIZ) MAH.","zip":"58702"},{"name":"KARAMAN KÖYÜ","zip":"58702"},{"name":"KARAOLUK MAH.","zip":"58702"},{"name":"KARAPINAR MAH.","zip":"58702"},{"name":"KARATAŞ MAH.","zip":"58702"},{"name":"KARDERE KÖYÜ","zip":"58702"},{"name":"KARINDİBİ MAH.","zip":"58702"},{"name":"KARSLILAR KÖYÜ","zip":"58702"},{"name":"KARŞIYAKA MAH.","zip":"58702"},{"name":"KARŞIYURT MAH.","zip":"58702"},{"name":"KARŞKİ MAH.","zip":"58702"},{"name":"KASAPOĞLU MAH.","zip":"58702"},{"name":"KAVAK MAH.","zip":"58702"},{"name":"KAVASBAŞI KÖYÜ","zip":"58702"},{"name":"KAYABAŞI KÖYÜ","zip":"58702"},{"name":"KAYADİBİ KÖYÜ","zip":"58702"},{"name":"KAYLUKAYA KÖYÜ","zip":"58702"},{"name":"KAZELÖREN MAH.","zip":"58702"},{"name":"KAZIKLIÇAYIR MAH.","zip":"58702"},{"name":"KEÇEYURDU KÖYÜ","zip":"58702"},{"name":"KELENTER MAH.","zip":"58702"},{"name":"KELEŞLER MAH.","zip":"58702"},{"name":"KELHASAN KÖYÜ","zip":"58702"},{"name":"KELOŞ MAH.","zip":"58702"},{"name":"KEMKİNE MAH.","zip":"58702"},{"name":"KEVENLİ KÖYÜ","zip":"58702"},{"name":"KIR MAH.","zip":"58702"},{"name":"KIRAÇ MAH.","zip":"58702"},{"name":"KIRDAĞ MAH.","zip":"58702"},{"name":"KIRIKLI MAH.","zip":"58702"},{"name":"KISIK KÖYÜ","zip":"58702"},{"name":"KIZIK KÖYÜ","zip":"58702"},{"name":"KIZILDERE MAH.","zip":"58702"},{"name":"KIZILDİKME MAH.","zip":"58702"},{"name":"KIZILKALE KÖYÜ","zip":"58702"},{"name":"KIZILTARLA MAH.","zip":"58702"},{"name":"KİSOLAR MAH.","zip":"58702"},{"name":"KOCAALİ MAH.","zip":"58702"},{"name":"KOÇ MAH.","zip":"58702"},{"name":"KOÇÇUKURU MAH.","zip":"58702"},{"name":"KORKUT KÖYÜ","zip":"58702"},{"name":"KOVALOĞLU MAH.","zip":"58702"},{"name":"KÖNDÜL MAH.","zip":"58702"},{"name":"KÖPRÜBAŞI MAH.","zip":"58702"},{"name":"KÖRGETUZLA MAH.","zip":"58702"},{"name":"KÖRPINAR KÖYÜ","zip":"58702"},{"name":"KÖRPINAR MAH.","zip":"58702"},{"name":"KÖSEDAĞ MAH.","zip":"58702"},{"name":"KÖŞEVENK MAH.","zip":"58702"},{"name":"KÖTÜKÖY MAH.","zip":"58702"},{"name":"KULAKSIZ MAH.","zip":"58702"},{"name":"KUMOĞLU KÖYÜ","zip":"58702"},{"name":"KURNASLI MAH.","zip":"58702"},{"name":"KURTOLUĞU MAH.","zip":"58702"},{"name":"KURUCAABAT KÖYÜ","zip":"58702"},{"name":"KURUKÖPRÜ KÖYÜ","zip":"58702"},{"name":"KUŞCAPINAR MAH.","zip":"58702"},{"name":"KUŞCU KÖYÜ","zip":"58702"},{"name":"KUŞKAYA MAH.","zip":"58702"},{"name":"KÜÇÜK SORHUN MAH.","zip":"58702"},{"name":"KÜÇÜKÇAT MAH.","zip":"58702"},{"name":"KÜLLÜK MAH.","zip":"58702"},{"name":"KÜMBET KÖYÜ","zip":"58702"},{"name":"KÜRÜNLÜ KÖYÜ","zip":"58702"},{"name":"KÜTÜKLÜ MAH.","zip":"58702"},{"name":"LALUKLAR MAH.","zip":"58702"},{"name":"MAHMUTAĞAÇİFTLİĞİ KÖYÜ","zip":"58702"},{"name":"MAHMUTÇAVUŞ MAH.","zip":"58702"},{"name":"MAİL MAH.","zip":"58702"},{"name":"MARABALİ (ŞENYURT) MAH.","zip":"58702"},{"name":"MEHMET ÇAVUŞ (ŞIH) MAH.","zip":"58702"},{"name":"MEHMETAĞA MAH.","zip":"58702"},{"name":"MESTANLAR MAH.","zip":"58702"},{"name":"MIHLIAĞAÇ MAH.","zip":"58702"},{"name":"MOLLA SÜLEYMAN MAH.","zip":"58702"},{"name":"MOLOKLAR MAH.","zip":"58702"},{"name":"MUDOLAR MAH.","zip":"58702"},{"name":"MUHTARALİ MAH.","zip":"58702"},{"name":"MURTAZAOĞLU MAH.","zip":"58702"},{"name":"MÜSLÜMABAT KÖYÜ","zip":"58702"},{"name":"NASIR KÖYÜ","zip":"58702"},{"name":"NUZLA MAH.","zip":"58702"},{"name":"OKUL MAH.","zip":"58702"},{"name":"ORTA MAH.","zip":"58702"},{"name":"ORTAYURT MAH.","zip":"58702"},{"name":"OSMAN HOCA MAH.","zip":"58702"},{"name":"OSMANİYE KÖYÜ","zip":"58702"},{"name":"ÖMERİNYURDU MAH.","zip":"58702"},{"name":"ÖZCAN MAH.","zip":"58702"},{"name":"PALABIYIK MAH.","zip":"58702"},{"name":"PALANGA MAH.","zip":"58702"},{"name":"PAZARBELENİ KÖYÜ","zip":"58702"},{"name":"PAZARCIK KÖYÜ","zip":"58702"},{"name":"PUROLAR MAH.","zip":"58702"},{"name":"SAÇLI MAH.","zip":"58702"},{"name":"SALMAHAN MAH.","zip":"58702"},{"name":"SANCAKKALE KÖYÜ","zip":"58702"},{"name":"SARIYUSUF KÖYÜ","zip":"58702"},{"name":"SEDİLLE KÖYÜ","zip":"58702"},{"name":"SELİMİYE KÖYÜ","zip":"58702"},{"name":"SETEN KÖYÜ","zip":"58702"},{"name":"SIRIMLI MAH.","zip":"58702"},{"name":"SOĞUKPINAR MAH.","zip":"58702"},{"name":"SOLMAZLAR MAH.","zip":"58702"},{"name":"SORKUN KÖYÜ","zip":"58702"},{"name":"SÖĞÜTBELİ MAH.","zip":"58702"},{"name":"SÖĞÜTLÜ KÖYÜ","zip":"58702"},{"name":"SÖĞÜTLÜ MAH.","zip":"58702"},{"name":"SÖĞÜTLÜAĞIL KÖYÜ","zip":"58702"},{"name":"SÖĞÜTÖZÜ KÖYÜ","zip":"58702"},{"name":"SUCAK KÖYÜ","zip":"58702"},{"name":"SUGÖZÜ MAH.","zip":"58702"},{"name":"SUNGUR MAH.","zip":"58702"},{"name":"SUSUZPARMAK MAH.","zip":"58702"},{"name":"SÜLÜKGÖLÜ MAH.","zip":"58702"},{"name":"ŞAFAKLI KÖYÜ","zip":"58702"},{"name":"ŞAHİN MAH.","zip":"58702"},{"name":"ŞENGÜLLER MAH.","zip":"58702"},{"name":"ŞENYAYLA KÖYÜ","zip":"58702"},{"name":"ŞEREFİYE KÖYÜ","zip":"58702"},{"name":"ŞİROLAR MAH.","zip":"58702"},{"name":"TAHİRAĞA MAH.","zip":"58702"},{"name":"TAŞGÖZE KÖYÜ","zip":"58702"},{"name":"TAŞLIK MAH.","zip":"58702"},{"name":"TAŞLIKAYAĞI MAH.","zip":"58702"},{"name":"TAŞYAYLA MAH.","zip":"58702"},{"name":"TEKELİ MAH.","zip":"58702"},{"name":"TEKKEBUYU (HAYDOS) MAH.","zip":"58702"},{"name":"TEMOLAR MAH.","zip":"58702"},{"name":"TEPEKÖY KÖYÜ","zip":"58702"},{"name":"TOPAKTAŞ KÖYÜ","zip":"58702"},{"name":"TOPDORUK MAH.","zip":"58702"},{"name":"TÖDÜRGE GÖLÜ MAH.","zip":"58702"},{"name":"TÖDÜRGE KÖYÜ","zip":"58702"},{"name":"TUZLA MAH.","zip":"58702"},{"name":"TUZLAGÖZÜ KÖYÜ","zip":"58702"},{"name":"TÜRKOĞLU MAH.","zip":"58702"},{"name":"ULAŞOĞLU MAH.","zip":"58702"},{"name":"URMUTLUYURT MAH.","zip":"58702"},{"name":"UZUNGÖZE MAH.","zip":"58702"},{"name":"UZUNOĞLAN MAH.","zip":"58702"},{"name":"ÜÇARMUT MAH.","zip":"58702"},{"name":"ÜÇOLUK MAH.","zip":"58702"},{"name":"ÜNGÜR KÖYÜ","zip":"58702"},{"name":"ÜTÜK KÖYÜ","zip":"58702"},{"name":"ÜTÜKYURDU KÖYÜ","zip":"58702"},{"name":"VELO MAH.","zip":"58702"},{"name":"VEYİSLER MAH.","zip":"58702"},{"name":"VEYSELAĞA MAH.","zip":"58702"},{"name":"YAĞLILAR MAH.","zip":"58702"},{"name":"YANALAK MAH.","zip":"58702"},{"name":"YANIK MAH.","zip":"58702"},{"name":"YANYAYLA MAH.","zip":"58702"},{"name":"YAPAK KÖYÜ","zip":"58702"},{"name":"YARAĞIL KÖYÜ","zip":"58702"},{"name":"YARIMKAYA KÖYÜ","zip":"58702"},{"name":"YAYIKÖZÜ KÖYÜ","zip":"58702"},{"name":"YAYLA MAH.","zip":"58702"},{"name":"YEĞER MAH.","zip":"58702"},{"name":"YESALİ MAH.","zip":"58702"},{"name":"YEŞİLDERE KÖYÜ","zip":"58702"},{"name":"YEŞİLDERE MAH.","zip":"58702"},{"name":"YEŞİLKÖY KÖYÜ","zip":"58702"},{"name":"YEŞİMLİ KÖYÜ","zip":"58702"},{"name":"YIKILGAN KÖYÜ","zip":"58702"},{"name":"YILDIZ MAH.","zip":"58702"},{"name":"YOĞUNPELİT KÖYÜ","zip":"58702"},{"name":"YOLARASI MAH.","zip":"58702"},{"name":"YOLÖREN KÖYÜ","zip":"58702"},{"name":"YUKARI KEVENLİ MAH.","zip":"58702"},{"name":"YUKARI MAH.","zip":"58702"},{"name":"YUKARI SETEN MAH.","zip":"58702"},{"name":"YUKARIÇAMÖZÜ KÖYÜ","zip":"58702"},{"name":"YUKARIÇAMURCU KÖYÜ","zip":"58702"},{"name":"YUKARIMESCİT KÖYÜ","zip":"58702"},{"name":"YUVA MAH.","zip":"58702"},{"name":"YUVACA MAH.","zip":"58702"},{"name":"ZAZALAR MAH.","zip":"58702"},{"name":"ZİYARET MAH.","zip":"58702"},{"name":"ZOĞALLI KÖYÜ","zip":"58702"}]},{"name":"ZARA","cityName":null,"quarters":[{"name":"ÇARŞIBAŞI MAH.","zip":"58700"},{"name":"HATİP MAH.","zip":"58700"},{"name":"KARŞIYAKA MAH.","zip":"58700"},{"name":"KIZILIRMAK MAH.","zip":"58700"},{"name":"REŞİTPAŞA MAH.","zip":"58700"},{"name":"ŞEHİTLER MAH.","zip":"58700"},{"name":"ŞEYHMERZUBAN MAH.","zip":"58700"},{"name":"YENİCAMİİ MAH.","zip":"58700"}]}]}]}