{"id":59,"name":"TEKİRDAĞ","cities":[{"name":"city","districts":[{"name":"ÇERKEZKÖY","cityName":null,"quarters":[{"name":"FEVZİ PAŞA MAH.","zip":"59500"},{"name":"FEVZİ PAŞA OSB MAH.","zip":"59500"},{"name":"GAZİ MUSTAFA KEMAL PAŞA OSB MAH.","zip":"59500"},{"name":"GAZİ MUSTAFA KEMALPAŞA MAH.","zip":"59500"},{"name":"GAZİ OSMAN PAŞA MAH.","zip":"59500"},{"name":"GAZİ OSMAN PAŞA OSB MAH.","zip":"59500"},{"name":"İSTASYON MAH.","zip":"59500"},{"name":"KIZILPINAR MAH.","zip":"59500"},{"name":"VELİKÖY MAH.","zip":"59500"},{"name":"VELİKÖY OSB MAH.","zip":"59500"},{"name":"VELİKÖY-YALIBOYU OSB MAH.","zip":"59500"},{"name":"YILDIRIM BEYAZIT MAH.","zip":"59500"},{"name":"YILDIRIM BEYAZIT OSB MAH.","zip":"59500"}]},{"name":"ÇORLU","cityName":null,"quarters":[{"name":"CUMHURİYET MAH.","zip":"59850"},{"name":"ÇOBANÇEŞME MAH.","zip":"59850"},{"name":"DEREGÜNDÜZLÜ MAH.","zip":"59850"},{"name":"ESENTEPE MAH.","zip":"59850"},{"name":"HAVUZLAR MAH.","zip":"59850"},{"name":"HIDIRAĞA MAH.","zip":"59850"},{"name":"HÜRRİYET MAH.","zip":"59850"},{"name":"MAKSUTLU MAH.","zip":"59850"},{"name":"MUHİTTİN MAH.","zip":"59850"},{"name":"ÖNERLER MAH.","zip":"59850"},{"name":"REŞADİYE MAH.","zip":"59850"},{"name":"RUMELİ MAH.","zip":"59850"},{"name":"SARILAR MAH.","zip":"59850"},{"name":"SEYMEN MAH.","zip":"59850"},{"name":"ŞAHPAZ MAH.","zip":"59850"},{"name":"ŞEYHSİNAN MAH.","zip":"59850"},{"name":"TÜRKGÜCÜ MAH.","zip":"59850"},{"name":"TÜRKGÜCÜ OSB MAH.","zip":"59850"},{"name":"YENİCE MAH.","zip":"59850"},{"name":"ZAFER MAH.","zip":"59850"}]},{"name":"SİLAHTAR","cityName":null,"quarters":[{"name":"HATİP MAH.","zip":"59860"},{"name":"KAZIMİYE MAH.","zip":"59860"},{"name":"KEMALETTİN MAH.","zip":"59860"},{"name":"NUSRATİYE MAH.","zip":"59860"},{"name":"SİLAHTARAĞA MAH.","zip":"59860"}]},{"name":"MARMARACIK","cityName":null,"quarters":[{"name":"BAKIRCA MAH.","zip":"59930"},{"name":"CUMHURİYET MAH.","zip":"59930"},{"name":"ESENLER MAH.","zip":"59930"},{"name":"İĞNELER MAH.","zip":"59930"},{"name":"KARAMEHMET MAH.","zip":"59930"},{"name":"KIRKGÖZ MAH.","zip":"59930"},{"name":"MARMARACIK MAH.","zip":"59930"},{"name":"MARMARACIKOSB MAH.","zip":"59930"},{"name":"MİSİNLİ MAH.","zip":"59930"},{"name":"PAŞAKÖY MAH.","zip":"59930"},{"name":"PINARBAŞI MAH.","zip":"59930"},{"name":"SAĞLIK MAH.","zip":"59930"},{"name":"ULAŞ MAH.","zip":"59930"},{"name":"ULAŞ OSB MAH.","zip":"59930"},{"name":"VAKIFLAR MAH.","zip":"59930"},{"name":"VAKIFLAR OSB MAH.","zip":"59930"},{"name":"VELİMEŞE MAH.","zip":"59930"},{"name":"VELİMEŞE OSB MAH.","zip":"59930"},{"name":"YEŞİLTEPE MAH.","zip":"59930"},{"name":"YULAFLI MAH.","zip":"59930"}]},{"name":"HAYRABOLU","cityName":null,"quarters":[{"name":"AVLUOBASI MAH.","zip":"59400"},{"name":"AYDINEVLER MAH.","zip":"59400"},{"name":"AYDINLAR MAH.","zip":"59400"},{"name":"BAYRAMŞAH MAH.","zip":"59400"},{"name":"BUZAĞCI MAH.","zip":"59400"},{"name":"BÜYÜKKARAKARLI MAH.","zip":"59400"},{"name":"CAMBAZDERE MAH.","zip":"59400"},{"name":"CANHIDIR MAH.","zip":"59400"},{"name":"ÇENE MAH.","zip":"59400"},{"name":"ÇERKEZMÜSELLİM MAH.","zip":"59400"},{"name":"ÇIKRIKÇI MAH.","zip":"59400"},{"name":"DAMBASLAR MAH.","zip":"59400"},{"name":"DANİŞMENT MAH.","zip":"59400"},{"name":"DELİBEDİR MAH.","zip":"59400"},{"name":"DUĞCALI MAH.","zip":"59400"},{"name":"EMİRYAKUP MAH.","zip":"59400"},{"name":"FAHRİOĞLU MAH.","zip":"59400"},{"name":"HACILLI MAH.","zip":"59400"},{"name":"HASKÖY MAH.","zip":"59400"},{"name":"HAYRABOLUOSB MAH.","zip":"59400"},{"name":"HEDEYLİ MAH.","zip":"59400"},{"name":"HİSAR MAH.","zip":"59400"},{"name":"İLYAS MAH.","zip":"59400"},{"name":"İSMAİLLİ MAH.","zip":"59400"},{"name":"KABAHÖYÜK MAH.","zip":"59400"},{"name":"KADRİYE MAH.","zip":"59400"},{"name":"KAHYA MAH.","zip":"59400"},{"name":"KANDAMIŞ MAH.","zip":"59400"},{"name":"KARABABA MAH.","zip":"59400"},{"name":"KARABÜRÇEK MAH.","zip":"59400"},{"name":"KARAKAVAK MAH.","zip":"59400"},{"name":"KARAYAHŞİ MAH.","zip":"59400"},{"name":"KEMALLAR MAH.","zip":"59400"},{"name":"KILIÇLAR MAH.","zip":"59400"},{"name":"KURTDERE MAH.","zip":"59400"},{"name":"KUTLUGÜN MAH.","zip":"59400"},{"name":"KÜÇÜKKARAKARLI MAH.","zip":"59400"},{"name":"LAHNA MAH.","zip":"59400"},{"name":"MUZRUPLU MAH.","zip":"59400"},{"name":"ÖREY MAH.","zip":"59400"},{"name":"ÖVENLER MAH.","zip":"59400"},{"name":"PARMAKSIZ MAH.","zip":"59400"},{"name":"SOYLU MAH.","zip":"59400"},{"name":"SUBAŞI MAH.","zip":"59400"},{"name":"SUSUZMÜSELLİM MAH.","zip":"59400"},{"name":"ŞALGAMLI MAH.","zip":"59400"},{"name":"TATARLI MAH.","zip":"59400"},{"name":"TEMREZLİ MAH.","zip":"59400"},{"name":"UMURBEY MAH.","zip":"59400"},{"name":"UMURÇU MAH.","zip":"59400"},{"name":"YÖRGÜÇ MAH.","zip":"59400"},{"name":"YÖRÜKLER MAH.","zip":"59400"}]},{"name":"KAPAKLI","cityName":null,"quarters":[{"name":"BAHÇEAĞIL MAH.","zip":"59510"},{"name":"BAHÇELİEVLER MAH.","zip":"59510"},{"name":"BAHÇELİEVLEROSB MAH.","zip":"59510"},{"name":"CUMHURİYET MAH.","zip":"59510"},{"name":"FATİH MAH.","zip":"59510"},{"name":"İNÖNÜ MAH.","zip":"59510"},{"name":"İSMET PAŞA MAH.","zip":"59510"},{"name":"İSMETPAŞAOSB MAH.","zip":"59510"},{"name":"KARAAĞAÇ MAH.","zip":"59510"},{"name":"KARAAĞAÇ OSB MAH.","zip":"59510"},{"name":"KARLI MAH.","zip":"59510"},{"name":"KAZIM KARABEKİR MAH.","zip":"59510"},{"name":"MİMAR SİNAN MAH.","zip":"59510"},{"name":"PINARCA MAH.","zip":"59510"},{"name":"UZUNHACI MAH.","zip":"59510"},{"name":"YANIKAĞIL MAH.","zip":"59510"}]},{"name":"MALKARA","cityName":null,"quarters":[{"name":"AHMETPAŞA MAH.","zip":"59300"},{"name":"AKSAKAL MAH.","zip":"59300"},{"name":"ALAYBEY MAH.","zip":"59300"},{"name":"ALLIIŞIK MAH.","zip":"59300"},{"name":"BAĞPINARI MAH.","zip":"59300"},{"name":"BALABANCIK MAH.","zip":"59300"},{"name":"BALLI MAH.","zip":"59300"},{"name":"BALLISÜLE MAH.","zip":"59300"},{"name":"BATKIN MAH.","zip":"59300"},{"name":"BAYRAMTEPE MAH.","zip":"59300"},{"name":"CAMİ ATİK MAH.","zip":"59300"},{"name":"ÇAVUŞKÖY MAH.","zip":"59300"},{"name":"ÇINARALTI MAH.","zip":"59300"},{"name":"ÇINARLIDERE MAH.","zip":"59300"},{"name":"ÇİMENDERE MAH.","zip":"59300"},{"name":"DANİŞMENT MAH.","zip":"59300"},{"name":"DAVUTELİ MAH.","zip":"59300"},{"name":"DELİLLER MAH.","zip":"59300"},{"name":"DEMİRCİLİ MAH.","zip":"59300"},{"name":"DEREKÖY MAH.","zip":"59300"},{"name":"DEVECİ MAH.","zip":"59300"},{"name":"DEVELİ MAH.","zip":"59300"},{"name":"DOĞANKÖY MAH.","zip":"59300"},{"name":"DOLU MAH.","zip":"59300"},{"name":"ELMALI MAH.","zip":"59300"},{"name":"EMİRALİ MAH.","zip":"59300"},{"name":"ESENDİK MAH.","zip":"59300"},{"name":"EVRENBEY MAH.","zip":"59300"},{"name":"GAZİBEY MAH.","zip":"59300"},{"name":"GÖNENCE MAH.","zip":"59300"},{"name":"GÖZSÜZ MAH.","zip":"59300"},{"name":"GÜNEŞLİ MAH.","zip":"59300"},{"name":"HACIEVHAT MAH.","zip":"59300"},{"name":"HACISUNGUR MAH.","zip":"59300"},{"name":"HALIÇ MAH.","zip":"59300"},{"name":"HASKÖY MAH.","zip":"59300"},{"name":"HEMİT MAH.","zip":"59300"},{"name":"HEREKE MAH.","zip":"59300"},{"name":"IZGAR MAH.","zip":"59300"},{"name":"İBRİBEY MAH.","zip":"59300"},{"name":"İBRİCE MAH.","zip":"59300"},{"name":"İSHAKÇA MAH.","zip":"59300"},{"name":"KADIKÖY MAH.","zip":"59300"},{"name":"KALAYCI MAH.","zip":"59300"},{"name":"KARACAGÜR MAH.","zip":"59300"},{"name":"KARACAHALİL MAH.","zip":"59300"},{"name":"KARAİĞDEMİR MAH.","zip":"59300"},{"name":"KARAMURAT MAH.","zip":"59300"},{"name":"KAVAKÇEŞME MAH.","zip":"59300"},{"name":"KERMEYAN MAH.","zip":"59300"},{"name":"KIRIKALİ MAH.","zip":"59300"},{"name":"KİREMİTLİK MAH.","zip":"59300"},{"name":"KOZYÖRÜK MAH.","zip":"59300"},{"name":"KUYUCU MAH.","zip":"59300"},{"name":"KÜÇÜKHIDIR MAH.","zip":"59300"},{"name":"KÜRTÜLLÜ MAH.","zip":"59300"},{"name":"MESTANLAR MAH.","zip":"59300"},{"name":"MÜSTECEP MAH.","zip":"59300"},{"name":"PİRİNÇÇEŞME MAH.","zip":"59300"},{"name":"SAĞLAMTAŞ MAH.","zip":"59300"},{"name":"SARIPOLAT MAH.","zip":"59300"},{"name":"SARIYAR MAH.","zip":"59300"},{"name":"SARNIÇ MAH.","zip":"59300"},{"name":"SIRTBEY MAH.","zip":"59300"},{"name":"ŞAHİN MAH.","zip":"59300"},{"name":"TEKKEKÖY MAH.","zip":"59300"},{"name":"TETEKÖY MAH.","zip":"59300"},{"name":"VAKIFİĞDEMİR MAH.","zip":"59300"},{"name":"YAYLAGÖNE MAH.","zip":"59300"},{"name":"YAYLAKÖY MAH.","zip":"59300"},{"name":"YENİ MAH.","zip":"59300"},{"name":"YENİCE MAH.","zip":"59300"},{"name":"YENİDİBEK MAH.","zip":"59300"},{"name":"YILANLI MAH.","zip":"59300"},{"name":"YÖRÜCEK MAH.","zip":"59300"},{"name":"YÜRÜK MAH.","zip":"59300"}]},{"name":"MARMARAEREĞLİSİ","cityName":null,"quarters":[{"name":"CEDİT ALİ PAŞA MAH.","zip":"59740"},{"name":"ÇEŞMELİ MAH.","zip":"59740"},{"name":"DEREAĞZI MAH.","zip":"59740"},{"name":"KAMARADERE MAH.","zip":"59740"},{"name":"MUSTAFA KEMAL PAŞA MAH.","zip":"59740"},{"name":"SULTANKÖY MAH.","zip":"59740"},{"name":"TÜRKMENLİ MAH.","zip":"59740"},{"name":"YAKUPLU MAH.","zip":"59740"},{"name":"YENİÇİFTLİK MAH.","zip":"59740"}]},{"name":"MURATLI","cityName":null,"quarters":[{"name":"AŞAĞISEVİNDİKLİ MAH.","zip":"59700"},{"name":"AYDINKÖY MAH.","zip":"59700"},{"name":"BALABANLI MAH.","zip":"59700"},{"name":"BALLIHOCA MAH.","zip":"59700"},{"name":"ÇEVRİMKAYA MAH.","zip":"59700"},{"name":"FATİH MAH.","zip":"59700"},{"name":"HANOĞLU MAH.","zip":"59700"},{"name":"İNANLI MAH.","zip":"59700"},{"name":"İSTİKLAL-KURTPINAR MAH.","zip":"59700"},{"name":"İSTİKLALKURTPINAR OSB MAH.","zip":"59700"},{"name":"KAZIM DİRİK-TURAN MAH.","zip":"59700"},{"name":"KEPENEKLİ MAH.","zip":"59700"},{"name":"KIRKKEPENEKLİ MAH.","zip":"59700"},{"name":"MURADİYE MAH.","zip":"59700"},{"name":"MÜSELLİM MAH.","zip":"59700"},{"name":"YAVAŞÇA MAH.","zip":"59700"},{"name":"YEŞİLSIRT MAH.","zip":"59700"},{"name":"YUKARISEVİNDİKLİ MAH.","zip":"59700"},{"name":"YUKARISIRT MAH.","zip":"59700"},{"name":"YURTBEKLER MAH.","zip":"59700"}]},{"name":"SARAY","cityName":null,"quarters":[{"name":"AYVACIK MAH.","zip":"59600"},{"name":"BAHÇEDERE MAH.","zip":"59600"},{"name":"BAHÇEKÖY MAH.","zip":"59600"},{"name":"BEYAZKÖY MAH.","zip":"59600"},{"name":"BÜYÜKYONCALI MAH.","zip":"59600"},{"name":"ÇAYLA MAH.","zip":"59600"},{"name":"ÇUKURYURT MAH.","zip":"59600"},{"name":"DEMİRLER MAH.","zip":"59600"},{"name":"EDİRKÖY MAH.","zip":"59600"},{"name":"GÖÇERLER MAH.","zip":"59600"},{"name":"GÜNGÖRMEZ MAH.","zip":"59600"},{"name":"KADIKÖY MAH.","zip":"59600"},{"name":"KARABÜRÇEK MAH.","zip":"59600"},{"name":"KAVACIK MAH.","zip":"59600"},{"name":"KEMALPAŞA MAH.","zip":"59600"},{"name":"KURTDERE MAH.","zip":"59600"},{"name":"KÜÇÜKYONCALI MAH.","zip":"59600"},{"name":"OSMANLI MAH.","zip":"59600"},{"name":"PAZARCIK MAH.","zip":"59600"},{"name":"SEFAALAN MAH.","zip":"59600"},{"name":"SİNANLI MAH.","zip":"59600"},{"name":"SOFULAR MAH.","zip":"59600"},{"name":"YENİ MAH.","zip":"59600"},{"name":"YUVALI MAH.","zip":"59600"}]},{"name":"ALTINOVA","cityName":null,"quarters":[{"name":"ALTINOVA MAH.","zip":"59100"},{"name":"ERTUĞRUL MAH.","zip":"59100"},{"name":"YAVUZ MAH.","zip":"59100"}]},{"name":"AYDOĞDU","cityName":null,"quarters":[{"name":"ÇINARLI MAH.","zip":"59200"},{"name":"KARADENİZ MAH.","zip":"59200"},{"name":"ZAFER MAH.","zip":"59200"}]},{"name":"BANARLI","cityName":null,"quarters":null},{"name":"BARBAROS","cityName":null,"quarters":null},{"name":"ESKİCAMİ","cityName":null,"quarters":[{"name":"DEĞİRMENALTI MAH.","zip":"59030"},{"name":"ESKİCAMİ-ORTACAMİ MAH.","zip":"59030"},{"name":"GÜNDOĞDU-TURGUT MAH.","zip":"59030"},{"name":"HÜRRİYET MAH.","zip":"59030"},{"name":"NAMIK KEMAL MAH.","zip":"59030"}]},{"name":"KARACAKILAVUZ","cityName":null,"quarters":null},{"name":"KUMBAĞ","cityName":null,"quarters":null},{"name":"SÜLEYMANPAŞA","cityName":null,"quarters":[{"name":"AHMETÇE MAH.","zip":"59070"},{"name":"AKÇAHALİL MAH.","zip":"59070"},{"name":"ARAPHACI MAH.","zip":"59070"},{"name":"AŞAĞIKILIÇLI MAH.","zip":"59070"},{"name":"AVŞAR MAH.","zip":"59070"},{"name":"BIYIKALİ MAH.","zip":"59070"},{"name":"ÇANAKÇI MAH.","zip":"59070"},{"name":"DEDECİK MAH.","zip":"59070"},{"name":"DEMİRLİ MAH.","zip":"59070"},{"name":"DOĞRUKARACAMURAT MAH.","zip":"59070"},{"name":"EVCİLER MAH.","zip":"59070"},{"name":"FERHADANLI MAH.","zip":"59070"},{"name":"GAZİOĞLU MAH.","zip":"59070"},{"name":"GENERLİ MAH.","zip":"59070"},{"name":"GÜNDÜZLÜ MAH.","zip":"59070"},{"name":"GÜVEÇLİ MAH.","zip":"59070"},{"name":"HACIKÖY MAH.","zip":"59070"},{"name":"HUSUNLU MAH.","zip":"59070"},{"name":"IŞIKLAR MAH.","zip":"59070"},{"name":"İNECİK MAH.","zip":"59070"},{"name":"KARABEZİRGAN MAH.","zip":"59070"},{"name":"KARAÇALI MAH.","zip":"59070"},{"name":"KARAEVLİ MAH.","zip":"59070"},{"name":"KARAHALİL MAH.","zip":"59070"},{"name":"KARAHİSARLI MAH.","zip":"59070"},{"name":"KARANSILLI MAH.","zip":"59070"},{"name":"KAŞIKÇI MAH.","zip":"59070"},{"name":"KAYI MAH.","zip":"59070"},{"name":"KAZANDERE MAH.","zip":"59070"},{"name":"KILAVUZLU MAH.","zip":"59070"},{"name":"KINIKLAR MAH.","zip":"59070"},{"name":"KÖSEİLYAS MAH.","zip":"59070"},{"name":"MAHRAMLI MAH.","zip":"59070"},{"name":"NAİPKÖY MAH.","zip":"59070"},{"name":"NUSRATFAKI MAH.","zip":"59070"},{"name":"NUSRATLI MAH.","zip":"59070"},{"name":"OĞUZLU MAH.","zip":"59070"},{"name":"ORMANLI MAH.","zip":"59070"},{"name":"ORTACA MAH.","zip":"59070"},{"name":"ORUÇBEYLİ MAH.","zip":"59070"},{"name":"OSMANLI MAH.","zip":"59070"},{"name":"OTMANLI MAH.","zip":"59070"},{"name":"SELÇUK MAH.","zip":"59070"},{"name":"SEMETLİ MAH.","zip":"59070"},{"name":"SEYMENLİ MAH.","zip":"59070"},{"name":"TAŞUMURCA MAH.","zip":"59070"},{"name":"TATARLI MAH.","zip":"59070"},{"name":"YAĞCI MAH.","zip":"59070"},{"name":"YAYABAŞI MAH.","zip":"59070"},{"name":"YAZIR MAH.","zip":"59070"},{"name":"YENİCE MAH.","zip":"59070"},{"name":"YENİKÖY MAH.","zip":"59070"},{"name":"YUKARIKILIÇLI MAH.","zip":"59070"},{"name":"YUVA MAH.","zip":"59070"}]},{"name":"ŞARKÖY","cityName":null,"quarters":[{"name":"BEYOĞLU MAH.","zip":"59800"},{"name":"BULGUR MAH.","zip":"59800"},{"name":"CAMİKEBİR MAH.","zip":"59800"},{"name":"CUMHURİYET MAH.","zip":"59800"},{"name":"ÇENGELLİ MAH.","zip":"59800"},{"name":"ÇINARLI MAH.","zip":"59800"},{"name":"ERİKLİCE MAH.","zip":"59800"},{"name":"GAZİKÖY MAH.","zip":"59800"},{"name":"GÖLCÜK MAH.","zip":"59800"},{"name":"GÜZELKÖY MAH.","zip":"59800"},{"name":"HOŞKÖY MAH.","zip":"59800"},{"name":"İĞDEBAĞLARI MAH.","zip":"59800"},{"name":"İSHAKLI MAH.","zip":"59800"},{"name":"İSTİKLAL MAH.","zip":"59800"},{"name":"KIZILCATERZİ MAH.","zip":"59800"},{"name":"KİRAZLI MAH.","zip":"59800"},{"name":"KOCAALİ MAH.","zip":"59800"},{"name":"MURSALLI MAH.","zip":"59800"},{"name":"MÜREFTE MAH.","zip":"59800"},{"name":"PALAMUT MAH.","zip":"59800"},{"name":"SOFUKÖY MAH.","zip":"59800"},{"name":"ŞENKÖY MAH.","zip":"59800"},{"name":"TEPEKÖY MAH.","zip":"59800"},{"name":"UÇMAKDERE MAH.","zip":"59800"},{"name":"ULAMAN MAH.","zip":"59800"},{"name":"YAYAAĞAÇ MAH.","zip":"59800"},{"name":"YAYAKÖY MAH.","zip":"59800"},{"name":"YENİKÖY MAH.","zip":"59800"},{"name":"YÖRGÜÇ MAH.","zip":"59800"},{"name":"YUKARIKALAMIŞ MAH.","zip":"59800"}]}]}]}