{"id":6,"name":"ANKARA","cities":[{"name":"city","districts":[{"name":"AKYURT","cityName":null,"quarters":[{"name":"BEYAZIT MAH.","zip":"06750"},{"name":"BÜĞDÜZ MAH.","zip":"06750"},{"name":"CÜCÜK MAH.","zip":"06750"},{"name":"ÇAM MAH.","zip":"06750"},{"name":"ÇARDAKBAĞI MAH.","zip":"06750"},{"name":"ÇINAR MAH.","zip":"06750"},{"name":"ELECİK MAH.","zip":"06750"},{"name":"GALABA MAH.","zip":"06750"},{"name":"GÜZELHİSAR MAH.","zip":"06750"},{"name":"HAYDAR MAH.","zip":"06750"},{"name":"KARACAKAYA MAH.","zip":"06750"},{"name":"KARACALAR MAH.","zip":"06750"},{"name":"KARAYATAK MAH.","zip":"06750"},{"name":"KIZIK MAH.","zip":"06750"},{"name":"KOZAYAĞI MAH.","zip":"06750"},{"name":"SAMUT MAH.","zip":"06750"},{"name":"SARACALAR MAH.","zip":"06750"},{"name":"ŞEYHLER MAH.","zip":"06750"},{"name":"TEBERİK MAH.","zip":"06750"},{"name":"TİMURHAN MAH.","zip":"06750"},{"name":"UZUNLAR MAH.","zip":"06750"},{"name":"YEŞİLTEPE MAH.","zip":"06750"},{"name":"YILDIRIM MAH.","zip":"06750"}]},{"name":"ALTINDAĞ","cityName":null,"quarters":[{"name":"ATIFBEY MAH.","zip":"06080"},{"name":"AYDINCIK MAH.","zip":"06080"},{"name":"GİCİK MAH.","zip":"06080"},{"name":"GÜLTEPE MAH.","zip":"06080"},{"name":"KARACAÖREN MAH.","zip":"06080"},{"name":"KAVAKLI MAH.","zip":"06080"},{"name":"PEÇENEK MAH.","zip":"06080"},{"name":"PLEVNE MAH.","zip":"06080"},{"name":"SOLFASOL MAH.","zip":"06080"},{"name":"TATLAR MAH.","zip":"06080"}]},{"name":"AYDINLIKEVLER","cityName":null,"quarters":null},{"name":"DIŞKAPI","cityName":null,"quarters":[{"name":"ZİRAAT MAH.","zip":"06110"}]},{"name":"HASKÖY","cityName":null,"quarters":[{"name":"ALTINPARK MAH.","zip":"06140"},{"name":"BAĞLARİÇİ MAH.","zip":"06140"},{"name":"BARAJ MAH.","zip":"06140"},{"name":"DOĞANTEPE MAH.","zip":"06140"},{"name":"DOĞU MAH.","zip":"06140"},{"name":"GÜLPINAR MAH.","zip":"06140"},{"name":"GÜNEŞEVLER MAH.","zip":"06140"},{"name":"YILDIZTEPE MAH.","zip":"06140"}]},{"name":"İSKİTLER","cityName":null,"quarters":null},{"name":"SAMANPAZARI","cityName":null,"quarters":[{"name":"KALE MAH.","zip":"06230"},{"name":"SAKARYA MAH.","zip":"06230"}]},{"name":"TELSİZLER","cityName":null,"quarters":null},{"name":"ULUBEY","cityName":null,"quarters":[{"name":"BATTALGAZİ MAH.","zip":"06360"},{"name":"BEŞİKKAYA MAH.","zip":"06360"},{"name":"ÇAMLIK MAH.","zip":"06360"},{"name":"FERİDUN ÇELİK MAH.","zip":"06360"},{"name":"KARAPÜRÇEK MAH.","zip":"06360"},{"name":"ÖNDER MAH.","zip":"06360"},{"name":"ULUBEY MAH.","zip":"06360"}]},{"name":"ULUS","cityName":null,"quarters":[{"name":"HACI BAYRAM MAH.","zip":"06050"}]},{"name":"AYAŞ","cityName":null,"quarters":[{"name":"BAŞAYAŞ MAH.","zip":"06710"},{"name":"BAŞBEREKET MAH.","zip":"06710"},{"name":"BAYAT MAH.","zip":"06710"},{"name":"BAYRAM MAH.","zip":"06710"},{"name":"CAMİATİK MAH.","zip":"06710"},{"name":"CUMA MAH.","zip":"06710"},{"name":"ÇİĞDEMCİ MAH.","zip":"06710"},{"name":"DERVİŞİMAM MAH.","zip":"06710"},{"name":"EMİNE TEVFİKA AYAŞLI MAH.","zip":"06710"},{"name":"EVCİ MAH.","zip":"06710"},{"name":"FERAHFAKİ MAH.","zip":"06710"},{"name":"FERUZ MAH.","zip":"06710"},{"name":"GENÇALİ MAH.","zip":"06710"},{"name":"GÖKÇEBAĞ MAH.","zip":"06710"},{"name":"GÖKLER MAH.","zip":"06710"},{"name":"HACIMEMİ MAH.","zip":"06710"},{"name":"HACIRECEP MAH.","zip":"06710"},{"name":"HACIVELİ MAH.","zip":"06710"},{"name":"HOCASİNAN MAH.","zip":"06710"},{"name":"ILICA MAH.","zip":"06710"},{"name":"İLHANKÖY MAH.","zip":"06710"},{"name":"MAHKEME MAH.","zip":"06710"},{"name":"OLTAN MAH.","zip":"06710"},{"name":"ORTABEREKET MAH.","zip":"06710"},{"name":"ÖMEROĞLU MAH.","zip":"06710"},{"name":"PINARYAKA MAH.","zip":"06710"},{"name":"ŞEYHMUHİTTİN MAH.","zip":"06710"},{"name":"TEKKE MAH.","zip":"06710"},{"name":"UĞURÇAYIRI MAH.","zip":"06710"},{"name":"ULUPINAR MAH.","zip":"06710"},{"name":"ULUYOL MAH.","zip":"06710"},{"name":"YAĞMURDEDE MAH.","zip":"06710"}]},{"name":"BALA","cityName":null,"quarters":[{"name":"AFŞAR MAH.","zip":"06720"},{"name":"AHMETÇAYIRI MAH.","zip":"06720"},{"name":"AKKOYUNLU MAH.","zip":"06720"},{"name":"AŞAĞIHACIBEKİR MAH.","zip":"06720"},{"name":"AŞIKOĞLU MAH.","zip":"06720"},{"name":"AYDOĞAN MAH.","zip":"06720"},{"name":"BAHÇEKARADALAK MAH.","zip":"06720"},{"name":"BEKTAŞLI MAH.","zip":"06720"},{"name":"BELÇARŞAK MAH.","zip":"06720"},{"name":"BEYNAM MAH.","zip":"06720"},{"name":"BÜYÜKBAYAT MAH.","zip":"06720"},{"name":"BÜYÜKBOYALIK MAH.","zip":"06720"},{"name":"BÜYÜKCAMİLİ MAH.","zip":"06720"},{"name":"ÇATALÇEŞME MAH.","zip":"06720"},{"name":"ÇATALÖREN MAH.","zip":"06720"},{"name":"ÇİĞDEMLİ MAH.","zip":"06720"},{"name":"DAVDANLI MAH.","zip":"06720"},{"name":"DEREKIŞLA MAH.","zip":"06720"},{"name":"EĞRİBASAN MAH.","zip":"06720"},{"name":"ERGİN MAH.","zip":"06720"},{"name":"GÖZTEPE MAH.","zip":"06720"},{"name":"GÜLBAĞI MAH.","zip":"06720"},{"name":"HAMİDİYE MAH.","zip":"06720"},{"name":"HANBURUN MAH.","zip":"06720"},{"name":"İSMETPAŞA MAH.","zip":"06720"},{"name":"KARAHAMZALI MAH.","zip":"06720"},{"name":"KARTALTEPE MAH.","zip":"06720"},{"name":"KERİŞLİ MAH.","zip":"06720"},{"name":"KESİKKÖPRÜ ERDEMLİ MAH.","zip":"06720"},{"name":"KESİKKÖPRÜ KIZILIRMAK MAH.","zip":"06720"},{"name":"KESİKKÖPRÜ MAH.","zip":"06720"},{"name":"KOÇYAYLA MAH.","zip":"06720"},{"name":"KÖSELİ MAH.","zip":"06720"},{"name":"KUYULAR MAH.","zip":"06720"},{"name":"KÜÇÜKBAYAT MAH.","zip":"06720"},{"name":"KÜÇÜKBIYIK MAH.","zip":"06720"},{"name":"KÜÇÜKBOYALIK MAH.","zip":"06720"},{"name":"KÜÇÜKCAMİLİ MAH.","zip":"06720"},{"name":"SARIHÜYÜK MAH.","zip":"06720"},{"name":"SIRAPINAR MAH.","zip":"06720"},{"name":"SOFULAR MAH.","zip":"06720"},{"name":"SUYUGÜZEL MAH.","zip":"06720"},{"name":"ŞEHRİBAN MAH.","zip":"06720"},{"name":"ŞENTEPE MAH.","zip":"06720"},{"name":"TATARHÜYÜK MAH.","zip":"06720"},{"name":"TEPEKÖY MAH.","zip":"06720"},{"name":"TOLKÖY MAH.","zip":"06720"},{"name":"ÜÇEM MAH.","zip":"06720"},{"name":"YAYLALIÖZÜ MAH.","zip":"06720"},{"name":"YENİKÖY MAH.","zip":"06720"},{"name":"YENİYAPANÇARŞAK MAH.","zip":"06720"},{"name":"YENİYAPANŞEYHLİ MAH.","zip":"06720"},{"name":"YÖRELİ MAH.","zip":"06720"},{"name":"YUKARIHACIBEKİR MAH.","zip":"06720"}]},{"name":"BEYPAZARI","cityName":null,"quarters":[{"name":"ADAÖREN MAH.","zip":"06730"},{"name":"AKÇAKAVAK MAH.","zip":"06730"},{"name":"AKÇALI MAH.","zip":"06730"},{"name":"AŞAĞIGÜNEY MAH.","zip":"06730"},{"name":"AYVAŞIK MAH.","zip":"06730"},{"name":"BAĞÖZÜ MAH.","zip":"06730"},{"name":"BAŞAĞAÇ MAH.","zip":"06730"},{"name":"BAŞÖREN MAH.","zip":"06730"},{"name":"BATÇA MAH.","zip":"06730"},{"name":"BEYTEPE MAH.","zip":"06730"},{"name":"BOYALI MAH.","zip":"06730"},{"name":"CUMHURİYET MAH.","zip":"06730"},{"name":"ÇAKILOBA MAH.","zip":"06730"},{"name":"ÇANTIRLI MAH.","zip":"06730"},{"name":"DAĞŞEYHLER MAH.","zip":"06730"},{"name":"DERELİ MAH.","zip":"06730"},{"name":"DİBECİK MAH.","zip":"06730"},{"name":"DİBEKÖREN MAH.","zip":"06730"},{"name":"DİKMEN MAH.","zip":"06730"},{"name":"DOĞANÇALI MAH.","zip":"06730"},{"name":"DOĞANYURT MAH.","zip":"06730"},{"name":"DUDAŞ MAH.","zip":"06730"},{"name":"FASIL MAH.","zip":"06730"},{"name":"GAZİPAŞA MAH.","zip":"06730"},{"name":"GEYİKPINARI MAH.","zip":"06730"},{"name":"GÜRSÖĞÜT MAH.","zip":"06730"},{"name":"HACIKARA MAH.","zip":"06730"},{"name":"HARMANCIK MAH.","zip":"06730"},{"name":"HAYDARLAR MAH.","zip":"06730"},{"name":"HIRKATEPE MAH.","zip":"06730"},{"name":"İNCEPELİT MAH.","zip":"06730"},{"name":"İSTİKLAL MAH.","zip":"06730"},{"name":"KABACA MAH.","zip":"06730"},{"name":"KABALAR MAH.","zip":"06730"},{"name":"KAPLAN MAH.","zip":"06730"},{"name":"KAPULLU MAH.","zip":"06730"},{"name":"KARACAÖREN MAH.","zip":"06730"},{"name":"KARAÖREN MAH.","zip":"06730"},{"name":"KARAŞAR MAH.","zip":"06730"},{"name":"KARGI MAH.","zip":"06730"},{"name":"KAYABÜKÜ MAH.","zip":"06730"},{"name":"KERBANLAR MAH.","zip":"06730"},{"name":"KIRBAŞI MAH.","zip":"06730"},{"name":"KIRŞEYHLER MAH.","zip":"06730"},{"name":"KIZILCASÖĞÜT MAH.","zip":"06730"},{"name":"KOZAĞAÇ MAH.","zip":"06730"},{"name":"KOZALAN MAH.","zip":"06730"},{"name":"KÖSELER MAH.","zip":"06730"},{"name":"KÖST MAH.","zip":"06730"},{"name":"KURTKOVAN MAH.","zip":"06730"},{"name":"KURTULUŞ MAH.","zip":"06730"},{"name":"KUYUCAK MAH.","zip":"06730"},{"name":"KUYUMCUTEKKE MAH.","zip":"06730"},{"name":"MACUN MAH.","zip":"06730"},{"name":"MAHMUTLAR MAH.","zip":"06730"},{"name":"MENÇELER MAH.","zip":"06730"},{"name":"MİKAİL MAH.","zip":"06730"},{"name":"NUHHOCA MAH.","zip":"06730"},{"name":"OYMAAĞAÇ MAH.","zip":"06730"},{"name":"RÜSTEMPAŞA MAH.","zip":"06730"},{"name":"SARAY MAH.","zip":"06730"},{"name":"SARIAĞIL MAH.","zip":"06730"},{"name":"SEKLİ MAH.","zip":"06730"},{"name":"SOPÇAALAN MAH.","zip":"06730"},{"name":"TACETTİN MAH.","zip":"06730"},{"name":"TAHİR MAH.","zip":"06730"},{"name":"URUŞ MAH.","zip":"06730"},{"name":"UŞAKGÖL MAH.","zip":"06730"},{"name":"ÜREĞİL MAH.","zip":"06730"},{"name":"YALNIZÇAM MAH.","zip":"06730"},{"name":"YEŞİLAĞAÇ MAH.","zip":"06730"},{"name":"YILDIZ MAH.","zip":"06730"},{"name":"YİĞERLER MAH.","zip":"06730"},{"name":"YOĞUNPELİT MAH.","zip":"06730"},{"name":"YUKARIGÜNEY MAH.","zip":"06730"},{"name":"YUKARIULUCAK MAH.","zip":"06730"},{"name":"ZAFER MAH.","zip":"06730"}]},{"name":"ÇAMLIDERE","cityName":null,"quarters":[{"name":"AKKAYA MAH.","zip":"06740"},{"name":"ALAKOÇ MAH.","zip":"06740"},{"name":"ATÇA MAH.","zip":"06740"},{"name":"AVDAN MAH.","zip":"06740"},{"name":"AVŞARLAR MAH.","zip":"06740"},{"name":"BARDAKÇILAR MAH.","zip":"06740"},{"name":"BAYINDIR MAH.","zip":"06740"},{"name":"BEŞBEYLER MAH.","zip":"06740"},{"name":"BEYLER MAH.","zip":"06740"},{"name":"BUĞRALAR MAH.","zip":"06740"},{"name":"BÜKELER MAH.","zip":"06740"},{"name":"ÇAMKÖY MAH.","zip":"06740"},{"name":"ÇUKURÖREN MAH.","zip":"06740"},{"name":"DAĞKUZÖREN MAH.","zip":"06740"},{"name":"DOĞANCI MAH.","zip":"06740"},{"name":"DOĞANLAR MAH.","zip":"06740"},{"name":"DOYMUŞ MAH.","zip":"06740"},{"name":"DÖRTKONAK MAH.","zip":"06740"},{"name":"ELDELEK MAH.","zip":"06740"},{"name":"ELMALI MAH.","zip":"06740"},{"name":"ELÖREN MAH.","zip":"06740"},{"name":"ELVANLAR MAH.","zip":"06740"},{"name":"GÜMELE MAH.","zip":"06740"},{"name":"GÜNEY MAH.","zip":"06740"},{"name":"İNCEÖZ MAH.","zip":"06740"},{"name":"KAYABAŞI MAH.","zip":"06740"},{"name":"KÖRLER MAH.","zip":"06740"},{"name":"KUŞÇULAR MAH.","zip":"06740"},{"name":"KUYUBAŞI MAH.","zip":"06740"},{"name":"MEŞELER MAH.","zip":"06740"},{"name":"MUZRUPAĞACIN MAH.","zip":"06740"},{"name":"MÜSELLİM MAH.","zip":"06740"},{"name":"ORTA MAH.","zip":"06740"},{"name":"OSMANSİN MAH.","zip":"06740"},{"name":"ÖMERAĞA MAH.","zip":"06740"},{"name":"ÖRENKÖY MAH.","zip":"06740"},{"name":"ÖZMÜŞ MAH.","zip":"06740"},{"name":"PEÇENEK MAH.","zip":"06740"},{"name":"PELİTÇİK MAH.","zip":"06740"},{"name":"SARIKAVAK MAH.","zip":"06740"},{"name":"TATLAK MAH.","zip":"06740"},{"name":"YAHŞİHAN MAH.","zip":"06740"},{"name":"YAHYALAR MAH.","zip":"06740"},{"name":"YAYALAR MAH.","zip":"06740"},{"name":"YEDİÖREN MAH.","zip":"06740"},{"name":"YILANLI MAH.","zip":"06740"},{"name":"YONCATEPE MAH.","zip":"06740"}]},{"name":"100.YIL","cityName":null,"quarters":[{"name":"ÇUKURAMBAR MAH.","zip":"06530"},{"name":"İŞÇİ BLOKLARI MAH.","zip":"06530"},{"name":"KIZILIRMAK MAH.","zip":"06530"},{"name":"MUSTAFA KEMAL MAH.","zip":"06530"},{"name":"SÖĞÜTÖZÜ MAH.","zip":"06530"}]},{"name":"AHLATLIBEL","cityName":null,"quarters":null},{"name":"BAHÇELİEVLER","cityName":null,"quarters":[{"name":"EMEK MAH.","zip":"06490"},{"name":"YUKARI BAHÇELİEVLER MAH.","zip":"06490"}]},{"name":"BALGAT","cityName":null,"quarters":[{"name":"CEVİZLİDERE MAH.","zip":"06520"},{"name":"EHLİBEYT MAH.","zip":"06520"},{"name":"NASUH AKAR MAH.","zip":"06520"},{"name":"OĞUZLAR MAH.","zip":"06520"}]},{"name":"BİLKENT","cityName":null,"quarters":[{"name":"MUTLUKENT MAH.","zip":"06800"},{"name":"ÜNİVERSİTELER MAH.","zip":"06800"}]},{"name":"BİRLİK","cityName":null,"quarters":[{"name":"KIRKKONAKLAR MAH.","zip":"06610"}]},{"name":"CEBECİ","cityName":null,"quarters":[{"name":"ARKA TOPRAKLIK MAH.","zip":"06590"},{"name":"CEBECİ MAH.","zip":"06590"},{"name":"ÇAMLITEPE MAH.","zip":"06590"},{"name":"DİLEKLER MAH.","zip":"06590"},{"name":"ERTUĞRULGAZİ MAH.","zip":"06590"},{"name":"ERZURUM MAH.","zip":"06590"},{"name":"FAKÜLTELER MAH.","zip":"06590"},{"name":"İLERİ MAH.","zip":"06590"},{"name":"İNCESU MAH.","zip":"06590"},{"name":"ÖN CEBECİ MAH.","zip":"06590"},{"name":"TOPRAKLIK MAH.","zip":"06590"}]},{"name":"ÇANKAYA","cityName":null,"quarters":[{"name":"AZİZİYE MAH.","zip":"06690"},{"name":"ÇANKAYA MAH.","zip":"06690"},{"name":"GÜVENEVLER MAH.","zip":"06690"},{"name":"GÜZELTEPE MAH.","zip":"06690"}]},{"name":"ÇAYYOLU","cityName":null,"quarters":[{"name":"ÇAYYOLU MAH.","zip":"06810"},{"name":"DODURGA MAH.","zip":"06810"},{"name":"KONUTKENT MAH.","zip":"06810"},{"name":"KORU MAH.","zip":"06810"},{"name":"PROF. DR. AHMET TANER KIŞLALI MAH.","zip":"06810"},{"name":"ÜMİT MAH.","zip":"06810"},{"name":"YAŞAMKENT MAH.","zip":"06810"}]},{"name":"DİKMEN","cityName":null,"quarters":[{"name":"GÖKKUŞAĞI MAH.","zip":"06450"},{"name":"İLKADIM MAH.","zip":"06450"},{"name":"İLKER MAH.","zip":"06450"},{"name":"KARAPINAR MAH.","zip":"06450"},{"name":"KEKLİK PINARI MAH.","zip":"06450"},{"name":"MALAZGİRT MAH.","zip":"06450"},{"name":"METİN AKKUŞ MAH.","zip":"06450"},{"name":"MÜRSEL ULUÇ MAH.","zip":"06450"},{"name":"NACİ ÇAKIR MAH.","zip":"06450"},{"name":"OSMAN TEMİZ MAH.","zip":"06450"}]},{"name":"ESAT","cityName":null,"quarters":[{"name":"ESATOĞLU MAH.","zip":"06660"},{"name":"KÜÇÜKESAT MAH.","zip":"06660"},{"name":"MUHSİN ERTUĞRUL MAH.","zip":"06660"},{"name":"SEYRANBAĞLARI MAH.","zip":"06660"},{"name":"TINAZTEPE MAH.","zip":"06660"}]},{"name":"KARATAŞ","cityName":null,"quarters":[{"name":"AŞAĞI İMRAHOR MAH.","zip":"06705"},{"name":"ÇAVUŞLU MAH.","zip":"06705"},{"name":"EVCİLER MAH.","zip":"06705"},{"name":"KARAHASANLI MAH.","zip":"06705"},{"name":"KARATAŞ MAH.","zip":"06705"},{"name":"KÖMÜRCÜ MAH.","zip":"06705"},{"name":"ORTA İMRAHOR MAH.","zip":"06705"},{"name":"TOHUMLAR MAH.","zip":"06705"},{"name":"YAKUPABDAL MAH.","zip":"06705"},{"name":"YAYLA MAH.","zip":"06705"},{"name":"YEŞİLKENT MAH.","zip":"06705"}]},{"name":"KAVAKLIDERE","cityName":null,"quarters":[{"name":"BARBAROS MAH.","zip":"06680"},{"name":"BÜYÜKESAT MAH.","zip":"06680"},{"name":"GAZİOSMANPAŞA MAH.","zip":"06680"},{"name":"KAVAKLIDERE MAH.","zip":"06680"},{"name":"KAZIM ÖZALP MAH.","zip":"06680"},{"name":"REMZİ OĞUZ ARIK MAH.","zip":"06680"}]},{"name":"MALTEPE","cityName":null,"quarters":[{"name":"ETİ MAH.","zip":"06570"},{"name":"MALTEPE MAH.","zip":"06570"},{"name":"MEBUSEVLERİ MAH.","zip":"06570"},{"name":"YÜCETEPE MAH.","zip":"06570"}]},{"name":"ÖVEÇLER","cityName":null,"quarters":[{"name":"ATA MAH.","zip":"06460"},{"name":"AYDINLAR MAH.","zip":"06460"},{"name":"HARBİYE MAH.","zip":"06460"},{"name":"HUZUR MAH.","zip":"06460"},{"name":"ÖVEÇLER MAH.","zip":"06460"},{"name":"SOKULLU MEHMET PAŞA MAH.","zip":"06460"},{"name":"ŞEHİT CENGİZ KARACA MAH.","zip":"06460"},{"name":"ŞEHİT CEVDET ÖZDEMİR MAH.","zip":"06460"},{"name":"YUKARI ÖVEÇLER MAH.","zip":"06460"}]},{"name":"YENİŞEHİR","cityName":null,"quarters":[{"name":"DEVLET MAH.","zip":"06420"},{"name":"FİDANLIK MAH.","zip":"06420"},{"name":"KIZILAY MAH.","zip":"06420"},{"name":"KOCATEPE MAH.","zip":"06420"},{"name":"KORKUTREİS MAH.","zip":"06420"},{"name":"KÜLTÜR MAH.","zip":"06420"},{"name":"MEŞRUTİYET MAH.","zip":"06420"},{"name":"NAMIK KEMAL MAH.","zip":"06420"},{"name":"SAĞLIK MAH.","zip":"06420"}]},{"name":"YILDIZ","cityName":null,"quarters":[{"name":"HİLAL MAH.","zip":"06550"},{"name":"İLKBAHAR MAH.","zip":"06550"},{"name":"ORAN MAH.","zip":"06550"},{"name":"SANCAK MAH.","zip":"06550"},{"name":"YILDIZEVLER MAH.","zip":"06550"},{"name":"YUKARI DİKMEN MAH.","zip":"06550"}]},{"name":"ZAFERTEPE","cityName":null,"quarters":[{"name":"BADEMLİDERE MAH.","zip":"06670"},{"name":"BAĞCILAR MAH.","zip":"06670"},{"name":"BAYRAKTAR MAH.","zip":"06670"},{"name":"BOZTEPE MAH.","zip":"06670"},{"name":"GÖKTÜRK MAH.","zip":"06670"},{"name":"METİN OKTAY MAH.","zip":"06670"},{"name":"MİMAR SİNAN MAH.","zip":"06670"},{"name":"MURAT MAH.","zip":"06670"},{"name":"UMUT MAH.","zip":"06670"},{"name":"ZAFERTEPE MAH.","zip":"06670"}]},{"name":"ÇUBUK","cityName":null,"quarters":[{"name":"AKBAYIR MAH.","zip":"06760"},{"name":"AKKUZULU MAH.","zip":"06760"},{"name":"AŞAĞIÇAVUNDUR MAH.","zip":"06760"},{"name":"AŞAĞIEMİRLER MAH.","zip":"06760"},{"name":"AŞAĞIOBRUK MAH.","zip":"06760"},{"name":"ATATÜRK MAH.","zip":"06760"},{"name":"AVCIOVA MAH.","zip":"06760"},{"name":"BARBAROS MAH.","zip":"06760"},{"name":"CAMİLİ MAH.","zip":"06760"},{"name":"CUMHURİYET MAH.","zip":"06760"},{"name":"ÇATOKCULAR MAH.","zip":"06760"},{"name":"ÇİTKÖY MAH.","zip":"06760"},{"name":"DAĞKALAFAT MAH.","zip":"06760"},{"name":"DALYASAN MAH.","zip":"06760"},{"name":"DEDELER MAH.","zip":"06760"},{"name":"DEMİRCİ MAH.","zip":"06760"},{"name":"DUMLUPINAR MAH.","zip":"06760"},{"name":"DURHASAN MAH.","zip":"06760"},{"name":"EĞRİEKİN MAH.","zip":"06760"},{"name":"ESENBOĞA MERKEZ MAH.","zip":"06760"},{"name":"ESKİÇÖTE MAH.","zip":"06760"},{"name":"FATİH MAH.","zip":"06760"},{"name":"GÖKÇEDERE MAH.","zip":"06760"},{"name":"GÜLDARPI MAH.","zip":"06760"},{"name":"GÜMÜŞYAYLA MAH.","zip":"06760"},{"name":"HACILAR MAH.","zip":"06760"},{"name":"İKİPINAR MAH.","zip":"06760"},{"name":"İMAMHÜSEYİN MAH.","zip":"06760"},{"name":"KAPAKLI MAH.","zip":"06760"},{"name":"KARAAĞAÇ MAH.","zip":"06760"},{"name":"KARAÇAM MAH.","zip":"06760"},{"name":"KARADANA MAH.","zip":"06760"},{"name":"KARAMAN MAH.","zip":"06760"},{"name":"KARATAŞ MAH.","zip":"06760"},{"name":"KARGIN MAH.","zip":"06760"},{"name":"KAVAKLI MAH.","zip":"06760"},{"name":"KIŞLACIK MAH.","zip":"06760"},{"name":"KIZILCA MAH.","zip":"06760"},{"name":"KIZILÖREN MAH.","zip":"06760"},{"name":"KIZILÖZ MAH.","zip":"06760"},{"name":"KÖSRELİK MAH.","zip":"06760"},{"name":"KURUÇAY MAH.","zip":"06760"},{"name":"KUTUÖREN MAH.","zip":"06760"},{"name":"KUYUMCU MAH.","zip":"06760"},{"name":"KÜÇÜKALİ MAH.","zip":"06760"},{"name":"MAHMUTOĞLAN MAH.","zip":"06760"},{"name":"MELİKŞAH MAH.","zip":"06760"},{"name":"MEŞELİ MAH.","zip":"06760"},{"name":"MUHSİN YAZICIOĞLU MAH.","zip":"06760"},{"name":"MUTLU MAH.","zip":"06760"},{"name":"NUSRATLAR MAH.","zip":"06760"},{"name":"OKÇULAR MAH.","zip":"06760"},{"name":"OVACIK MAH.","zip":"06760"},{"name":"OYUMİĞDE MAH.","zip":"06760"},{"name":"ÖMERCİK MAH.","zip":"06760"},{"name":"ÖZLÜCE MAH.","zip":"06760"},{"name":"SARAYCIK MAH.","zip":"06760"},{"name":"SARIKOZ MAH.","zip":"06760"},{"name":"SARISU MAH.","zip":"06760"},{"name":"SELE MAH.","zip":"06760"},{"name":"SIĞIRLIHACI MAH.","zip":"06760"},{"name":"SUSUZ MAH.","zip":"06760"},{"name":"SÜNLÜ MAH.","zip":"06760"},{"name":"TAHTAYAZI MAH.","zip":"06760"},{"name":"TAŞPINAR MAH.","zip":"06760"},{"name":"TUĞLA MAH.","zip":"06760"},{"name":"ULUAĞAÇ MAH.","zip":"06760"},{"name":"YAKUPHASAN MAH.","zip":"06760"},{"name":"YAVUZSELİM MAH.","zip":"06760"},{"name":"YAYLAK MAH.","zip":"06760"},{"name":"YAZIR MAH.","zip":"06760"},{"name":"YAZLICA MAH.","zip":"06760"},{"name":"YENİCE MAH.","zip":"06760"},{"name":"YEŞİLKENT MAH.","zip":"06760"},{"name":"YILDIRIM BEYAZIT MAH.","zip":"06760"},{"name":"YILDIRIMAYDOĞAN MAH.","zip":"06760"},{"name":"YILDIRIMELÖREN MAH.","zip":"06760"},{"name":"YILDIRIMEVCİ MAH.","zip":"06760"},{"name":"YILMAZKÖY MAH.","zip":"06760"},{"name":"YİĞİTLİ MAH.","zip":"06760"},{"name":"YUKARI ÇAVUNDUR MAH.","zip":"06760"},{"name":"YUKARIEMİRLER MAH.","zip":"06760"},{"name":"YUKARIOBRUK MAH.","zip":"06760"}]},{"name":"ELMADAĞ","cityName":null,"quarters":[{"name":"AŞAĞIKAMIŞLI MAH.","zip":"06780"},{"name":"DELİLER MAH.","zip":"06780"},{"name":"EDİĞE MAH.","zip":"06780"},{"name":"GÜMÜŞPALA MAH.","zip":"06780"},{"name":"İSMETPAŞA MAH.","zip":"06780"},{"name":"KARACAHASAN MAH.","zip":"06780"},{"name":"KAYADİBİ MAH.","zip":"06780"},{"name":"KEMALPAŞA MAH.","zip":"06780"},{"name":"KURTULUŞ MAH.","zip":"06780"},{"name":"KUŞÇUALİ MAH.","zip":"06780"},{"name":"LALABEL MAH.","zip":"06780"},{"name":"SEYİTCEMALİ MAH.","zip":"06780"},{"name":"SÜLEYMANLI MAH.","zip":"06780"},{"name":"TABURLAR MAH.","zip":"06780"},{"name":"TATLICA MAH.","zip":"06780"},{"name":"TEKKE MAH.","zip":"06780"},{"name":"ÜÇEVLER MAH.","zip":"06780"},{"name":"YENİCE MAH.","zip":"06780"},{"name":"YENİDOĞAN MAH.","zip":"06780"},{"name":"YENİMAHALLE MAH.","zip":"06780"},{"name":"YENİPINAR MAH.","zip":"06780"},{"name":"YEŞİLDERE FATİH MAH.","zip":"06780"},{"name":"YUKARIKAMIŞLI MAH.","zip":"06780"}]},{"name":"HASANOĞLAN","cityName":null,"quarters":[{"name":"HASANOĞLAN FATİH MAH.","zip":"06850"},{"name":"HASANOĞLAN HAVUZBAŞI MAH.","zip":"06850"},{"name":"İSTASYON MAH.","zip":"06850"},{"name":"MUZAFFER EKŞİ MAH.","zip":"06850"},{"name":"ŞEHİTLİK MAH.","zip":"06850"}]},{"name":"30AĞUSTOS","cityName":null,"quarters":[{"name":"AHİ MESUT MAH.","zip":"06794"},{"name":"ELVAN MAH.","zip":"06794"},{"name":"KAZIM KARABEKİR MAH.","zip":"06794"},{"name":"PİYADE MAH.","zip":"06794"},{"name":"SÜVARİ MAH.","zip":"06794"}]},{"name":"BAHÇEKAPI","cityName":null,"quarters":null},{"name":"ELVANKENT","cityName":null,"quarters":[{"name":"AYYILDIZ MAH.","zip":"06796"},{"name":"ETİLER MAH.","zip":"06796"},{"name":"OĞUZLAR MAH.","zip":"06796"},{"name":"TOPÇU MAH.","zip":"06796"},{"name":"YEŞİLOVA MAH.","zip":"06796"}]},{"name":"ERYAMANEVLERİ","cityName":null,"quarters":[{"name":"ŞEYH ŞAMİL MAH.","zip":"06824"},{"name":"TUNAHAN MAH.","zip":"06824"}]},{"name":"ETİMESGUT","cityName":null,"quarters":[{"name":"BAĞLICA MAH.","zip":"06790"},{"name":"ERLER MAH.","zip":"06790"},{"name":"FATİH SULTAN MAH.","zip":"06790"},{"name":"İSTASYON MAH.","zip":"06790"},{"name":"YAPRACIK MAH.","zip":"06790"}]},{"name":"GÖKSU","cityName":null,"quarters":[{"name":"GÖKSU MAH.","zip":"06820"},{"name":"ŞEHİT OSMAN AVCI MAH.","zip":"06820"},{"name":"ŞEKER MAH.","zip":"06820"}]},{"name":"GÜZELKENT","cityName":null,"quarters":[{"name":"YAVUZ SELİM MAH.","zip":"06827"}]},{"name":"YURTÇU","cityName":null,"quarters":[{"name":"BALIKUYUMCU MAH.","zip":"06815"},{"name":"FEVZİYE MAH.","zip":"06815"},{"name":"ŞEHİTALİ MAH.","zip":"06815"},{"name":"YUKARIYURTÇU MAH.","zip":"06815"}]},{"name":"EVREN","cityName":null,"quarters":[{"name":"CEBİRLİ MAH.","zip":"06770"},{"name":"ÇATALPINAR MAH.","zip":"06770"},{"name":"DEMİRAYAK MAH.","zip":"06770"},{"name":"ESENTEPE MAH.","zip":"06770"},{"name":"ESKİTORUNOBASI MAH.","zip":"06770"},{"name":"İBRAHİMBEYLİ MAH.","zip":"06770"},{"name":"İNEBEYLİ MAH.","zip":"06770"},{"name":"MODERN MAH.","zip":"06770"},{"name":"SOLAKUŞAĞI MAH.","zip":"06770"},{"name":"ŞERAFETTİN YILMAZ MAH.","zip":"06770"},{"name":"YENİ MAH.","zip":"06770"},{"name":"YUSUFUŞAĞI MAH.","zip":"06770"}]},{"name":"GÖLBAŞI","cityName":null,"quarters":[{"name":"AKÖRENÇARŞAK MAH.","zip":"06830"},{"name":"ALTUNÇANAK MAH.","zip":"06830"},{"name":"BAĞİÇİ MAH.","zip":"06830"},{"name":"BAHÇELİEVLER MAH.","zip":"06830"},{"name":"BALLIKPINAR MAH.","zip":"06830"},{"name":"BEZİRHANE MAH.","zip":"06830"},{"name":"BOYALIK MAH.","zip":"06830"},{"name":"ÇAYIRLI MAH.","zip":"06830"},{"name":"ÇELTEK MAH.","zip":"06830"},{"name":"ÇİMŞİT MAH.","zip":"06830"},{"name":"DİKİLİTAŞ MAH.","zip":"06830"},{"name":"EMİRLER MAH.","zip":"06830"},{"name":"EYMİR MAH.","zip":"06830"},{"name":"GAZİOSMANPAŞA MAH.","zip":"06830"},{"name":"GÖKÇEHÜYÜK MAH.","zip":"06830"},{"name":"GÖLBEK MAH.","zip":"06830"},{"name":"GÜNALAN MAH.","zip":"06830"},{"name":"HACIHASAN MAH.","zip":"06830"},{"name":"HACILAR MAH.","zip":"06830"},{"name":"HACIMURATLI MAH.","zip":"06830"},{"name":"HALAÇLI MAH.","zip":"06830"},{"name":"İKİZCE MAH.","zip":"06830"},{"name":"İNCEK MAH.","zip":"06830"},{"name":"KARAALİ MERKEZ MAH.","zip":"06830"},{"name":"KARAALİ YAZLIK MAH.","zip":"06830"},{"name":"KARACAÖREN MAH.","zip":"06830"},{"name":"KARAGEDİK AYDIN MAH.","zip":"06830"},{"name":"KARAGEDİK ERCAN MAH.","zip":"06830"},{"name":"KARAOĞLAN MAH.","zip":"06830"},{"name":"KARŞIYAKA MAH.","zip":"06830"},{"name":"KIRIKLI MAH.","zip":"06830"},{"name":"KIZILCAŞAR MAH.","zip":"06830"},{"name":"KOPARAN MAH.","zip":"06830"},{"name":"MAHMATLI MAH.","zip":"06830"},{"name":"MAHMATLIBAHÇE MAH.","zip":"06830"},{"name":"OĞULBEY MAH.","zip":"06830"},{"name":"OYACA AKARSU MAH.","zip":"06830"},{"name":"OYACA YEŞİLÇAM MAH.","zip":"06830"},{"name":"ÖRENCİK MAH.","zip":"06830"},{"name":"SEĞMENLER MAH.","zip":"06830"},{"name":"SELAMETLİ ŞEHİT EMRAH MAH.","zip":"06830"},{"name":"SOĞULCAK MAH.","zip":"06830"},{"name":"SUBAŞI MAH.","zip":"06830"},{"name":"ŞAFAK MAH.","zip":"06830"},{"name":"TAŞPINAR MAH.","zip":"06830"},{"name":"TEPEYURT MAH.","zip":"06830"},{"name":"TOPAKLI MAH.","zip":"06830"},{"name":"TULUMTAŞ MAH.","zip":"06830"},{"name":"VELİHİMMETLİ MAH.","zip":"06830"},{"name":"YAĞLIPINAR MAH.","zip":"06830"},{"name":"YAVRUCUK MAH.","zip":"06830"},{"name":"YAYLABAĞ MAH.","zip":"06830"},{"name":"YURTBEYİ MAH.","zip":"06830"}]},{"name":"GÜDÜL","cityName":null,"quarters":[{"name":"AFŞAR MAH.","zip":"06840"},{"name":"AKBAŞ MAH.","zip":"06840"},{"name":"AKÇAKESE MAH.","zip":"06840"},{"name":"AŞAĞI MAH.","zip":"06840"},{"name":"BOYALI MAH.","zip":"06840"},{"name":"ÇAĞA MAH.","zip":"06840"},{"name":"ÇUKURÖREN MAH.","zip":"06840"},{"name":"EMİRLER MAH.","zip":"06840"},{"name":"GARİPÇE MAH.","zip":"06840"},{"name":"GÜNEYCE MAH.","zip":"06840"},{"name":"GÜZEL MAH.","zip":"06840"},{"name":"HACILAR MAH.","zip":"06840"},{"name":"KADIOBASI MAH.","zip":"06840"},{"name":"KAMANLAR MAH.","zip":"06840"},{"name":"KARACAÖREN MAH.","zip":"06840"},{"name":"KAVAKÖZÜ MAH.","zip":"06840"},{"name":"KAYI MAH.","zip":"06840"},{"name":"KIRKKAVAK MAH.","zip":"06840"},{"name":"MEYVABÜKÜ MAH.","zip":"06840"},{"name":"ÖZÇALTI MAH.","zip":"06840"},{"name":"ÖZKÖY MAH.","zip":"06840"},{"name":"SALİHLER MAH.","zip":"06840"},{"name":"SAPANLI MAH.","zip":"06840"},{"name":"SORGUN MAH.","zip":"06840"},{"name":"TAHTACIÖRENCİK MAH.","zip":"06840"},{"name":"TAŞÖREN MAH.","zip":"06840"},{"name":"YELLİ MAH.","zip":"06840"},{"name":"YENİ MAH.","zip":"06840"},{"name":"YEŞİLÖZ MAH.","zip":"06840"},{"name":"YUKARI MAH.","zip":"06840"}]},{"name":"HAYMANA","cityName":null,"quarters":[{"name":"ALAÇIK MAH.","zip":"06860"},{"name":"ALAHACILI MAH.","zip":"06860"},{"name":"ALTIPINAR MAH.","zip":"06860"},{"name":"ATAKÖY MAH.","zip":"06860"},{"name":"BAHÇECİK MAH.","zip":"06860"},{"name":"BALÇIKHİSAR MAH.","zip":"06860"},{"name":"BALTALİN MAH.","zip":"06860"},{"name":"BOĞAZKAYA MAH.","zip":"06860"},{"name":"BOSTANHÜYÜK MAH.","zip":"06860"},{"name":"BUMSUZ MAH.","zip":"06860"},{"name":"BÜYÜKKONAK MAH.","zip":"06860"},{"name":"BÜYÜKYAĞCI MAH.","zip":"06860"},{"name":"CİHANŞAH MAH.","zip":"06860"},{"name":"CİNGİRLİ MAH.","zip":"06860"},{"name":"CULUK MAH.","zip":"06860"},{"name":"ÇALDAĞ MAH.","zip":"06860"},{"name":"ÇALIŞ MAH.","zip":"06860"},{"name":"ÇATAK MAH.","zip":"06860"},{"name":"ÇAYRAZ MAH.","zip":"06860"},{"name":"ÇELTİKLİ MAH.","zip":"06860"},{"name":"DEMİRÖZÜ MAH.","zip":"06860"},{"name":"DEREKÖY MAH.","zip":"06860"},{"name":"DEVECİ MAH.","zip":"06860"},{"name":"DEVECİPINARI MAH.","zip":"06860"},{"name":"DURUPINAR MAH.","zip":"06860"},{"name":"DURUTLAR MAH.","zip":"06860"},{"name":"EMİRLER MAH.","zip":"06860"},{"name":"ESEN MAH.","zip":"06860"},{"name":"ESKİKIŞLA MAH.","zip":"06860"},{"name":"EVCİ MAH.","zip":"06860"},{"name":"EVLİYAFAKI MAH.","zip":"06860"},{"name":"GEDİK MAH.","zip":"06860"},{"name":"GÜLTEPE MAH.","zip":"06860"},{"name":"GÜZELCEKALE MAH.","zip":"06860"},{"name":"İNCİRLİ MAH.","zip":"06860"},{"name":"KADIKÖY MAH.","zip":"06860"},{"name":"KARAHOCA MAH.","zip":"06860"},{"name":"KARAÖMERLİ MAH.","zip":"06860"},{"name":"KARAPINAR MAH.","zip":"06860"},{"name":"KARASÜLEYMANLI MAH.","zip":"06860"},{"name":"KATRANCI MAH.","zip":"06860"},{"name":"KAVAK MAH.","zip":"06860"},{"name":"KAYABAŞI MAH.","zip":"06860"},{"name":"KERPİÇ MAH.","zip":"06860"},{"name":"KESİKKAVAK MAH.","zip":"06860"},{"name":"KIZILKOYUNLU MAH.","zip":"06860"},{"name":"KİRAZOĞLU MAH.","zip":"06860"},{"name":"KUTLUHAN MAH.","zip":"06860"},{"name":"KÜÇÜKKONAK MAH.","zip":"06860"},{"name":"KÜÇÜKYAĞCI MAH.","zip":"06860"},{"name":"MEDRESE MAH.","zip":"06860"},{"name":"SAATLİ MAH.","zip":"06860"},{"name":"SARIDEĞİRMEN MAH.","zip":"06860"},{"name":"SARIGÖL MAH.","zip":"06860"},{"name":"SAZAĞASI MAH.","zip":"06860"},{"name":"SERİNYAYLA MAH.","zip":"06860"},{"name":"SEYRAN MAH.","zip":"06860"},{"name":"SIRÇASARAY MAH.","zip":"06860"},{"name":"SİNANLI MAH.","zip":"06860"},{"name":"SİNDİREN MAH.","zip":"06860"},{"name":"SOĞULCA MAH.","zip":"06860"},{"name":"SÖĞÜTTEPE MAH.","zip":"06860"},{"name":"ŞEREFLİGÖKGÖZ MAH.","zip":"06860"},{"name":"TABAKLI MAH.","zip":"06860"},{"name":"TEPEKÖY MAH.","zip":"06860"},{"name":"TOYÇAYIRI MAH.","zip":"06860"},{"name":"TÜRKHÜYÜK MAH.","zip":"06860"},{"name":"TÜRKŞEREFLİ MAH.","zip":"06860"},{"name":"YAMAK MAH.","zip":"06860"},{"name":"YAPRAKBAYIRI MAH.","zip":"06860"},{"name":"YAYLABEYİ MAH.","zip":"06860"},{"name":"YENİ MAH.","zip":"06860"},{"name":"YENİKÖY MAH.","zip":"06860"},{"name":"YERGÖMÜ MAH.","zip":"06860"},{"name":"YEŞİLKÖY MAH.","zip":"06860"},{"name":"YUKARISEBİL MAH.","zip":"06860"},{"name":"YURTBEYLİ MAH.","zip":"06860"}]},{"name":"KAZAN","cityName":null,"quarters":[{"name":"AKÇAÖREN MAH.","zip":"06980"},{"name":"AKINCI MAH.","zip":"06980"},{"name":"ALPAGUT MAH.","zip":"06980"},{"name":"AŞAĞIKARAÖREN MAH.","zip":"06980"},{"name":"ATATÜRK MAH.","zip":"06980"},{"name":"AYDIN MAH.","zip":"06980"},{"name":"BİTİK MAH.","zip":"06980"},{"name":"CİĞİR MAH.","zip":"06980"},{"name":"ÇALTA MAH.","zip":"06980"},{"name":"ÇİMŞİT MAH.","zip":"06980"},{"name":"DAĞYAKA MAH.","zip":"06980"},{"name":"DUTÖZÜ MAH.","zip":"06980"},{"name":"EMİRGAZİ MAH.","zip":"06980"},{"name":"FATİH MAH.","zip":"06980"},{"name":"FETHİYE MAH.","zip":"06980"},{"name":"GÜNBAŞI MAH.","zip":"06980"},{"name":"GÜVENÇ MAH.","zip":"06980"},{"name":"İÇÖREN MAH.","zip":"06980"},{"name":"İMRENDİ MAH.","zip":"06980"},{"name":"İNCEĞİZ MAH.","zip":"06980"},{"name":"İNE MAH.","zip":"06980"},{"name":"İYMİR MAH.","zip":"06980"},{"name":"KANUNİ SULTAN SÜLEYMAN MAH.","zip":"06980"},{"name":"KARALAR MAH.","zip":"06980"},{"name":"KAYI MAH.","zip":"06980"},{"name":"KILIÇLAR MAH.","zip":"06980"},{"name":"KINIK MAH.","zip":"06980"},{"name":"KIŞLA MAH.","zip":"06980"},{"name":"KUMPINAR MAH.","zip":"06980"},{"name":"ORHANİYE MAH.","zip":"06980"},{"name":"ÖRENCİK MAH.","zip":"06980"},{"name":"PEÇENEK MAH.","zip":"06980"},{"name":"SANCAR MAH.","zip":"06980"},{"name":"SARAÇ MAH.","zip":"06980"},{"name":"SARAY MAH.","zip":"06980"},{"name":"SARIAYAK MAH.","zip":"06980"},{"name":"SARILAR MAH.","zip":"06980"},{"name":"SATIKADIN MAH.","zip":"06980"},{"name":"SOĞUCAK MAH.","zip":"06980"},{"name":"TEKKE MAH.","zip":"06980"},{"name":"UÇARI MAH.","zip":"06980"},{"name":"YAKUPDERVİŞ MAH.","zip":"06980"},{"name":"YASSIÖREN MAH.","zip":"06980"},{"name":"YAVUZ SULTAN SELİM MAH.","zip":"06980"},{"name":"YAYALAR MAH.","zip":"06980"},{"name":"YAZIBEYLİ MAH.","zip":"06980"},{"name":"YILDIRIMBEYAZIT MAH.","zip":"06980"}]},{"name":"KALECİK","cityName":null,"quarters":[{"name":"AHİKEMALŞENYURT MAH.","zip":"06870"},{"name":"AHİLER YENİCE MAH.","zip":"06870"},{"name":"AKCATAŞ MAH.","zip":"06870"},{"name":"AKKAYNAK MAH.","zip":"06870"},{"name":"AKKUZULU MAH.","zip":"06870"},{"name":"AKTEPE MAH.","zip":"06870"},{"name":"ALİBEYLİ MAH.","zip":"06870"},{"name":"ALTINTAŞ MAH.","zip":"06870"},{"name":"ARKBÜRK MAH.","zip":"06870"},{"name":"BEYKAVAĞI MAH.","zip":"06870"},{"name":"BUĞRA MAH.","zip":"06870"},{"name":"CUMA SARAY MAH.","zip":"06870"},{"name":"ÇANDIR MAH.","zip":"06870"},{"name":"ÇANŞA KALE MAH.","zip":"06870"},{"name":"ÇAYKAYA MAH.","zip":"06870"},{"name":"ÇİFTLİKKÖY MAH.","zip":"06870"},{"name":"DAĞDEMİR MAH.","zip":"06870"},{"name":"DEĞİRMENKAYA MAH.","zip":"06870"},{"name":"DEMİRTAŞ MAH.","zip":"06870"},{"name":"ELMAPINAR MAH.","zip":"06870"},{"name":"ESKİKÖY MAH.","zip":"06870"},{"name":"EŞMEDERE MAH.","zip":"06870"},{"name":"GÖKÇEÖREN MAH.","zip":"06870"},{"name":"GÖKDERE MAH.","zip":"06870"},{"name":"GÖLKÖY MAH.","zip":"06870"},{"name":"GÜMÜŞPINAR MAH.","zip":"06870"},{"name":"HACIKÖY MAH.","zip":"06870"},{"name":"HALİLAĞA TABAKHANE MAH.","zip":"06870"},{"name":"HALİTCEVRİASLANGİL MAH.","zip":"06870"},{"name":"HANÇILI MAH.","zip":"06870"},{"name":"HASAYAZ MAH.","zip":"06870"},{"name":"KARAHÖYÜK MAH.","zip":"06870"},{"name":"KARALAR MAH.","zip":"06870"},{"name":"KARATEPE MAH.","zip":"06870"},{"name":"KARKIN MAH.","zip":"06870"},{"name":"KEKLİCEK MAH.","zip":"06870"},{"name":"KILÇAK MAH.","zip":"06870"},{"name":"KINIK MAH.","zip":"06870"},{"name":"KIZILKAYA MAH.","zip":"06870"},{"name":"KOYUNBABA MAH.","zip":"06870"},{"name":"KUYUCAK MAH.","zip":"06870"},{"name":"MAHMUTLAR MAH.","zip":"06870"},{"name":"SAMANLIK MAH.","zip":"06870"},{"name":"SATILAR MAH.","zip":"06870"},{"name":"ŞEMSETTİN MAH.","zip":"06870"},{"name":"ŞEYHMAHMUT MAH.","zip":"06870"},{"name":"TAVŞANCIK MAH.","zip":"06870"},{"name":"TİLKİ MAH.","zip":"06870"},{"name":"UYURCA MAH.","zip":"06870"},{"name":"YALIMKÖY MAH.","zip":"06870"},{"name":"YENİÇÖTE MAH.","zip":"06870"},{"name":"YENİDOĞAN YEŞİLYURT MAH.","zip":"06870"},{"name":"YEŞİLÖZ MAH.","zip":"06870"},{"name":"YILANLI MAH.","zip":"06870"},{"name":"YURTYENİCE MAH.","zip":"06870"},{"name":"YÜZBEY MAH.","zip":"06870"}]},{"name":"AKTEPE","cityName":null,"quarters":[{"name":"ADNAN MENDERES MAH.","zip":"06300"},{"name":"AKTEPE MAH.","zip":"06300"},{"name":"BADEMLİK MAH.","zip":"06300"},{"name":"BAĞLARBAŞI MAH.","zip":"06300"},{"name":"ÇALDIRAN MAH.","zip":"06300"},{"name":"GÜZELYURT MAH.","zip":"06300"},{"name":"KAMİL OCAK MAH.","zip":"06300"},{"name":"KÖŞK MAH.","zip":"06300"},{"name":"ŞEFKAT MAH.","zip":"06300"},{"name":"ŞENYUVA MAH.","zip":"06300"},{"name":"UYANIŞ MAH.","zip":"06300"},{"name":"YEŞİLÖZ MAH.","zip":"06300"},{"name":"YEŞİLTEPE MAH.","zip":"06300"}]},{"name":"BAĞLUM","cityName":null,"quarters":[{"name":"ÇALSEKİ MAH.","zip":"06291"},{"name":"HİSAR MAH.","zip":"06291"},{"name":"KAFKAS MAH.","zip":"06291"},{"name":"KARAKAYA MAH.","zip":"06291"},{"name":"KARŞIYAKA MAH.","zip":"06291"},{"name":"KÖSRELİK MAH.","zip":"06291"},{"name":"SARIBEYLER MAH.","zip":"06291"}]},{"name":"ESERTEPE","cityName":null,"quarters":[{"name":"SANCAKTEPE MAH.","zip":"06220"},{"name":"ŞEHİT KUBİLAY MAH.","zip":"06220"},{"name":"YAYLA MAH.","zip":"06220"},{"name":"YÜKSELTEPE MAH.","zip":"06220"}]},{"name":"ETLİK","cityName":null,"quarters":[{"name":"AYVALI MAH.","zip":"06010"},{"name":"BASINEVLERİ MAH.","zip":"06010"},{"name":"EMRAH MAH.","zip":"06010"},{"name":"ETLİK MAH.","zip":"06010"},{"name":"İNCİRLİ MAH.","zip":"06010"}]},{"name":"HASKÖY SUBAYEVLERİ","cityName":null,"quarters":[{"name":"HASKÖY MAH.","zip":"06135"},{"name":"KAVACIK SUBAYEVLERİ MAH.","zip":"06135"}]},{"name":"KALABA","cityName":null,"quarters":[{"name":"KARARGAHTEPE MAH.","zip":"06120"}]},{"name":"SANATORYUM","cityName":null,"quarters":[{"name":"ÇİÇEKLİ MAH.","zip":"06290"},{"name":"KUŞCAĞIZ MAH.","zip":"06290"},{"name":"TEPEBAŞI MAH.","zip":"06290"}]},{"name":"ŞENLİK","cityName":null,"quarters":[{"name":"ŞENLİK MAH.","zip":"06310"},{"name":"YAKACIK MAH.","zip":"06310"}]},{"name":"UFUKTEPE","cityName":null,"quarters":[{"name":"KANUNİ MAH.","zip":"06280"},{"name":"OSMANGAZİ MAH.","zip":"06280"},{"name":"OVACIK MAH.","zip":"06280"},{"name":"PINARBAŞI MAH.","zip":"06280"},{"name":"UFUKTEPE MAH.","zip":"06280"}]},{"name":"KIZILCAHAMAM","cityName":null,"quarters":[{"name":"AKÇAY MAH.","zip":"06890"},{"name":"AKDOĞAN MAH.","zip":"06890"},{"name":"AKSAK MAH.","zip":"06890"},{"name":"ALİBEY MAH.","zip":"06890"},{"name":"ALPAGUT MAH.","zip":"06890"},{"name":"AŞAĞIADA MAH.","zip":"06890"},{"name":"AŞAĞIÇANLI MAH.","zip":"06890"},{"name":"AŞAĞIHÜYÜK MAH.","zip":"06890"},{"name":"AYVACIK MAH.","zip":"06890"},{"name":"BADEMLİ MAH.","zip":"06890"},{"name":"BAĞLICA MAH.","zip":"06890"},{"name":"BAĞÖREN MAH.","zip":"06890"},{"name":"BALCILAR MAH.","zip":"06890"},{"name":"BAŞAĞAÇ MAH.","zip":"06890"},{"name":"BAYIR MAH.","zip":"06890"},{"name":"BELPINAR MAH.","zip":"06890"},{"name":"BERÇİNÇATAK MAH.","zip":"06890"},{"name":"BERÇİNYAYALAR MAH.","zip":"06890"},{"name":"BEŞKONAK MAH.","zip":"06890"},{"name":"BEZCİKUZÖREN MAH.","zip":"06890"},{"name":"BİNKOZ MAH.","zip":"06890"},{"name":"BULAK MAH.","zip":"06890"},{"name":"CİĞİRLER MAH.","zip":"06890"},{"name":"ÇAVUŞLAR MAH.","zip":"06890"},{"name":"ÇELTİKÇİ AKÇAÖREN MAH.","zip":"06890"},{"name":"ÇELTİKÇİ BAŞÖREN MAH.","zip":"06890"},{"name":"ÇELTİKÇİ KINIK MAH.","zip":"06890"},{"name":"ÇELTİKÇİ MAH.","zip":"06890"},{"name":"ÇEŞTEPE MAH.","zip":"06890"},{"name":"ÇIRPAN MAH.","zip":"06890"},{"name":"ÇUKURCA MAH.","zip":"06890"},{"name":"ÇUKURÖREN MAH.","zip":"06890"},{"name":"DEĞİRMENÖNÜ MAH.","zip":"06890"},{"name":"DEMİRCİÖREN MAH.","zip":"06890"},{"name":"DERENECİ MAH.","zip":"06890"},{"name":"DOĞANÖZÜ MAH.","zip":"06890"},{"name":"DOYMUŞÖREN MAH.","zip":"06890"},{"name":"EĞERLİALÖREN MAH.","zip":"06890"},{"name":"EĞERLİBAŞKÖY MAH.","zip":"06890"},{"name":"EĞERLİDERE MAH.","zip":"06890"},{"name":"EĞERLİKOZÖREN MAH.","zip":"06890"},{"name":"GAZİ MUSTAFA KEMALPAŞA MAH.","zip":"06890"},{"name":"GEBELER MAH.","zip":"06890"},{"name":"GÖL MAH.","zip":"06890"},{"name":"GÜMELE MAH.","zip":"06890"},{"name":"GÜNEYSARAY MAH.","zip":"06890"},{"name":"İĞDİR MAH.","zip":"06890"},{"name":"İĞMİR MAH.","zip":"06890"},{"name":"İNCEĞEZ MAH.","zip":"06890"},{"name":"İSMETPAŞA MAH.","zip":"06890"},{"name":"KALEMLER MAH.","zip":"06890"},{"name":"KARACAÖREN MAH.","zip":"06890"},{"name":"KARŞIYAKA MAH.","zip":"06890"},{"name":"KIRKIRCA MAH.","zip":"06890"},{"name":"KIRKÖY MAH.","zip":"06890"},{"name":"KIŞLAK MAH.","zip":"06890"},{"name":"KIZIK MAH.","zip":"06890"},{"name":"KIZILCAKÖY MAH.","zip":"06890"},{"name":"KIZILCAÖREN MAH.","zip":"06890"},{"name":"KOCALAR MAH.","zip":"06890"},{"name":"KURUMCU MAH.","zip":"06890"},{"name":"KUŞCUÖREN MAH.","zip":"06890"},{"name":"MAHKEMEAĞCİN MAH.","zip":"06890"},{"name":"OĞLAKCI MAH.","zip":"06890"},{"name":"OTACI MAH.","zip":"06890"},{"name":"ÖRENCİK MAH.","zip":"06890"},{"name":"PAZAR BAŞÖREN MAH.","zip":"06890"},{"name":"PAZAR KINIK MAH.","zip":"06890"},{"name":"PAZAR MAH.","zip":"06890"},{"name":"SARAY MAH.","zip":"06890"},{"name":"SARAYCIK MAH.","zip":"06890"},{"name":"SAZAK MAH.","zip":"06890"},{"name":"SEMELER MAH.","zip":"06890"},{"name":"SEMER MAH.","zip":"06890"},{"name":"SÜLELER MAH.","zip":"06890"},{"name":"TAHTALAR MAH.","zip":"06890"},{"name":"TAŞLICA MAH.","zip":"06890"},{"name":"TURNALI MAH.","zip":"06890"},{"name":"UĞURLU MAH.","zip":"06890"},{"name":"ÜÇBAŞ MAH.","zip":"06890"},{"name":"ÜYÜCEK MAH.","zip":"06890"},{"name":"YAĞCIHÜSEYİN MAH.","zip":"06890"},{"name":"YAKAKAYA MAH.","zip":"06890"},{"name":"YANIK MAH.","zip":"06890"},{"name":"YENİCE MAH.","zip":"06890"},{"name":"YILDIRIMÇATAK MAH.","zip":"06890"},{"name":"YILDIRIMDEMİRCİLER MAH.","zip":"06890"},{"name":"YILDIRIMHACILAR MAH.","zip":"06890"},{"name":"YILDIRIMÖREN MAH.","zip":"06890"},{"name":"YILDIRIMYAĞLICA MAH.","zip":"06890"},{"name":"YUKARIADA MAH.","zip":"06890"},{"name":"YUKARIHÜYÜK MAH.","zip":"06890"},{"name":"YUKARIKARAÖREN MAH.","zip":"06890"}]},{"name":"YEŞİLKÖY","cityName":null,"quarters":[{"name":"GÖKBEL MAH.","zip":"06895"},{"name":"GÜVEM MAH.","zip":"06895"},{"name":"HIDIRLAR MAH.","zip":"06895"},{"name":"İYCELER MAH.","zip":"06895"},{"name":"KARAAĞAÇ MAH.","zip":"06895"},{"name":"KASIMLAR MAH.","zip":"06895"},{"name":"KAVAKÖZÜ MAH.","zip":"06895"},{"name":"OLUCAK MAH.","zip":"06895"},{"name":"ORTAKÖY MAH.","zip":"06895"},{"name":"SALIN MAH.","zip":"06895"},{"name":"ŞAHİNLER MAH.","zip":"06895"},{"name":"YEŞİLKÖY MAH.","zip":"06895"},{"name":"YUKARIÇANLI MAH.","zip":"06895"},{"name":"YUKARIKESE MAH.","zip":"06895"}]},{"name":"ABİDİNPAŞA","cityName":null,"quarters":[{"name":"AŞIK VEYSEL MAH.","zip":"06620"},{"name":"BALKİRAZ MAH.","zip":"06620"},{"name":"ÇAĞLAYAN MAH.","zip":"06620"},{"name":"KARTALTEPE MAH.","zip":"06620"},{"name":"MEHTAP MAH.","zip":"06620"},{"name":"SAİMEKADIN MAH.","zip":"06620"},{"name":"TUZLUÇAYIR MAH.","zip":"06620"}]},{"name":"AKDERE","cityName":null,"quarters":[{"name":"GENERAL ZEKİ DOĞAN MAH.","zip":"06630"},{"name":"KAZIM ORBAY MAH.","zip":"06630"},{"name":"KUTLU MAH.","zip":"06630"},{"name":"MUTLU MAH.","zip":"06630"},{"name":"PEYAMİ SEFA MAH.","zip":"06630"},{"name":"ŞEHİT CENGİZ TOPEL MAH.","zip":"06630"},{"name":"TÜRKÖZÜ MAH.","zip":"06630"}]},{"name":"BOĞAZİÇİ","cityName":null,"quarters":[{"name":"BOĞAZİÇİ MAH.","zip":"06480"},{"name":"CENGİZHAN MAH.","zip":"06480"},{"name":"DURALİ ALIÇ MAH.","zip":"06480"},{"name":"DUTLUK MAH.","zip":"06480"},{"name":"EGE MAH.","zip":"06480"},{"name":"FAHRİ KORUTÜRK MAH.","zip":"06480"},{"name":"KIBRISKÖY MAH.","zip":"06480"},{"name":"KÜÇÜK KAYAŞ MAH.","zip":"06480"},{"name":"ŞAHAP GÜRLER MAH.","zip":"06480"},{"name":"ŞİRİNTEPE MAH.","zip":"06480"},{"name":"YENİ BAYINDIR MAH.","zip":"06480"},{"name":"YEŞİLBAYIR MAH.","zip":"06480"}]},{"name":"DEMİRLİBAHÇE","cityName":null,"quarters":[{"name":"ŞAFAKTEPE MAH.","zip":"06340"}]},{"name":"GÜLVEREN","cityName":null,"quarters":[{"name":"ANAYURT MAH.","zip":"06350"},{"name":"BAHÇELERÜSTÜ MAH.","zip":"06350"},{"name":"GÜLSEREN MAH.","zip":"06350"},{"name":"GÜLVEREN MAH.","zip":"06350"},{"name":"HÜREL MAH.","zip":"06350"}]},{"name":"HÜSEYİNGAZİ","cityName":null,"quarters":[{"name":"BOSTANCIK MAH.","zip":"06320"},{"name":"EKİN MAH.","zip":"06320"},{"name":"PTT EVLERİ MAH.","zip":"06320"}]},{"name":"KAYAŞ","cityName":null,"quarters":[{"name":"BAYINDIR MAH.","zip":"06270"},{"name":"DERBENT MAH.","zip":"06270"},{"name":"DOSTLAR MAH.","zip":"06270"},{"name":"GÖKÇEYURT MAH.","zip":"06270"},{"name":"KAYAŞ MAH.","zip":"06270"},{"name":"KIZILCA MAH.","zip":"06270"},{"name":"KÖSTENCE MAH.","zip":"06270"},{"name":"KUSUNLAR MAH.","zip":"06270"},{"name":"KUTLUDÜĞÜN MAH.","zip":"06270"},{"name":"ORTAKÖY MAH.","zip":"06270"},{"name":"TEPECİK MAH.","zip":"06270"},{"name":"ÜREĞİL MAH.","zip":"06270"},{"name":"YUKARI İMROHOR MAH.","zip":"06270"},{"name":"ZİRVEKENT MAH.","zip":"06270"}]},{"name":"LALAHAN","cityName":null,"quarters":[{"name":"LALAHAN MAH.","zip":"06852"}]},{"name":"MAMAK","cityName":null,"quarters":[{"name":"BAHÇELERİÇİ MAH.","zip":"06260"},{"name":"ÇİĞİLTEPE MAH.","zip":"06260"},{"name":"HARMAN MAH.","zip":"06260"},{"name":"HÜSEYİNGAZİ MAH.","zip":"06260"},{"name":"KARAAĞAÇ MAH.","zip":"06260"},{"name":"MİSKET MAH.","zip":"06260"},{"name":"ŞAHİNTEPE MAH.","zip":"06260"}]},{"name":"NALLIHAN","cityName":null,"quarters":[{"name":"AKDERE MAH.","zip":"06920"},{"name":"AKSU MAH.","zip":"06920"},{"name":"ALAN MAH.","zip":"06920"},{"name":"ALİAĞA MAH.","zip":"06920"},{"name":"ALİEFE MAH.","zip":"06920"},{"name":"ALPAĞUT MAH.","zip":"06920"},{"name":"ARKUTÇA MAH.","zip":"06920"},{"name":"AŞAĞIBAĞDERE MAH.","zip":"06920"},{"name":"AŞAĞIBAĞLICA MAH.","zip":"06920"},{"name":"AŞAĞIKAVACIK MAH.","zip":"06920"},{"name":"ATATÜRK MAH.","zip":"06920"},{"name":"ATÇA MAH.","zip":"06920"},{"name":"AYDOĞMUŞ MAH.","zip":"06920"},{"name":"BELENALAN MAH.","zip":"06920"},{"name":"BELENÖREN MAH.","zip":"06920"},{"name":"BEYALAN MAH.","zip":"06920"},{"name":"BEYCİK MAH.","zip":"06920"},{"name":"BEYDİLİ MAH.","zip":"06920"},{"name":"BOZYAKA MAH.","zip":"06920"},{"name":"CENDERE MAH.","zip":"06920"},{"name":"ÇALICAALAN MAH.","zip":"06920"},{"name":"ÇAMALAN MAH.","zip":"06920"},{"name":"ÇAYIRHAN MAH.","zip":"06920"},{"name":"ÇİLLER MAH.","zip":"06920"},{"name":"ÇİVE MAH.","zip":"06920"},{"name":"ÇULHALAR MAH.","zip":"06920"},{"name":"DANİŞMENT MAH.","zip":"06920"},{"name":"DAVUTOĞLAN MAH.","zip":"06920"},{"name":"DEMİRKÖY MAH.","zip":"06920"},{"name":"DEREKÖY MAH.","zip":"06920"},{"name":"DOĞANDERE MAH.","zip":"06920"},{"name":"DÖĞMECİ MAH.","zip":"06920"},{"name":"EĞRİ MAH.","zip":"06920"},{"name":"EMREMSULTAN MAH.","zip":"06920"},{"name":"EPÇELER MAH.","zip":"06920"},{"name":"ERİCEK MAH.","zip":"06920"},{"name":"EYMİR MAH.","zip":"06920"},{"name":"FATİH MAH.","zip":"06920"},{"name":"GÖKÇEÖZ MAH.","zip":"06920"},{"name":"GÜZELÖZ MAH.","zip":"06920"},{"name":"HACIBEY MAH.","zip":"06920"},{"name":"HACIHASANLAR MAH.","zip":"06920"},{"name":"HIDIRLAR MAH.","zip":"06920"},{"name":"İSLAMALAN MAH.","zip":"06920"},{"name":"KABACA MAH.","zip":"06920"},{"name":"KADIKÖY MAH.","zip":"06920"},{"name":"KARACASU MAH.","zip":"06920"},{"name":"KARAHİSAR MAH.","zip":"06920"},{"name":"KARAHİSARGÖLCÜK MAH.","zip":"06920"},{"name":"KARAHİSARKOZLU MAH.","zip":"06920"},{"name":"KARAKÖY MAH.","zip":"06920"},{"name":"KAVAKKÖY MAH.","zip":"06920"},{"name":"KULU MAH.","zip":"06920"},{"name":"KURUCA MAH.","zip":"06920"},{"name":"KUZUCULAR MAH.","zip":"06920"},{"name":"MEYİLDERE MAH.","zip":"06920"},{"name":"MEYİLHACILAR MAH.","zip":"06920"},{"name":"NALLIDERE MAH.","zip":"06920"},{"name":"NALLIGÖLCÜK MAH.","zip":"06920"},{"name":"NASUHPAŞA MAH.","zip":"06920"},{"name":"NEBİOĞLU MAH.","zip":"06920"},{"name":"OSMANKÖY MAH.","zip":"06920"},{"name":"OZAN MAH.","zip":"06920"},{"name":"ÖMERŞEYHLER MAH.","zip":"06920"},{"name":"ÖŞÜRLER MAH.","zip":"06920"},{"name":"SARIKAYA MAH.","zip":"06920"},{"name":"SARIYAR MAH.","zip":"06920"},{"name":"SOBRAN MAH.","zip":"06920"},{"name":"SOĞUKKUYU MAH.","zip":"06920"},{"name":"SUBAŞI MAH.","zip":"06920"},{"name":"TEKİRLER MAH.","zip":"06920"},{"name":"TEKKE MAH.","zip":"06920"},{"name":"TEPE MAH.","zip":"06920"},{"name":"ULUHAN MAH.","zip":"06920"},{"name":"ULUKÖY MAH.","zip":"06920"},{"name":"UZUNÖZ MAH.","zip":"06920"},{"name":"YAKAPINAR MAH.","zip":"06920"},{"name":"YAZI MAH.","zip":"06920"},{"name":"YENİCE MAH.","zip":"06920"},{"name":"YEŞİLYURT MAH.","zip":"06920"},{"name":"YUKARIBAĞDERE MAH.","zip":"06920"},{"name":"YUKARIBAĞLICA MAH.","zip":"06920"},{"name":"YUKARIKAVACIK MAH.","zip":"06920"}]},{"name":"POLATLI","cityName":null,"quarters":[{"name":"AVDANLI MAH.","zip":"06900"},{"name":"AVŞAR MAH.","zip":"06900"},{"name":"BABAYAKUP MAH.","zip":"06900"},{"name":"BASRI MAH.","zip":"06900"},{"name":"BEŞKÖPRÜ MAH.","zip":"06900"},{"name":"BEYCEĞİZ MAH.","zip":"06900"},{"name":"BEYLİKKÖPRÜ MAH.","zip":"06900"},{"name":"CUMHURİYET MAH.","zip":"06900"},{"name":"ÇAMLICA MAH.","zip":"06900"},{"name":"ÇANAKÇI MAH.","zip":"06900"},{"name":"ÇEKİRDEKSİZ MAH.","zip":"06900"},{"name":"ÇEKİRDEKSİZOSB MAH.","zip":"06900"},{"name":"ÇİMENCEĞİZ MAH.","zip":"06900"},{"name":"ESENTEPE MAH.","zip":"06900"},{"name":"ESKİKARSAK MAH.","zip":"06900"},{"name":"ESKİKÖSELER MAH.","zip":"06900"},{"name":"ESKİPOLATLI MAH.","zip":"06900"},{"name":"FATİH MAH.","zip":"06900"},{"name":"GAZİ MAH.","zip":"06900"},{"name":"GEDİKLİ MAH.","zip":"06900"},{"name":"GENÇALİ MAH.","zip":"06900"},{"name":"GÜLPINAR MAH.","zip":"06900"},{"name":"GÜLVEREN MAH.","zip":"06900"},{"name":"GÜMÜŞYAKA MAH.","zip":"06900"},{"name":"GÜNDOĞAN MAH.","zip":"06900"},{"name":"GÜREŞ MAH.","zip":"06900"},{"name":"HACIMUSA MAH.","zip":"06900"},{"name":"HACIMUSLU MAH.","zip":"06900"},{"name":"HACIOSMANOĞLU MAH.","zip":"06900"},{"name":"HACITUĞRUL MAH.","zip":"06900"},{"name":"HIDIRŞEYH MAH.","zip":"06900"},{"name":"ILICA MAH.","zip":"06900"},{"name":"İĞCİLER MAH.","zip":"06900"},{"name":"İNLER MAH.","zip":"06900"},{"name":"İSTİKLAL MAH.","zip":"06900"},{"name":"KABAK MAH.","zip":"06900"},{"name":"KARAAHMET MAH.","zip":"06900"},{"name":"KARABENLİ MAH.","zip":"06900"},{"name":"KARACAAHMET MAH.","zip":"06900"},{"name":"KARAHAMZALI MAH.","zip":"06900"},{"name":"KARAİLYAS MAH.","zip":"06900"},{"name":"KARAKAYA MAH.","zip":"06900"},{"name":"KARAKUYU MAH.","zip":"06900"},{"name":"KARAPINAR MAH.","zip":"06900"},{"name":"KARAYAVŞAN MAH.","zip":"06900"},{"name":"KARGALI MAH.","zip":"06900"},{"name":"KAYABAŞI MAH.","zip":"06900"},{"name":"KIRANHARMANI MAH.","zip":"06900"},{"name":"KIZILCAKIŞLA MAH.","zip":"06900"},{"name":"KOCAHACILI MAH.","zip":"06900"},{"name":"KURTULUŞ MAH.","zip":"06900"},{"name":"KUŞCU MAH.","zip":"06900"},{"name":"MACUN MAH.","zip":"06900"},{"name":"MEHMETAKİF MAH.","zip":"06900"},{"name":"MÜSLÜM MAH.","zip":"06900"},{"name":"OĞUZLAR MAH.","zip":"06900"},{"name":"OLUKPINAR MAH.","zip":"06900"},{"name":"ÖMERLER MAH.","zip":"06900"},{"name":"ÖRDEKGÖLÜ MAH.","zip":"06900"},{"name":"ÖZYURT MAH.","zip":"06900"},{"name":"POYRAZ MAH.","zip":"06900"},{"name":"SABANCA MAH.","zip":"06900"},{"name":"SAKARYA MAH.","zip":"06900"},{"name":"SARIHALİL MAH.","zip":"06900"},{"name":"SARIOBA MAH.","zip":"06900"},{"name":"SAZLAR MAH.","zip":"06900"},{"name":"SİNANLI MAH.","zip":"06900"},{"name":"SİNCİK MAH.","zip":"06900"},{"name":"SİVRİ MAH.","zip":"06900"},{"name":"ŞABANÖZÜ MAH.","zip":"06900"},{"name":"ŞEHİTLİK MAH.","zip":"06900"},{"name":"ŞENTEPE MAH.","zip":"06900"},{"name":"ŞEYHALİ MAH.","zip":"06900"},{"name":"ŞIHAHMETLİ MAH.","zip":"06900"},{"name":"TAŞPINAR MAH.","zip":"06900"},{"name":"TATLIKUYU MAH.","zip":"06900"},{"name":"TOYDEMİR MAH.","zip":"06900"},{"name":"TÜFEKÇİOĞLU MAH.","zip":"06900"},{"name":"TÜRKKARSAK MAH.","zip":"06900"},{"name":"TÜRKTACİRİ MAH.","zip":"06900"},{"name":"UZUNBEY MAH.","zip":"06900"},{"name":"ÜÇPINAR MAH.","zip":"06900"},{"name":"YAĞCIOĞLU MAH.","zip":"06900"},{"name":"YAĞMURBABA MAH.","zip":"06900"},{"name":"YARALI MAH.","zip":"06900"},{"name":"YASSIHÜYÜK MAH.","zip":"06900"},{"name":"YENİ MAH.","zip":"06900"},{"name":"YENİCE MAH.","zip":"06900"},{"name":"YENİDOĞAN MAH.","zip":"06900"},{"name":"YENİKÖSELER MAH.","zip":"06900"},{"name":"YENİMEHMETLİ MAH.","zip":"06900"},{"name":"YEŞİLÖZ MAH.","zip":"06900"},{"name":"YILDIZLI MAH.","zip":"06900"},{"name":"YÜZÜKBAŞI MAH.","zip":"06900"},{"name":"ZAFER MAH.","zip":"06900"}]},{"name":"PURSAKLAR","cityName":null,"quarters":[{"name":"ALTINOVA MAH.","zip":"06145"},{"name":"AYYILDIZ MAH.","zip":"06145"},{"name":"FATİH MAH.","zip":"06145"},{"name":"KARAKÖY MAH.","zip":"06145"},{"name":"KARŞIYAKA MAH.","zip":"06145"},{"name":"KÖSRELİKKIZIĞI MAH.","zip":"06145"},{"name":"MERKEZ MAH.","zip":"06145"},{"name":"MİMAR SİNAN MAH.","zip":"06145"},{"name":"PEÇENEK MAH.","zip":"06145"},{"name":"SARAY CUMHURİYET MAH.","zip":"06145"},{"name":"SARAY FATİH MAH.","zip":"06145"},{"name":"SARAY GÜMÜŞOLUK MAH.","zip":"06145"},{"name":"SARAY OSMANGAZİ MAH.","zip":"06145"},{"name":"SİRKELİ YEŞİLOVA MAH.","zip":"06145"},{"name":"SİRKELİ YEŞİLYURT MAH.","zip":"06145"},{"name":"TEVFİK İLERİ MAH.","zip":"06145"},{"name":"YENİ KARAKÖY MAH.","zip":"06145"},{"name":"YILDIRIM BEYAZIT MAH.","zip":"06145"},{"name":"YUNUS EMRE MAH.","zip":"06145"},{"name":"YUVA MAH.","zip":"06145"}]},{"name":"AHİEVRAN","cityName":null,"quarters":[{"name":"AHİ EVRANOSB MAH.","zip":"06935"}]},{"name":"ÇARŞI","cityName":null,"quarters":[{"name":"ATATÜRK MAH.","zip":"06936"},{"name":"MARAŞAL ÇAKMAK MAH.","zip":"06936"}]},{"name":"ERTUĞRULGAZİ","cityName":null,"quarters":[{"name":"OSMANLI MAH.","zip":"06940"},{"name":"SELÇUKLU MAH.","zip":"06940"}]},{"name":"FATİH","cityName":null,"quarters":[{"name":"GAZİ OSMANPAŞA MAH.","zip":"06932"}]},{"name":"MEVLANA","cityName":null,"quarters":[{"name":"MEVLANA MAH.","zip":"06949"},{"name":"TÖREKENT MAH.","zip":"06949"}]},{"name":"PLEVNE","cityName":null,"quarters":[{"name":"İSTASYON MAH.","zip":"06934"},{"name":"PLEVNE MAH.","zip":"06934"}]},{"name":"SİNCAN","cityName":null,"quarters":[{"name":"ALAGÖZ MAH.","zip":"06930"},{"name":"ALCI MAH.","zip":"06930"},{"name":"ALCI OSB MAH.","zip":"06930"},{"name":"ANAYURT MAH.","zip":"06930"},{"name":"BACI MAH.","zip":"06930"},{"name":"BEYOBASI MAH.","zip":"06930"},{"name":"ÇİÇEKTEPE MAH.","zip":"06930"},{"name":"ÇOKÖREN MAH.","zip":"06930"},{"name":"ERKEKSU MAH.","zip":"06930"},{"name":"ESENLER MAH.","zip":"06930"},{"name":"GİRMEÇ MAH.","zip":"06930"},{"name":"HİSARLIKAYA MAH.","zip":"06930"},{"name":"KESİKTAŞ MAH.","zip":"06930"},{"name":"MALAZGİRT MAH.","zip":"06930"},{"name":"OSMANİYE MAH.","zip":"06930"},{"name":"PINARBAŞI MAH.","zip":"06930"},{"name":"POLATLAR MAH.","zip":"06930"},{"name":"SARAYCIK MAH.","zip":"06930"},{"name":"TANDOĞAN MAH.","zip":"06930"},{"name":"TATLAR MAH.","zip":"06930"},{"name":"TÜRKOBASI MAH.","zip":"06930"},{"name":"ÜCRET MAH.","zip":"06930"},{"name":"YENİÇİMŞİT MAH.","zip":"06930"},{"name":"YENİHİSAR MAH.","zip":"06930"},{"name":"YENİKAYI MAH.","zip":"06930"},{"name":"YENİPEÇENEK MAH.","zip":"06930"}]},{"name":"TEMELLİ","cityName":null,"quarters":[{"name":"GAZİ MAH.","zip":"06909"},{"name":"HÜRRİYET MAH.","zip":"06909"},{"name":"İSTİKLAL MAH.","zip":"06909"},{"name":"MALIKÖY ANADOLU OSB MAH.","zip":"06909"},{"name":"MALIKÖY BAŞKENT OSB MAH.","zip":"06909"},{"name":"MALIKÖY MAH.","zip":"06909"}]},{"name":"ULUBATLI","cityName":null,"quarters":[{"name":"YUNUS EMRE MAH.","zip":"06933"}]},{"name":"YENİKENT","cityName":null,"quarters":[{"name":"ADALET MAH.","zip":"06946"},{"name":"ÇOĞLU MAH.","zip":"06946"},{"name":"FEVZİ ÇAKMAK MAH.","zip":"06946"},{"name":"İLYAKUT MAH.","zip":"06946"},{"name":"İNCİRLİK MAH.","zip":"06946"},{"name":"MENDERES MAH.","zip":"06946"},{"name":"MUSTAFA KEMAL MAH.","zip":"06946"},{"name":"MÜLK MAH.","zip":"06946"}]},{"name":"ŞEREFLİKOÇHİSAR","cityName":null,"quarters":[{"name":"ACIÖZ MAH.","zip":"06950"},{"name":"AKARCA MAH.","zip":"06950"},{"name":"AKİN MAH.","zip":"06950"},{"name":"AKSEKİ MAH.","zip":"06950"},{"name":"AKTAŞ MAH.","zip":"06950"},{"name":"ALİUŞAĞI MAH.","zip":"06950"},{"name":"BAĞOBASI MAH.","zip":"06950"},{"name":"BALTALI MAH.","zip":"06950"},{"name":"BOĞAZİÇİ MAH.","zip":"06950"},{"name":"BÜYÜKDAMLACIK MAH.","zip":"06950"},{"name":"BÜYÜKKIŞLA MAH.","zip":"06950"},{"name":"CINGIL MAH.","zip":"06950"},{"name":"CUMHURİYET MAH.","zip":"06950"},{"name":"ÇALÖREN MAH.","zip":"06950"},{"name":"ÇATÇAT MAH.","zip":"06950"},{"name":"ÇAVUŞKÖY MAH.","zip":"06950"},{"name":"ÇAYIRÖNÜ MAH.","zip":"06950"},{"name":"DELİLLER MAH.","zip":"06950"},{"name":"DEVEKOVAN MAH.","zip":"06950"},{"name":"DOĞANKAYA MAH.","zip":"06950"},{"name":"EKİCİ MAH.","zip":"06950"},{"name":"ELEY MAH.","zip":"06950"},{"name":"EMEK MAH.","zip":"06950"},{"name":"FADILLI MAH.","zip":"06950"},{"name":"GEÇİTLİ MAH.","zip":"06950"},{"name":"GÜLHÜYÜK MAH.","zip":"06950"},{"name":"HACIBEKTAŞLI MAH.","zip":"06950"},{"name":"HACIENBİYA MAH.","zip":"06950"},{"name":"HAMZALI MAH.","zip":"06950"},{"name":"HAYDARLI MAH.","zip":"06950"},{"name":"HÜRRİYET MAH.","zip":"06950"},{"name":"İSTİKLAL MAH.","zip":"06950"},{"name":"KACARLI MAH.","zip":"06950"},{"name":"KADINCIK MAH.","zip":"06950"},{"name":"KADIOBASI MAH.","zip":"06950"},{"name":"KALE MAH.","zip":"06950"},{"name":"KARABÜK MAH.","zip":"06950"},{"name":"KARAMOLLAUŞAĞI MAH.","zip":"06950"},{"name":"KARANDERE MAH.","zip":"06950"},{"name":"KÜÇÜKDAMLACIK MAH.","zip":"06950"},{"name":"MEHMET AKİF ERSOY MAH.","zip":"06950"},{"name":"MUSTAFACIK MAH.","zip":"06950"},{"name":"MUSULAR MAH.","zip":"06950"},{"name":"ODUNBOĞAZI MAH.","zip":"06950"},{"name":"PALAZOBASI MAH.","zip":"06950"},{"name":"PARLASAN MAH.","zip":"06950"},{"name":"SADIKLI MAH.","zip":"06950"},{"name":"SANAYİ MAH.","zip":"06950"},{"name":"SARIKAYA MAH.","zip":"06950"},{"name":"SEYMENLİ MAH.","zip":"06950"},{"name":"ŞANLIKIŞLA MAH.","zip":"06950"},{"name":"ŞEKERKÖY MAH.","zip":"06950"},{"name":"ŞEREFLİDAVUTLU MAH.","zip":"06950"},{"name":"ŞEYH KUYUSU MAH.","zip":"06950"},{"name":"ŞEYHLİ MAH.","zip":"06950"},{"name":"TUZLA MAH.","zip":"06950"},{"name":"ÜZENGİLİK MAH.","zip":"06950"},{"name":"YALNIZPINAR MAH.","zip":"06950"},{"name":"YAZISÖĞÜT MAH.","zip":"06950"},{"name":"YENİ MAH.","zip":"06950"},{"name":"YEŞİLOVA MAH.","zip":"06950"},{"name":"YEŞİLYURT MAH.","zip":"06950"},{"name":"YUSUFKUYUSU MAH.","zip":"06950"}]},{"name":"A.O.ÇİFTLİĞİ","cityName":null,"quarters":[{"name":"EMNİYET MAH.","zip":"06560"},{"name":"GAZİ MAH.","zip":"06560"}]},{"name":"BATIKENT","cityName":null,"quarters":[{"name":"ERGAZİ MAH.","zip":"06370"},{"name":"İLKYERLEŞİM MAH.","zip":"06370"},{"name":"İNÖNÜ MAH.","zip":"06370"},{"name":"KARDELEN MAH.","zip":"06370"},{"name":"KENTKOOP MAH.","zip":"06370"},{"name":"TURGUT ÖZAL MAH.","zip":"06370"},{"name":"UĞUR MUMCU MAH.","zip":"06370"},{"name":"YENİ BATI MAH.","zip":"06370"}]},{"name":"DEMETEVLER","cityName":null,"quarters":[{"name":"ÇAMLICA MAH.","zip":"06200"},{"name":"DEMETEVLER MAH.","zip":"06200"},{"name":"DEMETGÜL MAH.","zip":"06200"},{"name":"DEMETLALE MAH.","zip":"06200"},{"name":"MEHMET AKİF ERSOY MAH.","zip":"06200"}]},{"name":"İVEDİK OSB","cityName":null,"quarters":[{"name":"İVEDİKOSB MAH.","zip":"06378"}]},{"name":"KARŞIYAKA","cityName":null,"quarters":[{"name":"KARŞIYAKA MAH.","zip":"06190"},{"name":"ÖZEVLER MAH.","zip":"06190"},{"name":"YEŞİLEVLER MAH.","zip":"06190"}]},{"name":"MACUNKÖY","cityName":null,"quarters":[{"name":"KARACAKAYA MAH.","zip":"06105"},{"name":"KUZEY YILDIZI MAH.","zip":"06105"},{"name":"MACUN MAH.","zip":"06105"},{"name":"MEMLİK MAH.","zip":"06105"},{"name":"SUSUZ MAH.","zip":"06105"},{"name":"YAKACIK MAH.","zip":"06105"},{"name":"YUVAKÖY MAH.","zip":"06105"}]},{"name":"OSTİM","cityName":null,"quarters":[{"name":"OSTİM OSB MAH.","zip":"06374"},{"name":"SERHAT MAH.","zip":"06374"}]},{"name":"ŞENTEPE","cityName":null,"quarters":[{"name":"AŞAĞI YAHYALAR MAH.","zip":"06210"},{"name":"AVCILAR MAH.","zip":"06210"},{"name":"BARIŞTEPE MAH.","zip":"06210"},{"name":"BURÇ MAH.","zip":"06210"},{"name":"ÇİĞDEMTEPE MAH.","zip":"06210"},{"name":"GÜVENTEPE MAH.","zip":"06210"},{"name":"GÜZELYAKA MAH.","zip":"06210"},{"name":"KALETEPE MAH.","zip":"06210"},{"name":"KAYALAR MAH.","zip":"06210"},{"name":"PAMUKLAR MAH.","zip":"06210"},{"name":"YUKARI YAHYALAR MAH.","zip":"06210"}]},{"name":"YENİMAHALLE","cityName":null,"quarters":[{"name":"ERGENEKON MAH.","zip":"06170"},{"name":"ESENTEPE MAH.","zip":"06170"},{"name":"GAYRET MAH.","zip":"06170"},{"name":"IŞINLAR MAH.","zip":"06170"},{"name":"RAGIP TÜZÜN MAH.","zip":"06170"},{"name":"TEPEALTI MAH.","zip":"06170"},{"name":"VARLIK MAH.","zip":"06170"},{"name":"YENİÇAĞ MAH.","zip":"06170"},{"name":"YUNUS EMRE MAH.","zip":"06170"}]}]}]}