{"id":60,"name":"TOKAT","cities":[{"name":"city","districts":[{"name":"ALMUS","cityName":null,"quarters":[{"name":"KURTULUŞ MAH.","zip":"60900"},{"name":"ÖTÜKENT MAH.","zip":"60900"},{"name":"SİTELER MAH.","zip":"60900"}]},{"name":"MERKEZKÖYLER","cityName":null,"quarters":[{"name":"AHMET KAHYAGİL MAH.","zip":"60902"},{"name":"AKARÇAY ARMUTALAN MAH.","zip":"60902"},{"name":"AKARÇAY GÖRÜMLÜ KÖYÜ","zip":"60902"},{"name":"AKARÇAY İSTİKLAL MAH.","zip":"60902"},{"name":"AKARÇAY ŞEHİT TURAN YILDIZ MAH.","zip":"60902"},{"name":"AKARÇAY ŞENYURT MAH.","zip":"60902"},{"name":"ALANKÖY KÖYÜ","zip":"60902"},{"name":"ALİBEĞGİL MAH.","zip":"60902"},{"name":"ALTITAM MAHLESİ MAH.","zip":"60902"},{"name":"ARISU KÖYÜ","zip":"60902"},{"name":"AŞAGI ALAN KOLU MAH.","zip":"60902"},{"name":"AŞAĞI ALAN MAH.","zip":"60902"},{"name":"AŞAĞI BAHTUMAN MAH.","zip":"60902"},{"name":"AŞAĞI KAMIŞÇIK MAH.","zip":"60902"},{"name":"AŞAĞI MAH.","zip":"60902"},{"name":"ATA MAH.","zip":"60902"},{"name":"ATAKÖY KÖYÜ","zip":"60902"},{"name":"ATATÜRK MAH.","zip":"60902"},{"name":"AYDINLAR MAH.","zip":"60902"},{"name":"AYNACILAR MAH.","zip":"60902"},{"name":"BABAKÖY KÖYÜ","zip":"60902"},{"name":"BAĞLICA MAH.","zip":"60902"},{"name":"BAĞTAŞI KÖYÜ","zip":"60902"},{"name":"BAHÇEKÖY MAH.","zip":"60902"},{"name":"BAKIMLI KÖYÜ","zip":"60902"},{"name":"BARBAROS MAH.","zip":"60902"},{"name":"BAŞAKLAR MAH.","zip":"60902"},{"name":"BAŞALAN MAH.","zip":"60902"},{"name":"BAYRAMGAZİ MAH.","zip":"60902"},{"name":"BEKÜLÜ MAH.","zip":"60902"},{"name":"BENTALTI MAH.","zip":"60902"},{"name":"BİRLİK MAH.","zip":"60902"},{"name":"BUDAKLI MAH.","zip":"60902"},{"name":"CENNET MAH.","zip":"60902"},{"name":"CİHET KÖYÜ","zip":"60902"},{"name":"CUMHURİYET MAH.","zip":"60902"},{"name":"ÇAMBULAK MAH.","zip":"60902"},{"name":"ÇAMDALI KÖYÜ","zip":"60902"},{"name":"ÇAMKÖY KÖYÜ","zip":"60902"},{"name":"ÇATAK MAH.","zip":"60902"},{"name":"ÇAVUŞGİLLER MAH.","zip":"60902"},{"name":"ÇAYIRLI MAHLESİ MAH.","zip":"60902"},{"name":"ÇAYKAYA KÖYÜ","zip":"60902"},{"name":"ÇAYKIYI KÖYÜ","zip":"60902"},{"name":"ÇAYKIYI MAH.","zip":"60902"},{"name":"ÇAYKIYI YAYLASI MAH.","zip":"60902"},{"name":"ÇEVRELİ KÖYÜ","zip":"60902"},{"name":"ÇİFTLİK KÖYÜ","zip":"60902"},{"name":"ÇİLEHANE KÖYÜ","zip":"60902"},{"name":"DEĞERYER KÖYÜ","zip":"60902"},{"name":"DELİ AHMETGİL MAH.","zip":"60902"},{"name":"DEREBAŞI MAH.","zip":"60902"},{"name":"DEREKÖY KÖYÜ","zip":"60902"},{"name":"DERVİŞALİ MAH.","zip":"60902"},{"name":"DİKİLİ KÖYÜ","zip":"60902"},{"name":"DURUDERE KÖYÜ","zip":"60902"},{"name":"FATİH MAH.","zip":"60902"},{"name":"GARİBGİL-EMİCEGİL MAH.","zip":"60902"},{"name":"GEBELİ KÖYÜ","zip":"60902"},{"name":"GEBELİ YAYLA EVLERİ MAH.","zip":"60902"},{"name":"GEVREK MAH.","zip":"60902"},{"name":"GÖLGELİ KÖYÜ","zip":"60902"},{"name":"GÖLTEPE KÖYÜ","zip":"60902"},{"name":"GÜMELEÖNÜ KÖYÜ","zip":"60902"},{"name":"GÜNGÖRMEZ MAH.","zip":"60902"},{"name":"GÜVEN MAH.","zip":"60902"},{"name":"HACIGİL MAH.","zip":"60902"},{"name":"HAMZALAR MAH.","zip":"60902"},{"name":"HASANGİL MAH.","zip":"60902"},{"name":"HOKURDAK YAYLASI MAH.","zip":"60902"},{"name":"HUBYAR KÖYÜ","zip":"60902"},{"name":"HÜRRİYET MAH.","zip":"60902"},{"name":"HÜSNÜGİL MAH.","zip":"60902"},{"name":"İNÖNÜ MAH.","zip":"60902"},{"name":"KAMIŞCEK MAH.","zip":"60902"},{"name":"KANLIDERE MAH.","zip":"60902"},{"name":"KAPICI KÖYÜ","zip":"60902"},{"name":"KARAAHMETOĞLU MAH.","zip":"60902"},{"name":"KARADERE KÖYÜ","zip":"60902"},{"name":"KARAGÖZGİL MAH.","zip":"60902"},{"name":"KARŞIYAKA MAH.","zip":"60902"},{"name":"KATRANLIK MAH.","zip":"60902"},{"name":"KAYALI MAH.","zip":"60902"},{"name":"KENDİRLİK MAH.","zip":"60902"},{"name":"KINIK KÖYÜ","zip":"60902"},{"name":"KIZIL ARMUT MAH.","zip":"60902"},{"name":"KIZILELMA KÖYÜ","zip":"60902"},{"name":"KOL MAH.","zip":"60902"},{"name":"KOLKÖY KÖYÜ","zip":"60902"},{"name":"KORE MAH.","zip":"60902"},{"name":"KORUÇOLUK MEVKİİ MAH.","zip":"60902"},{"name":"KÖROĞLU MAH.","zip":"60902"},{"name":"KURBAN SUYU MAH.","zip":"60902"},{"name":"KURTULUŞ MAH.","zip":"60902"},{"name":"KURUSEKİ MAH.","zip":"60902"},{"name":"KÜRTLER MAH.","zip":"60902"},{"name":"MERKEZ MAH.","zip":"60902"},{"name":"MESCİTKÖY KÖYÜ","zip":"60902"},{"name":"MEZRA MAH.","zip":"60902"},{"name":"MÜRSEL MAH.","zip":"60902"},{"name":"OĞULBEY KÖYÜ","zip":"60902"},{"name":"ORMANDİBİ KÖYÜ","zip":"60902"},{"name":"ORTA MAH.","zip":"60902"},{"name":"PELİTLİ BURUN MAH.","zip":"60902"},{"name":"SAĞIRLAR MAH.","zip":"60902"},{"name":"SAHİLKÖY KÖYÜ","zip":"60902"},{"name":"SALKAVAK MAH.","zip":"60902"},{"name":"SARIÖREN KÖYÜ","zip":"60902"},{"name":"SARIÖREN YAYLASI MAH.","zip":"60902"},{"name":"SERİNCE KÖYÜ","zip":"60902"},{"name":"SORKUN MAH.","zip":"60902"},{"name":"ŞEHİT TUNCAY ÇOBAN MAH.","zip":"60902"},{"name":"ŞHT.MUSTAFA YETER MAH.","zip":"60902"},{"name":"TAŞLITARLA MAH.","zip":"60902"},{"name":"TEKE TAMI MAH.","zip":"60902"},{"name":"TEKKELİOĞLU MAH.","zip":"60902"},{"name":"TEKNECİK KÖYÜ","zip":"60902"},{"name":"TEPE MAH.","zip":"60902"},{"name":"TEPE MEZRASI MAH.","zip":"60902"},{"name":"UĞURLU MAH.","zip":"60902"},{"name":"ÜÇGÖL KÖYÜ","zip":"60902"},{"name":"ÜSİKGİL MAH.","zip":"60902"},{"name":"YAVUZ MAH.","zip":"60902"},{"name":"YAYLA EVLERİ MAH.","zip":"60902"},{"name":"YAYLA KÖY DERNEK EVİ MAH.","zip":"60902"},{"name":"YAYLA MAH.","zip":"60902"},{"name":"YENİ MAH.","zip":"60902"},{"name":"YUKARI ALAN MAH.","zip":"60902"},{"name":"YUKARI BAHTUMA MAH.","zip":"60902"},{"name":"YUKARI KAMIŞCIK MAH.","zip":"60902"},{"name":"YUKARI MAH.","zip":"60902"},{"name":"YUVAKÖY MAH.","zip":"60902"}]},{"name":"ARTOVA","cityName":null,"quarters":[{"name":"ALTINOVA MAH.","zip":"60670"},{"name":"GAZİOSMANPAŞA MAH.","zip":"60670"},{"name":"İSTASYON MAH.","zip":"60670"},{"name":"KIZILCA MAH.","zip":"60670"}]},{"name":"MERKEZKÖYLER","cityName":null,"quarters":[{"name":"AFATEVLERİ MAH.","zip":"60672"},{"name":"AĞMUSA KÖYÜ","zip":"60672"},{"name":"AHMETDANİŞMENT KÖYÜ","zip":"60672"},{"name":"AKTAŞ KÖYÜ","zip":"60672"},{"name":"AKTAŞ MEZRA MAH.","zip":"60672"},{"name":"AŞAĞIGÜÇLÜ KÖYÜ","zip":"60672"},{"name":"BAYIRLI KÖYÜ","zip":"60672"},{"name":"BEBEKDERESİ KÖYÜ","zip":"60672"},{"name":"BOYUNPINAR KÖYÜ","zip":"60672"},{"name":"ÇELİKLİ KÖYÜ","zip":"60672"},{"name":"DEVECİKARGIN KÖYÜ","zip":"60672"},{"name":"EVLİDERESİ KÖYÜ","zip":"60672"},{"name":"GAZİPINARI KÖYÜ","zip":"60672"},{"name":"GÜMÜŞYURT KÖYÜ","zip":"60672"},{"name":"GÜRARDIÇ KÖYÜ","zip":"60672"},{"name":"İĞDİR KÖYÜ","zip":"60672"},{"name":"KARAKUŞ YAYLASI MAH.","zip":"60672"},{"name":"KAYAÖNÜ KÖYÜ","zip":"60672"},{"name":"KUNDUZ KÖYÜ","zip":"60672"},{"name":"KUNDUZAĞILI KÖYÜ","zip":"60672"},{"name":"MERTEKLİ KÖYÜ","zip":"60672"},{"name":"POYRAZALAN KÖYÜ","zip":"60672"},{"name":"SAĞLICA KÖYÜ","zip":"60672"},{"name":"SALUR KÖYÜ","zip":"60672"},{"name":"SÖĞÜTLÜ YAYLASI MAH.","zip":"60672"},{"name":"TANYELİ KÖYÜ","zip":"60672"},{"name":"TAŞPINAR KÖYÜ","zip":"60672"},{"name":"TEKKE MAH.","zip":"60672"},{"name":"TUZLA KÖYÜ","zip":"60672"},{"name":"ULUSULU KÖYÜ","zip":"60672"},{"name":"URHUÇ HATUN MAH.","zip":"60672"},{"name":"YAĞCIMUSA KÖYÜ","zip":"60672"},{"name":"YENİCE KÖYÜ","zip":"60672"},{"name":"YUKARIGÜÇLÜ KÖYÜ","zip":"60672"}]},{"name":"BAŞÇİFTLİK","cityName":null,"quarters":[{"name":"FATİH MAH.","zip":"60620"},{"name":"GENÇOSMAN MAH.","zip":"60620"},{"name":"HATİPLİ KÖYÜ","zip":"60620"},{"name":"KARACAÖREN ALİBABA MAH.","zip":"60620"},{"name":"KARACAÖREN AŞIROĞLU MAH.","zip":"60620"},{"name":"KARACAÖREN GAZİOSMANPAŞA MAH.","zip":"60620"},{"name":"SİNANPAŞA MAH.","zip":"60620"}]},{"name":"MERKEZKÖYLER","cityName":null,"quarters":[{"name":"ALAN MAH.","zip":"60622"},{"name":"ALAN YAYLASI MAH.","zip":"60622"},{"name":"AYDOĞMUŞ KÖYÜ","zip":"60622"},{"name":"BÜRÜCEK YAYLASI MAH.","zip":"60622"},{"name":"DAĞÜSTÜ KÖYÜ","zip":"60622"},{"name":"DAĞÜSTÜ MAH.","zip":"60622"},{"name":"DÜDEN MAH.","zip":"60622"},{"name":"ERİKBELEN KÖYÜ","zip":"60622"},{"name":"ERİKÇAYIRI MAH.","zip":"60622"},{"name":"ERİKÇAYIRI YAYLASI MAH.","zip":"60622"},{"name":"KARŞIBAĞLAR MAH.","zip":"60622"},{"name":"KAYNAR MAH.","zip":"60622"},{"name":"KUŞTANLAR MAH.","zip":"60622"},{"name":"ORTA MAH.","zip":"60622"},{"name":"SARIAĞIL KÖYÜ","zip":"60622"},{"name":"ŞAHNAALAN KÖYÜ","zip":"60622"},{"name":"ŞAHNAALAN YAYLASI MAH.","zip":"60622"},{"name":"TEKNEPINAR MAH.","zip":"60622"},{"name":"YENİ MAH.","zip":"60622"},{"name":"YUKARI MAH.","zip":"60622"}]},{"name":"ERBAA","cityName":null,"quarters":[{"name":"ALACABAL MAH.","zip":"60500"},{"name":"CUMHURİYET MAH.","zip":"60500"},{"name":"DEĞİRMENLİ KÖYÜ","zip":"60500"},{"name":"EREK MAH.","zip":"60500"},{"name":"ERTUĞRULGAZİ MAH.","zip":"60500"},{"name":"EVYABA MAH.","zip":"60500"},{"name":"FATİHSULTANMEHMET MAH.","zip":"60500"},{"name":"FEVZİPAŞA MAH.","zip":"60500"},{"name":"GAZİOSMANPAŞA MAH.","zip":"60500"},{"name":"GAZİPAŞA MAH.","zip":"60500"},{"name":"GÜNDOĞDU MAH.","zip":"60500"},{"name":"İSMETPAŞA MAH.","zip":"60500"},{"name":"KARŞIYAKA MAH.","zip":"60500"},{"name":"KELKİT MAH.","zip":"60500"},{"name":"KELKİT OSB MAH.","zip":"60500"},{"name":"KOÇAK KÖYÜ","zip":"60500"},{"name":"KURUÇAY MAH.","zip":"60500"},{"name":"MEHMET AKİF MAH.","zip":"60500"},{"name":"MEVLANA MAH.","zip":"60500"},{"name":"MİMARSİNAN MAH.","zip":"60500"},{"name":"OSMANGAZİ MAH.","zip":"60500"},{"name":"YAVUZSULTANSELİM MAH.","zip":"60500"},{"name":"YENİ MAH.","zip":"60500"},{"name":"YEŞİLYURT MAH.","zip":"60500"},{"name":"YILDIRIMBEYAZIT MAH.","zip":"60500"},{"name":"YUNUSEMRE MAH.","zip":"60500"},{"name":"ZİYAGÖKALP MAH.","zip":"60500"}]},{"name":"KARAYAKA","cityName":null,"quarters":[{"name":"AKSEKİ MAH.","zip":"60540"},{"name":"ALAN KÖYÜ","zip":"60540"},{"name":"ALAN MAH.","zip":"60540"},{"name":"ALÇAKBEL MAH.","zip":"60540"},{"name":"ALPARSLAN MAH.","zip":"60540"},{"name":"ATATÜRK MAH.","zip":"60540"},{"name":"BAHÇELİEVLER MAH.","zip":"60540"},{"name":"BALLIBAĞ KÖYÜ","zip":"60540"},{"name":"BATAK MAH.","zip":"60540"},{"name":"BEYKAYA KÖYÜ","zip":"60540"},{"name":"BİLLOR MAH.","zip":"60540"},{"name":"BÜYRAN MAH.","zip":"60540"},{"name":"ÇAMLIGENİŞ MAH.","zip":"60540"},{"name":"ÇAMPINARI MAH.","zip":"60540"},{"name":"ÇATALAN KÖYÜ","zip":"60540"},{"name":"ÇERÇE MAH.","zip":"60540"},{"name":"ÇERMİK KAPLICA MAH.","zip":"60540"},{"name":"ÇOĞŞUR MAH.","zip":"60540"},{"name":"DARILIK MAH.","zip":"60540"},{"name":"DEĞİRMENCEBÜK MAH.","zip":"60540"},{"name":"DERE MAH.","zip":"60540"},{"name":"DOKUZÇAM KÖYÜ","zip":"60540"},{"name":"ERDEMLİ KÖYÜ","zip":"60540"},{"name":"ESENTEPE MAH.","zip":"60540"},{"name":"FARKLAR MAH.","zip":"60540"},{"name":"FATİH SULTAN MEHMET MAH.","zip":"60540"},{"name":"GAZİ OSMAN PAŞA MAH.","zip":"60540"},{"name":"GEDİRGEN MAH.","zip":"60540"},{"name":"GEMİBAŞI MAH.","zip":"60540"},{"name":"GERİŞ YAZI MAH.","zip":"60540"},{"name":"GÖKAL KÖYÜ","zip":"60540"},{"name":"GÖLAĞIL MAH.","zip":"60540"},{"name":"GÖLBELEN MAH.","zip":"60540"},{"name":"GÜLDERE MAH.","zip":"60540"},{"name":"GÜLTEPE MAH.","zip":"60540"},{"name":"GÜNEY MAH.","zip":"60540"},{"name":"HASAN ALAN MAH.","zip":"60540"},{"name":"HAYAT DERESİ MAH.","zip":"60540"},{"name":"HÜRMÜZLÜ MAH.","zip":"60540"},{"name":"İFSİ MAH.","zip":"60540"},{"name":"İMBOLU MAH.","zip":"60540"},{"name":"KABAKLIBELEN MAH.","zip":"60540"},{"name":"KALE KÖYÜ","zip":"60540"},{"name":"KARAYAKA KÖYÜ","zip":"60540"},{"name":"KARESİ MAH.","zip":"60540"},{"name":"KARIMCA MAH.","zip":"60540"},{"name":"KARINÇUKURU MAH.","zip":"60540"},{"name":"KARŞI MAH.","zip":"60540"},{"name":"KARŞIYAKA MAH.","zip":"60540"},{"name":"KAVLAĞANDERE MAH.","zip":"60540"},{"name":"KAVLAĞANDERE YAYLA EVLERİ MAH.","zip":"60540"},{"name":"KAVLANDERE MAH.","zip":"60540"},{"name":"KAYAARDI MAH.","zip":"60540"},{"name":"KAYABAŞI MAH.","zip":"60540"},{"name":"KESTANE MAH.","zip":"60540"},{"name":"KIRIK MAH.","zip":"60540"},{"name":"KIRIKGÜNEY KÖYÜ","zip":"60540"},{"name":"KISIKTAŞ MAH.","zip":"60540"},{"name":"KISIRANIZ MAH.","zip":"60540"},{"name":"KIŞLA MAH.","zip":"60540"},{"name":"KIZILCAALAN MAH.","zip":"60540"},{"name":"KIZILÇUKUR MAH.","zip":"60540"},{"name":"KIZILOTLU MAH.","zip":"60540"},{"name":"KİRAZDERE MAH.","zip":"60540"},{"name":"KUŞÇU MAH.","zip":"60540"},{"name":"KUZ ALAN MAH.","zip":"60540"},{"name":"KUZALAN MAH.","zip":"60540"},{"name":"KUZKÖY MAH.","zip":"60540"},{"name":"KUZYATAK MAH.","zip":"60540"},{"name":"LALE MAH.","zip":"60540"},{"name":"MERCİMEK MAH.","zip":"60540"},{"name":"MERKEZ MAH.","zip":"60540"},{"name":"MEŞELİK MAH.","zip":"60540"},{"name":"NARLIDERE KÖYÜ","zip":"60540"},{"name":"ORTA MAH.","zip":"60540"},{"name":"ORTAKÖY KÖYÜ","zip":"60540"},{"name":"OTLUCAK MAH.","zip":"60540"},{"name":"SALKIMÖREN KÖYÜ","zip":"60540"},{"name":"SEKİYAZI MAH.","zip":"60540"},{"name":"SELE MAH.","zip":"60540"},{"name":"SIRT MAH.","zip":"60540"},{"name":"SÜTLÜCE MAH.","zip":"60540"},{"name":"ŞÜKÜR KÖYÜ","zip":"60540"},{"name":"TAŞLIMAN MAH.","zip":"60540"},{"name":"TEPE MAH.","zip":"60540"},{"name":"TOMBULDÜZ MAH.","zip":"60540"},{"name":"TOPDORUK MAH.","zip":"60540"},{"name":"TÜRKFINDICAK KÖYÜ","zip":"60540"},{"name":"ULUÇUKUR MAH.","zip":"60540"},{"name":"ÜÇ SAMANLIK MAH.","zip":"60540"},{"name":"ÜÇYÜZ MAH.","zip":"60540"},{"name":"ÜZÜMLÜ KÖYÜ","zip":"60540"},{"name":"YABALI MAH.","zip":"60540"},{"name":"YATAK MAH.","zip":"60540"},{"name":"YAVUZ SULTAN SELİM MAH.","zip":"60540"},{"name":"YAYLA MAH.","zip":"60540"},{"name":"YAYLACIK KÖYÜ","zip":"60540"},{"name":"YEŞİLYURT MAH.","zip":"60540"},{"name":"YUKARI MAH.","zip":"60540"}]},{"name":"MERKEZKÖYLER","cityName":null,"quarters":[{"name":"AĞCAKEÇİ KÖYÜ","zip":"60502"},{"name":"AHRET MAH.","zip":"60502"},{"name":"AKÇA KÖYÜ","zip":"60502"},{"name":"AKGÜN KÖYÜ","zip":"60502"},{"name":"AKKOÇ MAH.","zip":"60502"},{"name":"ALAN MAH.","zip":"60502"},{"name":"ALPASLAN MAH.","zip":"60502"},{"name":"AŞAĞIÇANDIR KÖYÜ","zip":"60502"},{"name":"AŞAĞIKÖY MAH.","zip":"60502"},{"name":"AYAN KÖYÜ","zip":"60502"},{"name":"AYDINSOFU KÖYÜ","zip":"60502"},{"name":"AYYERİ MAH.","zip":"60502"},{"name":"BAĞPINAR KÖYÜ","zip":"60502"},{"name":"BAHÇELİEVLER MAH.","zip":"60502"},{"name":"BARAK MAH.","zip":"60502"},{"name":"BENEVÜ MAH.","zip":"60502"},{"name":"BENLİ KÖYÜ","zip":"60502"},{"name":"BEŞEVLER MAH.","zip":"60502"},{"name":"CANBOLAT KÖYÜ","zip":"60502"},{"name":"CEVİZLİK MAH.","zip":"60502"},{"name":"CİBRİL KÖYÜ","zip":"60502"},{"name":"ÇAKIR KÖYÜ","zip":"60502"},{"name":"ÇAKIRLAR MAH.","zip":"60502"},{"name":"ÇALKARA KÖYÜ","zip":"60502"},{"name":"ÇAMDİBİ KÖYÜ","zip":"60502"},{"name":"ÇANKAYA MAH.","zip":"60502"},{"name":"ÇAYIR MAH.","zip":"60502"},{"name":"ÇERKEZFINDICAK KÖYÜ","zip":"60502"},{"name":"ÇEŞMELİ KÖYÜ","zip":"60502"},{"name":"ÇEVRESU KÖYÜ","zip":"60502"},{"name":"ÇINARLI MAH.","zip":"60502"},{"name":"ÇINDIRLI MAH.","zip":"60502"},{"name":"ÇİDDİBİ MAH.","zip":"60502"},{"name":"ÇİRPİ DAĞ MAH.","zip":"60502"},{"name":"ÇİZENE MAH.","zip":"60502"},{"name":"DEĞİRMEN YANI MAH.","zip":"60502"},{"name":"DEMİRTAŞ KÖYÜ","zip":"60502"},{"name":"DERE TARLA MAH.","zip":"60502"},{"name":"DEREÇİFLİK MAH.","zip":"60502"},{"name":"DİBEK MAH.","zip":"60502"},{"name":"DİLDOS MAH.","zip":"60502"},{"name":"DOĞANYURT KÖYÜ","zip":"60502"},{"name":"DOMUZDAMI MAH.","zip":"60502"},{"name":"DUR YAYLA MAH.","zip":"60502"},{"name":"ENDİKPINAR KÖYÜ","zip":"60502"},{"name":"ENGELLİ KÖYÜ","zip":"60502"},{"name":"ERİKLİK MAH.","zip":"60502"},{"name":"ERMEYDANI KÖYÜ","zip":"60502"},{"name":"ERYABA KÖYÜ","zip":"60502"},{"name":"EVCİLER KÖYÜ","zip":"60502"},{"name":"EZEBAĞI KÖYÜ","zip":"60502"},{"name":"FEVZİPAŞA MAH.","zip":"60502"},{"name":"GERİŞ MAH.","zip":"60502"},{"name":"GÖÇAHMET MAH.","zip":"60502"},{"name":"GÖÇAHMETLER MAH.","zip":"60502"},{"name":"GÖLLÜ GERİŞ MAH.","zip":"60502"},{"name":"GÖLÖNÜ KÖYÜ","zip":"60502"},{"name":"GÜMÜŞALAN KÖYÜ","zip":"60502"},{"name":"GÜNİSE MAH.","zip":"60502"},{"name":"GÜRPINAR MAH.","zip":"60502"},{"name":"GÜVEÇLİ KÖYÜ","zip":"60502"},{"name":"HACIALİ KÖYÜ","zip":"60502"},{"name":"HACIBÜKÜ KÖYÜ","zip":"60502"},{"name":"HACIPAZAR KÖYÜ","zip":"60502"},{"name":"HATUN PINARI MAH.","zip":"60502"},{"name":"HAYDARLI MAH.","zip":"60502"},{"name":"HIDIRLI MAH.","zip":"60502"},{"name":"HÖNGEZLİ MAH.","zip":"60502"},{"name":"IRMAK KENARI MAH.","zip":"60502"},{"name":"İBİLO MAH.","zip":"60502"},{"name":"İKİZCE KÖYÜ","zip":"60502"},{"name":"İMAMGİL MAH.","zip":"60502"},{"name":"İVAZA MAH.","zip":"60502"},{"name":"İVERÖNÜ KÖYÜ","zip":"60502"},{"name":"KAĞNIKDÜZÜ MAH.","zip":"60502"},{"name":"KALEBOYNU MAH.","zip":"60502"},{"name":"KALEYAZISI MAH.","zip":"60502"},{"name":"KAMIŞLI MAH.","zip":"60502"},{"name":"KARAAĞAÇ KÖYÜ","zip":"60502"},{"name":"KARAKİŞİ MAH.","zip":"60502"},{"name":"KARAVU MAH.","zip":"60502"},{"name":"KARTOSMAN KÖYÜ","zip":"60502"},{"name":"KAVALCIK KÖYÜ","zip":"60502"},{"name":"KEÇECİ KÖYÜ","zip":"60502"},{"name":"KELKAYA MAH.","zip":"60502"},{"name":"KERVESEVİ MAH.","zip":"60502"},{"name":"KESTANELİK MAH.","zip":"60502"},{"name":"KILIÇALAN MAH.","zip":"60502"},{"name":"KIZILBÜK MAH.","zip":"60502"},{"name":"KIZILÇUBUK KÖYÜ","zip":"60502"},{"name":"KOCATARLA MAH.","zip":"60502"},{"name":"KOZLU KÖYÜ","zip":"60502"},{"name":"KÖROĞLU MAH.","zip":"60502"},{"name":"KÖYYERİ MAH.","zip":"60502"},{"name":"KUNDAKÇIGİL MAH.","zip":"60502"},{"name":"KURTULUŞ KÖYÜ","zip":"60502"},{"name":"KUZ KÖYÜ","zip":"60502"},{"name":"KÜPLÜCE KÖYÜ","zip":"60502"},{"name":"MADENLİ KÖYÜ","zip":"60502"},{"name":"MENDERES MAH.","zip":"60502"},{"name":"MERKEZ MAH.","zip":"60502"},{"name":"MEYDANDÜZÜ KÖYÜ","zip":"60502"},{"name":"MUNDAR YAZI MAH.","zip":"60502"},{"name":"OCAKBAŞI KÖYÜ","zip":"60502"},{"name":"OĞLAKÇI KÖYÜ","zip":"60502"},{"name":"ORTA MAH.","zip":"60502"},{"name":"ÖMERPAŞA MAH.","zip":"60502"},{"name":"ÖTEGEÇE MAH.","zip":"60502"},{"name":"ÖTEKÖY MAH.","zip":"60502"},{"name":"PINARBEYLİ KÖYÜ","zip":"60502"},{"name":"SAKARÇAL MAH.","zip":"60502"},{"name":"SANCAR MAH.","zip":"60502"},{"name":"SOKUTAŞ KÖYÜ","zip":"60502"},{"name":"SÜLÜK GÖLÜ MAH.","zip":"60502"},{"name":"ŞAHİNBAŞI MAH.","zip":"60502"},{"name":"ŞİMŞİRLİK MAH.","zip":"60502"},{"name":"ŞÜKÜREVİ MAH.","zip":"60502"},{"name":"TANDIRLI KÖYÜ","zip":"60502"},{"name":"TANOBA KÖYÜ","zip":"60502"},{"name":"TEPEKIŞLA KÖYÜ","zip":"60502"},{"name":"TEVEKLAL MAH.","zip":"60502"},{"name":"TOMBAŞLAR MAH.","zip":"60502"},{"name":"TOSUNLAR KÖYÜ","zip":"60502"},{"name":"USTAMEHMET KÖYÜ","zip":"60502"},{"name":"YAYLALI KÖYÜ","zip":"60502"},{"name":"YAZARBAŞI MAH.","zip":"60502"},{"name":"YENİ MAH.","zip":"60502"},{"name":"YEŞİLYURT MAH.","zip":"60502"},{"name":"YOLAĞACI MAH.","zip":"60502"},{"name":"YOLDERE KÖYÜ","zip":"60502"},{"name":"YUKARIÇANDIR KÖYÜ","zip":"60502"},{"name":"YUKARIKÖY MAH.","zip":"60502"},{"name":"YURDALAN KÖYÜ","zip":"60502"},{"name":"ZOĞALLIÇUKUR KÖYÜ","zip":"60502"}]},{"name":"GEYRAS","cityName":null,"quarters":[{"name":"ALİPAŞA MAH.","zip":"60100"},{"name":"ALTIYÜZEVLER MAH.","zip":"60100"},{"name":"BAHÇELİEVLER MAH.","zip":"60100"},{"name":"BEDESTENLİOĞLU MAH.","zip":"60100"},{"name":"BEDESTENLİOĞLUOSB MAH.","zip":"60100"},{"name":"BÜYÜK BEYBAĞI MAH.","zip":"60100"},{"name":"CAMİİKEBİR MAH.","zip":"60100"},{"name":"CEMALETTİN MAH.","zip":"60100"},{"name":"ÇAY MAH.","zip":"60100"},{"name":"DERBENT MAH.","zip":"60100"},{"name":"DEVEGÖRMEZ MAH.","zip":"60100"},{"name":"DOĞANCIBAĞLARI MAH.","zip":"60100"},{"name":"DOĞUKENT MAH.","zip":"60100"},{"name":"ERENLER MAH.","zip":"60100"},{"name":"ESENTEPE MAH.","zip":"60100"},{"name":"GEYRAS MAH.","zip":"60100"},{"name":"GEZİRLİK MAH.","zip":"60100"},{"name":"GÜLBAHARHATUN MAH.","zip":"60100"},{"name":"GÜNEŞLİ MAH.","zip":"60100"},{"name":"HOCAAHMET MAH.","zip":"60100"},{"name":"KABE-İ MESCİD MAH.","zip":"60100"},{"name":"KALEARDI MAH.","zip":"60100"},{"name":"KAŞIKCIBAĞLARI MAH.","zip":"60100"},{"name":"KEMER MAH.","zip":"60100"},{"name":"KÜÇÜKBEY BAĞI MAH.","zip":"60100"},{"name":"KÜMBET MAH.","zip":"60100"},{"name":"MAHMUTPAŞA MAH.","zip":"60100"},{"name":"MEHMETPAŞA MAH.","zip":"60100"},{"name":"OĞULBEY MAH.","zip":"60100"},{"name":"ÖRTMELİÖNÜ MAH.","zip":"60100"},{"name":"PERAKENDE MAH.","zip":"60100"},{"name":"SEMERKANT MAH.","zip":"60100"},{"name":"SEYİTNECMETTİN MAH.","zip":"60100"},{"name":"SOĞUKPINAR MAH.","zip":"60100"},{"name":"TOPÇAM MAH.","zip":"60100"},{"name":"TOPÇUBAĞI MAH.","zip":"60100"},{"name":"YARAHMET MAH.","zip":"60100"},{"name":"YENİ MAH.","zip":"60100"},{"name":"YENİYURT MAH.","zip":"60100"},{"name":"YEŞİLIRMAK MAH.","zip":"60100"},{"name":"YEŞİLOVA MAH.","zip":"60100"}]},{"name":"GÖKDERE","cityName":null,"quarters":[{"name":"AKBELEN KÖYÜ","zip":"60255"},{"name":"AVLUNLAR KÖYÜ","zip":"60255"},{"name":"BİNECEK KÖYÜ","zip":"60255"},{"name":"BOYALI KÖYÜ","zip":"60255"},{"name":"CUMHURİYET MAH.","zip":"60255"},{"name":"ÇAMAĞZI KÖYÜ","zip":"60255"},{"name":"ÇAMLIK KÖYÜ","zip":"60255"},{"name":"ÇÖKELİKKIŞLA KÖYÜ","zip":"60255"},{"name":"DERE MEVKİ MAH.","zip":"60255"},{"name":"DEREKIŞLA KÖYÜ","zip":"60255"},{"name":"EFE KÖYÜ","zip":"60255"},{"name":"EKİNCİLİK KÖYÜ","zip":"60255"},{"name":"EZE KÖYÜ","zip":"60255"},{"name":"EZE MAH.","zip":"60255"},{"name":"FATİH MAH.","zip":"60255"},{"name":"GÖKÇEYOL KÖYÜ","zip":"60255"},{"name":"GÖKÇEYOL MAH.","zip":"60255"},{"name":"GÖKDERE KÖYÜ","zip":"60255"},{"name":"GÖLCÜK KÖYÜ","zip":"60255"},{"name":"GÖZOVA KÖYÜ","zip":"60255"},{"name":"KABAKBOĞAZI KÖYÜ","zip":"60255"},{"name":"KARAKAYA KÖYÜ","zip":"60255"},{"name":"KARŞIYAKA MAH.","zip":"60255"},{"name":"KURTULUŞ MAH.","zip":"60255"},{"name":"MERKEZ MAH.","zip":"60255"},{"name":"MUSALLA MAH.","zip":"60255"},{"name":"MUSULLU KÖYÜ","zip":"60255"},{"name":"MÜLK KÖYÜ","zip":"60255"},{"name":"ORMANBEYLİ KÖYÜ","zip":"60255"},{"name":"ORTA MAH.","zip":"60255"},{"name":"ŞEHİTLER KÖYÜ","zip":"60255"},{"name":"YAĞMURLU KÖYÜ","zip":"60255"},{"name":"YAKACIK KÖYÜ","zip":"60255"},{"name":"YAYLAEVLERİ MAH.","zip":"60255"},{"name":"YAZIBAŞI KÖYÜ","zip":"60255"},{"name":"YENİ MAH.","zip":"60255"},{"name":"YENİCE KÖYÜ","zip":"60255"}]},{"name":"KARŞIYAKA","cityName":null,"quarters":null},{"name":"MERKEZKÖYLER","cityName":null,"quarters":[{"name":"AKIN KÖYÜ","zip":"60010"},{"name":"AKTEPE MAH.","zip":"60010"},{"name":"AKYAMAÇ KÖYÜ","zip":"60010"},{"name":"AKYURT KÖYÜ","zip":"60010"},{"name":"ALAN KÖYÜ","zip":"60010"},{"name":"ALAYBEY ÇİFTLİĞİ MAH.","zip":"60010"},{"name":"ALİ YÜCEL MAH.","zip":"60010"},{"name":"ALTUNTAŞ KÖYÜ","zip":"60010"},{"name":"ALUÇ KÖYÜ","zip":"60010"},{"name":"AŞAĞIFIRINDERE KÖYÜ","zip":"60010"},{"name":"ATATÜRK MAH.","zip":"60010"},{"name":"AVŞARAĞZI KÖYÜ","zip":"60010"},{"name":"AYDINCA KÖYÜ","zip":"60010"},{"name":"AYDINCA MÜCAVİR MAH.","zip":"60010"},{"name":"AYDOĞDU KÖYÜ","zip":"60010"},{"name":"AYDOĞDU MAH.","zip":"60010"},{"name":"BAĞBAŞI KÖYÜ","zip":"60010"},{"name":"BAHÇELİEVLER MAH.","zip":"60010"},{"name":"BAKIŞLI KÖYÜ","zip":"60010"},{"name":"BAKIŞLI MÜCAVİR MAH.","zip":"60010"},{"name":"BALIBEY YAYLASI MAH.","zip":"60010"},{"name":"BALLIDERE KÖYÜ","zip":"60010"},{"name":"BATMANTAŞ KÖYÜ","zip":"60010"},{"name":"BEDİRKALE KÖYÜ","zip":"60010"},{"name":"BEHRAM MAH.","zip":"60010"},{"name":"BEŞÖREN KÖYÜ","zip":"60010"},{"name":"BOZATALAN MAH.","zip":"60010"},{"name":"BULA KÖYÜ","zip":"60010"},{"name":"BÜYÜKBAĞLAR KÖYÜ","zip":"60010"},{"name":"BÜYÜKYILDIZ KÖYÜ","zip":"60010"},{"name":"CUMHURİYET MAH.","zip":"60010"},{"name":"ÇAMALTI KÖYÜ","zip":"60010"},{"name":"ÇAMDERE KÖYÜ","zip":"60010"},{"name":"ÇAMLIBEL KÖYÜ","zip":"60010"},{"name":"ÇAPUTSUYU MAH.","zip":"60010"},{"name":"ÇAT KÖYÜ","zip":"60010"},{"name":"ÇATALKAYA KÖYÜ","zip":"60010"},{"name":"ÇAYÖREN KÖYÜ","zip":"60010"},{"name":"ÇEKEREK MAH.","zip":"60010"},{"name":"ÇERÇİ KÖYÜ","zip":"60010"},{"name":"ÇERDİĞİN KÖYÜ","zip":"60010"},{"name":"ÇÖRDÜK KÖYÜ","zip":"60010"},{"name":"ÇÖREĞİBÜYÜK KÖYÜ","zip":"60010"},{"name":"ÇUBUKLU KÖYÜ","zip":"60010"},{"name":"DAYLIHACI KÖYÜ","zip":"60010"},{"name":"DEDELİ KÖYÜ","zip":"60010"},{"name":"DEDELİ MERKEZ MAH.","zip":"60010"},{"name":"DEREAĞZI KÖYÜ","zip":"60010"},{"name":"DEREYAKA KÖYÜ","zip":"60010"},{"name":"DODURGA KÖYÜ","zip":"60010"},{"name":"DÖLLÜK KÖYÜ","zip":"60010"},{"name":"EMİRSEYİT KÖYÜ","zip":"60010"},{"name":"ESKİ KÖY MAH.","zip":"60010"},{"name":"ESKİ KÖYÜ","zip":"60010"},{"name":"GAZİOSMANPAŞA KÖYÜ","zip":"60010"},{"name":"GAZİOSMANPAŞA ÜNİVERSİTESİ KAMPÜSÜ MAH.","zip":"60010"},{"name":"GÖKÇE KÖYÜ","zip":"60010"},{"name":"GÜĞÜMLÜ MERKEZ MAH.","zip":"60010"},{"name":"GÜĞÜNLÜ KÖYÜ","zip":"60010"},{"name":"GÜLPINAR KÖYÜ","zip":"60010"},{"name":"GÜLTEPE MAH.","zip":"60010"},{"name":"GÜMENEK KÖYÜ","zip":"60010"},{"name":"GÜNÇALI KÖYÜ","zip":"60010"},{"name":"GÜNEŞLİ MAH.","zip":"60010"},{"name":"GÜNEVİ KÖYÜ","zip":"60010"},{"name":"GÜNEVİ MÜCAVİR MAH.","zip":"60010"},{"name":"GÜRYILDIZ KÖYÜ","zip":"60010"},{"name":"GÜZELCE KÖYÜ","zip":"60010"},{"name":"GÜZELDERE KÖYÜ","zip":"60010"},{"name":"HALİLALAN KÖYÜ","zip":"60010"},{"name":"HANPINAR KÖYÜ","zip":"60010"},{"name":"HASANBABA KÖYÜ","zip":"60010"},{"name":"HASANBABA MÜCAVİR MAH.","zip":"60010"},{"name":"İHSANİYE KÖYÜ","zip":"60010"},{"name":"İNANLI MAH.","zip":"60010"},{"name":"İNÖNÜ MAH.","zip":"60010"},{"name":"KADIVAKFI KÖYÜ","zip":"60010"},{"name":"KAHVEPINARI MAH.","zip":"60010"},{"name":"KANALALTI MAH.","zip":"60010"},{"name":"KARASU MAH.","zip":"60010"},{"name":"KARKIN KÖYÜ","zip":"60010"},{"name":"KARKINCIK KÖYÜ","zip":"60010"},{"name":"KARŞIYAKA MAH.","zip":"60010"},{"name":"KEMALPAŞA KÖYÜ","zip":"60010"},{"name":"KERVANSARAY KÖYÜ","zip":"60010"},{"name":"KEŞLİK KÖYÜ","zip":"60010"},{"name":"KILIÇLI MÜCAVİR MAH.","zip":"60010"},{"name":"KIŞLA DERESİ MAH.","zip":"60010"},{"name":"KIŞLA MAH.","zip":"60010"},{"name":"KIZIK KÖYÜ","zip":"60010"},{"name":"KIZILKAYA KÖYÜ","zip":"60010"},{"name":"KIZILKÖY KÖYÜ","zip":"60010"},{"name":"KIZILÖZ KÖYÜ","zip":"60010"},{"name":"KIZILYAZI MAH.","zip":"60010"},{"name":"KİLLİK KÖYÜ","zip":"60010"},{"name":"KOCACIK KÖYÜ","zip":"60010"},{"name":"KOCAPINAR MAH.","zip":"60010"},{"name":"KÖMEÇ KÖYÜ","zip":"60010"},{"name":"KÜÇÜKBAĞLAR KÖYÜ","zip":"60010"},{"name":"KÜÇÜKYILDIZ MAH.","zip":"60010"},{"name":"MADAS KÖYÜ","zip":"60010"},{"name":"MERKEZ MAH.","zip":"60010"},{"name":"NEBİ KÖYÜ","zip":"60010"},{"name":"ORTAÖREN KÖYÜ","zip":"60010"},{"name":"PINARLI KÖYÜ","zip":"60010"},{"name":"SALTIK MAH.","zip":"60010"},{"name":"SARITARLA KÖYÜ","zip":"60010"},{"name":"SEMERCİ KÖYÜ","zip":"60010"},{"name":"SEVİNDİK KÖYÜ","zip":"60010"},{"name":"SIRÇALI KÖYÜ","zip":"60010"},{"name":"SÖNGÜT KÖYÜ","zip":"60010"},{"name":"SÜNDÜS ÇİFTLİĞİ MAH.","zip":"60010"},{"name":"ŞENKÖY KÖYÜ","zip":"60010"},{"name":"ŞHT.ABDULLAH ÖZER MAH.","zip":"60010"},{"name":"TAHTUBA KÖYÜ","zip":"60010"},{"name":"TAŞLIÇİFTLİK KÖYÜ","zip":"60010"},{"name":"TAYYAR ŞAHİN ÇİFTLİĞİ MAH.","zip":"60010"},{"name":"TEKNELİ KÖYÜ","zip":"60010"},{"name":"UĞRAK KÖYÜ","zip":"60010"},{"name":"ULAŞ KÖYÜ","zip":"60010"},{"name":"ULAŞ MÜCAVİR MAH.","zip":"60010"},{"name":"YATMIŞ KÖYÜ","zip":"60010"},{"name":"YAYLA EVLERİ MAH.","zip":"60010"},{"name":"YAYLADALI KÖYÜ","zip":"60010"},{"name":"YAYLADALI MERKEZ MAH.","zip":"60010"},{"name":"YAYLADALI MÜCAVİR MAH.","zip":"60010"},{"name":"YAYLADALI YAYLASI MAH.","zip":"60010"},{"name":"YAYLAEVLERİ MAH.","zip":"60010"},{"name":"YELPE KÖYÜ","zip":"60010"},{"name":"YEŞİLIRMAK MAH.","zip":"60010"},{"name":"YEŞİLYURT KÖYÜ","zip":"60010"},{"name":"YUKARI ÇİFTLİK MAH.","zip":"60010"},{"name":"YUNUSEMRE MAH.","zip":"60010"}]},{"name":"GÖKÇELİ","cityName":null,"quarters":[{"name":"BALLICA MAH.","zip":"60630"},{"name":"BAYRAKTEPE KÖYÜ","zip":"60630"},{"name":"ERYABA KÖYÜ","zip":"60630"},{"name":"ESKİDİR MAH.","zip":"60630"},{"name":"GAZİ OSMAN PAŞA MAH.","zip":"60630"},{"name":"GÖKÇELİ KÖYÜ","zip":"60630"},{"name":"GÖZPINAR MAH.","zip":"60630"},{"name":"GÜNLÜCE KÖYÜ","zip":"60630"},{"name":"GÜRÇEŞME KÖYÜ","zip":"60630"},{"name":"İNCİRLİ MAH.","zip":"60630"},{"name":"KAVAKLI MAH.","zip":"60630"},{"name":"KÖMÜŞLÜK MAH.","zip":"60630"},{"name":"KÜMBETLİ KÖYÜ","zip":"60630"},{"name":"KÜMBETLİ MAH.","zip":"60630"},{"name":"MERKEZ MAH.","zip":"60630"},{"name":"NİKSAR OSB MAH.","zip":"60630"},{"name":"OLUKLU KÖYÜ","zip":"60630"},{"name":"OLUKLU MAH.","zip":"60630"},{"name":"SORHUN KÖYÜ","zip":"60630"},{"name":"SORHUN MAH.","zip":"60630"},{"name":"TEKNEALAN KÖYÜ","zip":"60630"},{"name":"TEPEYATAK KÖYÜ","zip":"60630"},{"name":"YAKINCA MAH.","zip":"60630"},{"name":"YAPRAKLI MAH.","zip":"60630"},{"name":"YAYLACIK MAH.","zip":"60630"},{"name":"YENİ MAH.","zip":"60630"},{"name":"YUKARI MAH.","zip":"60630"}]},{"name":"MERKEZKÖYLER","cityName":null,"quarters":[{"name":"AĞIL MAH.","zip":"60602"},{"name":"AKGÜNEY KÖYÜ","zip":"60602"},{"name":"AKINCI KÖYÜ","zip":"60602"},{"name":"ARAKÖY KÖYÜ","zip":"60602"},{"name":"ARDIÇLI KÖYÜ","zip":"60602"},{"name":"ARIPINAR KÖYÜ","zip":"60602"},{"name":"ARMAĞANLI MAH.","zip":"60602"},{"name":"ARPAÖREN KÖYÜ","zip":"60602"},{"name":"ASAR KÖYÜ","zip":"60602"},{"name":"ASİ GÖZÜ MAH.","zip":"60602"},{"name":"AŞAĞI MAH.","zip":"60602"},{"name":"ATATÜRK MAH.","zip":"60602"},{"name":"AVCIOĞLU MAH.","zip":"60602"},{"name":"AYVAKÖY MAH.","zip":"60602"},{"name":"AYVALI KÖYÜ","zip":"60602"},{"name":"AYVALI MAH.","zip":"60602"},{"name":"AYVAZ MAH.","zip":"60602"},{"name":"BASROĞUL MAH.","zip":"60602"},{"name":"BEYAZIT MAH.","zip":"60602"},{"name":"BEYÇAYIRI KÖYÜ","zip":"60602"},{"name":"BİLGİLİ KÖYÜ","zip":"60602"},{"name":"BOĞAZBAŞI KÖYÜ","zip":"60602"},{"name":"BOYLUCA KÖYÜ","zip":"60602"},{"name":"BOZCAARMUT KÖYÜ","zip":"60602"},{"name":"BUDAKLI KÖYÜ","zip":"60602"},{"name":"BUZ KÖYÜ","zip":"60602"},{"name":"BÜK MAH.","zip":"60602"},{"name":"BÜYÜKYURT KÖYÜ","zip":"60602"},{"name":"CAMİDERE KÖYÜ","zip":"60602"},{"name":"CERKÖY KÖYÜ","zip":"60602"},{"name":"CUMHURİYET MAH.","zip":"60602"},{"name":"ÇAKIRLAR MAH.","zip":"60602"},{"name":"ÇAKMAK MAH.","zip":"60602"},{"name":"ÇALCA KÖYÜ","zip":"60602"},{"name":"ÇATAK KÖYÜ","zip":"60602"},{"name":"ÇATAK MAH.","zip":"60602"},{"name":"ÇAY KÖYÜ","zip":"60602"},{"name":"ÇİÇEKLİ KÖYÜ","zip":"60602"},{"name":"ÇİMENÖZÜ KÖYÜ","zip":"60602"},{"name":"ÇOLAKLAR MAH.","zip":"60602"},{"name":"DALKAYA KÖYÜ","zip":"60602"},{"name":"DEĞİRMEN MAH.","zip":"60602"},{"name":"DERİNDERE KÖYÜ","zip":"60602"},{"name":"DERLEN MAH.","zip":"60602"},{"name":"DİREKLİ KÖYÜ","zip":"60602"},{"name":"EDİLLİ KÖYÜ","zip":"60602"},{"name":"EFKERİT MAH.","zip":"60602"},{"name":"ELMABÜKÜ MAH.","zip":"60602"},{"name":"ESENCE KÖYÜ","zip":"60602"},{"name":"ESKİKÖY MAH.","zip":"60602"},{"name":"EYNEAĞZI KÖYÜ","zip":"60602"},{"name":"FAKİR DAMI MAH.","zip":"60602"},{"name":"FATİH MAH.","zip":"60602"},{"name":"GAZİ OSMAN PAŞA MAH.","zip":"60602"},{"name":"GERİT KÖYÜ","zip":"60602"},{"name":"GEYİKGÖLÜ KÖYÜ","zip":"60602"},{"name":"GÖKÇEOLUK KÖYÜ","zip":"60602"},{"name":"GÖL ARKASI MAH.","zip":"60602"},{"name":"GÜDÜKLÜ KÖYÜ","zip":"60602"},{"name":"GÜLBAYIR KÖYÜ","zip":"60602"},{"name":"GÜLEBİ KÖYÜ","zip":"60602"},{"name":"GÜLTEPE KÖYÜ","zip":"60602"},{"name":"GÜVENLİ KÖYÜ","zip":"60602"},{"name":"GÜZELYAYLA KÖYÜ","zip":"60602"},{"name":"HACILI KÖYÜ","zip":"60602"},{"name":"HANYERİ KÖYÜ","zip":"60602"},{"name":"HASANKÖY MAH.","zip":"60602"},{"name":"HASYER MAH.","zip":"60602"},{"name":"HAYDARBEY KÖYÜ","zip":"60602"},{"name":"HÜSEYİNGAZİ KÖYÜ","zip":"60602"},{"name":"ILICAK MAH.","zip":"60602"},{"name":"IRMAK MAH.","zip":"60602"},{"name":"IŞIKLI KÖYÜ","zip":"60602"},{"name":"KAMBUR MAH.","zip":"60602"},{"name":"KAPIAĞZI KÖYÜ","zip":"60602"},{"name":"KARAAĞAÇ MAH.","zip":"60602"},{"name":"KARABAYIR MAH.","zip":"60602"},{"name":"KARABODUR KÖYÜ","zip":"60602"},{"name":"KARAKAŞ KÖYÜ","zip":"60602"},{"name":"KARAKESE MAH.","zip":"60602"},{"name":"KAŞIKCI KÖYÜ","zip":"60602"},{"name":"KATİPGÖLÜ MAH.","zip":"60602"},{"name":"KEÇİYATAĞI MAH.","zip":"60602"},{"name":"KİLİSE MAH.","zip":"60602"},{"name":"KİRACI KÖYÜ","zip":"60602"},{"name":"KOÇGAN MAH.","zip":"60602"},{"name":"KOÇU MAH.","zip":"60602"},{"name":"KORULU KÖYÜ","zip":"60602"},{"name":"KÖKLÜCE KÖYÜ","zip":"60602"},{"name":"KÖKLÜCE MAH.","zip":"60602"},{"name":"KUMÇİFTLİK KÖYÜ","zip":"60602"},{"name":"KURUDERE MAH.","zip":"60602"},{"name":"KUYUCAK KÖYÜ","zip":"60602"},{"name":"KÜLTÜR MAH.","zip":"60602"},{"name":"KÜRTLERDERESİ MAH.","zip":"60602"},{"name":"MADİLLER MAH.","zip":"60602"},{"name":"MAHMUDİYE KÖYÜ","zip":"60602"},{"name":"MECİRİF MAH.","zip":"60602"},{"name":"MERCİMEKDÜZÜ KÖYÜ","zip":"60602"},{"name":"MERKEZ MAH.","zip":"60602"},{"name":"MEZRA KÖYÜ","zip":"60602"},{"name":"MUHTARDÜZÜ KÖYÜ","zip":"60602"},{"name":"MUSAPINARI KÖYÜ","zip":"60602"},{"name":"MUTLUCA KÖYÜ","zip":"60602"},{"name":"OLUKALAN MAH.","zip":"60602"},{"name":"ORMANCIK KÖYÜ","zip":"60602"},{"name":"OSMANİYE KÖYÜ","zip":"60602"},{"name":"ÖRENLER KÖYÜ","zip":"60602"},{"name":"ÖZALAN KÖYÜ","zip":"60602"},{"name":"ÖZDEMİR MAH.","zip":"60602"},{"name":"ÖZVEREN KÖYÜ","zip":"60602"},{"name":"PELİTLİ KÖYÜ","zip":"60602"},{"name":"PELİTLİK MAH.","zip":"60602"},{"name":"PORSUK MAH.","zip":"60602"},{"name":"RECEPDERE MAH.","zip":"60602"},{"name":"SARIYAZI KÖYÜ","zip":"60602"},{"name":"SARIYAZI MAH.","zip":"60602"},{"name":"SERENLİ KÖYÜ","zip":"60602"},{"name":"SULUGÖL KÖYÜ","zip":"60602"},{"name":"ŞAFAK MAH.","zip":"60602"},{"name":"ŞAHİNLİ KÖYÜ","zip":"60602"},{"name":"ŞIHLAR KÖYÜ","zip":"60602"},{"name":"TAHTALI KÖYÜ","zip":"60602"},{"name":"TAMLAR MAH.","zip":"60602"},{"name":"TENEVLİ MAH.","zip":"60602"},{"name":"TERZİOĞLU KÖYÜ","zip":"60602"},{"name":"TOPKARA MAH.","zip":"60602"},{"name":"ULUSULUK MAH.","zip":"60602"},{"name":"UMURLU KÖYÜ","zip":"60602"},{"name":"USTAHASAN KÖYÜ","zip":"60602"},{"name":"UZUNOĞLU MAH.","zip":"60602"},{"name":"YAĞAN MAH.","zip":"60602"},{"name":"YALIKÖY KÖYÜ","zip":"60602"},{"name":"YARBAŞI KÖYÜ","zip":"60602"},{"name":"YAYLA MAH.","zip":"60602"},{"name":"YAZICIK KÖYÜ","zip":"60602"},{"name":"YELMÜK MAH.","zip":"60602"},{"name":"YENİ MAH.","zip":"60602"},{"name":"YEŞİLÇAM MAH.","zip":"60602"},{"name":"YEŞİLHİSAR KÖYÜ","zip":"60602"},{"name":"YEŞİLKAYA KÖYÜ","zip":"60602"},{"name":"YEŞİLKÖY KÖYÜ","zip":"60602"},{"name":"YEŞİLYURT KÖYÜ","zip":"60602"},{"name":"YEŞİLYURT MAH.","zip":"60602"},{"name":"YETİMOĞLU MAH.","zip":"60602"},{"name":"YOLKONAK KÖYÜ","zip":"60602"},{"name":"YUKARI MAH.","zip":"60602"}]},{"name":"NİKSAR","cityName":null,"quarters":[{"name":"AKPINAR MAH.","zip":"60600"},{"name":"AYDINLIKEVLER MAH.","zip":"60600"},{"name":"AYVAZ MAH.","zip":"60600"},{"name":"BAĞLAR MAH.","zip":"60600"},{"name":"BAHÇELİEVLER MAH.","zip":"60600"},{"name":"BENGİLER MAH.","zip":"60600"},{"name":"CEDİT MAH.","zip":"60600"},{"name":"CEPNİBEY MAH.","zip":"60600"},{"name":"ÇENGELLİ MAH.","zip":"60600"},{"name":"FATİH MAH.","zip":"60600"},{"name":"G.OSMANPAŞA MAH.","zip":"60600"},{"name":"GAZİAHMET MAH.","zip":"60600"},{"name":"GÜNEBAKAN KÖYÜ","zip":"60600"},{"name":"HAMİDİYE MAH.","zip":"60600"},{"name":"İSMETPAŞA MAH.","zip":"60600"},{"name":"KAYAPAŞA MAH.","zip":"60600"},{"name":"KILIÇARSLAN MAH.","zip":"60600"},{"name":"KIRKKIZLAR MAH.","zip":"60600"},{"name":"KÜLTÜR MAH.","zip":"60600"},{"name":"MELİKGAZİ MAH.","zip":"60600"},{"name":"ŞAİR EMRAH MAH.","zip":"60600"},{"name":"YENİ MAH.","zip":"60600"},{"name":"YUSUFŞAH MAH.","zip":"60600"}]},{"name":"MERKEZKÖYLER","cityName":null,"quarters":[{"name":"BALLICA KÖYÜ","zip":"60802"},{"name":"BEŞEVLER KÖYÜ","zip":"60802"},{"name":"ÇAYKÖY KÖYÜ","zip":"60802"},{"name":"ÇAYLAK MAH.","zip":"60802"},{"name":"ÇİFTLİKKÖY KÖYÜ","zip":"60802"},{"name":"DEREÇAYLI KÖYÜ","zip":"60802"},{"name":"DEREKÖY KÖYÜ","zip":"60802"},{"name":"DOĞANCALI KÖYÜ","zip":"60802"},{"name":"FATİH MAH.","zip":"60802"},{"name":"GAZİ OSMAN PAŞA MAH.","zip":"60802"},{"name":"KALEDERE KÖYÜ","zip":"60802"},{"name":"KAZOVA MAH.","zip":"60802"},{"name":"MANASTIR MAH.","zip":"60802"},{"name":"MEHMET AKİF ERSOY MAH.","zip":"60802"},{"name":"MENTEŞE KÖYÜ","zip":"60802"},{"name":"MERKEZ MAH.","zip":"60802"},{"name":"MRŞ.FEVZİ ÇAKMAK MAH.","zip":"60802"},{"name":"OCAKLI KÖYÜ","zip":"60802"},{"name":"OVACIK KÖYÜ","zip":"60802"},{"name":"OVAYURT KÖYÜ","zip":"60802"},{"name":"TAŞLIK KÖYÜ","zip":"60802"},{"name":"TATARKÖY KÖYÜ","zip":"60802"},{"name":"TEPEÇAYLI KÖYÜ","zip":"60802"},{"name":"ÜZÜMÖREN KÖYÜ","zip":"60802"},{"name":"YEŞİLDERE MAH.","zip":"60802"},{"name":"YUKARI MAH.","zip":"60802"}]},{"name":"PAZAR","cityName":null,"quarters":[{"name":"ESENTEPE MAH.","zip":"60800"},{"name":"MERKEZ MAH.","zip":"60800"},{"name":"SEYİTALİ MAH.","zip":"60800"},{"name":"SİNANPAŞA MAH.","zip":"60800"},{"name":"TEKKE MAH.","zip":"60800"}]},{"name":"BEREKETLİ","cityName":null,"quarters":[{"name":"BOZÇALI KÖYÜ","zip":"60710"},{"name":"ÇAKRAZ MAH.","zip":"60710"},{"name":"ELMACIK KÖYÜ","zip":"60710"},{"name":"ELMACIK MAH.","zip":"60710"},{"name":"ESKİTURAÇ MAH.","zip":"60710"},{"name":"GERDENGEÇ MAH.","zip":"60710"},{"name":"GÜZELDERE KÖYÜ","zip":"60710"},{"name":"GÜZELDERE YAYLASI MAH.","zip":"60710"},{"name":"HACI ABİDİN MAH.","zip":"60710"},{"name":"HEBÜLLÜ MAH.","zip":"60710"},{"name":"IŞIKLAR MAH.","zip":"60710"},{"name":"KADILI MAH.","zip":"60710"},{"name":"KAYALIK MAH.","zip":"60710"},{"name":"NİZAM MAH.","zip":"60710"},{"name":"ORTA MAH.","zip":"60710"},{"name":"TAŞLICA KÖYÜ","zip":"60710"},{"name":"TOKLAR KÖYÜ","zip":"60710"},{"name":"YAYLASI MAH.","zip":"60710"},{"name":"YENİ MAH.","zip":"60710"},{"name":"ZAFER MAH.","zip":"60710"}]},{"name":"MERKEZKÖYLER","cityName":null,"quarters":[{"name":"ACEMLİ MAH.","zip":"60702"},{"name":"ADATEPE MAH.","zip":"60702"},{"name":"AĞCALAR MAH.","zip":"60702"},{"name":"AĞILYANI MAH.","zip":"60702"},{"name":"AKDOĞMUŞ KÖYÜ","zip":"60702"},{"name":"AKKAYA MAH.","zip":"60702"},{"name":"AKPINAR MEVKİ YAYLASI MAH.","zip":"60702"},{"name":"AKSU MAH.","zip":"60702"},{"name":"ALICIK MAH.","zip":"60702"},{"name":"ALİBEY MAH.","zip":"60702"},{"name":"ALPLER MAH.","zip":"60702"},{"name":"ALTIPARMAK KÖYÜ","zip":"60702"},{"name":"ANNAKKAYA MAH.","zip":"60702"},{"name":"ARIM MAH.","zip":"60702"},{"name":"ARZALAN MAH.","zip":"60702"},{"name":"ARZUPINAR MAH.","zip":"60702"},{"name":"ASKERAĞA MAH.","zip":"60702"},{"name":"ATATÜRK MAH.","zip":"60702"},{"name":"AYDINLAR MAH.","zip":"60702"},{"name":"BAĞDATLI KÖYÜ","zip":"60702"},{"name":"BATMIŞ MAH.","zip":"60702"},{"name":"BAYDARLI KÖYÜ","zip":"60702"},{"name":"BAYIRBAŞI KÖYÜ","zip":"60702"},{"name":"BAYRAMALTI MAH.","zip":"60702"},{"name":"BEŞDERE KÖYÜ","zip":"60702"},{"name":"BOSTANKOLU DERESİ MAH.","zip":"60702"},{"name":"BOSTANKOLU KÖYÜ","zip":"60702"},{"name":"BULOĞLU MAH.","zip":"60702"},{"name":"BÜK MAH.","zip":"60702"},{"name":"BÜŞÜRÜM KÖYÜ","zip":"60702"},{"name":"BÜYÜKBEŞDERE MAH.","zip":"60702"},{"name":"BÜYÜKBÜK MAH.","zip":"60702"},{"name":"CAFAROĞLU MAH.","zip":"60702"},{"name":"CEMEL MAH.","zip":"60702"},{"name":"CİMİSADİ MAH.","zip":"60702"},{"name":"CİMİTEKKE KÖYÜ","zip":"60702"},{"name":"COŞKUNLAR MAH.","zip":"60702"},{"name":"CUMHURİYET MAH.","zip":"60702"},{"name":"ÇAKIR MAH.","zip":"60702"},{"name":"ÇAKIRLI KÖYÜ","zip":"60702"},{"name":"ÇAKIRLI YAYLASI MAH.","zip":"60702"},{"name":"ÇAKMAK KÖYÜ","zip":"60702"},{"name":"ÇAMBALI KÖYÜ","zip":"60702"},{"name":"ÇAMLIK MAH.","zip":"60702"},{"name":"ÇAMLIKAYA KÖYÜ","zip":"60702"},{"name":"ÇAT KÖYÜ","zip":"60702"},{"name":"ÇATAK MAH.","zip":"60702"},{"name":"ÇAVUŞBEYLİ KÖYÜ","zip":"60702"},{"name":"ÇAYIRPINAR KÖYÜ","zip":"60702"},{"name":"ÇEVRECİK KÖYÜ","zip":"60702"},{"name":"ÇINARCIK KÖYÜ","zip":"60702"},{"name":"ÇİDEMLİK MAH.","zip":"60702"},{"name":"ÇUKUR MAH.","zip":"60702"},{"name":"DALPINAR KÖYÜ","zip":"60702"},{"name":"DAMATLAR MAH.","zip":"60702"},{"name":"DANİŞMENT KÖYÜ","zip":"60702"},{"name":"DARIDERE KÖYÜ","zip":"60702"},{"name":"DEMİRCİLİ KÖYÜ","zip":"60702"},{"name":"DEVECİLER MAH.","zip":"60702"},{"name":"DİP MAH.","zip":"60702"},{"name":"DOĞANTEPE KÖYÜ","zip":"60702"},{"name":"DOLAY KÖYÜ","zip":"60702"},{"name":"DONBEY MAH.","zip":"60702"},{"name":"DÖLLÜK KÖYÜ","zip":"60702"},{"name":"DUTDİBİ KÖYÜ","zip":"60702"},{"name":"ELMADİBİ MAH.","zip":"60702"},{"name":"EMİRŞEYH MAH.","zip":"60702"},{"name":"ERDEMLER MAH.","zip":"60702"},{"name":"ERDEMLER YAYLASI MAH.","zip":"60702"},{"name":"ERENLER MAH.","zip":"60702"},{"name":"ESENKÖY KÖYÜ","zip":"60702"},{"name":"EYMÜR KÖYÜ","zip":"60702"},{"name":"EYÜP KÖYÜ","zip":"60702"},{"name":"GEDİK MAH.","zip":"60702"},{"name":"GÖKCESÜLEYMANLI MAH.","zip":"60702"},{"name":"GÖKÇE PINAR MAH.","zip":"60702"},{"name":"GÖKKÖY KÖYÜ","zip":"60702"},{"name":"GÖLAYAĞI MAH.","zip":"60702"},{"name":"GÖLLÜKÖY KÖYÜ","zip":"60702"},{"name":"GURBETLİ KÖYÜ","zip":"60702"},{"name":"GÜLBURNU KÖYÜ","zip":"60702"},{"name":"GÜLEBİLİ MAH.","zip":"60702"},{"name":"GÜLKONAK KÖYÜ","zip":"60702"},{"name":"GÜLKONAK YAYLASI MAH.","zip":"60702"},{"name":"GÜLLÜCE KÖYÜ","zip":"60702"},{"name":"GÜLLÜCE MAH.","zip":"60702"},{"name":"GÜNDOĞAN MAH.","zip":"60702"},{"name":"GÜNDOĞDU MAH.","zip":"60702"},{"name":"GÜNEYGÖLCÜK KÖYÜ","zip":"60702"},{"name":"GÜRPINAR MAH.","zip":"60702"},{"name":"GÜVENDİK KÖYÜ","zip":"60702"},{"name":"GÜVENDİK YAYLASI MAH.","zip":"60702"},{"name":"HACI MURAT MAH.","zip":"60702"},{"name":"HALAÇ MAH.","zip":"60702"},{"name":"HALAÇLI MAH.","zip":"60702"},{"name":"HAMZALI MAH.","zip":"60702"},{"name":"HASANGAZİ MAH.","zip":"60702"},{"name":"HASANLI MAH.","zip":"60702"},{"name":"HASANŞEYH KÖYÜ","zip":"60702"},{"name":"HAYDARLAR MAH.","zip":"60702"},{"name":"HÜNDÜLLÜ MAH.","zip":"60702"},{"name":"HÜRRİYET MAH.","zip":"60702"},{"name":"IRMAK MAH.","zip":"60702"},{"name":"İBRAHİMŞEYH KÖYÜ","zip":"60702"},{"name":"İBRAHİMŞEYH YAYLASI MAH.","zip":"60702"},{"name":"İDİRİN BÜKÜ MAH.","zip":"60702"},{"name":"İDRİS MAH.","zip":"60702"},{"name":"İNEK ALAN YAYLASI MAH.","zip":"60702"},{"name":"İNÖNÜ MAH.","zip":"60702"},{"name":"İSLAMLI KÖYÜ","zip":"60702"},{"name":"İSMAİLİYE KÖYÜ","zip":"60702"},{"name":"KABALI KÖYÜ","zip":"60702"},{"name":"KALE MAH.","zip":"60702"},{"name":"KAMIŞLIK MAH.","zip":"60702"},{"name":"KAPAKLI KÖYÜ","zip":"60702"},{"name":"KARAALİ MAH.","zip":"60702"},{"name":"KARACAAĞAÇ KÖYÜ","zip":"60702"},{"name":"KARATAŞ KÖYÜ","zip":"60702"},{"name":"KARGI DERESİ MAH.","zip":"60702"},{"name":"KARGI MAH.","zip":"60702"},{"name":"KARLIYAYLA KÖYÜ","zip":"60702"},{"name":"KARLIYAYLA MAH.","zip":"60702"},{"name":"KARŞIKENT KÖYÜ","zip":"60702"},{"name":"KASIMLAR MAH.","zip":"60702"},{"name":"KAŞPINAR KÖYÜ","zip":"60702"},{"name":"KATI YAYLASI MAH.","zip":"60702"},{"name":"KATIRCIOĞLU MAH.","zip":"60702"},{"name":"KAVAKLIDERE MAH.","zip":"60702"},{"name":"KAVLAĞAN MAH.","zip":"60702"},{"name":"KAYABAŞI MAH.","zip":"60702"},{"name":"KEÇELİ MAH.","zip":"60702"},{"name":"KEÇİKÖY MAH.","zip":"60702"},{"name":"KELTEKNE MAH.","zip":"60702"},{"name":"KENDİRLİK MAH.","zip":"60702"},{"name":"KEŞLİK MAH.","zip":"60702"},{"name":"KETENİĞİ MAH.","zip":"60702"},{"name":"KETİ MAH.","zip":"60702"},{"name":"KETİ YAYLASI MAH.","zip":"60702"},{"name":"KILIÇLI MAH.","zip":"60702"},{"name":"KIRIK MAH.","zip":"60702"},{"name":"KIŞLAOĞLU MAH.","zip":"60702"},{"name":"KIZILCAÖREN KÖYÜ","zip":"60702"},{"name":"KİRAZ ALANI YAYLASI MAH.","zip":"60702"},{"name":"KİREN PARASI MAH.","zip":"60702"},{"name":"KONAK KÖYÜ","zip":"60702"},{"name":"KÖKLÜ KÖYÜ","zip":"60702"},{"name":"KÖSAMAR MAH.","zip":"60702"},{"name":"KÖSELER MAH.","zip":"60702"},{"name":"KÖY DERESİ MAH.","zip":"60702"},{"name":"KURTULUŞ MAH.","zip":"60702"},{"name":"KUSTAM MAH.","zip":"60702"},{"name":"KUYUCAK KÖYÜ","zip":"60702"},{"name":"KUZBAĞI KÖYÜ","zip":"60702"},{"name":"KUZGÖLCÜK KÖYÜ","zip":"60702"},{"name":"KÜÇÜKBEŞDERE MAH.","zip":"60702"},{"name":"KÜÇÜKBÜK MAH.","zip":"60702"},{"name":"MAHMUTLU MAH.","zip":"60702"},{"name":"MANDALLI ÖNÜ MAH.","zip":"60702"},{"name":"MEDRESE MAH.","zip":"60702"},{"name":"MERE MAH.","zip":"60702"},{"name":"MERKEZ MAH.","zip":"60702"},{"name":"MOLLAOĞLU MAH.","zip":"60702"},{"name":"MURATKAYA KÖYÜ","zip":"60702"},{"name":"MÜRSELOĞLU MAH.","zip":"60702"},{"name":"NEBİŞEYH KÖYÜ","zip":"60702"},{"name":"ÖMER PAŞA MAH.","zip":"60702"},{"name":"ÖZEN KÖYÜ","zip":"60702"},{"name":"ÖZLÜCE KÖYÜ","zip":"60702"},{"name":"ÖZLÜCE MAH.","zip":"60702"},{"name":"SARAYKIŞLA KÖYÜ","zip":"60702"},{"name":"SARIYAYLA KÖYÜ","zip":"60702"},{"name":"SAZAK KÖYÜ","zip":"60702"},{"name":"SERGÜTEPESİ MAH.","zip":"60702"},{"name":"SOĞUKPINAR KÖYÜ","zip":"60702"},{"name":"ŞEYHLİOĞLU MAH.","zip":"60702"},{"name":"ŞİFLİ KIRIK MAH.","zip":"60702"},{"name":"TAHİRBEY MAH.","zip":"60702"},{"name":"TAHTA MAH.","zip":"60702"},{"name":"TEMİRAĞA MAH.","zip":"60702"},{"name":"TEPE MAH.","zip":"60702"},{"name":"TEPEBAŞI MAH.","zip":"60702"},{"name":"TOSUNLU MAH.","zip":"60702"},{"name":"TOZANLIFINDICAK KÖYÜ","zip":"60702"},{"name":"UÇARLAR MAH.","zip":"60702"},{"name":"UĞURLU KÖYÜ","zip":"60702"},{"name":"UĞURLU YAYLASI MAH.","zip":"60702"},{"name":"ULUKÖY MAH.","zip":"60702"},{"name":"UMURCA KÖYÜ","zip":"60702"},{"name":"YAĞSİYAN KÖYÜ","zip":"60702"},{"name":"YAVUZSELİM MAH.","zip":"60702"},{"name":"YAYLASI MAH.","zip":"60702"},{"name":"YAZI MAH.","zip":"60702"},{"name":"YENİ MAH.","zip":"60702"},{"name":"YENİKENT MAH.","zip":"60702"},{"name":"YENİKÖY MAH.","zip":"60702"},{"name":"YENİTURAÇ KÖYÜ","zip":"60702"},{"name":"YERLİCE MAH.","zip":"60702"},{"name":"YEŞİLVADİ MAH.","zip":"60702"},{"name":"YEŞİLYURT KÖYÜ","zip":"60702"},{"name":"YOĞUNPELİT KÖYÜ","zip":"60702"},{"name":"YOĞURTLUCA MAH.","zip":"60702"},{"name":"YOLBİLEN MAH.","zip":"60702"},{"name":"YOLÜSTÜ KÖYÜ","zip":"60702"},{"name":"YOLYAKA MAH.","zip":"60702"},{"name":"YUMURCAKTAŞ MAH.","zip":"60702"},{"name":"YUVACIK KÖYÜ","zip":"60702"},{"name":"YÜCELER MAH.","zip":"60702"},{"name":"YÜKSELİŞ MAH.","zip":"60702"},{"name":"ZİNAV MAH.","zip":"60702"}]},{"name":"REŞADİYE","cityName":null,"quarters":[{"name":"ÇAMLICA MAH.","zip":"60700"},{"name":"ÇERMİK MAH.","zip":"60700"},{"name":"EMİRŞEYHYAKUP MAH.","zip":"60700"},{"name":"KAYALIK MAH.","zip":"60700"},{"name":"KURTULUŞ MAH.","zip":"60700"},{"name":"OSMANİYE MAH.","zip":"60700"}]},{"name":"MERKEZKÖYLER","cityName":null,"quarters":[{"name":"ALPUDERE KÖYÜ","zip":"60872"},{"name":"ARPACIKARAÇAY KÖYÜ","zip":"60872"},{"name":"BALIKHİSAR KÖYÜ","zip":"60872"},{"name":"BALLIKAYA KÖYÜ","zip":"60872"},{"name":"BAYAZIT KÖYÜ","zip":"60872"},{"name":"BELPINAR KÖYÜ","zip":"60872"},{"name":"BUĞDAYLI KÖYÜ","zip":"60872"},{"name":"ÇİME KÖYÜ","zip":"60872"},{"name":"ILICAK KÖYÜ","zip":"60872"},{"name":"KARŞIYAKA MAH.","zip":"60872"},{"name":"MALUM SEYİT TEKKE KÖYÜ","zip":"60872"},{"name":"MERKEZ MAH.","zip":"60872"},{"name":"SARIYAPRAK KÖYÜ","zip":"60872"},{"name":"SELİMİYE KÖYÜ","zip":"60872"},{"name":"TEKKEYENİ KÖYÜ","zip":"60872"},{"name":"UYLUBAĞI KÖYÜ","zip":"60872"},{"name":"YENİ MAH.","zip":"60872"},{"name":"YUKARI MAH.","zip":"60872"}]},{"name":"SULUSARAY","cityName":null,"quarters":[{"name":"GAZİOSMANPAŞA MAH.","zip":"60870"},{"name":"MENDERES MAH.","zip":"60870"}]},{"name":"MERKEZKÖYLER","cityName":null,"quarters":[{"name":"AĞLAMIŞ MAH.","zip":"60302"},{"name":"AKBUĞDAY KÖYÜ","zip":"60302"},{"name":"AKÇATARLA KÖYÜ","zip":"60302"},{"name":"ARAPÖREN KÖYÜ","zip":"60302"},{"name":"ARZUPINAR KÖYÜ","zip":"60302"},{"name":"ASARCIK MAH.","zip":"60302"},{"name":"AŞAĞI MAH.","zip":"60302"},{"name":"ATAKÖY KÖYÜ","zip":"60302"},{"name":"ATATÜRK MAH.","zip":"60302"},{"name":"AYRANPINAR KÖYÜ","zip":"60302"},{"name":"BAĞLARPINARI KÖYÜ","zip":"60302"},{"name":"BAHÇEBAŞI KÖYÜ","zip":"60302"},{"name":"BAYAT YERİ MAH.","zip":"60302"},{"name":"BEŞEVLER MAH.","zip":"60302"},{"name":"BİLİM MAH.","zip":"60302"},{"name":"BUZLUK KÖYÜ","zip":"60302"},{"name":"BÜYÜKÇAYLI MAH.","zip":"60302"},{"name":"CİFTLİK MAH.","zip":"60302"},{"name":"CUMHURİYET MAH.","zip":"60302"},{"name":"ÇALILIK MAH.","zip":"60302"},{"name":"ÇAMLICA KÖYÜ","zip":"60302"},{"name":"ÇARIKSIZ KÖYÜ","zip":"60302"},{"name":"ÇAY MAH.","zip":"60302"},{"name":"ÇAYIRALTI KÖYÜ","zip":"60302"},{"name":"ÇAYLAR MEVKİ MAH.","zip":"60302"},{"name":"ÇAYLI KÖYÜ","zip":"60302"},{"name":"ÇEVLİKLER MAH.","zip":"60302"},{"name":"ÇİFLİK MAH.","zip":"60302"},{"name":"ÇİVRİL KÖYÜ","zip":"60302"},{"name":"ÇUBUKLU MAH.","zip":"60302"},{"name":"DALMIŞLAR MAH.","zip":"60302"},{"name":"DAZYA KÖYÜ","zip":"60302"},{"name":"DEĞİRMEN MAH.","zip":"60302"},{"name":"DEMİRKALE MAH.","zip":"60302"},{"name":"DERBENTÇİ KÖYÜ","zip":"60302"},{"name":"DEREYAYLA MAH.","zip":"60302"},{"name":"DOĞANLI MAH.","zip":"60302"},{"name":"DOLAPLAR MEVKİİ MAH.","zip":"60302"},{"name":"DÖKMETEPE KÖYÜ","zip":"60302"},{"name":"DUMLU MAH.","zip":"60302"},{"name":"ELALMIŞ KÖYÜ","zip":"60302"},{"name":"ERENLİ KÖYÜ","zip":"60302"},{"name":"ERİKLİTEKKE KÖYÜ","zip":"60302"},{"name":"ESK MAH.","zip":"60302"},{"name":"ESKIKOY MAH.","zip":"60302"},{"name":"GÖKDERE KÖYÜ","zip":"60302"},{"name":"GÜZELYURT MAH.","zip":"60302"},{"name":"HAMİDE KÖYÜ","zip":"60302"},{"name":"HARMANLI MAH.","zip":"60302"},{"name":"HASANLI KÖYÜ","zip":"60302"},{"name":"İĞDELİ MAH.","zip":"60302"},{"name":"İNÖNÜ MAH.","zip":"60302"},{"name":"KALAYCIK KÖYÜ","zip":"60302"},{"name":"KAMALI KÖYÜ","zip":"60302"},{"name":"KARAEVLİ MAH.","zip":"60302"},{"name":"KARATAŞ DERESİ MAH.","zip":"60302"},{"name":"KARATAŞ MAH.","zip":"60302"},{"name":"KARKIN KÖYÜ","zip":"60302"},{"name":"KARŞI MAH.","zip":"60302"},{"name":"KAT KÖYÜ","zip":"60302"},{"name":"KAZANCI KÖYÜ","zip":"60302"},{"name":"KAZOVA MAH.","zip":"60302"},{"name":"KIMIZA MAH.","zip":"60302"},{"name":"KIŞLA MAH.","zip":"60302"},{"name":"KIZKAYASI KÖYÜ","zip":"60302"},{"name":"KMAH MAH.","zip":"60302"},{"name":"KORULUK KÖYÜ","zip":"60302"},{"name":"KUŞOTURAĞI KÖYÜ","zip":"60302"},{"name":"KUŞPINAR MAH.","zip":"60302"},{"name":"KUYTUL KÖYÜ","zip":"60302"},{"name":"KUZALAN KÖYÜ","zip":"60302"},{"name":"KÜLTÜR MAH.","zip":"60302"},{"name":"KÜPÇEŞME MAH.","zip":"60302"},{"name":"KÜTÜKLÜĞÜN DERE MAH.","zip":"60302"},{"name":"MERKEZ MAH.","zip":"60302"},{"name":"MEVKİ MAH.","zip":"60302"},{"name":"MEYDAN MAH.","zip":"60302"},{"name":"NECİP KÖYÜ","zip":"60302"},{"name":"ORMANÖZÜ KÖYÜ","zip":"60302"},{"name":"ORTA MAH.","zip":"60302"},{"name":"ORTAKÖY MAH.","zip":"60302"},{"name":"PAZARYERİ MAH.","zip":"60302"},{"name":"PAZLI MAH.","zip":"60302"},{"name":"SAMURÇAY KÖYÜ","zip":"60302"},{"name":"SANAT MAH.","zip":"60302"},{"name":"SARI MAH.","zip":"60302"},{"name":"SARIÇİÇEK KÖYÜ","zip":"60302"},{"name":"SARIKAYA KÖYÜ","zip":"60302"},{"name":"SOĞULCAK MAH.","zip":"60302"},{"name":"SULUDEDE MAH.","zip":"60302"},{"name":"SÜTLÜCE KÖYÜ","zip":"60302"},{"name":"ŞATROBA KÖYÜ","zip":"60302"},{"name":"ŞENYURT KÖYÜ","zip":"60302"},{"name":"TAŞLIHÖYÜK KÖYÜ","zip":"60302"},{"name":"TATLICAK KÖYÜ","zip":"60302"},{"name":"ULUÖZ KÖYÜ","zip":"60302"},{"name":"ULUTEPE KÖYÜ","zip":"60302"},{"name":"UZUNYURT MAH.","zip":"60302"},{"name":"ÜÇGÖZEN MAH.","zip":"60302"},{"name":"ÜÇYOL KÖYÜ","zip":"60302"},{"name":"YAĞLIALAN KÖYÜ","zip":"60302"},{"name":"YAYLA EVLERİ MAH.","zip":"60302"},{"name":"YAZI MAH.","zip":"60302"},{"name":"YAZITEPE KÖYÜ","zip":"60302"},{"name":"YENİCELER KÖYÜ","zip":"60302"},{"name":"YENİKÖY KÖYÜ","zip":"60302"},{"name":"YENİSU KÖYÜ","zip":"60302"},{"name":"YEŞİLALAN KÖYÜ","zip":"60302"},{"name":"YUKARI MAH.","zip":"60302"},{"name":"YUKARITEKE MAH.","zip":"60302"},{"name":"ZONTU MAH.","zip":"60302"}]},{"name":"TURHAL","cityName":null,"quarters":[{"name":"BORSA MAH.","zip":"60300"},{"name":"BOYACILAR MAH.","zip":"60300"},{"name":"CAMİKEBİR MAH.","zip":"60300"},{"name":"CELAL MAH.","zip":"60300"},{"name":"CUMHURİYET MAH.","zip":"60300"},{"name":"EMEK MAH.","zip":"60300"},{"name":"FATİH MAH.","zip":"60300"},{"name":"GAZİ OSMAN PAŞA MAH.","zip":"60300"},{"name":"GÜNDOĞDU MAH.","zip":"60300"},{"name":"GÜNEŞ MAH.","zip":"60300"},{"name":"GÜRSEL MAH.","zip":"60300"},{"name":"HACILAR MAH.","zip":"60300"},{"name":"HAMAM MAH.","zip":"60300"},{"name":"KAYACIK MAH.","zip":"60300"},{"name":"KAZIM KARABEKİR MAH.","zip":"60300"},{"name":"KOVA MAH.","zip":"60300"},{"name":"MARAŞAL FEVZİ ÇAKMAK MAH.","zip":"60300"},{"name":"MEVLANA MAH.","zip":"60300"},{"name":"MEYDAN MAH.","zip":"60300"},{"name":"MİMAR SİNAN MAH.","zip":"60300"},{"name":"MÜFTÜ MAH.","zip":"60300"},{"name":"NURKAVAK MAH.","zip":"60300"},{"name":"ORGANİZE SANAYİ BÖLGESİ MAH.","zip":"60300"},{"name":"OSMANGAZİ MAH.","zip":"60300"},{"name":"PAZAR MAH.","zip":"60300"},{"name":"RAY MAH.","zip":"60300"},{"name":"VARVARA MAH.","zip":"60300"},{"name":"YAVUZ SELİM MAH.","zip":"60300"},{"name":"YEŞİLIRMAK MAH.","zip":"60300"},{"name":"YUNUS EMRE MAH.","zip":"60300"}]},{"name":"MERKEZKÖYLER","cityName":null,"quarters":[{"name":"BAHÇEBAŞI KÖYÜ","zip":"60862"},{"name":"BÜĞET KÖYÜ","zip":"60862"},{"name":"ÇERKEZ DANİŞMENT KÖYÜ","zip":"60862"},{"name":"ÇIKRIK KÖYÜ","zip":"60862"},{"name":"ÇIRDAK KÖYÜ","zip":"60862"},{"name":"DAMLALI KÖYÜ","zip":"60862"},{"name":"DOĞLACIK KÖYÜ","zip":"60862"},{"name":"EKİNLİ KÖYÜ","zip":"60862"},{"name":"FATİH MAH.","zip":"60862"},{"name":"GAZİOSMANPAŞA MAH.","zip":"60862"},{"name":"GÜNDOĞAN KÖYÜ","zip":"60862"},{"name":"KARACAÖREN KÖYÜ","zip":"60862"},{"name":"KARADERE MAH.","zip":"60862"},{"name":"KARAGÖZGÖLLÜALAN KÖYÜ","zip":"60862"},{"name":"KARAOLUK KÖYÜ","zip":"60862"},{"name":"KARŞIYAKA MAH.","zip":"60862"},{"name":"KAVUNLUK KÖYÜ","zip":"60862"},{"name":"KUŞÇU KÖYÜ","zip":"60862"},{"name":"SEKÜCEK KÖYÜ","zip":"60862"},{"name":"SİVRİ KÖYÜ","zip":"60862"},{"name":"ŞEHİTLER MAH.","zip":"60862"},{"name":"YAĞMUR KÖYÜ","zip":"60862"},{"name":"YENİ MAH.","zip":"60862"},{"name":"YENİKÖY KÖYÜ","zip":"60862"}]},{"name":"YEŞİLYURT","cityName":null,"quarters":[{"name":"EVRENPAŞA MAH.","zip":"60860"},{"name":"GAZİOSMANPAŞA MAH.","zip":"60860"},{"name":"ŞEHİTLER MAH.","zip":"60860"}]},{"name":"MERKEZKÖYLER","cityName":null,"quarters":[{"name":"ACISU KÖYÜ","zip":"60402"},{"name":"AĞCAKEÇİLİ KÖYÜ","zip":"60402"},{"name":"AĞILCIK KÖYÜ","zip":"60402"},{"name":"AKAĞAÇ MAH.","zip":"60402"},{"name":"AKDOĞAN KÖYÜ","zip":"60402"},{"name":"AKGÜLLER KÖYÜ","zip":"60402"},{"name":"AKKILIÇ KÖYÜ","zip":"60402"},{"name":"ALAYURT KÖYÜ","zip":"60402"},{"name":"ALIÇÖZÜ KÖYÜ","zip":"60402"},{"name":"ALİBAĞI KÖYÜ","zip":"60402"},{"name":"ALİHOCA KÖYÜ","zip":"60402"},{"name":"ALPARSLAN MAH.","zip":"60402"},{"name":"ARMUTALAN KÖYÜ","zip":"60402"},{"name":"AŞAĞI MAH.","zip":"60402"},{"name":"AYDINLAR MAH.","zip":"60402"},{"name":"AYVALI KÖYÜ","zip":"60402"},{"name":"BAHÇELİEVLER MAH.","zip":"60402"},{"name":"BAYIR KÖYÜ","zip":"60402"},{"name":"BELKAYA KÖYÜ","zip":"60402"},{"name":"BELPINAR KÖYÜ","zip":"60402"},{"name":"BİNBAŞIOĞLU KÖYÜ","zip":"60402"},{"name":"BOLDACI KÖYÜ","zip":"60402"},{"name":"BÜYÜKAKÖZ KÖYÜ","zip":"60402"},{"name":"BÜYÜKKARAYÜN KÖYÜ","zip":"60402"},{"name":"BÜYÜKKOZLUCA KÖYÜ","zip":"60402"},{"name":"BÜYÜKÖZLÜ KÖYÜ","zip":"60402"},{"name":"CUMHURİYET MAH.","zip":"60402"},{"name":"ÇAKIRCALI KÖYÜ","zip":"60402"},{"name":"ÇAMDERE KÖYÜ","zip":"60402"},{"name":"ÇAPAK KÖYÜ","zip":"60402"},{"name":"ÇAYIR KÖYÜ","zip":"60402"},{"name":"ÇAYIROLUĞU KÖYÜ","zip":"60402"},{"name":"ÇELTEK KÖYÜ","zip":"60402"},{"name":"ÇİÇEKPINARI KÖYÜ","zip":"60402"},{"name":"ÇİFTLİK KÖYÜ","zip":"60402"},{"name":"DEREBAŞI KÖYÜ","zip":"60402"},{"name":"DEREDİBİ MEZRASI MAH.","zip":"60402"},{"name":"DONAŞA MAH.","zip":"60402"},{"name":"EDE KÖYÜ","zip":"60402"},{"name":"ELMACIK KÖYÜ","zip":"60402"},{"name":"EMİRÖREN KÖYÜ","zip":"60402"},{"name":"ESERTEPE MAH.","zip":"60402"},{"name":"ESKİDAĞİÇİ KÖYÜ","zip":"60402"},{"name":"ESKİDERBENT KÖYÜ","zip":"60402"},{"name":"EVRENKÖY KÖYÜ","zip":"60402"},{"name":"FATİH KÖYÜ","zip":"60402"},{"name":"FIRTIMAN MAH.","zip":"60402"},{"name":"FIRTIMAN MEZRASI MAH.","zip":"60402"},{"name":"GÖÇENLİ KÖYÜ","zip":"60402"},{"name":"GÖLCÜK KÖYÜ","zip":"60402"},{"name":"GÜBLÜCE KÖYÜ","zip":"60402"},{"name":"GÜMÜŞKAŞ KÖYÜ","zip":"60402"},{"name":"GÜNGÖRMEZ KÖYÜ","zip":"60402"},{"name":"GÜZELBEYLİ KÖYÜ","zip":"60402"},{"name":"HACILAR KÖYÜ","zip":"60402"},{"name":"HARAMİKIŞLA KÖYÜ","zip":"60402"},{"name":"HASANAĞA KÖYÜ","zip":"60402"},{"name":"HATİPPINARI KÖYÜ","zip":"60402"},{"name":"HÜRRİYET MAH.","zip":"60402"},{"name":"İĞDİR KÖYÜ","zip":"60402"},{"name":"İMİRTOLU KÖYÜ","zip":"60402"},{"name":"İSMETPAŞA MAH.","zip":"60402"},{"name":"KAMUÇYÜK MAH.","zip":"60402"},{"name":"KARA DEVE MEZRASI MAH.","zip":"60402"},{"name":"KARABALÇIK KÖYÜ","zip":"60402"},{"name":"KARACAÖREN KÖYÜ","zip":"60402"},{"name":"KARAKAYA KÖYÜ","zip":"60402"},{"name":"KARAKUZU KÖYÜ","zip":"60402"},{"name":"KARAŞEYH KÖYÜ","zip":"60402"},{"name":"KARŞI MAH.","zip":"60402"},{"name":"KARŞIPINAR KÖYÜ","zip":"60402"},{"name":"KARŞIYAKA KÖYÜ","zip":"60402"},{"name":"KAZIKLI KÖYÜ","zip":"60402"},{"name":"KEH MAH.","zip":"60402"},{"name":"KEPEZ KÖYÜ","zip":"60402"},{"name":"KERVANSARAY KÖYÜ","zip":"60402"},{"name":"KIRLAR KÖYÜ","zip":"60402"},{"name":"KIZILCA KÖYÜ","zip":"60402"},{"name":"KIZILÜZÜM MAH.","zip":"60402"},{"name":"KİREÇLİ KÖYÜ","zip":"60402"},{"name":"KOÇAŞ KÖYÜ","zip":"60402"},{"name":"KORUCUK KÖYÜ","zip":"60402"},{"name":"KOZDERE KÖYÜ","zip":"60402"},{"name":"KÖYLÜÜNÜRÜ KÖYÜ","zip":"60402"},{"name":"KURŞUNLU KÖYÜ","zip":"60402"},{"name":"KURUÇAY KÖYÜ","zip":"60402"},{"name":"KURUPINAR KÖYÜ","zip":"60402"},{"name":"KUZALAN KÖYÜ","zip":"60402"},{"name":"KÜÇÜKAKÖZ KÖYÜ","zip":"60402"},{"name":"KÜÇÜKKARAYÜN KÖYÜ","zip":"60402"},{"name":"KÜÇÜKKOZLUCA KÖYÜ","zip":"60402"},{"name":"KÜÇÜKÖZLÜ KÖYÜ","zip":"60402"},{"name":"MERKEZ MAH.","zip":"60402"},{"name":"MEZRA MAH.","zip":"60402"},{"name":"NARLIKIŞLA KÖYÜ","zip":"60402"},{"name":"OLUKMAN KÖYÜ","zip":"60402"},{"name":"ORTA MAH.","zip":"60402"},{"name":"OSMANPINARI KÖYÜ","zip":"60402"},{"name":"ÖZYURT KÖYÜ","zip":"60402"},{"name":"PALANLI KÖYÜ","zip":"60402"},{"name":"REŞADİYE KÖYÜ","zip":"60402"},{"name":"SALUR KÖYÜ","zip":"60402"},{"name":"SARAÇ KÖYÜ","zip":"60402"},{"name":"SARAY MAH.","zip":"60402"},{"name":"SAVCU KÖYÜ","zip":"60402"},{"name":"SEKİKIŞLA KÖYÜ","zip":"60402"},{"name":"SELAMET KÖYÜ","zip":"60402"},{"name":"SİLİS MAH.","zip":"60402"},{"name":"SOFULAR KÖYÜ","zip":"60402"},{"name":"SÖĞÜTÖZÜ KÖYÜ","zip":"60402"},{"name":"SÜLEYMANİYE KÖYÜ","zip":"60402"},{"name":"ŞEYHKÖY KÖYÜ","zip":"60402"},{"name":"ŞEYHNUSRETTİN KÖYÜ","zip":"60402"},{"name":"TAŞKIRAN KÖYÜ","zip":"60402"},{"name":"TEMECÜK KÖYÜ","zip":"60402"},{"name":"TURGUTALP KÖYÜ","zip":"60402"},{"name":"UĞURLUÖREN KÖYÜ","zip":"60402"},{"name":"UZUNKÖY KÖYÜ","zip":"60402"},{"name":"UZUNÖZ KÖYÜ","zip":"60402"},{"name":"ÜÇKAYA KÖYÜ","zip":"60402"},{"name":"ÜÇKÖY KÖYÜ","zip":"60402"},{"name":"ÜTÜK KÖYÜ","zip":"60402"},{"name":"ÜYÜK KÖYÜ","zip":"60402"},{"name":"YALINYAZI KÖYÜ","zip":"60402"},{"name":"YALNIZKÖY KÖYÜ","zip":"60402"},{"name":"YAPALAK KÖYÜ","zip":"60402"},{"name":"YARAŞ KÖYÜ","zip":"60402"},{"name":"YAYLA EVLERİ MAH.","zip":"60402"},{"name":"YAYLAKENT KÖYÜ","zip":"60402"},{"name":"YAYLAYOLU KÖYÜ","zip":"60402"},{"name":"YENİ MAH.","zip":"60402"},{"name":"YENİDAĞİÇİ KÖYÜ","zip":"60402"},{"name":"YENİDERBENT KÖYÜ","zip":"60402"},{"name":"YENİKÖY KÖYÜ","zip":"60402"},{"name":"YEŞİLCE KÖYÜ","zip":"60402"},{"name":"YEŞİLYURT MAH.","zip":"60402"},{"name":"YILDIZTEPE KÖYÜ","zip":"60402"},{"name":"YUKARI MAH.","zip":"60402"},{"name":"YURTYERİ MAH.","zip":"60402"},{"name":"YÜCEPINAR KÖYÜ","zip":"60402"},{"name":"YÜNLÜ KÖYÜ","zip":"60402"},{"name":"ZİLE OSB MAH.","zip":"60402"}]},{"name":"ZİLE","cityName":null,"quarters":[{"name":"ALAMESCİTBALA MAH.","zip":"60400"},{"name":"ALİKADI MAH.","zip":"60400"},{"name":"BAHÇELİEVLER MAH.","zip":"60400"},{"name":"CAMİİKEBİR MAH.","zip":"60400"},{"name":"CEDİT MAH.","zip":"60400"},{"name":"DİNÇERLER MAH.","zip":"60400"},{"name":"DUTLUPINAR MAH.","zip":"60400"},{"name":"HACIMEHMET MAH.","zip":"60400"},{"name":"İSTASYON MAH.","zip":"60400"},{"name":"KAHYA MAH.","zip":"60400"},{"name":"KİSLİK MAH.","zip":"60400"},{"name":"MİNAREİKEBİR MAH.","zip":"60400"},{"name":"MİNAREİSAĞIR MAH.","zip":"60400"},{"name":"MOLLAYAHYA MAH.","zip":"60400"},{"name":"NAKKAŞ MAH.","zip":"60400"},{"name":"ORTA MAH.","zip":"60400"},{"name":"SAKİLER MAH.","zip":"60400"},{"name":"ŞEYHALİ MAH.","zip":"60400"},{"name":"ŞEYHKOLU MAH.","zip":"60400"},{"name":"YAZICI MAH.","zip":"60400"},{"name":"YUNUSEMRE MAH.","zip":"60400"},{"name":"ZİNCİRLİ ÜLYA MAH.","zip":"60400"},{"name":"ZİNCİRLİSÜFLA MAH.","zip":"60400"}]}]}]}