{"id":61,"name":"TRABZON","cities":[{"name":"city","districts":[{"name":"AKÇAABAT","cityName":null,"quarters":[{"name":"AKÇAKALE MAH.","zip":"61300"},{"name":"AKÇAKÖY MAH.","zip":"61300"},{"name":"AKDAMAR MAH.","zip":"61300"},{"name":"AKÖREN MAH.","zip":"61300"},{"name":"AKPINAR MAH.","zip":"61300"},{"name":"ALSANCAK MAH.","zip":"61300"},{"name":"AMBARCIK MAH.","zip":"61300"},{"name":"ARPACILI MAH.","zip":"61300"},{"name":"AYDINKÖY MAH.","zip":"61300"},{"name":"BOZDOĞAN MAH.","zip":"61300"},{"name":"CEVİZLİ MAH.","zip":"61300"},{"name":"CEVİZLİK MAH.","zip":"61300"},{"name":"ÇAMLICA MAH.","zip":"61300"},{"name":"ÇAMLIDERE MAH.","zip":"61300"},{"name":"ÇINARLIK MAH.","zip":"61300"},{"name":"ÇİÇEKLİDÜZ MAH.","zip":"61300"},{"name":"ÇİLEKLİ MAH.","zip":"61300"},{"name":"ÇOLAKLI MAH.","zip":"61300"},{"name":"ÇUKURCA MAH.","zip":"61300"},{"name":"DARICA MAH.","zip":"61300"},{"name":"DEMİRCİ MAH.","zip":"61300"},{"name":"DEMİRKAPI MAH.","zip":"61300"},{"name":"DEMİRTAŞ MAH.","zip":"61300"},{"name":"DERECİK MAH.","zip":"61300"},{"name":"DOĞANKÖY MAH.","zip":"61300"},{"name":"DÖRTYOL MAH.","zip":"61300"},{"name":"DÜRBİNAR MAH.","zip":"61300"},{"name":"ESENTEPE MAH.","zip":"61300"},{"name":"ESKİKÖY MAH.","zip":"61300"},{"name":"FINDIKLI MAH.","zip":"61300"},{"name":"FISTIKLI MAH.","zip":"61300"},{"name":"GÜMÜŞLÜ MAH.","zip":"61300"},{"name":"HELVACI MAH.","zip":"61300"},{"name":"IŞIKLAR MAH.","zip":"61300"},{"name":"KALEÖNÜ MAH.","zip":"61300"},{"name":"KARAÇAYIR MAH.","zip":"61300"},{"name":"KARPINAR MAH.","zip":"61300"},{"name":"KAVAKLI MAH.","zip":"61300"},{"name":"KAYALAR MAH.","zip":"61300"},{"name":"KEMALİYE MAH.","zip":"61300"},{"name":"KİRAZLIK MAH.","zip":"61300"},{"name":"KOÇLU MAH.","zip":"61300"},{"name":"KURUÇAM MAH.","zip":"61300"},{"name":"MADEN MAH.","zip":"61300"},{"name":"MERSİN MAH.","zip":"61300"},{"name":"MEŞELİ MAH.","zip":"61300"},{"name":"MEYDANKAYA MAH.","zip":"61300"},{"name":"NEFSİPULATHANE MAH.","zip":"61300"},{"name":"ORTA MAH.","zip":"61300"},{"name":"ORTAALAN MAH.","zip":"61300"},{"name":"ORTAKÖY MAH.","zip":"61300"},{"name":"OSMANBABA MAH.","zip":"61300"},{"name":"ÖZAKDAMAR MAH.","zip":"61300"},{"name":"ÖZDEMİRCİ MAH.","zip":"61300"},{"name":"SALACIK MAH.","zip":"61300"},{"name":"SARICA MAH.","zip":"61300"},{"name":"SARITAŞ MAH.","zip":"61300"},{"name":"SERTKAYA MAH.","zip":"61300"},{"name":"SÖĞÜTLÜ MAH.","zip":"61300"},{"name":"ŞİNİK MAH.","zip":"61300"},{"name":"ŞİNİK OSB MAH.","zip":"61300"},{"name":"TATLISU MAH.","zip":"61300"},{"name":"TÜTÜNCÜLER MAH.","zip":"61300"},{"name":"UÇARSU MAH.","zip":"61300"},{"name":"YAYLACIK MAH.","zip":"61300"},{"name":"YENİ MAH.","zip":"61300"},{"name":"YENİKÖY MAH.","zip":"61300"},{"name":"YEŞİLTEPE MAH.","zip":"61300"},{"name":"YEŞİLYURT MAH.","zip":"61300"},{"name":"YILDIZLI MAH.","zip":"61300"},{"name":"ZAFERLİ MAH.","zip":"61300"}]},{"name":"ARAKLI","cityName":null,"quarters":[{"name":"AYVADERE MAH.","zip":"61700"},{"name":"BAHÇECİK MAH.","zip":"61700"},{"name":"BEREKETLİ MAH.","zip":"61700"},{"name":"BİRLİK MAH.","zip":"61700"},{"name":"BUZLUCA MAH.","zip":"61700"},{"name":"ÇAMLICA MAH.","zip":"61700"},{"name":"ÇAMLIKTEPE MAH.","zip":"61700"},{"name":"ÇANKAYA MAH.","zip":"61700"},{"name":"ÇİFTEPINAR MAH.","zip":"61700"},{"name":"ÇUKURÇAYIR MAH.","zip":"61700"},{"name":"DEĞİRMENCİK MAH.","zip":"61700"},{"name":"ERENLER MAH.","zip":"61700"},{"name":"ERİKLİ MAH.","zip":"61700"},{"name":"HALİLLİ MAH.","zip":"61700"},{"name":"HASKÖY MAH.","zip":"61700"},{"name":"HÜRRİYET MAH.","zip":"61700"},{"name":"İYİSU MAH.","zip":"61700"},{"name":"KALECİK MAH.","zip":"61700"},{"name":"KARATEPE MAH.","zip":"61700"},{"name":"KARŞIYAKA MAH.","zip":"61700"},{"name":"KAYACIK MAH.","zip":"61700"},{"name":"KAYAİÇİ MAH.","zip":"61700"},{"name":"KAYMAKLI MAH.","zip":"61700"},{"name":"KESTANELİK MAH.","zip":"61700"},{"name":"KÖPRÜÜSTÜ MAH.","zip":"61700"},{"name":"KÜKÜRTLÜ MAH.","zip":"61700"},{"name":"MERKEZ MAH.","zip":"61700"},{"name":"MERKEZKÖY MAH.","zip":"61700"},{"name":"ORTAKÖY MAH.","zip":"61700"},{"name":"ÖZGEN MAH.","zip":"61700"},{"name":"PERVANE MAH.","zip":"61700"},{"name":"SULAKYURT MAH.","zip":"61700"},{"name":"SULARBAŞI MAH.","zip":"61700"},{"name":"TAŞGEÇİT MAH.","zip":"61700"},{"name":"TAŞÖNÜ MAH.","zip":"61700"},{"name":"TAŞTEPE MAH.","zip":"61700"},{"name":"TURNALI MAH.","zip":"61700"},{"name":"TÜRKELİ MAH.","zip":"61700"},{"name":"YALIBOYU MAH.","zip":"61700"},{"name":"YASSIKAYA MAH.","zip":"61700"},{"name":"YENİKÖY MAH.","zip":"61700"},{"name":"YEŞİLCE MAH.","zip":"61700"},{"name":"YEŞİLKÖY MAH.","zip":"61700"},{"name":"YEŞİLYURT MAH.","zip":"61700"},{"name":"YILDIZLI MAH.","zip":"61700"},{"name":"YİĞİTÖZÜ MAH.","zip":"61700"},{"name":"YOLGÖREN MAH.","zip":"61700"},{"name":"YONCALI MAH.","zip":"61700"},{"name":"YÜCEYURT MAH.","zip":"61700"}]},{"name":"ARSİN","cityName":null,"quarters":[{"name":"BAŞDURAK MAH.","zip":"61900"},{"name":"CUDİBEY MAH.","zip":"61900"},{"name":"CUMHURİYET MAH.","zip":"61900"},{"name":"ÇARDAKLI MAH.","zip":"61900"},{"name":"ÇİÇEKLİ MAH.","zip":"61900"},{"name":"ÇUBUKLU MAH.","zip":"61900"},{"name":"DİLEK MAH.","zip":"61900"},{"name":"ELMAALAN MAH.","zip":"61900"},{"name":"FATİH MAH.","zip":"61900"},{"name":"FINDIKLI MAH.","zip":"61900"},{"name":"GÖLCÜK MAH.","zip":"61900"},{"name":"GÖLGELİK MAH.","zip":"61900"},{"name":"GÜNEYCE MAH.","zip":"61900"},{"name":"GÜZELYALI MAH.","zip":"61900"},{"name":"HARMANLI MAH.","zip":"61900"},{"name":"IŞIKLI MAH.","zip":"61900"},{"name":"İŞHAN MAH.","zip":"61900"},{"name":"KARACA MAH.","zip":"61900"},{"name":"KONAK MAH.","zip":"61900"},{"name":"NUROĞLU MAH.","zip":"61900"},{"name":"OĞUZ MAH.","zip":"61900"},{"name":"ÖRNEK MAH.","zip":"61900"},{"name":"ÖZLÜ MAH.","zip":"61900"},{"name":"ŞENKAYA MAH.","zip":"61900"},{"name":"ÜÇPINAR MAH.","zip":"61900"},{"name":"YALI MAH.","zip":"61900"},{"name":"YENİ MAH.","zip":"61900"},{"name":"YENİKÖY MAH.","zip":"61900"},{"name":"YEŞİLCE MAH.","zip":"61900"},{"name":"YEŞİLKÖY MAH.","zip":"61900"},{"name":"YEŞİLTEPE MAH.","zip":"61900"},{"name":"YEŞİLYALI MAH.","zip":"61900"},{"name":"YOLAÇ MAH.","zip":"61900"},{"name":"YOLÜSTÜ MAH.","zip":"61900"}]},{"name":"BEŞİKDÜZÜ","cityName":null,"quarters":[{"name":"AĞAÇLI MAH.","zip":"61800"},{"name":"AKKESE MAH.","zip":"61800"},{"name":"AKSAKLI MAH.","zip":"61800"},{"name":"ANBARLI MAH.","zip":"61800"},{"name":"ARDIÇATAK MAH.","zip":"61800"},{"name":"BAYIRKÖY MAH.","zip":"61800"},{"name":"BEŞİKDAĞ MAH.","zip":"61800"},{"name":"BOZLU MAH.","zip":"61800"},{"name":"CUMHURİYET MAH.","zip":"61800"},{"name":"ÇAKIRLI MAH.","zip":"61800"},{"name":"ÇEŞMEÖNÜ MAH.","zip":"61800"},{"name":"ÇITLAKLI MAH.","zip":"61800"},{"name":"DAĞLICA MAH.","zip":"61800"},{"name":"DENİZLİ MAH.","zip":"61800"},{"name":"DOLANLI MAH.","zip":"61800"},{"name":"DUYGULU MAH.","zip":"61800"},{"name":"FATİH MAH.","zip":"61800"},{"name":"GÜRGENLİ MAH.","zip":"61800"},{"name":"HÜNERLİ MAH.","zip":"61800"},{"name":"KALEGÜNEY MAH.","zip":"61800"},{"name":"KORKUTHAN MAH.","zip":"61800"},{"name":"KUTLUCA MAH.","zip":"61800"},{"name":"NEFSİŞARLI MAH.","zip":"61800"},{"name":"OĞUZ MAH.","zip":"61800"},{"name":"RESULLÜ MAH.","zip":"61800"},{"name":"SAYVANCIK MAH.","zip":"61800"},{"name":"SEYİTAHMET MAH.","zip":"61800"},{"name":"ŞAHMELİK MAH.","zip":"61800"},{"name":"TAKAZLI MAH.","zip":"61800"},{"name":"VARDALLI MAH.","zip":"61800"},{"name":"YENİCAMİ MAH.","zip":"61800"},{"name":"YEŞİLKÖY MAH.","zip":"61800"},{"name":"ZEMBEREK MAH.","zip":"61800"}]},{"name":"ÇARŞIBAŞI","cityName":null,"quarters":[{"name":"BÜYÜKDERE MAH.","zip":"61420"},{"name":"ÇALLI MAH.","zip":"61420"},{"name":"ERENKÖY MAH.","zip":"61420"},{"name":"FENERKÖY MAH.","zip":"61420"},{"name":"GÜLBAHÇE MAH.","zip":"61420"},{"name":"KADIKÖY MAH.","zip":"61420"},{"name":"KALEKÖY MAH.","zip":"61420"},{"name":"KAVAKLI MAH.","zip":"61420"},{"name":"KEREM MAH.","zip":"61420"},{"name":"KOVANLI MAH.","zip":"61420"},{"name":"KÜÇÜKKÖY MAH.","zip":"61420"},{"name":"MERKEZ MAH.","zip":"61420"},{"name":"PINARLI MAH.","zip":"61420"},{"name":"SALOVA MAH.","zip":"61420"},{"name":"SAMSUN MAH.","zip":"61420"},{"name":"SERPİLKÖY MAH.","zip":"61420"},{"name":"ŞAHİNLİ MAH.","zip":"61420"},{"name":"TAŞLITEPE MAH.","zip":"61420"},{"name":"VELİKÖY MAH.","zip":"61420"},{"name":"YAVUZ MAH.","zip":"61420"},{"name":"YENİKÖY MAH.","zip":"61420"},{"name":"ZEYTİNLİK MAH.","zip":"61420"}]},{"name":"ÇAYKARA","cityName":null,"quarters":[{"name":"ARPAÖZÜ MAH.","zip":"61940"},{"name":"AŞAĞIKUMLU MAH.","zip":"61940"},{"name":"ATAKÖY MAH.","zip":"61940"},{"name":"BALTACILI MAH.","zip":"61940"},{"name":"ÇAMBAŞI MAH.","zip":"61940"},{"name":"ÇAMLIBEL MAH.","zip":"61940"},{"name":"ÇAYIROBA MAH.","zip":"61940"},{"name":"DEMİRKAPI MAH.","zip":"61940"},{"name":"DEMİRLİ MAH.","zip":"61940"},{"name":"DERİNDERE MAH.","zip":"61940"},{"name":"EĞRİDERE MAH.","zip":"61940"},{"name":"IŞIKLI MAH.","zip":"61940"},{"name":"KABATAŞ MAH.","zip":"61940"},{"name":"KARAÇAM MAH.","zip":"61940"},{"name":"KAYRAN MAH.","zip":"61940"},{"name":"KOLDERE MAH.","zip":"61940"},{"name":"KÖKNAR MAH.","zip":"61940"},{"name":"KÖSELİ MAH.","zip":"61940"},{"name":"MARAŞLI MAH.","zip":"61940"},{"name":"SOĞANLI MAH.","zip":"61940"},{"name":"ŞAHİNKAYA MAH.","zip":"61940"},{"name":"ŞEKERSU MAH.","zip":"61940"},{"name":"TAŞKIRAN MAH.","zip":"61940"},{"name":"TAŞLIGEDİK MAH.","zip":"61940"},{"name":"TAŞÖREN MAH.","zip":"61940"},{"name":"ULUCAMİ MAH.","zip":"61940"},{"name":"UZUNGÖL MAH.","zip":"61940"},{"name":"UZUNTARLA MAH.","zip":"61940"},{"name":"YAYLAÖNÜ MAH.","zip":"61940"},{"name":"YEŞİLALAN MAH.","zip":"61940"},{"name":"YUKARIKUMLU MAH.","zip":"61940"}]},{"name":"DERNEKPAZARI","cityName":null,"quarters":[{"name":"ÇALIŞANLAR MAH.","zip":"61950"},{"name":"ÇAYIRBAŞI MAH.","zip":"61950"},{"name":"GÜLEN MAH.","zip":"61950"},{"name":"GÜNEBAKAN MAH.","zip":"61950"},{"name":"GÜNEY MAH.","zip":"61950"},{"name":"KONDU MAH.","zip":"61950"},{"name":"MERKEZ MAH.","zip":"61950"},{"name":"ORMANCIK MAH.","zip":"61950"},{"name":"TAŞÇILAR MAH.","zip":"61950"},{"name":"TÜFEKÇİ MAH.","zip":"61950"},{"name":"YENİCAMİ MAH.","zip":"61950"},{"name":"YENİCE MAH.","zip":"61950"},{"name":"ZİNCİRLİTAŞ MAH.","zip":"61950"}]},{"name":"DÜZKÖY","cityName":null,"quarters":[{"name":"AYKUT MAH.","zip":"61390"},{"name":"BÜYÜK MAH.","zip":"61390"},{"name":"CEVİZLİK MAH.","zip":"61390"},{"name":"ÇALKÖY MAH.","zip":"61390"},{"name":"ÇAYIRBAĞI MAH.","zip":"61390"},{"name":"ÇİĞDEMLİ MAH.","zip":"61390"},{"name":"DÜZALAN MAH.","zip":"61390"},{"name":"GÖKÇELER MAH.","zip":"61390"},{"name":"GÜRGENDAĞ MAH.","zip":"61390"},{"name":"KÜÇÜKTEPEKÖY MAH.","zip":"61390"},{"name":"ORTA MAH.","zip":"61390"},{"name":"TAŞOCAĞI MAH.","zip":"61390"},{"name":"TEPECİK MAH.","zip":"61390"},{"name":"YENİ MAH.","zip":"61390"},{"name":"YERLİCE MAH.","zip":"61390"}]},{"name":"HAYRAT","cityName":null,"quarters":[{"name":"BALABAN MERKEZ MAH.","zip":"61450"},{"name":"CUMHURİYET MAH.","zip":"61450"},{"name":"ÇAĞLAYAN MAH.","zip":"61450"},{"name":"ÇAMLITEPE MAH.","zip":"61450"},{"name":"ÇAYCILAR MAH.","zip":"61450"},{"name":"DAĞÖNÜ MAH.","zip":"61450"},{"name":"DEREYURT MAH.","zip":"61450"},{"name":"FATİH MAH.","zip":"61450"},{"name":"GEÇİTLİ MAH.","zip":"61450"},{"name":"GÖKSEL MAH.","zip":"61450"},{"name":"GÖRGÜLÜ MAH.","zip":"61450"},{"name":"GÜLDEREN FATİH MAH.","zip":"61450"},{"name":"GÜLDEREN MERKEZ MAH.","zip":"61450"},{"name":"HÜRRİYET MAH.","zip":"61450"},{"name":"KILAVUZ MAH.","zip":"61450"},{"name":"KÖYCEĞİZ MAH.","zip":"61450"},{"name":"KURTULUŞ MAH.","zip":"61450"},{"name":"MERKEZ MAH.","zip":"61450"},{"name":"MEYDANLI MAH.","zip":"61450"},{"name":"ONUR MAH.","zip":"61450"},{"name":"PAZARÖNÜ MAH.","zip":"61450"},{"name":"PINARCA MAH.","zip":"61450"},{"name":"SARMAŞIK MAH.","zip":"61450"},{"name":"ŞEHİTLİ MAH.","zip":"61450"},{"name":"ŞİŞLİ MAH.","zip":"61450"},{"name":"TAFLANCIK MAH.","zip":"61450"},{"name":"TOPAKLI MAH.","zip":"61450"},{"name":"YARLI MAH.","zip":"61450"},{"name":"YENİ MAH.","zip":"61450"},{"name":"YENİKÖY MAH.","zip":"61450"},{"name":"YILDIRIMLAR MAH.","zip":"61450"},{"name":"YIRCA MAH.","zip":"61450"}]},{"name":"KÖPRÜBAŞI","cityName":null,"quarters":[{"name":"ARPALI MAH.","zip":"61630"},{"name":"BEŞKÖY MAH.","zip":"61630"},{"name":"ÇİFTEKÖPRÜ MAH.","zip":"61630"},{"name":"FİDANLI MAH.","zip":"61630"},{"name":"GÜNDOĞAN MAH.","zip":"61630"},{"name":"GÜNEŞLİ MAH.","zip":"61630"},{"name":"PINARBAŞI MAH.","zip":"61630"},{"name":"YAĞMURLU MAH.","zip":"61630"}]},{"name":"MAÇKA","cityName":null,"quarters":[{"name":"AKMESCİT MAH.","zip":"61750"},{"name":"ALAÇAM MAH.","zip":"61750"},{"name":"ALATAŞ MAH.","zip":"61750"},{"name":"ALTINDERE MAH.","zip":"61750"},{"name":"ANAYURT MAH.","zip":"61750"},{"name":"ARDIÇLIYAYLA MAH.","zip":"61750"},{"name":"ARMAĞAN MAH.","zip":"61750"},{"name":"ATASU MAH.","zip":"61750"},{"name":"BAĞIŞLI MAH.","zip":"61750"},{"name":"BAKIMLI MAH.","zip":"61750"},{"name":"BAKIRCILAR MAH.","zip":"61750"},{"name":"BARIŞLI MAH.","zip":"61750"},{"name":"BAŞAR MAH.","zip":"61750"},{"name":"COŞANDERE MAH.","zip":"61750"},{"name":"ÇAMLIDÜZ MAH.","zip":"61750"},{"name":"ÇATAK MAH.","zip":"61750"},{"name":"ÇAYIRLAR MAH.","zip":"61750"},{"name":"ÇEŞMELER MAH.","zip":"61750"},{"name":"ÇIRALI MAH.","zip":"61750"},{"name":"DİKKAYA MAH.","zip":"61750"},{"name":"ERGİNKÖY MAH.","zip":"61750"},{"name":"ESİROĞLU MAH.","zip":"61750"},{"name":"GAYRETLİ MAH.","zip":"61750"},{"name":"GÜNAY MAH.","zip":"61750"},{"name":"GÜNEY MAH.","zip":"61750"},{"name":"GÜRGENAĞAÇ MAH.","zip":"61750"},{"name":"GÜZELCE MAH.","zip":"61750"},{"name":"GÜZELYAYLA MAH.","zip":"61750"},{"name":"HAMSİKÖY MAH.","zip":"61750"},{"name":"HIZARLI MAH.","zip":"61750"},{"name":"KAPUKÖY MAH.","zip":"61750"},{"name":"KAYNARCA MAH.","zip":"61750"},{"name":"KIRANTAŞ MAH.","zip":"61750"},{"name":"KİREMİTLİ MAH.","zip":"61750"},{"name":"KONAK MAH.","zip":"61750"},{"name":"KOZAĞAÇ MAH.","zip":"61750"},{"name":"KÖPRÜYANI MAH.","zip":"61750"},{"name":"KUŞÇU MAH.","zip":"61750"},{"name":"MATARACI MAH.","zip":"61750"},{"name":"MERKEZ MAH.","zip":"61750"},{"name":"OCAKLI MAH.","zip":"61750"},{"name":"OĞULAĞAÇ MAH.","zip":"61750"},{"name":"ORMANİÇİ MAH.","zip":"61750"},{"name":"ORMANÜSTÜ MAH.","zip":"61750"},{"name":"ORTAKÖY MAH.","zip":"61750"},{"name":"ÖRNEKALAN MAH.","zip":"61750"},{"name":"SEVİNÇ MAH.","zip":"61750"},{"name":"SINDIRAN MAH.","zip":"61750"},{"name":"SUKENARI MAH.","zip":"61750"},{"name":"ŞİMŞİRLİ MAH.","zip":"61750"},{"name":"TEMELLİ MAH.","zip":"61750"},{"name":"ÜÇGEDİK MAH.","zip":"61750"},{"name":"YAYLABAŞI MAH.","zip":"61750"},{"name":"YAZILITAŞ MAH.","zip":"61750"},{"name":"YAZLIK MAH.","zip":"61750"},{"name":"YENİKÖY MAH.","zip":"61750"},{"name":"YEŞİLTEPE MAH.","zip":"61750"},{"name":"YEŞİLYURT MAH.","zip":"61750"},{"name":"YUKARIKÖY MAH.","zip":"61750"},{"name":"YÜZÜNCÜYIL MAH.","zip":"61750"},{"name":"ZAFERLİ MAH.","zip":"61750"}]},{"name":"OF","cityName":null,"quarters":[{"name":"AĞAÇSEVEN MAH.","zip":"61830"},{"name":"AŞAĞIKIŞLACIK MAH.","zip":"61830"},{"name":"BALLICA MAH.","zip":"61830"},{"name":"BARIŞ MAH.","zip":"61830"},{"name":"BAŞKÖY MAH.","zip":"61830"},{"name":"BAYIRCA MAH.","zip":"61830"},{"name":"BİRLİK MAH.","zip":"61830"},{"name":"BÖLÜMLÜ MAH.","zip":"61830"},{"name":"CUMAPAZARI MAH.","zip":"61830"},{"name":"CUMHURİYET MAH.","zip":"61830"},{"name":"ÇALTILI MAH.","zip":"61830"},{"name":"ÇAMLI MAH.","zip":"61830"},{"name":"ÇAMLITEPE MAH.","zip":"61830"},{"name":"ÇATALDERE MAH.","zip":"61830"},{"name":"ÇATALSÖĞÜT MAH.","zip":"61830"},{"name":"ÇUKUROVA MAH.","zip":"61830"},{"name":"DAĞALAN MAH.","zip":"61830"},{"name":"DARILI MAH.","zip":"61830"},{"name":"DEREKÖY MAH.","zip":"61830"},{"name":"DOĞANÇAY MAH.","zip":"61830"},{"name":"DUMLUSU MAH.","zip":"61830"},{"name":"ERENKÖY MAH.","zip":"61830"},{"name":"ESENKÖY MAH.","zip":"61830"},{"name":"ESKİPAZAR MAH.","zip":"61830"},{"name":"FINDIKOBA MAH.","zip":"61830"},{"name":"GÖKÇEOBA MAH.","zip":"61830"},{"name":"GÜMÜŞÖREN MAH.","zip":"61830"},{"name":"GÜRESEN MAH.","zip":"61830"},{"name":"GÜRPINAR MAH.","zip":"61830"},{"name":"İKİDERE MAH.","zip":"61830"},{"name":"İRFANLI MAH.","zip":"61830"},{"name":"KABAN MAH.","zip":"61830"},{"name":"KARABUDAK MAH.","zip":"61830"},{"name":"KAVAKPINAR MAH.","zip":"61830"},{"name":"KAZANÇLI MAH.","zip":"61830"},{"name":"KELER MAH.","zip":"61830"},{"name":"KIYIBOYU MAH.","zip":"61830"},{"name":"KIYICIK MAH.","zip":"61830"},{"name":"KİRAZ MAH.","zip":"61830"},{"name":"KİREÇLİ MAH.","zip":"61830"},{"name":"KORKUT MAH.","zip":"61830"},{"name":"KORUCUK MAH.","zip":"61830"},{"name":"KUMLUDERE MAH.","zip":"61830"},{"name":"OVACIK MAH.","zip":"61830"},{"name":"ÖRTÜLÜ MAH.","zip":"61830"},{"name":"PINARALTI MAH.","zip":"61830"},{"name":"SARAÇLI MAH.","zip":"61830"},{"name":"SARAYKÖY MAH.","zip":"61830"},{"name":"SARIBEY MAH.","zip":"61830"},{"name":"SARIKAYA MAH.","zip":"61830"},{"name":"SEFAKÖY MAH.","zip":"61830"},{"name":"SERİNCE MAH.","zip":"61830"},{"name":"SIRAAĞAÇ MAH.","zip":"61830"},{"name":"SİVRİCE MAH.","zip":"61830"},{"name":"SOĞUKPINAR MAH.","zip":"61830"},{"name":"SÖĞÜTLÜ MAH.","zip":"61830"},{"name":"SUGELDİ MAH.","zip":"61830"},{"name":"SULAKLI MAH.","zip":"61830"},{"name":"TAVŞANLI MAH.","zip":"61830"},{"name":"TEKOBA MAH.","zip":"61830"},{"name":"UĞURLU MAH.","zip":"61830"},{"name":"ULUAĞAÇ MAH.","zip":"61830"},{"name":"YANIKTAŞ MAH.","zip":"61830"},{"name":"YAZLIK MAH.","zip":"61830"},{"name":"YEMİŞALAN MAH.","zip":"61830"},{"name":"YENİ MAH.","zip":"61830"},{"name":"YUKARI KIŞLACIK MAH.","zip":"61830"}]},{"name":"BEŞİRLİ","cityName":null,"quarters":[{"name":"1 NOLU ERDOĞDU MAH.","zip":"61040"},{"name":"2 NOLU BEŞİRLİ MAH.","zip":"61040"},{"name":"2 NOLU ERDOĞDU MAH.","zip":"61040"},{"name":"3 NOLU ERDOĞDU MAH.","zip":"61040"},{"name":"KARŞIYAKA MAH.","zip":"61040"}]},{"name":"BOSTANCI","cityName":null,"quarters":[{"name":"2 NOLU BOSTANCI MAH.","zip":"61080"}]},{"name":"BOZTEPE","cityName":null,"quarters":[{"name":"AKKAYA MAH.","zip":"61030"},{"name":"AKOLUK MAH.","zip":"61030"},{"name":"AKTOPRAK MAH.","zip":"61030"},{"name":"AKYAZI MAH.","zip":"61030"},{"name":"AYDINLIKEVLER MAH.","zip":"61030"},{"name":"AYVALI MAH.","zip":"61030"},{"name":"BAHÇECİK MAH.","zip":"61030"},{"name":"BENGİSU MAH.","zip":"61030"},{"name":"BEŞTAŞ MAH.","zip":"61030"},{"name":"BOZTEPE MAH.","zip":"61030"},{"name":"BULAK MAH.","zip":"61030"},{"name":"CUMHURİYET MAH.","zip":"61030"},{"name":"ÇAĞLAYAN MAH.","zip":"61030"},{"name":"ÇAMOBA MAH.","zip":"61030"},{"name":"ÇARŞI MAH.","zip":"61030"},{"name":"ÇİLEKLİ MAH.","zip":"61030"},{"name":"ÇİMENLİ MAH.","zip":"61030"},{"name":"ÇÖMLEKÇİ MAH.","zip":"61030"},{"name":"ÇÖMLEKÇİ SB MAH.","zip":"61030"},{"name":"ÇUKURÇAYIR MAH.","zip":"61030"},{"name":"DEĞİRMENDERE MAH.","zip":"61030"},{"name":"DOĞANÇAY MAH.","zip":"61030"},{"name":"DOLAYLI MAH.","zip":"61030"},{"name":"DÜZYURT MAH.","zip":"61030"},{"name":"ESENTEPE MAH.","zip":"61030"},{"name":"ESENYURT MAH.","zip":"61030"},{"name":"FATİH MAH.","zip":"61030"},{"name":"FATİH SULTAN MAH.","zip":"61030"},{"name":"GAZİPAŞA MAH.","zip":"61030"},{"name":"GEÇİT MAH.","zip":"61030"},{"name":"GÖLÇAYIR MAH.","zip":"61030"},{"name":"GÖZALAN MAH.","zip":"61030"},{"name":"GÜLBAHARHATUN MAH.","zip":"61030"},{"name":"GÜNDOĞDU MAH.","zip":"61030"},{"name":"GÜRBULAK MAH.","zip":"61030"},{"name":"HIZIRBEY MAH.","zip":"61030"},{"name":"İNCESU MAH.","zip":"61030"},{"name":"İNÖNÜ MAH.","zip":"61030"},{"name":"İSKENDERPAŞA MAH.","zip":"61030"},{"name":"KALKINMA MAH.","zip":"61030"},{"name":"KANUNİ MAH.","zip":"61030"},{"name":"KARAKAYA MAH.","zip":"61030"},{"name":"KARLIK MAH.","zip":"61030"},{"name":"KAVALA MAH.","zip":"61030"},{"name":"KAYMAKLI MAH.","zip":"61030"},{"name":"KEMERKAYA MAH.","zip":"61030"},{"name":"KİREÇHANE MAH.","zip":"61030"},{"name":"KONAKLAR MAH.","zip":"61030"},{"name":"KOZLUCA MAH.","zip":"61030"},{"name":"KURTULUŞ MAH.","zip":"61030"},{"name":"KUTLUGÜN MAH.","zip":"61030"},{"name":"ORTAHİSAR MAH.","zip":"61030"},{"name":"ÖZBİRLİK MAH.","zip":"61030"},{"name":"PAZARKAPI MAH.","zip":"61030"},{"name":"PELİTLİ MAH.","zip":"61030"},{"name":"PINARALTI MAH.","zip":"61030"},{"name":"SANAYİ MAH.","zip":"61030"},{"name":"SAYVAN MAH.","zip":"61030"},{"name":"SEVİMLİ MAH.","zip":"61030"},{"name":"SOĞUKSU MAH.","zip":"61030"},{"name":"SUBAŞI MAH.","zip":"61030"},{"name":"TOKLU MAH.","zip":"61030"},{"name":"TOSKÖY MAH.","zip":"61030"},{"name":"UĞURLU MAH.","zip":"61030"},{"name":"ÜNİVERSİTE MAH.","zip":"61030"},{"name":"YALI MAH.","zip":"61030"},{"name":"YALINCAK MAH.","zip":"61030"},{"name":"YENİCUMA MAH.","zip":"61030"},{"name":"YENİKÖY MAH.","zip":"61030"},{"name":"YENİMAHALLE MAH.","zip":"61030"},{"name":"YEŞİLBÜK MAH.","zip":"61030"},{"name":"YEŞİLHİSAR MAH.","zip":"61030"},{"name":"YEŞİLOVA MAH.","zip":"61030"},{"name":"YEŞİLTEPE MAH.","zip":"61030"},{"name":"YEŞİLVADİ MAH.","zip":"61030"},{"name":"YEŞİLYURT MAH.","zip":"61030"},{"name":"ZAFER MAH.","zip":"61030"}]},{"name":"SÜRMENE","cityName":null,"quarters":[{"name":"ARMUTLU MAH.","zip":"61600"},{"name":"AŞAĞIOVALI MAH.","zip":"61600"},{"name":"BALIKLI MAH.","zip":"61600"},{"name":"BİRLİK MAH.","zip":"61600"},{"name":"ÇAMBURNU MAH.","zip":"61600"},{"name":"ÇAMLICA MAH.","zip":"61600"},{"name":"ÇARŞI MAH.","zip":"61600"},{"name":"ÇAVUŞLU MAH.","zip":"61600"},{"name":"ÇİFTESU MAH.","zip":"61600"},{"name":"ÇİMENLİ MAH.","zip":"61600"},{"name":"DİRLİK MAH.","zip":"61600"},{"name":"FINDICAK MAH.","zip":"61600"},{"name":"GÜLTEPE MAH.","zip":"61600"},{"name":"GÜNEYKÖY MAH.","zip":"61600"},{"name":"KAHRAMAN MAH.","zip":"61600"},{"name":"KARACAKAYA MAH.","zip":"61600"},{"name":"KONAK MAH.","zip":"61600"},{"name":"KOYUNCULAR MAH.","zip":"61600"},{"name":"KÜÇÜKDERE MAH.","zip":"61600"},{"name":"MURATLI MAH.","zip":"61600"},{"name":"ORMANSEVEN MAH.","zip":"61600"},{"name":"ORTA MAH.","zip":"61600"},{"name":"ORTAKÖY MAH.","zip":"61600"},{"name":"OYLUM MAH.","zip":"61600"},{"name":"PETEKLİ MAH.","zip":"61600"},{"name":"SOĞUKSU MAH.","zip":"61600"},{"name":"ÜSTÜNDAL MAH.","zip":"61600"},{"name":"ÜZÜMLÜ MAH.","zip":"61600"},{"name":"YAZIOBA MAH.","zip":"61600"},{"name":"YEMİŞLİ MAH.","zip":"61600"},{"name":"YENİAY MAH.","zip":"61600"},{"name":"YEŞİLKÖY MAH.","zip":"61600"},{"name":"YOKUŞBAŞI MAH.","zip":"61600"},{"name":"YUKARIÇAVUŞLU MAH.","zip":"61600"},{"name":"YUKARIOVALI MAH.","zip":"61600"},{"name":"ZEYTİNLİ MAH.","zip":"61600"}]},{"name":"ŞALPAZARI","cityName":null,"quarters":[{"name":"AKÇİRİŞ MAH.","zip":"61670"},{"name":"ÇAMKİRİŞ MAH.","zip":"61670"},{"name":"ÇAMLICA MAH.","zip":"61670"},{"name":"ÇARLAKLI MAH.","zip":"61670"},{"name":"ÇETRİK MAH.","zip":"61670"},{"name":"DEREKÖY MAH.","zip":"61670"},{"name":"DOĞANCI MAH.","zip":"61670"},{"name":"DORUKKİRİŞ MAH.","zip":"61670"},{"name":"DÜZKÖY MAH.","zip":"61670"},{"name":"FİDANBAŞI MAH.","zip":"61670"},{"name":"GEYİKLİ MAH.","zip":"61670"},{"name":"GÖKÇEKÖY MAH.","zip":"61670"},{"name":"GÖLKİRİŞ MAH.","zip":"61670"},{"name":"GÜDÜN MAH.","zip":"61670"},{"name":"KABASAKAL MAH.","zip":"61670"},{"name":"KALECİK MAH.","zip":"61670"},{"name":"KARAKAYA MAH.","zip":"61670"},{"name":"KASIMAĞZI MAH.","zip":"61670"},{"name":"KİREÇ MAH.","zip":"61670"},{"name":"KUZULUK MAH.","zip":"61670"},{"name":"PELİTÇİK MAH.","zip":"61670"},{"name":"SAYVANÇATAK MAH.","zip":"61670"},{"name":"SİMENLİ MAH.","zip":"61670"},{"name":"SİNLİCE MAH.","zip":"61670"},{"name":"SUGÖREN MAH.","zip":"61670"},{"name":"SÜTPINAR MAH.","zip":"61670"},{"name":"TEPEAĞZI MAH.","zip":"61670"},{"name":"TURALIUŞAĞI MAH.","zip":"61670"},{"name":"ÜZÜMÖZÜ MAH.","zip":"61670"}]},{"name":"TONYA","cityName":null,"quarters":[{"name":"BÜYÜK MAH.","zip":"61500"},{"name":"ÇAMLI MAH.","zip":"61500"},{"name":"ÇAYIRİÇİ MAH.","zip":"61500"},{"name":"HOŞARLI MAH.","zip":"61500"},{"name":"İSKENDERLİ MAH.","zip":"61500"},{"name":"KALEMLİ MAH.","zip":"61500"},{"name":"KALEÖNÜ MAH.","zip":"61500"},{"name":"KALINÇAM MAH.","zip":"61500"},{"name":"KARAAĞAÇLI MAH.","zip":"61500"},{"name":"KARASU MAH.","zip":"61500"},{"name":"KARŞULAR MAH.","zip":"61500"},{"name":"KAYACAN MAH.","zip":"61500"},{"name":"KOZLUCA MAH.","zip":"61500"},{"name":"KÖSECİK MAH.","zip":"61500"},{"name":"MELİKŞAH MAH.","zip":"61500"},{"name":"ORTA MAH.","zip":"61500"},{"name":"SAĞRI MAH.","zip":"61500"},{"name":"SAYRAÇ MAH.","zip":"61500"},{"name":"TURALI MAH.","zip":"61500"},{"name":"YAKÇUKUR MAH.","zip":"61500"},{"name":"YENİ MAH.","zip":"61500"}]},{"name":"VAKFIKEBİR","cityName":null,"quarters":[{"name":"AKKÖY MAH.","zip":"61400"},{"name":"AYDOĞDU MAH.","zip":"61400"},{"name":"BAHADIRLI MAH.","zip":"61400"},{"name":"BALLI MAH.","zip":"61400"},{"name":"BOZALAN MAH.","zip":"61400"},{"name":"BÜYÜKLİMAN MAH.","zip":"61400"},{"name":"CAFERLİ MAH.","zip":"61400"},{"name":"CUMHURİYET MAH.","zip":"61400"},{"name":"ÇAMLIK MAH.","zip":"61400"},{"name":"ÇAMLIK SAHİL MAH.","zip":"61400"},{"name":"ÇARŞI MAH.","zip":"61400"},{"name":"ÇAVUŞLU MAH.","zip":"61400"},{"name":"DEREGÖZÜ MAH.","zip":"61400"},{"name":"DÜZLÜK MAH.","zip":"61400"},{"name":"ESENTEPE MAH.","zip":"61400"},{"name":"FETHİYE MAH.","zip":"61400"},{"name":"FEVZİYE MAH.","zip":"61400"},{"name":"GÜNEYKÖY MAH.","zip":"61400"},{"name":"GÜNEYSU MAH.","zip":"61400"},{"name":"HACIKÖY MAH.","zip":"61400"},{"name":"HAMZALI MAH.","zip":"61400"},{"name":"HÜRRİYET MAH.","zip":"61400"},{"name":"İLYASLI MAH.","zip":"61400"},{"name":"İSHAKLI MAH.","zip":"61400"},{"name":"KARATEPE MAH.","zip":"61400"},{"name":"KEMALİYE MAH.","zip":"61400"},{"name":"KIRANKÖY MAH.","zip":"61400"},{"name":"KİRAZLIK MAH.","zip":"61400"},{"name":"KİRAZLIKYENİ MAH.","zip":"61400"},{"name":"KÖPRÜCEK MAH.","zip":"61400"},{"name":"KÖREZ MAH.","zip":"61400"},{"name":"MAHMUTLU MAH.","zip":"61400"},{"name":"MISIRLI MAH.","zip":"61400"},{"name":"ORTAKÖY MAH.","zip":"61400"},{"name":"RIDVANLI MAH.","zip":"61400"},{"name":"SEKMENLİ MAH.","zip":"61400"},{"name":"SİNANLI MAH.","zip":"61400"},{"name":"SOĞUKSU MAH.","zip":"61400"},{"name":"ŞENOCAK MAH.","zip":"61400"},{"name":"TARLACIK MAH.","zip":"61400"},{"name":"YALIKÖY MAH.","zip":"61400"},{"name":"YAYLACIK MAH.","zip":"61400"},{"name":"YILDIZ MAH.","zip":"61400"}]},{"name":"YOMRA","cityName":null,"quarters":[{"name":"ÇAMLIYURT MAH.","zip":"61250"},{"name":"ÇINARLI MAH.","zip":"61250"},{"name":"DEMİRCİLER MAH.","zip":"61250"},{"name":"GÜLYURDU MAH.","zip":"61250"},{"name":"GÜRSEL MAH.","zip":"61250"},{"name":"İKİSU MAH.","zip":"61250"},{"name":"KAŞÜSTÜ MAH.","zip":"61250"},{"name":"KAYABAŞI MAH.","zip":"61250"},{"name":"KILIÇLI MAH.","zip":"61250"},{"name":"KIRATLI MAH.","zip":"61250"},{"name":"KÖMÜRCÜ MAH.","zip":"61250"},{"name":"MADEN MAH.","zip":"61250"},{"name":"NAMIKKEMAL MAH.","zip":"61250"},{"name":"OCAK MAH.","zip":"61250"},{"name":"OYMALI MAH.","zip":"61250"},{"name":"ÖZDİL MAH.","zip":"61250"},{"name":"PINARLI MAH.","zip":"61250"},{"name":"SANCAK MAH.","zip":"61250"},{"name":"ŞANLI MAH.","zip":"61250"},{"name":"TANDIRLI MAH.","zip":"61250"},{"name":"TAŞDELEN MAH.","zip":"61250"},{"name":"TEPEKÖY MAH.","zip":"61250"},{"name":"YENİCE MAH.","zip":"61250"},{"name":"YOKUŞLU MAH.","zip":"61250"}]}]}]}