{"id":62,"name":"TUNCELİ","cities":[{"name":"city","districts":[{"name":"ÇEMİŞGEZEK","cityName":null,"quarters":[{"name":"KALE MAH.","zip":"62600"},{"name":"MESCİT MAH.","zip":"62600"},{"name":"TEPEBAŞI MAH.","zip":"62600"},{"name":"YENİMAHALLE MAH.","zip":"62600"}]},{"name":"MERKEZKÖYLER","cityName":null,"quarters":[{"name":"AKÇAYUNT KÖYÜ","zip":"62602"},{"name":"AKÇAYUNT MAH.","zip":"62602"},{"name":"ALAKUŞ KÖYÜ","zip":"62602"},{"name":"ALÇILI MAH.","zip":"62602"},{"name":"ANIL KÖYÜ","zip":"62602"},{"name":"ARDİGE MAH.","zip":"62602"},{"name":"ARDİĞE MAH.","zip":"62602"},{"name":"ARPADEREN KÖYÜ","zip":"62602"},{"name":"AŞAĞI PEYDERE MAH.","zip":"62602"},{"name":"AŞAĞI SAVUK MAH.","zip":"62602"},{"name":"AŞAĞIBUDAK KÖYÜ","zip":"62602"},{"name":"AŞAĞIDEMİRBÜK KÖYÜ","zip":"62602"},{"name":"BAĞSUYU KÖYÜ","zip":"62602"},{"name":"BOZAĞAÇ KÖYÜ","zip":"62602"},{"name":"BUĞDAYLI MAH.","zip":"62602"},{"name":"BÜYÜKÖRENCE KÖYÜ","zip":"62602"},{"name":"CEBE KÖYÜ","zip":"62602"},{"name":"CİHANGİR KÖYÜ","zip":"62602"},{"name":"ÇİZMELİ MAH.","zip":"62602"},{"name":"DEDEBEYLİ KÖYÜ","zip":"62602"},{"name":"DOĞAN KÖYÜ","zip":"62602"},{"name":"DOĞANALAN KÖYÜ","zip":"62602"},{"name":"DORUK MAH.","zip":"62602"},{"name":"ERGENLER MAH.","zip":"62602"},{"name":"ERKALKAN KÖYÜ","zip":"62602"},{"name":"GEDİKLER KÖYÜ","zip":"62602"},{"name":"GÖZLÜÇAYIR KÖYÜ","zip":"62602"},{"name":"GÜLBAHÇE KÖYÜ","zip":"62602"},{"name":"GÜNEYBAŞI KÖYÜ","zip":"62602"},{"name":"HASTEK MAH.","zip":"62602"},{"name":"KARAGEDİK MAH.","zip":"62602"},{"name":"KARASAR KÖYÜ","zip":"62602"},{"name":"KEÇELİ MAH.","zip":"62602"},{"name":"KIRAÇLAR KÖYÜ","zip":"62602"},{"name":"KIZIL EVLER MAH.","zip":"62602"},{"name":"KİNELİ MAH.","zip":"62602"},{"name":"KOYUNARDI MAH.","zip":"62602"},{"name":"KÖÇEK MAH.","zip":"62602"},{"name":"MÜŞTAK MAH.","zip":"62602"},{"name":"PAŞACIK KÖYÜ","zip":"62602"},{"name":"PAYAMDÜZÜ KÖYÜ","zip":"62602"},{"name":"SAKYOL KÖYÜ","zip":"62602"},{"name":"SARIBALTA KÖYÜ","zip":"62602"},{"name":"TAŞLIK MAH.","zip":"62602"},{"name":"TEKELİ KÖYÜ","zip":"62602"},{"name":"TORATLI KÖYÜ","zip":"62602"},{"name":"ULUKALE KÖYÜ","zip":"62602"},{"name":"UZUNGÖL KÖYÜ","zip":"62602"},{"name":"VARLIKONAK MAH.","zip":"62602"},{"name":"VİŞNELİ KÖYÜ","zip":"62602"},{"name":"YEMİŞDERE KÖYÜ","zip":"62602"},{"name":"YUKARI SAVUK MAH.","zip":"62602"},{"name":"YUKARIBUDAK KÖYÜ","zip":"62602"},{"name":"YUKARIDEMİRBÜK MAH.","zip":"62602"},{"name":"YÜNBÜKEN KÖYÜ","zip":"62602"}]},{"name":"HOZAT","cityName":null,"quarters":[{"name":"HAMİDİYE MAH.","zip":"62400"},{"name":"KÖPRÜBAŞI MAH.","zip":"62400"},{"name":"YENİ MAH.","zip":"62400"}]},{"name":"MERKEZKÖYLER","cityName":null,"quarters":[{"name":"AĞMEZRA MAH.","zip":"62402"},{"name":"AKBULUT MAH.","zip":"62402"},{"name":"AKÖREN MAH.","zip":"62402"},{"name":"AKPINAR KÖYÜ","zip":"62402"},{"name":"AKPINAR MAH.","zip":"62402"},{"name":"AKSEKİ MAH.","zip":"62402"},{"name":"AKVEYSİ MAH.","zip":"62402"},{"name":"ALANCIK KÖYÜ","zip":"62402"},{"name":"ALTINÇEVRE KÖYÜ","zip":"62402"},{"name":"AMAÇLI MAH.","zip":"62402"},{"name":"AŞAĞI BUZLUPINAR MAH.","zip":"62402"},{"name":"AŞAĞI KARDELEN MAH.","zip":"62402"},{"name":"BALKAYNAR KÖYÜ","zip":"62402"},{"name":"BALOLAR MAH.","zip":"62402"},{"name":"BAŞATLI(DOLUÇEŞME) MAH.","zip":"62402"},{"name":"BEŞELMA KÖYÜ","zip":"62402"},{"name":"BEZAVUT MAH.","zip":"62402"},{"name":"BILANIK MAH.","zip":"62402"},{"name":"BİLEKLİ KÖYÜ","zip":"62402"},{"name":"BİLİKAN MAH.","zip":"62402"},{"name":"BOYALI MAH.","zip":"62402"},{"name":"BOYDAŞ KÖYÜ","zip":"62402"},{"name":"BULGURLU MAH.","zip":"62402"},{"name":"BUZLUPINAR KÖYÜ","zip":"62402"},{"name":"ÇAĞLARCA KÖYÜ","zip":"62402"},{"name":"ÇAKMAKLI MAH.","zip":"62402"},{"name":"ÇAM YAZI MAH.","zip":"62402"},{"name":"ÇAYTAŞI KÖYÜ","zip":"62402"},{"name":"ÇIĞIRLI KÖYÜ","zip":"62402"},{"name":"DALÖREN KÖYÜ","zip":"62402"},{"name":"DARIKOLU MAH.","zip":"62402"},{"name":"DELİKTAŞ MAH.","zip":"62402"},{"name":"DERİNDERE MAH.","zip":"62402"},{"name":"DERVİŞCEMAL KÖYÜ","zip":"62402"},{"name":"ERENLER MAH.","zip":"62402"},{"name":"FARUKLAR MAH.","zip":"62402"},{"name":"GEÇİMLİ KÖYÜ","zip":"62402"},{"name":"GÖKÇEN-YEŞİLSEGEDİK MAH.","zip":"62402"},{"name":"GÖZEREK MAH.","zip":"62402"},{"name":"GÜLENLER MAH.","zip":"62402"},{"name":"GÜMÜŞSUYU MAH.","zip":"62402"},{"name":"HADİŞAR-BAYRAM MAH.","zip":"62402"},{"name":"HALİLAĞA MAH.","zip":"62402"},{"name":"HELLER MAH.","zip":"62402"},{"name":"HIDIRDAMI MAH.","zip":"62402"},{"name":"HOPAĞAÇ MAH.","zip":"62402"},{"name":"IŞIKLAR MAH.","zip":"62402"},{"name":"İBRAHİM TANER MAH.","zip":"62402"},{"name":"İN KÖYÜ","zip":"62402"},{"name":"KALANKOZ MAH.","zip":"62402"},{"name":"KALECİK KÖYÜ","zip":"62402"},{"name":"KARABAKIR KÖYÜ","zip":"62402"},{"name":"KARACA KÖYÜ","zip":"62402"},{"name":"KARAÇAVUŞ KÖYÜ","zip":"62402"},{"name":"KARATAŞ MAH.","zip":"62402"},{"name":"KARDELEN KÖYÜ","zip":"62402"},{"name":"KARSEL MAH.","zip":"62402"},{"name":"KAVUKTEPE KÖYÜ","zip":"62402"},{"name":"KAYABAĞI MAH.","zip":"62402"},{"name":"KIZIL KOM MAH.","zip":"62402"},{"name":"KİNZİR MAH.","zip":"62402"},{"name":"KORU KÖYÜ","zip":"62402"},{"name":"KOZLUCA KÖYÜ","zip":"62402"},{"name":"KÖYBAŞI MAH.","zip":"62402"},{"name":"KURUKAFALAR MAH.","zip":"62402"},{"name":"KURUKAYMAK KÖYÜ","zip":"62402"},{"name":"KUZULUK MAH.","zip":"62402"},{"name":"KÜÇÜK DALÖREN MAH.","zip":"62402"},{"name":"KÜLÜNK MAH.","zip":"62402"},{"name":"MAŞA MAH.","zip":"62402"},{"name":"MERECİK MAH.","zip":"62402"},{"name":"MERK MAH.","zip":"62402"},{"name":"MEŞEDİBİ MAH.","zip":"62402"},{"name":"MEŞELİK MAH.","zip":"62402"},{"name":"NİŞANGAH MAH.","zip":"62402"},{"name":"ÖDEMİŞ MAH.","zip":"62402"},{"name":"POTİN MAH.","zip":"62402"},{"name":"SALKIMLI MAH.","zip":"62402"},{"name":"SARISALTIK KÖYÜ","zip":"62402"},{"name":"SEGEDİK-KARAMANSEGEDİK MAH.","zip":"62402"},{"name":"SEYİT MEMETLER MAH.","zip":"62402"},{"name":"SORPİYAN MAH.","zip":"62402"},{"name":"SÜTLÜCE MAH.","zip":"62402"},{"name":"TAŞITLI KÖYÜ","zip":"62402"},{"name":"TÜRKTANER KÖYÜ","zip":"62402"},{"name":"UZUNÇAYIR MAH.","zip":"62402"},{"name":"UZUNDAL KÖYÜ","zip":"62402"},{"name":"ÜZÜMLÜ MAH.","zip":"62402"},{"name":"VENK MAH.","zip":"62402"},{"name":"YAZI MAH.","zip":"62402"},{"name":"YENİDOĞDU KÖYÜ","zip":"62402"},{"name":"YEŞİLYURT MAH.","zip":"62402"},{"name":"YOĞUN TOPRAK MAH.","zip":"62402"},{"name":"YORGANLI MAH.","zip":"62402"},{"name":"YÜCELDİ KÖYÜ","zip":"62402"},{"name":"ZİYAL MAH.","zip":"62402"}]},{"name":"MAZGİRT","cityName":null,"quarters":[{"name":"YENİ MAH.","zip":"62800"}]},{"name":"MERKEZKÖYLER","cityName":null,"quarters":[{"name":"AKDÜVEN KÖYÜ","zip":"62802"},{"name":"AKKAVAK KÖYÜ","zip":"62802"},{"name":"AKPAZAR KÖYÜ","zip":"62802"},{"name":"AKTARLA KÖYÜ","zip":"62802"},{"name":"AKYÜNLÜ KÖYÜ","zip":"62802"},{"name":"ALANYAZI KÖYÜ","zip":"62802"},{"name":"ALHAN KÖYÜ","zip":"62802"},{"name":"ALİDOST MAH.","zip":"62802"},{"name":"ANITÇINAR KÖYÜ","zip":"62802"},{"name":"ARICIK MAH.","zip":"62802"},{"name":"ASLANYURDU KÖYÜ","zip":"62802"},{"name":"AŞAĞIÇANAKCI MAH.","zip":"62802"},{"name":"AŞAĞIOYUMCA KÖYÜ","zip":"62802"},{"name":"AŞAĞITARLACIK KÖYÜ","zip":"62802"},{"name":"ATAÇINAR KÖYÜ","zip":"62802"},{"name":"ATALAY MAH.","zip":"62802"},{"name":"AVUNCA KÖYÜ","zip":"62802"},{"name":"AYDINLAR MAH.","zip":"62802"},{"name":"AYDINLIK KÖYÜ","zip":"62802"},{"name":"AYVATLI KÖYÜ","zip":"62802"},{"name":"BAHŞİŞ MAH.","zip":"62802"},{"name":"BALKAN KÖYÜ","zip":"62802"},{"name":"BAZINALİ MAH.","zip":"62802"},{"name":"BEROÇ MAH.","zip":"62802"},{"name":"BEŞOLUK KÖYÜ","zip":"62802"},{"name":"BEYLERMEZRASI KÖYÜ","zip":"62802"},{"name":"BİÇER MAH.","zip":"62802"},{"name":"BİRİK MAH.","zip":"62802"},{"name":"BULGURCULAR KÖYÜ","zip":"62802"},{"name":"BÜTÜNLÜ MAH.","zip":"62802"},{"name":"CEFKAN MAH.","zip":"62802"},{"name":"ÇALOSUR MAH.","zip":"62802"},{"name":"ÇANGAL MAH.","zip":"62802"},{"name":"ÇARŞIBAŞI MAH.","zip":"62802"},{"name":"ÇATKÖY KÖYÜ","zip":"62802"},{"name":"ÇOBANLI MAH.","zip":"62802"},{"name":"DALAMER MAH.","zip":"62802"},{"name":"DALBAHÇE MAH.","zip":"62802"},{"name":"DALLIBEL KÖYÜ","zip":"62802"},{"name":"DANABURAN KÖYÜ","zip":"62802"},{"name":"DARIKENT KÖYÜ","zip":"62802"},{"name":"DAYILAR KÖYÜ","zip":"62802"},{"name":"DAZKAYA KÖYÜ","zip":"62802"},{"name":"DEMİRCİ KÖYÜ","zip":"62802"},{"name":"DEMİRKAZIK KÖYÜ","zip":"62802"},{"name":"DERİK MAH.","zip":"62802"},{"name":"DERVİŞAN MAH.","zip":"62802"},{"name":"DOĞANLI KÖYÜ","zip":"62802"},{"name":"DOĞUCAK KÖYÜ","zip":"62802"},{"name":"DOSTAR MAH.","zip":"62802"},{"name":"ELMALIK MAH.","zip":"62802"},{"name":"FEVZİ MAH.","zip":"62802"},{"name":"GAZ MAH.","zip":"62802"},{"name":"GEÇİTVEREN KÖYÜ","zip":"62802"},{"name":"GEDİK MAH.","zip":"62802"},{"name":"GELİNCİK KÖYÜ","zip":"62802"},{"name":"GELİNPINAR KÖYÜ","zip":"62802"},{"name":"GOMİKARAÇ MAH.","zip":"62802"},{"name":"GÖKTEPE KÖYÜ","zip":"62802"},{"name":"GÖLEK MAH.","zip":"62802"},{"name":"GÖRCAN MAH.","zip":"62802"},{"name":"GÜLEÇ KÖYÜ","zip":"62802"},{"name":"GÜMÜŞGÜN KÖYÜ","zip":"62802"},{"name":"GÜNEŞDERE MAH.","zip":"62802"},{"name":"GÜNEYHARMAN MAH.","zip":"62802"},{"name":"HACI YUSUF MAH.","zip":"62802"},{"name":"HIDYAN MAH.","zip":"62802"},{"name":"HOPİK MAH.","zip":"62802"},{"name":"HÜSEYİN AĞA MAH.","zip":"62802"},{"name":"İBİMAHMUT KÖYÜ","zip":"62802"},{"name":"İLANLI MAH.","zip":"62802"},{"name":"İSMAİLLİ KÖYÜ","zip":"62802"},{"name":"KALALİ MAH.","zip":"62802"},{"name":"KALAYCI KÖYÜ","zip":"62802"},{"name":"KALE KÖYÜ","zip":"62802"},{"name":"KALE MAH.","zip":"62802"},{"name":"KALELİ MAH.","zip":"62802"},{"name":"KAMIŞLI MAH.","zip":"62802"},{"name":"KAMKAMİK MAH.","zip":"62802"},{"name":"KARABULUT MAH.","zip":"62802"},{"name":"KARATAŞ MAH.","zip":"62802"},{"name":"KARAYAZI MAH.","zip":"62802"},{"name":"KARAYUSUF KÖYÜ","zip":"62802"},{"name":"KARSAN KÖYÜ","zip":"62802"},{"name":"KARŞIKONAK KÖYÜ","zip":"62802"},{"name":"KARTUTAN KÖYÜ","zip":"62802"},{"name":"KAVAKTEPE KÖYÜ","zip":"62802"},{"name":"KAYACI KÖYÜ","zip":"62802"},{"name":"KEPEKTAŞI MAH.","zip":"62802"},{"name":"KEPUR MAH.","zip":"62802"},{"name":"KIZILCIK KÖYÜ","zip":"62802"},{"name":"KIZILKALE KÖYÜ","zip":"62802"},{"name":"KOÇKUYUSU KÖYÜ","zip":"62802"},{"name":"KOM MAH.","zip":"62802"},{"name":"KOMAN MAH.","zip":"62802"},{"name":"KOYUNUŞAĞI KÖYÜ","zip":"62802"},{"name":"KÖKLÜCE KÖYÜ","zip":"62802"},{"name":"KÖPRÜ MAH.","zip":"62802"},{"name":"KÖRTELAÇİN MAH.","zip":"62802"},{"name":"KÖSEOĞLU MAH.","zip":"62802"},{"name":"KUŞAKLI KÖYÜ","zip":"62802"},{"name":"KUŞÇU MAH.","zip":"62802"},{"name":"KUŞHANE KÖYÜ","zip":"62802"},{"name":"KUŞHANE MAH.","zip":"62802"},{"name":"LEMPER MAH.","zip":"62802"},{"name":"LOTO MAH.","zip":"62802"},{"name":"MERKEZ MAH.","zip":"62802"},{"name":"MEŞELİK MAH.","zip":"62802"},{"name":"MEZRA MAH.","zip":"62802"},{"name":"MUSTAFA UÇAR MAH.","zip":"62802"},{"name":"MÜRÜT MAH.","zip":"62802"},{"name":"NİŞANGE MAH.","zip":"62802"},{"name":"OBRUKKAŞI KÖYÜ","zip":"62802"},{"name":"OBUZBAŞI KÖYÜ","zip":"62802"},{"name":"OKUL MAH.","zip":"62802"},{"name":"ORTADURAK KÖYÜ","zip":"62802"},{"name":"ORTAHARMAN KÖYÜ","zip":"62802"},{"name":"ORUÇ MAH.","zip":"62802"},{"name":"OTLUKAYA KÖYÜ","zip":"62802"},{"name":"OYMADAL KÖYÜ","zip":"62802"},{"name":"ÖRENİÇİ KÖYÜ","zip":"62802"},{"name":"ÖRS MAH.","zip":"62802"},{"name":"ÖZDEK KÖYÜ","zip":"62802"},{"name":"PANAN MAH.","zip":"62802"},{"name":"POLATLAR MAH.","zip":"62802"},{"name":"SALARAR MAH.","zip":"62802"},{"name":"SAMSOR MAH.","zip":"62802"},{"name":"SARIKOÇ KÖYÜ","zip":"62802"},{"name":"SEDİKAN MAH.","zip":"62802"},{"name":"SEVİKAN MAH.","zip":"62802"},{"name":"SİVGİLİ MAH.","zip":"62802"},{"name":"SİVRİCE MAH.","zip":"62802"},{"name":"SOLHAN MAH.","zip":"62802"},{"name":"SÖKÜCEK KÖYÜ","zip":"62802"},{"name":"SUBAŞI MAH.","zip":"62802"},{"name":"SÜLÜNTAŞ KÖYÜ","zip":"62802"},{"name":"ŞÜKÜR KÖM MAH.","zip":"62802"},{"name":"TEMÜRTAHT KÖYÜ","zip":"62802"},{"name":"TENİ KOMU MAH.","zip":"62802"},{"name":"TİL MAH.","zip":"62802"},{"name":"TURAN MAH.","zip":"62802"},{"name":"TÜTİYAN MAH.","zip":"62802"},{"name":"UĞURLU MAH.","zip":"62802"},{"name":"UZUNYOL MAH.","zip":"62802"},{"name":"VELİŞİH MAH.","zip":"62802"},{"name":"VELİYAN MAH.","zip":"62802"},{"name":"YARIŞ MAH.","zip":"62802"},{"name":"YAŞAROĞLU KÖYÜ","zip":"62802"},{"name":"YAZELİ KÖYÜ","zip":"62802"},{"name":"YELDEĞEN KÖYÜ","zip":"62802"},{"name":"YENİBUDAK KÖYÜ","zip":"62802"},{"name":"YILMAZ MAH.","zip":"62802"},{"name":"YUKARIÇAKANKCI MAH.","zip":"62802"},{"name":"YUKARIOYUMCA KÖYÜ","zip":"62802"},{"name":"YUSUFAĞA MAH.","zip":"62802"},{"name":"ZİMMAK MAH.","zip":"62802"},{"name":"AĞAÇLI MZ MAH.","zip":"62002"},{"name":"AKBULUT MAH.","zip":"62002"},{"name":"AKBULUT\/SALVENK MAH.","zip":"62002"},{"name":"AKBULUT\/SALVENK MZ. MAH.","zip":"62002"},{"name":"AKOLUK MZ MAH.","zip":"62002"},{"name":"ALACIK KÖYÜ","zip":"62002"},{"name":"ALİ DERESİ MZ MAH.","zip":"62002"},{"name":"ALİBABA MZ MAH.","zip":"62002"},{"name":"ALİKARAMAN MAH.","zip":"62002"},{"name":"ALTINYÜZÜK KÖYÜ","zip":"62002"},{"name":"ANAFATMA(YONCALI )MZ MAH.","zip":"62002"},{"name":"ANBAR KÖYÜ","zip":"62002"},{"name":"ANDIGAK (YOĞURTLU ) MZ MAH.","zip":"62002"},{"name":"AŞAGI BOR MZ MAH.","zip":"62002"},{"name":"AŞAĞI BAŞAKÇI MZ MAH.","zip":"62002"},{"name":"AŞAĞI DERE MZ MAH.","zip":"62002"},{"name":"AŞAĞI KAVEHEK MZ MAH.","zip":"62002"},{"name":"AŞAĞI TARLACIK MZ MAH.","zip":"62002"},{"name":"AŞAĞI TEŞNİK MAH.","zip":"62002"},{"name":"ATADOĞDU KÖYÜ","zip":"62002"},{"name":"ATALAR MZ MAH.","zip":"62002"},{"name":"ATLANTI KÖYÜ","zip":"62002"},{"name":"ATLANTTI MZ MAH.","zip":"62002"},{"name":"AVCILAR MAH.","zip":"62002"},{"name":"AVCİLAR MZ MAH.","zip":"62002"},{"name":"AYDERESİ MZ MAH.","zip":"62002"},{"name":"AYDOĞDU MZ MAH.","zip":"62002"},{"name":"AYRANLI MZ MAH.","zip":"62002"},{"name":"BABAOCAĞI KÖYÜ","zip":"62002"},{"name":"BAĞLARBAŞI MZ MAH.","zip":"62002"},{"name":"BALDAN KÖYÜ","zip":"62002"},{"name":"BALİ MZ MAH.","zip":"62002"},{"name":"BARDAK KALE MZ MAH.","zip":"62002"},{"name":"BARDAKLI MZ MAH.","zip":"62002"},{"name":"BARIKBASI MAH.","zip":"62002"},{"name":"BARIKBAŞI MAH.","zip":"62002"},{"name":"BAŞAKÇI KÖYÜ","zip":"62002"},{"name":"BATMAN KÖYÜ","zip":"62002"},{"name":"BAYLIK KÖYÜ","zip":"62002"},{"name":"BEYAZ PINAR MZ MAH.","zip":"62002"},{"name":"BİLGİLİ MZ MAH.","zip":"62002"},{"name":"BİRMAN (KURULU ) MZ MAH.","zip":"62002"},{"name":"BORCAN MZ BOŞ MAH.","zip":"62002"},{"name":"BORCAN MZ. MAH.","zip":"62002"},{"name":"BOZ DERE MZ MAH.","zip":"62002"},{"name":"BOZDERE MAH.","zip":"62002"},{"name":"BOZDERE MZ MAH.","zip":"62002"},{"name":"BÖĞSEK MZ MAH.","zip":"62002"},{"name":"BÖĞÜRTLEN KÖYÜ","zip":"62002"},{"name":"BÖLMELİ MZ MAH.","zip":"62002"},{"name":"BUĞULU KÖYÜ","zip":"62002"},{"name":"BURMAGEÇİT KÖYÜ","zip":"62002"},{"name":"CERME MZ MAH.","zip":"62002"},{"name":"CILGA KÖYÜ","zip":"62002"},{"name":"ÇALKIRAN KÖYÜ","zip":"62002"},{"name":"ÇATDERESİ MZ MAH.","zip":"62002"},{"name":"ÇAYIR MZ MAH.","zip":"62002"},{"name":"ÇAYLI MZ MAH.","zip":"62002"},{"name":"ÇEMÇELİ KÖYÜ","zip":"62002"},{"name":"ÇEVLİK MZ MAH.","zip":"62002"},{"name":"ÇIRALI KÖYÜ","zip":"62002"},{"name":"ÇIRTAN MZ MAH.","zip":"62002"},{"name":"ÇİMENLİ KÖYÜ","zip":"62002"},{"name":"ÇUKUR KÖYÜ","zip":"62002"},{"name":"ÇUKURBAĞ MZ MAH.","zip":"62002"},{"name":"DAĞ MZ MAH.","zip":"62002"},{"name":"DALİK MZ MAH.","zip":"62002"},{"name":"DALLI MZ MAH.","zip":"62002"},{"name":"DARICA MZ BOŞ MAH.","zip":"62002"},{"name":"DARLIHAN MZ MAH.","zip":"62002"},{"name":"DEDEAĞAÇ KÖYÜ","zip":"62002"},{"name":"DELAP MZ MAH.","zip":"62002"},{"name":"DEMİRKAPI KÖYÜ","zip":"62002"},{"name":"DEMİRLİBAHÇE MZ MAH.","zip":"62002"},{"name":"DERE MZ MAH.","zip":"62002"},{"name":"DEREGÖL MZ MAH.","zip":"62002"},{"name":"DEYİRMEN DERE MZ MAH.","zip":"62002"},{"name":"DİKENLİ KÖYÜ","zip":"62002"},{"name":"DİKİLİTAŞ MZ MAH.","zip":"62002"},{"name":"DİLEK KÖYÜ","zip":"62002"},{"name":"DOĞANCIK MZ BOŞ MAH.","zip":"62002"},{"name":"DOLUDİZGİN KÖYÜ","zip":"62002"},{"name":"DOLUKÜP KÖYÜ","zip":"62002"},{"name":"DURAK MAH.","zip":"62002"},{"name":"DUT TEPE MZ MAH.","zip":"62002"},{"name":"DÜZPELİT KOM MAH.","zip":"62002"},{"name":"DÜZPELİT KÖYÜ","zip":"62002"},{"name":"EĞRİYAMAÇ KÖYÜ","zip":"62002"},{"name":"EKİNCİ MAH.","zip":"62002"},{"name":"ELMALI MZ MAH.","zip":"62002"},{"name":"ERDEMLİ MZ MAH.","zip":"62002"},{"name":"ERDOĞDU KÖYÜ","zip":"62002"},{"name":"ERLER MAH.","zip":"62002"},{"name":"ESENYURT MZ MAH.","zip":"62002"},{"name":"FERAN MZ MAH.","zip":"62002"},{"name":"GALBASAN MZ MAH.","zip":"62002"},{"name":"GALBUSAN MAH.","zip":"62002"},{"name":"GEÇİMLİ MAH.","zip":"62002"},{"name":"GEÇİT MAH.","zip":"62002"},{"name":"GEDİZLİ MZ MAH.","zip":"62002"},{"name":"GELİNCİK MAH.","zip":"62002"},{"name":"GEYİKSUYU KÖYÜ","zip":"62002"},{"name":"GİNİ MZ MAH.","zip":"62002"},{"name":"GÖKÇEK KÖYÜ","zip":"62002"},{"name":"GÖMEMİŞ KÖYÜ","zip":"62002"},{"name":"GÖZ MZ MAH.","zip":"62002"},{"name":"GÖZELÇE\/VARTİNK MAH.","zip":"62002"},{"name":"GÖZEN KÖYÜ","zip":"62002"},{"name":"GÜÇLÜ MZ MAH.","zip":"62002"},{"name":"GÜLEÇ KÖYÜ","zip":"62002"},{"name":"GÜLLÜ MAH.","zip":"62002"},{"name":"GÜLÜCE MZ MAH.","zip":"62002"},{"name":"GÜMÜŞKAPI MZ MAH.","zip":"62002"},{"name":"GÜNDERE\/ROZDERESİ MZ. MAH.","zip":"62002"},{"name":"GÜNEŞLİ MZ MAH.","zip":"62002"},{"name":"GÜRBÜZLER KÖYÜ","zip":"62002"},{"name":"GÜZELÇE\/VARTİNK MAH.","zip":"62002"},{"name":"HACERİ KÖYÜ","zip":"62002"},{"name":"HACILAR KOM MZ MAH.","zip":"62002"},{"name":"HAGU MZ MAH.","zip":"62002"},{"name":"HALASUR GÜLLÜ MZ BOŞ MAH.","zip":"62002"},{"name":"HALİTPINAR MAH.","zip":"62002"},{"name":"HAN KOMU MZ MAH.","zip":"62002"},{"name":"HARABA MZ MAH.","zip":"62002"},{"name":"HAYDARİ MAH.","zip":"62002"},{"name":"HEYBELİ \/DEŞT MAH.","zip":"62002"},{"name":"HEYBELİ\/DEŞT MAH.","zip":"62002"},{"name":"HEYBELİ\/DEŞT MZ. MAH.","zip":"62002"},{"name":"HIRSIZDÜZÜ MZ MAH.","zip":"62002"},{"name":"HOPİK MZ MAH.","zip":"62002"},{"name":"HUZAN MZ MAH.","zip":"62002"},{"name":"IŞIKLAR MZ MAH.","zip":"62002"},{"name":"İSTİRAN MZ BOŞ MAH.","zip":"62002"},{"name":"KALE MZ MAH.","zip":"62002"},{"name":"KALEMDÜZÜ MZ MAH.","zip":"62002"},{"name":"KALKAR MZ MAH.","zip":"62002"},{"name":"KAMIŞLIK MZ MAH.","zip":"62002"},{"name":"KANOĞLU KÖYÜ","zip":"62002"},{"name":"KAPILI MZ MAH.","zip":"62002"},{"name":"KARAPINAR MZ MAH.","zip":"62002"},{"name":"KARATAŞ MZ MAH.","zip":"62002"},{"name":"KARAYUSUFAN MZ MAH.","zip":"62002"},{"name":"KARŞILAR KÖYÜ","zip":"62002"},{"name":"KARYEMEZ MZ MAH.","zip":"62002"},{"name":"KAVACIK MZ MAH.","zip":"62002"},{"name":"KAVAKTEPE MZ MAH.","zip":"62002"},{"name":"KAYABAŞI MAH.","zip":"62002"},{"name":"KEKLİK MAH.","zip":"62002"},{"name":"KEKLİK MZ. MAH.","zip":"62002"},{"name":"KEKLİK\/ MAH.","zip":"62002"},{"name":"KEMER MZ MAH.","zip":"62002"},{"name":"KEMET MZ MAH.","zip":"62002"},{"name":"KIRIM MZ MAH.","zip":"62002"},{"name":"KIRMIZIGÜL MZ MAH.","zip":"62002"},{"name":"KOCAKOÇ KÖYÜ","zip":"62002"},{"name":"KOCALAR KÖYÜ","zip":"62002"},{"name":"KOÇLU AREKİ MAH.","zip":"62002"},{"name":"KOÇLU\/AREKİ MZ. MAH.","zip":"62002"},{"name":"KOM MZ MAH.","zip":"62002"},{"name":"KOMOKAR MZ MAH.","zip":"62002"},{"name":"KOMOKAR MZ. MAH.","zip":"62002"},{"name":"KONAKLI MZ MAH.","zip":"62002"},{"name":"KOPUZLAR KÖYÜ","zip":"62002"},{"name":"KÖKLÜ MZ MAH.","zip":"62002"},{"name":"KÖKLÜCE MZ MAH.","zip":"62002"},{"name":"KÖYALTI MZ MAH.","zip":"62002"},{"name":"KUR MZ MAH.","zip":"62002"},{"name":"KURUTLU MZ. MAH.","zip":"62002"},{"name":"KUYLUCA KÖYÜ","zip":"62002"},{"name":"MAMAN MZ MAH.","zip":"62002"},{"name":"MEHMET MZ MAH.","zip":"62002"},{"name":"MEŞEYOLU KÖYÜ","zip":"62002"},{"name":"METİRİSLER MAH.","zip":"62002"},{"name":"METİRİSLER MZ BOŞ MAH.","zip":"62002"},{"name":"MEZRE MZ MAH.","zip":"62002"},{"name":"MİRZALİ MZ MAH.","zip":"62002"},{"name":"MUTLU MZ MAH.","zip":"62002"},{"name":"OKULLU MZ MAH.","zip":"62002"},{"name":"OKURLAR KÖYÜ","zip":"62002"},{"name":"ÖRENCİK MZ MAH.","zip":"62002"},{"name":"ÖRENTAŞ PAKİRDÜK MAH.","zip":"62002"},{"name":"ÖRENTAŞ\/PAKİRDÜK MZ MAH.","zip":"62002"},{"name":"ÖRTÜLÜ MAH.","zip":"62002"},{"name":"ÖZLÜCE\/KURVARİK MZ. MAH.","zip":"62002"},{"name":"ÖZLÜÇE\/KURVARİK MAH.","zip":"62002"},{"name":"PARDİ MZ. MAH.","zip":"62002"},{"name":"PINAR KÖYÜ","zip":"62002"},{"name":"PİRGİÇ MZ MAH.","zip":"62002"},{"name":"PİRTARLA MAH.","zip":"62002"},{"name":"PULUÇAYIR MZ MAH.","zip":"62002"},{"name":"RAMADAN MZ MAH.","zip":"62002"},{"name":"RENGÜL MZ MAH.","zip":"62002"},{"name":"SAĞ MAH.","zip":"62002"},{"name":"SAĞLIK MZ MAH.","zip":"62002"},{"name":"SAMANLI MZ MAH.","zip":"62002"},{"name":"SANDALDERE MZ MAH.","zip":"62002"},{"name":"SARIÇİÇEK MZ MAH.","zip":"62002"},{"name":"SARITAŞ KÖYÜ","zip":"62002"},{"name":"SEHİTHAN MAH.","zip":"62002"},{"name":"SEYİT BEY MZ MAH.","zip":"62002"},{"name":"SEYPERTEK MZ MAH.","zip":"62002"},{"name":"SİN MZ BOŞ MAH.","zip":"62002"},{"name":"SİN MZ. MAH.","zip":"62002"},{"name":"SİNAN KÖYÜ","zip":"62002"},{"name":"SİNAN MZ MAH.","zip":"62002"},{"name":"SU BAŞI MZ MAH.","zip":"62002"},{"name":"SUBAŞI MZ MAH.","zip":"62002"},{"name":"SUVAT KÖYÜ","zip":"62002"},{"name":"ŞEMİLKAN MZ MAH.","zip":"62002"},{"name":"ŞİĞUMERAN MZ. MAH.","zip":"62002"},{"name":"ŞİĞUMEREN MZ BOŞ MAH.","zip":"62002"},{"name":"TABYAN MZ MAH.","zip":"62002"},{"name":"TAHT KÖYÜ","zip":"62002"},{"name":"TAHTAMEMİŞ MZ MAH.","zip":"62002"},{"name":"TARLABAŞI MAH.","zip":"62002"},{"name":"TAŞBURNU MZ MAH.","zip":"62002"},{"name":"TAŞLICA\/GEVREK MAH.","zip":"62002"},{"name":"TAŞLICA\/GEVREK MZ. MAH.","zip":"62002"},{"name":"TAŞOLUK MZ MAH.","zip":"62002"},{"name":"TAŞPINAR MZ MAH.","zip":"62002"},{"name":"TEPEARKASI MZ MAH.","zip":"62002"},{"name":"TEPECİK MZ MAH.","zip":"62002"},{"name":"TİKANLI TARLA  MZ MAH.","zip":"62002"},{"name":"TOSUNCUK MAH.","zip":"62002"},{"name":"TOSUNLU MZ MAH.","zip":"62002"},{"name":"TURAN TAHT MZ MAH.","zip":"62002"},{"name":"TÜLLÜK KÖYÜ","zip":"62002"},{"name":"UĞURLU MZ. MAH.","zip":"62002"},{"name":"UZUNTARLA KÖYÜ","zip":"62002"},{"name":"VARLIK MZ MAH.","zip":"62002"},{"name":"VENK MZ MAH.","zip":"62002"},{"name":"Y.MİRİK MZ MAH.","zip":"62002"},{"name":"YAĞMURLU\/MİRİK MAH.","zip":"62002"},{"name":"YAĞMURLU\/MİRİK MZ. MAH.","zip":"62002"},{"name":"YALNIZÇAM MZ MAH.","zip":"62002"},{"name":"YANIK KOM MZ MAH.","zip":"62002"},{"name":"YAPRAKLI (ŞAĞLAN) MZ MAH.","zip":"62002"},{"name":"YAPRAKLI MZ MAH.","zip":"62002"},{"name":"YAYALAR MZ MAH.","zip":"62002"},{"name":"YEŞİLCE MAH.","zip":"62002"},{"name":"YEŞİLKAYA KÖYÜ","zip":"62002"},{"name":"YOLKONAK KÖYÜ","zip":"62002"},{"name":"YUKARI BOR MZ MAH.","zip":"62002"},{"name":"YUKARI BÖĞÜRTLEN MZ MAH.","zip":"62002"},{"name":"YUKARI DERE MZ MAH.","zip":"62002"},{"name":"YUKARI HACERİ MAH.","zip":"62002"},{"name":"YUKARI HACERİ MZ BOŞ MAH.","zip":"62002"},{"name":"YUKARI HACERİ MZ MAH.","zip":"62002"},{"name":"YUKARI KAVEHEK MZ MAH.","zip":"62002"},{"name":"YUKARI MZ MAH.","zip":"62002"},{"name":"YUKARI SUVAT MZ MAH.","zip":"62002"},{"name":"YUKARI TAHT MZ MAH.","zip":"62002"},{"name":"YUKARI TEŞNİK MAH.","zip":"62002"},{"name":"YUKARI TÜLLÜK MZ MAH.","zip":"62002"},{"name":"YUKARITARLACIK MZ MAH.","zip":"62002"},{"name":"YUVACIK MZ MAH.","zip":"62002"},{"name":"ZARGUVİT KURUTLU MZ BOŞ MAH.","zip":"62002"},{"name":"ZEYNİKAN MAH.","zip":"62002"},{"name":"ZİME MZ MAH.","zip":"62002"},{"name":"ZİMI MZ. MAH.","zip":"62002"}]},{"name":"TUNCELİ","cityName":null,"quarters":[{"name":"ALİBABA MAH.","zip":"62100"},{"name":"ATATÜRK MAH.","zip":"62100"},{"name":"CUMHURİYET MAH.","zip":"62100"},{"name":"ESENTEPE MAH.","zip":"62100"},{"name":"İSMET İNÖNÜ MAH.","zip":"62100"},{"name":"İSMET İNÖNÜ OSB MAH.","zip":"62100"},{"name":"MOĞULTAY MAH.","zip":"62100"},{"name":"YENİ MAH.","zip":"62100"}]},{"name":"MERKEZKÖYLER","cityName":null,"quarters":[{"name":"AKÇALI MAH.","zip":"62952"},{"name":"AKSAKAL MAH.","zip":"62952"},{"name":"AKSU MAH.","zip":"62952"},{"name":"AKTEPE MAH.","zip":"62952"},{"name":"AKYAPRAK MAH.","zip":"62952"},{"name":"ALACA MAH.","zip":"62952"},{"name":"ALİCİK MAH.","zip":"62952"},{"name":"ALMAN MAH.","zip":"62952"},{"name":"ALTIN MAH.","zip":"62952"},{"name":"ASLANLI MAH.","zip":"62952"},{"name":"AŞAĞIDOLUCA KÖYÜ","zip":"62952"},{"name":"AYRANLI KÖYÜ","zip":"62952"},{"name":"AYRANLI MAH.","zip":"62952"},{"name":"BAL MAH.","zip":"62952"},{"name":"BALIK MAH.","zip":"62952"},{"name":"BALLICA KÖYÜ","zip":"62952"},{"name":"BALLIDERE MAH.","zip":"62952"},{"name":"BAŞTARLA MAH.","zip":"62952"},{"name":"BAYINDIR MAH.","zip":"62952"},{"name":"BAYIR MAH.","zip":"62952"},{"name":"BAYRAMLI MAH.","zip":"62952"},{"name":"BEŞAĞAÇ MAH.","zip":"62952"},{"name":"BEŞİK MAH.","zip":"62952"},{"name":"BEYTAŞI KÖYÜ","zip":"62952"},{"name":"BEZİK MAH.","zip":"62952"},{"name":"BIÇKILI MAH.","zip":"62952"},{"name":"BONCUK MAH.","zip":"62952"},{"name":"BOSTANLI KÖYÜ","zip":"62952"},{"name":"BOYALI MAH.","zip":"62952"},{"name":"BUCAKLI MAH.","zip":"62952"},{"name":"BULAK MAH.","zip":"62952"},{"name":"BÜYÜKYURT KÖYÜ","zip":"62952"},{"name":"ÇAYAĞZI MAH.","zip":"62952"},{"name":"ÇAYIRHATUN MAH.","zip":"62952"},{"name":"ÇELİK MAH.","zip":"62952"},{"name":"ÇETAN MAH.","zip":"62952"},{"name":"ÇEVRECİK KÖYÜ","zip":"62952"},{"name":"ÇIĞILI MAH.","zip":"62952"},{"name":"ÇÖMLEK MAH.","zip":"62952"},{"name":"DAĞDİBİ MAH.","zip":"62952"},{"name":"DAL MAH.","zip":"62952"},{"name":"DALİK MAH.","zip":"62952"},{"name":"DALLIBAHÇE KÖYÜ","zip":"62952"},{"name":"DAYLAN MAH.","zip":"62952"},{"name":"DEM MAH.","zip":"62952"},{"name":"DEMİRCE KÖYÜ","zip":"62952"},{"name":"DEMİRCİ MAH.","zip":"62952"},{"name":"DEREOVA KÖYÜ","zip":"62952"},{"name":"DİKİLİTAŞ MAH.","zip":"62952"},{"name":"DİLEK MAH.","zip":"62952"},{"name":"DOĞANCIK MAH.","zip":"62952"},{"name":"DOĞANTAŞ KÖYÜ","zip":"62952"},{"name":"DUTAĞACI MAH.","zip":"62952"},{"name":"EKİMBAŞ MAH.","zip":"62952"},{"name":"EKİNLİ MAH.","zip":"62952"},{"name":"ELMACIK MAH.","zip":"62952"},{"name":"ESENLİ MAH.","zip":"62952"},{"name":"GEÇİTLİ MAH.","zip":"62952"},{"name":"GERİŞ KÖYÜ","zip":"62952"},{"name":"GERİŞ MAH.","zip":"62952"},{"name":"GEYREK MAH.","zip":"62952"},{"name":"GOLAN MAH.","zip":"62952"},{"name":"GÖLÜKHAN MAH.","zip":"62952"},{"name":"GÜLBUDAK MAH.","zip":"62952"},{"name":"GÜLEK MAH.","zip":"62952"},{"name":"GÜLLÜCE MAH.","zip":"62952"},{"name":"GÜNEYCİK KÖYÜ","zip":"62952"},{"name":"GÜNLÜCE KÖYÜ","zip":"62952"},{"name":"GÜZELPINAR KÖYÜ","zip":"62952"},{"name":"HAN MAH.","zip":"62952"},{"name":"ILISU MAH.","zip":"62952"},{"name":"KABAKLI MAH.","zip":"62952"},{"name":"KALE MAH.","zip":"62952"},{"name":"KAPIBAŞI KÖYÜ","zip":"62952"},{"name":"KARACA MAH.","zip":"62952"},{"name":"KARAKAYA MAH.","zip":"62952"},{"name":"KARAMUSA MAH.","zip":"62952"},{"name":"KARGILI MAH.","zip":"62952"},{"name":"KAYALI MAH.","zip":"62952"},{"name":"KILKÖY KÖYÜ","zip":"62952"},{"name":"KIRMIZI MAH.","zip":"62952"},{"name":"KOÇ MAH.","zip":"62952"},{"name":"KONAK MAH.","zip":"62952"},{"name":"KONUKSEVER MAH.","zip":"62952"},{"name":"KOYUNA MAH.","zip":"62952"},{"name":"KÖPRÜLÜ MAH.","zip":"62952"},{"name":"KURNA MAH.","zip":"62952"},{"name":"KUŞKONDU MAH.","zip":"62952"},{"name":"KUYUCUK MAH.","zip":"62952"},{"name":"KUYULU MAH.","zip":"62952"},{"name":"KUZUKONAK MAH.","zip":"62952"},{"name":"KÜREKLİ MAH.","zip":"62952"},{"name":"MALKOÇ MAH.","zip":"62952"},{"name":"MÜRER MAH.","zip":"62952"},{"name":"OĞLAKCIK MAH.","zip":"62952"},{"name":"OĞLAKÇI MAH.","zip":"62952"},{"name":"OĞULLAR MAH.","zip":"62952"},{"name":"OLGUNLAR MAH.","zip":"62952"},{"name":"OYMATAŞ MAH.","zip":"62952"},{"name":"RAMAZAN KÖYÜ","zip":"62952"},{"name":"SAKAM MAH.","zip":"62952"},{"name":"SAPKÖY KÖYÜ","zip":"62952"},{"name":"SARHOŞ MAH.","zip":"62952"},{"name":"SARICA MAH.","zip":"62952"},{"name":"SARIYAYLA KÖYÜ","zip":"62952"},{"name":"SEYBAN MAH.","zip":"62952"},{"name":"SEYİTGAZİ MAH.","zip":"62952"},{"name":"SOĞUKMEŞE MAH.","zip":"62952"},{"name":"SÖGÜTLÜK MAH.","zip":"62952"},{"name":"SULT MAH.","zip":"62952"},{"name":"SÜLEYMAN KOM MAH.","zip":"62952"},{"name":"SÜLEYMAN MAH.","zip":"62952"},{"name":"ŞİRİN MAH.","zip":"62952"},{"name":"TAHKİM MAH.","zip":"62952"},{"name":"TAHT MAH.","zip":"62952"},{"name":"TANRIVERDİ MAH.","zip":"62952"},{"name":"TAVUKÇU MAH.","zip":"62952"},{"name":"TEKECİK MAH.","zip":"62952"},{"name":"TOKAÇLI MAH.","zip":"62952"},{"name":"TORUK MAH.","zip":"62952"},{"name":"TURNAYOLU KÖYÜ","zip":"62952"},{"name":"USAN MAH.","zip":"62952"},{"name":"USTALAR MAH.","zip":"62952"},{"name":"ÜÇ KONAK MAH.","zip":"62952"},{"name":"VAROŞ MAH.","zip":"62952"},{"name":"YAKACIK MAH.","zip":"62952"},{"name":"YALINTAŞ MAH.","zip":"62952"},{"name":"YAYIKAĞIL KÖYÜ","zip":"62952"},{"name":"YAYLACIK MAH.","zip":"62952"},{"name":"YAZGELDİ KÖYÜ","zip":"62952"},{"name":"YENİ MEZRA MAH.","zip":"62952"},{"name":"YİĞİTLER KÖYÜ","zip":"62952"},{"name":"YONCALI MAH.","zip":"62952"},{"name":"YUKARIDOLUCA KÖYÜ","zip":"62952"}]},{"name":"NAZIMİYE","cityName":null,"quarters":null},{"name":"MERKEZKÖYLER","cityName":null,"quarters":[{"name":"AĞAÇPINAR KÖYÜ","zip":"62901"},{"name":"AKTAŞ KÖYÜ","zip":"62901"},{"name":"AKYAYIK KÖYÜ","zip":"62901"},{"name":"ARSLANDOĞMUŞ KÖYÜ","zip":"62901"},{"name":"ARZULAR MAH.","zip":"62901"},{"name":"AŞAĞI MEŞEDİBİ MAH.","zip":"62901"},{"name":"AŞAĞI ULUÇA MAH.","zip":"62901"},{"name":"AŞAĞITORUNOBA KÖYÜ","zip":"62901"},{"name":"AŞLICA KÖYÜ","zip":"62901"},{"name":"AYDINLAR MAH.","zip":"62901"},{"name":"BABULAR MAH.","zip":"62901"},{"name":"BEŞEVLER MAH.","zip":"62901"},{"name":"BİLGEÇ KÖYÜ","zip":"62901"},{"name":"BOĞAZ MAH.","zip":"62901"},{"name":"BOZKIRA MAH.","zip":"62901"},{"name":"BURNAK KÖYÜ","zip":"62901"},{"name":"BUVARLILAR MAH.","zip":"62901"},{"name":"BUZLUTEPE KÖYÜ","zip":"62901"},{"name":"BÜK MAH.","zip":"62901"},{"name":"BÜYÜKKÖY KÖYÜ","zip":"62901"},{"name":"CEVİZLİ MAH.","zip":"62901"},{"name":"CEVİZLİDERE KÖYÜ","zip":"62901"},{"name":"ÇAKMAKLI KÖYÜ","zip":"62901"},{"name":"ÇAMBULAK KÖYÜ","zip":"62901"},{"name":"ÇAT KÖYÜ","zip":"62901"},{"name":"ÇAVUŞLU MAH.","zip":"62901"},{"name":"ÇAYIR MAH.","zip":"62901"},{"name":"ÇAYIRDÜZÜ MAH.","zip":"62901"},{"name":"ÇAYÜSTÜ KÖYÜ","zip":"62901"},{"name":"ÇEMBERLİTAŞ KÖYÜ","zip":"62901"},{"name":"ÇÖĞÜRLÜK KÖYÜ","zip":"62901"},{"name":"DAĞGEÇE MAH.","zip":"62901"},{"name":"DEĞİRMENDERE MAH.","zip":"62901"},{"name":"DEREİÇİ (TEM) MAH.","zip":"62901"},{"name":"DOLUDİBEK KÖYÜ","zip":"62901"},{"name":"DUMANTEPE MAH.","zip":"62901"},{"name":"EĞİMLİ KÖYÜ","zip":"62901"},{"name":"EĞRİKAVAK KÖYÜ","zip":"62901"},{"name":"EĞRİPINAR KÖYÜ","zip":"62901"},{"name":"ELGAZİ KÖYÜ","zip":"62901"},{"name":"ELMACIK MAH.","zip":"62901"},{"name":"ESENLER MAH.","zip":"62901"},{"name":"ESKİGEDİK KÖYÜ","zip":"62901"},{"name":"GARİPUŞAĞI KÖYÜ","zip":"62901"},{"name":"GÖZELER KÖYÜ","zip":"62901"},{"name":"GÜNEŞLİ MAH.","zip":"62901"},{"name":"GÜNEYKONAK KÖYÜ","zip":"62901"},{"name":"HALİLLER MAH.","zip":"62901"},{"name":"HALİTPINAR KÖYÜ","zip":"62901"},{"name":"HANUŞAĞI KÖYÜ","zip":"62901"},{"name":"HAVUZLU KÖYÜ","zip":"62901"},{"name":"HOPİK MAH.","zip":"62901"},{"name":"ISITMA KÖYÜ","zip":"62901"},{"name":"IŞIKVURAN KÖYÜ","zip":"62901"},{"name":"İKİZLER MAH.","zip":"62901"},{"name":"KARAOĞLAN KÖYÜ","zip":"62901"},{"name":"KARATAŞ KÖYÜ","zip":"62901"},{"name":"KARAYONCA KÖYÜ","zip":"62901"},{"name":"KAZANÇ MAH.","zip":"62901"},{"name":"KEL HASAN MAH.","zip":"62901"},{"name":"KIZIK KÖYÜ","zip":"62901"},{"name":"KONAKLAR KÖYÜ","zip":"62901"},{"name":"KOYUNGÖLÜ KÖYÜ","zip":"62901"},{"name":"KOZLUCA KÖYÜ","zip":"62901"},{"name":"KÖSELER KÖYÜ","zip":"62901"},{"name":"KUŞLUCA KÖYÜ","zip":"62901"},{"name":"KÜREDERESİ MAH.","zip":"62901"},{"name":"MAHMUTLAR MAH.","zip":"62901"},{"name":"MARTELİ MAH.","zip":"62901"},{"name":"MEŞEDİBİ MAH.","zip":"62901"},{"name":"MOLLAALİLER KÖYÜ","zip":"62901"},{"name":"OTLUBAHÇE KÖYÜ","zip":"62901"},{"name":"ÖĞÜTLÜ MAH.","zip":"62901"},{"name":"ÖVEÇLER KÖYÜ","zip":"62901"},{"name":"PAŞADÜZÜ KÖYÜ","zip":"62901"},{"name":"ROMİKLER MAH.","zip":"62901"},{"name":"SAÇAKLI MAH.","zip":"62901"},{"name":"SAĞLIK MAH.","zip":"62901"},{"name":"SARITOSUN KÖYÜ","zip":"62901"},{"name":"SÖĞÜT MAH.","zip":"62901"},{"name":"SÖĞÜTLÜ KÖYÜ","zip":"62901"},{"name":"SUAĞZI MAH.","zip":"62901"},{"name":"ŞAHVERDİ KÖYÜ","zip":"62901"},{"name":"TAĞTACİ MAH.","zip":"62901"},{"name":"TANZİ MAH.","zip":"62901"},{"name":"TAP MAH.","zip":"62901"},{"name":"TATUŞAĞI KÖYÜ","zip":"62901"},{"name":"TEPSİLİ KÖYÜ","zip":"62901"},{"name":"TOPUZLU KÖYÜ","zip":"62901"},{"name":"TORİŞİ MAH.","zip":"62901"},{"name":"TUMARDI MAH.","zip":"62901"},{"name":"TUZLUCA MAH.","zip":"62901"},{"name":"YAĞIŞLI MAH.","zip":"62901"},{"name":"YAĞMURLU MAH.","zip":"62901"},{"name":"YAKATARLA KÖYÜ","zip":"62901"},{"name":"YALMANLAR KÖYÜ","zip":"62901"},{"name":"YAPAĞI MAH.","zip":"62901"},{"name":"YARIMKAYA KÖYÜ","zip":"62901"},{"name":"YAYLAGÜNÜ KÖYÜ","zip":"62901"},{"name":"YAZIÖREN KÖYÜ","zip":"62901"},{"name":"YENİKONAK KÖYÜ","zip":"62901"},{"name":"YENİKÖY MAH.","zip":"62901"},{"name":"YENİSÖĞÜT KÖYÜ","zip":"62901"},{"name":"YEŞİLYAZI KÖYÜ","zip":"62901"},{"name":"YILANLI MAH.","zip":"62901"},{"name":"YOĞUNÇAM KÖYÜ","zip":"62901"},{"name":"YONCALI KÖYÜ","zip":"62901"},{"name":"YUKARI ULUÇA MAH.","zip":"62901"},{"name":"YUKARITORUNOBA MAH.","zip":"62901"},{"name":"ZİYARET KÖYÜ","zip":"62901"}]},{"name":"OVACIK","cityName":null,"quarters":[{"name":"KANDOLAR MAH.","zip":"62900"},{"name":"PULUR MAH.","zip":"62900"}]},{"name":"MERKEZKÖYLER","cityName":null,"quarters":[{"name":"AKDARI MAH.","zip":"62502"},{"name":"AKDEMİR KÖYÜ","zip":"62502"},{"name":"AKMEZRA MAH.","zip":"62502"},{"name":"ALTIN KÜP MAH.","zip":"62502"},{"name":"ARDIÇ KÖYÜ","zip":"62502"},{"name":"ARPALI KÖYÜ","zip":"62502"},{"name":"AŞAĞI KACAR MAH.","zip":"62502"},{"name":"AŞAĞIGÜLBAHÇE KÖYÜ","zip":"62502"},{"name":"AŞAĞIYAKABAŞI MAH.","zip":"62502"},{"name":"AYAZPINAR KÖYÜ","zip":"62502"},{"name":"BAĞÖREN MAH.","zip":"62502"},{"name":"BAKIRLI KÖYÜ","zip":"62502"},{"name":"BALAN MAH.","zip":"62502"},{"name":"BALLIDUT KÖYÜ","zip":"62502"},{"name":"BALTAGİRMEZ MAH.","zip":"62502"},{"name":"BAYIRLI MAH.","zip":"62502"},{"name":"BEYDAMI KÖYÜ","zip":"62502"},{"name":"BİÇMEKAYA KÖYÜ","zip":"62502"},{"name":"BOZDOĞAN MAH.","zip":"62502"},{"name":"BÖLMELİ MAH.","zip":"62502"},{"name":"BULGURTEPE KÖYÜ","zip":"62502"},{"name":"CAYİRAN MAH.","zip":"62502"},{"name":"ÇAKIRBAHÇE KÖYÜ","zip":"62502"},{"name":"ÇALIÖZÜ KÖYÜ","zip":"62502"},{"name":"ÇAMURLUK MAH.","zip":"62502"},{"name":"ÇATAKSU KÖYÜ","zip":"62502"},{"name":"ÇEVİRME MAH.","zip":"62502"},{"name":"ÇIKINLI MAH.","zip":"62502"},{"name":"ÇUKUR MAH.","zip":"62502"},{"name":"ÇUKURBAĞ MAH.","zip":"62502"},{"name":"ÇUKURCA KÖYÜ","zip":"62502"},{"name":"DALIVARTI MAH.","zip":"62502"},{"name":"DALİK MAH.","zip":"62502"},{"name":"DAMLAPINAR MAH.","zip":"62502"},{"name":"DEMİRSABAN KÖYÜ","zip":"62502"},{"name":"DEMÜREK MAH.","zip":"62502"},{"name":"DERE KÖYÜ","zip":"62502"},{"name":"DERELİ KÖYÜ","zip":"62502"},{"name":"DİLLİCE MAH.","zip":"62502"},{"name":"DOLAMAÇ MAH.","zip":"62502"},{"name":"DORUTAY KÖYÜ","zip":"62502"},{"name":"EDİNCİK MAH.","zip":"62502"},{"name":"ELECİK MAH.","zip":"62502"},{"name":"ELMAKAŞI KÖYÜ","zip":"62502"},{"name":"ESKİ SAĞMAN MAH.","zip":"62502"},{"name":"EŞELER MAH.","zip":"62502"},{"name":"FINDIKLI MAH.","zip":"62502"},{"name":"GEÇİTYAKA KÖYÜ","zip":"62502"},{"name":"GÖLBAŞI MAH.","zip":"62502"},{"name":"GÖVDELİ KÖYÜ","zip":"62502"},{"name":"GÖZTEPE MAH.","zip":"62502"},{"name":"GÜNBOĞAZI KÖYÜ","zip":"62502"},{"name":"GÜNYÜZÜ MAH.","zip":"62502"},{"name":"GÜZELTEPE MAH.","zip":"62502"},{"name":"HASİR MAH.","zip":"62502"},{"name":"HAVUZ MAH.","zip":"62502"},{"name":"HIDOLAR MAH.","zip":"62502"},{"name":"HOPLAR MAH.","zip":"62502"},{"name":"HÜSEYİN BABA MAH.","zip":"62502"},{"name":"IŞIKLAR MAH.","zip":"62502"},{"name":"KABALLI MAH.","zip":"62502"},{"name":"KABASAKAL MAH.","zip":"62502"},{"name":"KAÇARLAR KÖYÜ","zip":"62502"},{"name":"KALENDER MAH.","zip":"62502"},{"name":"KARABULUT MAH.","zip":"62502"},{"name":"KARADERE MAH.","zip":"62502"},{"name":"KARAGÜNEY KÖYÜ","zip":"62502"},{"name":"KARAKUŞ MAH.","zip":"62502"},{"name":"KARAMAN MAH.","zip":"62502"},{"name":"KARAVELU MAH.","zip":"62502"},{"name":"KARŞIKİBAĞ MAH.","zip":"62502"},{"name":"KAYABAĞ KÖYÜ","zip":"62502"},{"name":"KAZILI KÖYÜ","zip":"62502"},{"name":"KESMETAŞ MAH.","zip":"62502"},{"name":"KOÇPINAR KÖYÜ","zip":"62502"},{"name":"KOLANKAYA KÖYÜ","zip":"62502"},{"name":"KOMLAR MAH.","zip":"62502"},{"name":"KOMŞULUK MAH.","zip":"62502"},{"name":"KONAKLAR KÖYÜ","zip":"62502"},{"name":"KONAKLAR MAH.","zip":"62502"},{"name":"KONURAT KÖYÜ","zip":"62502"},{"name":"KORLUCA KÖYÜ","zip":"62502"},{"name":"KÖÇEKLER MAH.","zip":"62502"},{"name":"KÖYİÇİ MAH.","zip":"62502"},{"name":"MERCİMEK KÖYÜ","zip":"62502"},{"name":"MERKEZ MAH.","zip":"62502"},{"name":"MUNZURLAR MAH.","zip":"62502"},{"name":"NACAR MAH.","zip":"62502"},{"name":"OZSOLAR MAH.","zip":"62502"},{"name":"PEŞPINAR MAH.","zip":"62502"},{"name":"PINARLAR KÖYÜ","zip":"62502"},{"name":"PİRİNÇÇİ KÖYÜ","zip":"62502"},{"name":"SAĞMAN KÖYÜ","zip":"62502"},{"name":"SALİMKER MAH.","zip":"62502"},{"name":"SORHUMBAĞI MAH.","zip":"62502"},{"name":"SÖĞÜTLÜTEPE KÖYÜ","zip":"62502"},{"name":"SUMAK KÖYÜ","zip":"62502"},{"name":"SÜRGÜÇ KÖYÜ","zip":"62502"},{"name":"ŞAMLI MAH.","zip":"62502"},{"name":"TAHT MAH.","zip":"62502"},{"name":"TEZİKAN MAH.","zip":"62502"},{"name":"TOZKOPARAN KÖYÜ","zip":"62502"},{"name":"ULUPINAR KÖYÜ","zip":"62502"},{"name":"YALINKAYA KÖYÜ","zip":"62502"},{"name":"YAMAÇOBA KÖYÜ","zip":"62502"},{"name":"YAYCILAR MAH.","zip":"62502"},{"name":"YAYLA MAH.","zip":"62502"},{"name":"YENİKÖY KÖYÜ","zip":"62502"},{"name":"YEŞİLYURT MAH.","zip":"62502"},{"name":"YUKARI ÇAY MAH.","zip":"62502"},{"name":"YUKARIGÜLBAHÇE KÖYÜ","zip":"62502"},{"name":"YUKARIYAKABAŞI KÖYÜ","zip":"62502"},{"name":"ZEYNONUN MAH.","zip":"62502"}]},{"name":"PERTEK","cityName":null,"quarters":[{"name":"DEREBAŞI MAH.","zip":"62500"},{"name":"İSTİKLAL MAH.","zip":"62500"},{"name":"KALEDİBİ MAH.","zip":"62500"},{"name":"SOĞUKPINAR MAH.","zip":"62500"}]},{"name":"MERKEZKÖYLER","cityName":null,"quarters":[{"name":"AKDİK KÖYÜ","zip":"62702"},{"name":"AKTEKİN MAH.","zip":"62702"},{"name":"ALGILI MAH.","zip":"62702"},{"name":"ALLAHVERDİ MAH.","zip":"62702"},{"name":"ALTUNHÜSEYİN KÖYÜ","zip":"62702"},{"name":"ARDIÇLI KÖYÜ","zip":"62702"},{"name":"ARMAĞAN MAH.","zip":"62702"},{"name":"ARMUT DÜZÜ MAH.","zip":"62702"},{"name":"ARMUTLU MAH.","zip":"62702"},{"name":"AŞAĞI BOSTAN YURDU MAH.","zip":"62702"},{"name":"AŞAĞIKAYIR MAH.","zip":"62702"},{"name":"AYDINLAR MAH.","zip":"62702"},{"name":"BARDAKÇI KÖYÜ","zip":"62702"},{"name":"BARIŞLI MAH.","zip":"62702"},{"name":"BAŞKALECİK KÖYÜ","zip":"62702"},{"name":"BAYRAKLI MAH.","zip":"62702"},{"name":"BEYAZ PINAR MAH.","zip":"62702"},{"name":"BOĞALI KÖYÜ","zip":"62702"},{"name":"BOZAĞAKARADERBENT KÖYÜ","zip":"62702"},{"name":"BULUT MAH.","zip":"62702"},{"name":"BÜK MAH.","zip":"62702"},{"name":"BÜKLÜ MAH.","zip":"62702"},{"name":"BÜVÜK MAH.","zip":"62702"},{"name":"ÇAĞLAYAN KÖYÜ","zip":"62702"},{"name":"ÇAĞLAYAN MAH.","zip":"62702"},{"name":"ÇAKIRKAYA KÖYÜ","zip":"62702"},{"name":"ÇALGAN MAH.","zip":"62702"},{"name":"ÇARDAK MAH.","zip":"62702"},{"name":"ÇATALYAKA MAH.","zip":"62702"},{"name":"ÇATAN MAH.","zip":"62702"},{"name":"ÇAY MAH.","zip":"62702"},{"name":"ÇELİK MEZRASI MAH.","zip":"62702"},{"name":"ÇEVLİK MAH.","zip":"62702"},{"name":"ÇEVRECİK MAH.","zip":"62702"},{"name":"ÇOBANYILDIZI KÖYÜ","zip":"62702"},{"name":"DAĞBEK KÖYÜ","zip":"62702"},{"name":"DAĞYOLU KÖYÜ","zip":"62702"},{"name":"DAĞYOLU MAH.","zip":"62702"},{"name":"DEĞİRMEN MAH.","zip":"62702"},{"name":"DEĞİRMENDERE MAH.","zip":"62702"},{"name":"DEREBOYU KÖYÜ","zip":"62702"},{"name":"DEREKÖY KÖYÜ","zip":"62702"},{"name":"DERİNDERE KÖYÜ","zip":"62702"},{"name":"DEVRİŞ DERE MEZRASI MAH.","zip":"62702"},{"name":"DOĞANPINAR KÖYÜ","zip":"62702"},{"name":"EFEAĞILI KÖYÜ","zip":"62702"},{"name":"EĞRİBÜK MAH.","zip":"62702"},{"name":"ELİF HATUN MAH.","zip":"62702"},{"name":"ELMALI KÖYÜ","zip":"62702"},{"name":"EVCİK MAH.","zip":"62702"},{"name":"GEVRİK MAH.","zip":"62702"},{"name":"GÖCENEK KÖYÜ","zip":"62702"},{"name":"GÖĞEBAKAN MAH.","zip":"62702"},{"name":"GÖKÇEKONAK KÖYÜ","zip":"62702"},{"name":"GÖL MAH.","zip":"62702"},{"name":"GÖNELİ MAH.","zip":"62702"},{"name":"GULLER MEZRASI MAH.","zip":"62702"},{"name":"HACILI KÖYÜ","zip":"62702"},{"name":"HAÇAN MAH.","zip":"62702"},{"name":"HARABA MAH.","zip":"62702"},{"name":"HASANGAZİ KÖYÜ","zip":"62702"},{"name":"HEYBELİ MAH.","zip":"62702"},{"name":"HIRAVA MAH.","zip":"62702"},{"name":"İMRENDİ MAH.","zip":"62702"},{"name":"KABADAL KÖYÜ","zip":"62702"},{"name":"KALINKAŞ MAH.","zip":"62702"},{"name":"KAMIŞLAR MAH.","zip":"62702"},{"name":"KANGALLI KÖYÜ","zip":"62702"},{"name":"KARAGÖZ KÖYÜ","zip":"62702"},{"name":"KARKAN MAH.","zip":"62702"},{"name":"KAYIRLAR KÖYÜ","zip":"62702"},{"name":"KAYMAZTEPE KÖYÜ","zip":"62702"},{"name":"KAYMAZTEPE MERKEZ MAH.","zip":"62702"},{"name":"KEÇİ KIRAN MAH.","zip":"62702"},{"name":"KERİKAN MAH.","zip":"62702"},{"name":"KIRDIM DERESİ MAH.","zip":"62702"},{"name":"KIRDIM KÖYÜ","zip":"62702"},{"name":"KIRKLAR KÖYÜ","zip":"62702"},{"name":"KIRKMEŞE KÖYÜ","zip":"62702"},{"name":"KIZILBEL MAH.","zip":"62702"},{"name":"KIZILMESCİT KÖYÜ","zip":"62702"},{"name":"KIZILMESCİT MERKEZ MAH.","zip":"62702"},{"name":"KOCATEPE KÖYÜ","zip":"62702"},{"name":"KOVUKLU KÖYÜ","zip":"62702"},{"name":"KÖL MAH.","zip":"62702"},{"name":"KÖRTEMT MAH.","zip":"62702"},{"name":"KÖZLÜCE KÖYÜ","zip":"62702"},{"name":"KUŞHANE MAH.","zip":"62702"},{"name":"KUZULCA KÖYÜ","zip":"62702"},{"name":"KÜLLÜ MAH.","zip":"62702"},{"name":"MEZRA KÖYÜ","zip":"62702"},{"name":"MUHTAR KOMU MAH.","zip":"62702"},{"name":"MUTU MAH.","zip":"62702"},{"name":"MÜROVA MAH.","zip":"62702"},{"name":"NOHUTLU KÖYÜ","zip":"62702"},{"name":"ORTA DEREKÖY KELEŞ MAH.","zip":"62702"},{"name":"ORTAKAYIR MAH.","zip":"62702"},{"name":"SAĞLAMTAŞ KÖYÜ","zip":"62702"},{"name":"SAHNEZER MAH.","zip":"62702"},{"name":"SALKIMÖZÜ KÖYÜ","zip":"62702"},{"name":"SALÖRDEK MAH.","zip":"62702"},{"name":"SARIGÜL KÖYÜ","zip":"62702"},{"name":"SENEK KÖYÜ","zip":"62702"},{"name":"SÜLEYMANUŞAĞI KÖYÜ","zip":"62702"},{"name":"ŞAMPAŞAKARADERBENT KÖYÜ","zip":"62702"},{"name":"TANRIVERDİ MAH.","zip":"62702"},{"name":"TAŞLIK KÖYÜ","zip":"62702"},{"name":"TAŞYUVA MAH.","zip":"62702"},{"name":"TURNADERE KÖYÜ","zip":"62702"},{"name":"UZUNEVLER MAH.","zip":"62702"},{"name":"ÜÇDAM KÖYÜ","zip":"62702"},{"name":"ÜNVEREN KÖYÜ","zip":"62702"},{"name":"YARBAŞI KÖYÜ","zip":"62702"},{"name":"YAYLA MAH.","zip":"62702"},{"name":"YİBO MAH.","zip":"62702"},{"name":"YONÇA DERE MAH.","zip":"62702"},{"name":"YUKARI BOSTAN YURDU MAH.","zip":"62702"},{"name":"YUKARIKAYIR MAH.","zip":"62702"}]},{"name":"PÜLÜMÜR","cityName":null,"quarters":[{"name":"ECEVİT MAH.","zip":"62700"},{"name":"HİVER MAH.","zip":"62700"},{"name":"MERKEZ MAH.","zip":"62700"},{"name":"MEYDANLAR MAH.","zip":"62700"}]}]}]}