{"id":63,"name":"ŞANLIURFA","cities":[{"name":"city","districts":[{"name":"AKÇAKALE","cityName":null,"quarters":[{"name":"AKÇAKÖY MAH.","zip":"63500"},{"name":"AKÇALI MAH.","zip":"63500"},{"name":"AKDİKEN MAH.","zip":"63500"},{"name":"AKKEÇİ MAH.","zip":"63500"},{"name":"AKSAHRINÇ MAH.","zip":"63500"},{"name":"ALATLAR MAH.","zip":"63500"},{"name":"ALINCIK MAH.","zip":"63500"},{"name":"ARICAN MAH.","zip":"63500"},{"name":"AŞAĞIBEYDAŞ MAH.","zip":"63500"},{"name":"AŞAĞIÇİNPOLAT MAH.","zip":"63500"},{"name":"AŞAĞIDEREN MAH.","zip":"63500"},{"name":"ATATÜRK MAH.","zip":"63500"},{"name":"AYDINLI MAH.","zip":"63500"},{"name":"AYRANLI MAH.","zip":"63500"},{"name":"AYYILDIZ MAH.","zip":"63500"},{"name":"BAYKUŞ MAH.","zip":"63500"},{"name":"BİLECE MAH.","zip":"63500"},{"name":"BOLATLAR MAH.","zip":"63500"},{"name":"BOYBEYİ MAH.","zip":"63500"},{"name":"BUKET MAH.","zip":"63500"},{"name":"BULUTLU MAH.","zip":"63500"},{"name":"BÜYÜCEK MAH.","zip":"63500"},{"name":"BÜYÜKNANELİ MAH.","zip":"63500"},{"name":"BÜYÜKTAŞ MAH.","zip":"63500"},{"name":"BÜYÜKTOKAÇ MAH.","zip":"63500"},{"name":"CEVHER MAH.","zip":"63500"},{"name":"CEYLANLI MAH.","zip":"63500"},{"name":"ÇAKIRLAR MAH.","zip":"63500"},{"name":"ÇUKURCA MAH.","zip":"63500"},{"name":"DENİZ MAH.","zip":"63500"},{"name":"DİBEK MAH.","zip":"63500"},{"name":"DONANDI MAH.","zip":"63500"},{"name":"DORUMALİ MAH.","zip":"63500"},{"name":"DÜZCE MAH.","zip":"63500"},{"name":"EDEBEY MAH.","zip":"63500"},{"name":"EKE MAH.","zip":"63500"},{"name":"EKİNYAZI MAH.","zip":"63500"},{"name":"ERDEMLER MAH.","zip":"63500"},{"name":"ERECEK MAH.","zip":"63500"},{"name":"FATİH SULTAN MEHMET MAH.","zip":"63500"},{"name":"FEVZİ ÇAKMAK MAH.","zip":"63500"},{"name":"FİŞENGE MAH.","zip":"63500"},{"name":"GEÇİTTEPE MAH.","zip":"63500"},{"name":"GÖLBAŞI MAH.","zip":"63500"},{"name":"GÜLVEREN MAH.","zip":"63500"},{"name":"GÜNDAŞ MAH.","zip":"63500"},{"name":"GÜNEREN MAH.","zip":"63500"},{"name":"GÜVENÇ MAH.","zip":"63500"},{"name":"HACIEKBER MAH.","zip":"63500"},{"name":"HAKTANIR MAH.","zip":"63500"},{"name":"HÜRRİYET MAH.","zip":"63500"},{"name":"İKİZCE MAH.","zip":"63500"},{"name":"İNCEDERE MAH.","zip":"63500"},{"name":"KARATEPE MAH.","zip":"63500"},{"name":"KAYALIK MAH.","zip":"63500"},{"name":"KEÇİLİ MAH.","zip":"63500"},{"name":"KELEBEK MAH.","zip":"63500"},{"name":"KEPEZLİ MAH.","zip":"63500"},{"name":"KILIÇLI MAH.","zip":"63500"},{"name":"KIRMITLI MAH.","zip":"63500"},{"name":"KORUKLU MAH.","zip":"63500"},{"name":"KÖSEÖREN MAH.","zip":"63500"},{"name":"KURUDERE MAH.","zip":"63500"},{"name":"MAVİTAŞ MAH.","zip":"63500"},{"name":"MENZİL MAH.","zip":"63500"},{"name":"MERMER MAH.","zip":"63500"},{"name":"MİL MAH.","zip":"63500"},{"name":"NARLIOVA MAH.","zip":"63500"},{"name":"NİMET MAH.","zip":"63500"},{"name":"OHALİ MAH.","zip":"63500"},{"name":"OKAYLAR MAH.","zip":"63500"},{"name":"ONORTAK MAH.","zip":"63500"},{"name":"ORTADEREN MAH.","zip":"63500"},{"name":"ORTAÖREN MAH.","zip":"63500"},{"name":"ÖNCÜL MAH.","zip":"63500"},{"name":"PEKMEZLİ MAH.","zip":"63500"},{"name":"SAKÇA MAH.","zip":"63500"},{"name":"SALİHLER MAH.","zip":"63500"},{"name":"SEVİMLİ MAH.","zip":"63500"},{"name":"SEYRANTEPE MAH.","zip":"63500"},{"name":"SINIRGÖREN MAH.","zip":"63500"},{"name":"SÜLEYMANŞAH MAH.","zip":"63500"},{"name":"ŞAHİNLER MAH.","zip":"63500"},{"name":"ŞAHİNSOYLU MAH.","zip":"63500"},{"name":"ŞANLI MAH.","zip":"63500"},{"name":"ŞEFKAT MAH.","zip":"63500"},{"name":"ŞEHİTNUSRETBEY MAH.","zip":"63500"},{"name":"TAŞKINLAR MAH.","zip":"63500"},{"name":"TATLICA MAH.","zip":"63500"},{"name":"TOPÇU MAH.","zip":"63500"},{"name":"TURGUT ÖZAL MAH.","zip":"63500"},{"name":"TUZLUCA MAH.","zip":"63500"},{"name":"UĞRAKLI MAH.","zip":"63500"},{"name":"UĞURHAN MAH.","zip":"63500"},{"name":"UĞURTAŞ MAH.","zip":"63500"},{"name":"VİZE MAH.","zip":"63500"},{"name":"YAĞMURALAN MAH.","zip":"63500"},{"name":"YALINLI MAH.","zip":"63500"},{"name":"YAZLICA MAH.","zip":"63500"},{"name":"YEDİYOL MAH.","zip":"63500"},{"name":"YENİ MAH.","zip":"63500"},{"name":"YENİŞEHİR MAH.","zip":"63500"},{"name":"YEŞERTİ MAH.","zip":"63500"},{"name":"YUKARI ÇUKURCA MAH.","zip":"63500"},{"name":"YUKARIBEYDAŞ MAH.","zip":"63500"},{"name":"YUKARIÇİNPOLAT MAH.","zip":"63500"},{"name":"YUKARIDEREN MAH.","zip":"63500"},{"name":"YUSUFBEY MAH.","zip":"63500"},{"name":"ZENGİNOVA MAH.","zip":"63500"},{"name":"ZORLU MAH.","zip":"63500"}]},{"name":"BİRECİK","cityName":null,"quarters":[{"name":"AKARÇAY MAH.","zip":"63400"},{"name":"AKPINAR MAH.","zip":"63400"},{"name":"ALMAŞAR MAH.","zip":"63400"},{"name":"ALTINOVA MAH.","zip":"63400"},{"name":"ARSLANLI MAH.","zip":"63400"},{"name":"AŞAĞI FATMACIK MAH.","zip":"63400"},{"name":"AŞAĞI HABİP MAH.","zip":"63400"},{"name":"AŞAĞI KARKUTLU MAH.","zip":"63400"},{"name":"AŞAĞI KUYUCAK MAH.","zip":"63400"},{"name":"AŞAĞIALMAŞAR MAH.","zip":"63400"},{"name":"AŞAĞIEŞME MAH.","zip":"63400"},{"name":"AYRAN MAH.","zip":"63400"},{"name":"BAĞLARBAŞI MAH.","zip":"63400"},{"name":"BAHÇEÖNÜ MAH.","zip":"63400"},{"name":"BENTBAHÇESİ MAH.","zip":"63400"},{"name":"BOZDERE MAH.","zip":"63400"},{"name":"BOZTEPE MAH.","zip":"63400"},{"name":"BÖĞÜRTLEN MAH.","zip":"63400"},{"name":"CİBİNÖREN MAH.","zip":"63400"},{"name":"CUMHURİYET MAH.","zip":"63400"},{"name":"ÇİÇEKALAN MAH.","zip":"63400"},{"name":"ÇİFTLİK MAH.","zip":"63400"},{"name":"ÇOĞAN MAH.","zip":"63400"},{"name":"DAĞÖREN MAH.","zip":"63400"},{"name":"DALOCAK MAH.","zip":"63400"},{"name":"DAMLICA MAH.","zip":"63400"},{"name":"DIŞLIK MAH.","zip":"63400"},{"name":"DİKTEPE MAH.","zip":"63400"},{"name":"DİVRİĞİ MAH.","zip":"63400"},{"name":"DORUCAK MAH.","zip":"63400"},{"name":"DUYDUK MAH.","zip":"63400"},{"name":"DÜZLÜCE MAH.","zip":"63400"},{"name":"EKENEK MAH.","zip":"63400"},{"name":"GEÇİTTEPE MAH.","zip":"63400"},{"name":"GÖKTEPE MAH.","zip":"63400"},{"name":"GÜNIŞIĞI MAH.","zip":"63400"},{"name":"GÜVENİR MAH.","zip":"63400"},{"name":"GÜZELYURT MAH.","zip":"63400"},{"name":"HAYDARAHMET MAH.","zip":"63400"},{"name":"HOCA ŞERİF MAH.","zip":"63400"},{"name":"ILGAR MAH.","zip":"63400"},{"name":"İNCELER MAH.","zip":"63400"},{"name":"İNCİRLİ MAH.","zip":"63400"},{"name":"İNCİRLİDERE MAH.","zip":"63400"},{"name":"İNNAPLI MAH.","zip":"63400"},{"name":"KARABABA MAH.","zip":"63400"},{"name":"KARŞIYAKA MAH.","zip":"63400"},{"name":"KESKİNCE MAH.","zip":"63400"},{"name":"KOCAALİ MAH.","zip":"63400"},{"name":"KONAK MAH.","zip":"63400"},{"name":"KÖMAĞIL MAH.","zip":"63400"},{"name":"KURAL MAH.","zip":"63400"},{"name":"KURTULUŞ MAH.","zip":"63400"},{"name":"KURUCAHÖYÜK MAH.","zip":"63400"},{"name":"MENGELLİ MAH.","zip":"63400"},{"name":"MERKEZ MAH.","zip":"63400"},{"name":"METELER MAH.","zip":"63400"},{"name":"MEYANCA MAH.","zip":"63400"},{"name":"MEYDAN MAH.","zip":"63400"},{"name":"MEZRA MAH.","zip":"63400"},{"name":"ORTA FATMACIK MAH.","zip":"63400"},{"name":"ÖZVEREN MAH.","zip":"63400"},{"name":"SAHA MAH.","zip":"63400"},{"name":"SANCAK MAH.","zip":"63400"},{"name":"SEKİLİ MAH.","zip":"63400"},{"name":"SÖĞÜRTLEN MAH.","zip":"63400"},{"name":"SUMAKLI MAH.","zip":"63400"},{"name":"SURTEPE MAH.","zip":"63400"},{"name":"ŞEKERKÖY MAH.","zip":"63400"},{"name":"TÜTEN MAH.","zip":"63400"},{"name":"UĞURCUK MAH.","zip":"63400"},{"name":"ÜNSAL MAH.","zip":"63400"},{"name":"YAYLACIK MAH.","zip":"63400"},{"name":"YENİAKPINAR MAH.","zip":"63400"},{"name":"YILMAZ MAH.","zip":"63400"},{"name":"YUKARI KARABAŞ MAH.","zip":"63400"},{"name":"YUKARIHABİB MAH.","zip":"63400"},{"name":"YUKARIİNCİRLİ MAH.","zip":"63400"},{"name":"YUKARIYENİÇAĞ MAH.","zip":"63400"},{"name":"YUVACIK MAH.","zip":"63400"},{"name":"ZİYARET MAH.","zip":"63400"}]},{"name":"BOZOVA","cityName":null,"quarters":[{"name":"GÖLBAŞI MAH.","zip":"63850"},{"name":"KEVİK MAH.","zip":"63850"},{"name":"KIRMIZIPINAR MAH.","zip":"63850"},{"name":"NORÇİN MAH.","zip":"63850"}]},{"name":"YAYLAK","cityName":null,"quarters":[{"name":"AKMAĞARA MAH.","zip":"63853"},{"name":"ALTINLI MAH.","zip":"63853"},{"name":"ARGINCIK MAH.","zip":"63853"},{"name":"ARIKÖK MAH.","zip":"63853"},{"name":"ARPALI MAH.","zip":"63853"},{"name":"AVLAK MAH.","zip":"63853"},{"name":"AYLAN MAH.","zip":"63853"},{"name":"BAĞLICA MAH.","zip":"63853"},{"name":"BALTAŞ MAH.","zip":"63853"},{"name":"BİNEKLİ MAH.","zip":"63853"},{"name":"BİRİS MAH.","zip":"63853"},{"name":"BOZTEPE MAH.","zip":"63853"},{"name":"BUDAKLI MAH.","zip":"63853"},{"name":"BUĞLUCA MAH.","zip":"63853"},{"name":"BULANCAK MAH.","zip":"63853"},{"name":"BÜYÜKHAN MAH.","zip":"63853"},{"name":"ÇAKMAKLI MAH.","zip":"63853"},{"name":"DELİLER MAH.","zip":"63853"},{"name":"DENİZBACI MAH.","zip":"63853"},{"name":"DUTLUCA MAH.","zip":"63853"},{"name":"DUTLUK MAH.","zip":"63853"},{"name":"ESKİN MAH.","zip":"63853"},{"name":"FEVZİ ÇAKMAK MAH.","zip":"63853"},{"name":"GERDEK MAH.","zip":"63853"},{"name":"GÖKÖREN MAH.","zip":"63853"},{"name":"GÖYNİK MAH.","zip":"63853"},{"name":"GÖZENEK MAH.","zip":"63853"},{"name":"HACIKÖY MAH.","zip":"63853"},{"name":"HACILAR MAH.","zip":"63853"},{"name":"HİSARLAR MAH.","zip":"63853"},{"name":"İKİZKÖY MAH.","zip":"63853"},{"name":"İNCİRLİ MAH.","zip":"63853"},{"name":"KABACIK MAH.","zip":"63853"},{"name":"KARACA MAH.","zip":"63853"},{"name":"KARACAÖREN MAH.","zip":"63853"},{"name":"KARAKAŞ MAH.","zip":"63853"},{"name":"KARAPINAR MAH.","zip":"63853"},{"name":"KARGILI MAH.","zip":"63853"},{"name":"KEPİRCE MAH.","zip":"63853"},{"name":"KESMETAŞ MAH.","zip":"63853"},{"name":"KILÇIK MAH.","zip":"63853"},{"name":"KILIÇÖREN MAH.","zip":"63853"},{"name":"KINDIRALİ MAH.","zip":"63853"},{"name":"KIRAĞILI MAH.","zip":"63853"},{"name":"KIZLAR MAH.","zip":"63853"},{"name":"KİLLİK MAH.","zip":"63853"},{"name":"KOÇHİSAR MAH.","zip":"63853"},{"name":"KOÇVERAN MAH.","zip":"63853"},{"name":"KONUKSEVER MAH.","zip":"63853"},{"name":"KÖSEŞAHİN MAH.","zip":"63853"},{"name":"KÜPELİ MAH.","zip":"63853"},{"name":"MAŞUK MAH.","zip":"63853"},{"name":"MÜLKÖREN MAH.","zip":"63853"},{"name":"NARSAİT MAH.","zip":"63853"},{"name":"ORTAÖREN MAH.","zip":"63853"},{"name":"ORTATEPE MAH.","zip":"63853"},{"name":"ÖRGÜLÜ MAH.","zip":"63853"},{"name":"ÖZGÖREN MAH.","zip":"63853"},{"name":"PİRHALİL MAH.","zip":"63853"},{"name":"SAĞIRLI MAH.","zip":"63853"},{"name":"SALUC MAH.","zip":"63853"},{"name":"SEYİTÖREN MAH.","zip":"63853"},{"name":"SIĞIRCIK MAH.","zip":"63853"},{"name":"SIZAN MAH.","zip":"63853"},{"name":"SOĞUKKUYU MAH.","zip":"63853"},{"name":"SÖĞÜTLÜ MAH.","zip":"63853"},{"name":"ŞANLIAVŞAR MAH.","zip":"63853"},{"name":"ŞIHLAR MAH.","zip":"63853"},{"name":"TAŞAN MAH.","zip":"63853"},{"name":"TATARHÜYÜK MAH.","zip":"63853"},{"name":"TOZLUCA MAH.","zip":"63853"},{"name":"TUNALI MAH.","zip":"63853"},{"name":"TÜRKMENÖREN MAH.","zip":"63853"},{"name":"UZUNBURÇ MAH.","zip":"63853"},{"name":"ÜÇDİREK MAH.","zip":"63853"},{"name":"ÜRÜNLÜ MAH.","zip":"63853"},{"name":"YALINTAŞ MAH.","zip":"63853"},{"name":"YASLICA MAH.","zip":"63853"},{"name":"YAVUZ SELİM MAH.","zip":"63853"},{"name":"YAYLAK MAH.","zip":"63853"},{"name":"YEŞİL OVA MAH.","zip":"63853"},{"name":"ZİVANLI MAH.","zip":"63853"}]},{"name":"CEYLANPINAR","cityName":null,"quarters":[{"name":"AKBULUT MAH.","zip":"63570"},{"name":"ALACA MAH.","zip":"63570"},{"name":"ALTINKÖY MAH.","zip":"63570"},{"name":"AŞAĞIDORUKLU MAH.","zip":"63570"},{"name":"AŞAĞIDURMUŞ MAH.","zip":"63570"},{"name":"AŞAĞIKARATAŞ MAH.","zip":"63570"},{"name":"AŞAĞITAŞYALAK MAH.","zip":"63570"},{"name":"AVCILI MAH.","zip":"63570"},{"name":"AYDIN MAH.","zip":"63570"},{"name":"AYDOĞDU MAH.","zip":"63570"},{"name":"BAHÇELİEVLER MAH.","zip":"63570"},{"name":"BOĞALI MAH.","zip":"63570"},{"name":"BÜYÜKÇAYLI MAH.","zip":"63570"},{"name":"BÜYÜKYENİCE MAH.","zip":"63570"},{"name":"CEYLAN MAH.","zip":"63570"},{"name":"CUMHURİYET MAH.","zip":"63570"},{"name":"DAMLACIK MAH.","zip":"63570"},{"name":"DİKİLİ MAH.","zip":"63570"},{"name":"DÜZOVA MAH.","zip":"63570"},{"name":"ENSAR MAH.","zip":"63570"},{"name":"FATİH SULTAN MEHMET MAH.","zip":"63570"},{"name":"GÜMÜŞ MAH.","zip":"63570"},{"name":"HAN MAH.","zip":"63570"},{"name":"IŞIKLAR MAH.","zip":"63570"},{"name":"MADEN MAH.","zip":"63570"},{"name":"MEHMET AKİF ERSOY MAH.","zip":"63570"},{"name":"MEVLANA MAH.","zip":"63570"},{"name":"MURATLI MAH.","zip":"63570"},{"name":"ÖZBEK MAH.","zip":"63570"},{"name":"SARAÇÇEŞME MAH.","zip":"63570"},{"name":"SELAHADDİN EYYÜBİ MAH.","zip":"63570"},{"name":"SEYDO ATİLLA MAH.","zip":"63570"},{"name":"TEKİNLER MAH.","zip":"63570"},{"name":"TURGUT ÖZAL MAH.","zip":"63570"},{"name":"ULUCAMİ MAH.","zip":"63570"},{"name":"YALÇINKAYA MAH.","zip":"63570"},{"name":"YENİKÖY MAH.","zip":"63570"},{"name":"YENİŞEHİR MAH.","zip":"63570"},{"name":"YEŞİLTEPE MAH.","zip":"63570"},{"name":"YONCALI MAH.","zip":"63570"},{"name":"YUKARIDORUKLU MAH.","zip":"63570"},{"name":"YUKARIDURMUŞ MAH.","zip":"63570"},{"name":"YUKARIESENCE MAH.","zip":"63570"},{"name":"YUKARIKARATAŞ MAH.","zip":"63570"},{"name":"YUKARITAŞLIDERE MAH.","zip":"63570"},{"name":"YUKARITAŞYALAK MAH.","zip":"63570"},{"name":"YÜKSEKTEPE MAH.","zip":"63570"}]},{"name":"AKŞEMSETTİN","cityName":null,"quarters":[{"name":"BATIKENT MAH.","zip":"63250"},{"name":"YENİCE MAH.","zip":"63250"}]},{"name":"ÇARŞI","cityName":null,"quarters":[{"name":"BIÇAKÇI MAH.","zip":"63210"},{"name":"GÖL MAH.","zip":"63210"},{"name":"GÜMÜŞKUŞAK MAH.","zip":"63210"},{"name":"HAKİMDEDE MAH.","zip":"63210"},{"name":"KADIOĞLU MAH.","zip":"63210"},{"name":"KENDİRCİ MAH.","zip":"63210"},{"name":"KURTULUŞ MAH.","zip":"63210"},{"name":"PINARBAŞI MAH.","zip":"63210"},{"name":"TÜRKMEYDANI MAH.","zip":"63210"},{"name":"YENİ MAH.","zip":"63210"},{"name":"YUSUFPAŞA MAH.","zip":"63210"}]},{"name":"EYYÜBİYE","cityName":null,"quarters":[{"name":"AÇMALI MAH.","zip":"63200"},{"name":"AKABE MAH.","zip":"63200"},{"name":"AKÇAMESCİT MAH.","zip":"63200"},{"name":"AKDİLEK MAH.","zip":"63200"},{"name":"AKMAĞARA MAH.","zip":"63200"},{"name":"AKÖREN MAH.","zip":"63200"},{"name":"ALKANLI MAH.","zip":"63200"},{"name":"ALTIN MAH.","zip":"63200"},{"name":"ALTINBAŞAK MAH.","zip":"63200"},{"name":"ALTINTEPE MAH.","zip":"63200"},{"name":"AMBARTEPE MAH.","zip":"63200"},{"name":"APALI MAH.","zip":"63200"},{"name":"AŞAĞIHEMEDAN MAH.","zip":"63200"},{"name":"AŞAĞIKOÇLU MAH.","zip":"63200"},{"name":"AŞAĞIYAZICI MAH.","zip":"63200"},{"name":"ATLIKONAK MAH.","zip":"63200"},{"name":"AYRANCI MAH.","zip":"63200"},{"name":"BAĞIŞ MAH.","zip":"63200"},{"name":"BAKIRTAŞ MAH.","zip":"63200"},{"name":"BAKIŞLAR MAH.","zip":"63200"},{"name":"BANARLI MAH.","zip":"63200"},{"name":"BAŞGÖZE MAH.","zip":"63200"},{"name":"BAŞÖREN MAH.","zip":"63200"},{"name":"BAYRAKLI MAH.","zip":"63200"},{"name":"BEŞAT MAH.","zip":"63200"},{"name":"BEYAZYAPRAK MAH.","zip":"63200"},{"name":"BİLDİM MAH.","zip":"63200"},{"name":"BOZHÖYÜK MAH.","zip":"63200"},{"name":"BUHARA MAH.","zip":"63200"},{"name":"BULDUK MAH.","zip":"63200"},{"name":"BÜYÜKDÜZLÜK MAH.","zip":"63200"},{"name":"BÜYÜKHAN MAH.","zip":"63200"},{"name":"BÜYÜKOTLUCA MAH.","zip":"63200"},{"name":"CAMİKEBİR MAH.","zip":"63200"},{"name":"ÇALIŞKANLAR MAH.","zip":"63200"},{"name":"ÇAMURLU MAH.","zip":"63200"},{"name":"DEDEOSMAN MAH.","zip":"63200"},{"name":"DERNEK MAH.","zip":"63200"},{"name":"DİLİMLİ MAH.","zip":"63200"},{"name":"DİREKLİ MAH.","zip":"63200"},{"name":"DOLUTEPE MAH.","zip":"63200"},{"name":"DURUCA MAH.","zip":"63200"},{"name":"EYÜPKENT MAH.","zip":"63200"},{"name":"EYYÜBİYE MAH.","zip":"63200"},{"name":"EYYÜP NEBİ MAH.","zip":"63200"},{"name":"GELİNCİK MAH.","zip":"63200"},{"name":"GÖLDERE MAH.","zip":"63200"},{"name":"GÖRENLER MAH.","zip":"63200"},{"name":"GÖZELLER MAH.","zip":"63200"},{"name":"GÜMÜŞÖREN MAH.","zip":"63200"},{"name":"GÜNBALI MAH.","zip":"63200"},{"name":"GÜNEŞ MAH.","zip":"63200"},{"name":"GÜNGÖREN MAH.","zip":"63200"},{"name":"GÜZELKUYU MAH.","zip":"63200"},{"name":"HACIBAYRAM MAH.","zip":"63200"},{"name":"HACILAR MAH.","zip":"63200"},{"name":"HALEPLİBAHÇE MAH.","zip":"63200"},{"name":"HAMZABABA MAH.","zip":"63200"},{"name":"HANCIĞAZ MAH.","zip":"63200"},{"name":"HAYATİ HARRANİ MAH.","zip":"63200"},{"name":"HOROZKÖY MAH.","zip":"63200"},{"name":"İKİZCE MAH.","zip":"63200"},{"name":"KADIKENDİ MAH.","zip":"63200"},{"name":"KAP MAH.","zip":"63200"},{"name":"KAPLANKÖY MAH.","zip":"63200"},{"name":"KARAALİ MAH.","zip":"63200"},{"name":"KARAHİSAR MAH.","zip":"63200"},{"name":"KARAKOYUNLU MAH.","zip":"63200"},{"name":"KARAMAN MAH.","zip":"63200"},{"name":"KEBERLİ MAH.","zip":"63200"},{"name":"KEÇİKIRAN MAH.","zip":"63200"},{"name":"KESERDEDE MAH.","zip":"63200"},{"name":"KESKİN MAH.","zip":"63200"},{"name":"KINALI MAH.","zip":"63200"},{"name":"KIRÇİÇEĞİ MAH.","zip":"63200"},{"name":"KIRKMAĞARA MAH.","zip":"63200"},{"name":"KIZILKUYU MAH.","zip":"63200"},{"name":"KOÇÖREN MAH.","zip":"63200"},{"name":"KOÇÖREN OSB MAH.","zip":"63200"},{"name":"KÖPRÜLÜK MAH.","zip":"63200"},{"name":"KUBACIK MAH.","zip":"63200"},{"name":"KURUCUK MAH.","zip":"63200"},{"name":"KÜÇÜKDÜZLÜK MAH.","zip":"63200"},{"name":"KÜÇÜKHAN MAH.","zip":"63200"},{"name":"KÜLÜNÇE MAH.","zip":"63200"},{"name":"KÜPELİ MAH.","zip":"63200"},{"name":"MANCE MAH.","zip":"63200"},{"name":"MİHRAPLI MAH.","zip":"63200"},{"name":"MURADİYE MAH.","zip":"63200"},{"name":"MUTLUKAYA MAH.","zip":"63200"},{"name":"NADİRE MAH.","zip":"63200"},{"name":"OLGUNLAR MAH.","zip":"63200"},{"name":"OLUKYANI MAH.","zip":"63200"},{"name":"ONİKİLER MAH.","zip":"63200"},{"name":"ORTAHEMEDAN MAH.","zip":"63200"},{"name":"OSMANLI MAH.","zip":"63200"},{"name":"OVABEYLİ MAH.","zip":"63200"},{"name":"OZANLAR MAH.","zip":"63200"},{"name":"ÖRENLİ MAH.","zip":"63200"},{"name":"ÖZLÜ MAH.","zip":"63200"},{"name":"PAYAMLI MAH.","zip":"63200"},{"name":"SAĞLIK MAH.","zip":"63200"},{"name":"SEKSENÖREN MAH.","zip":"63200"},{"name":"SELÇUKLU MAH.","zip":"63200"},{"name":"SELMAN MAH.","zip":"63200"},{"name":"SULTANTEPE MAH.","zip":"63200"},{"name":"ŞAHİNALAN MAH.","zip":"63200"},{"name":"ŞAHİNLER MAH.","zip":"63200"},{"name":"ŞIH MAKSUT MAH.","zip":"63200"},{"name":"TARLABAŞI MAH.","zip":"63200"},{"name":"TAŞLICA MAH.","zip":"63200"},{"name":"TEKYAMAÇ MAH.","zip":"63200"},{"name":"TEPE MAH.","zip":"63200"},{"name":"TOPDAĞI MAH.","zip":"63200"},{"name":"TURLUK MAH.","zip":"63200"},{"name":"TUZLUCA MAH.","zip":"63200"},{"name":"UĞURLU MAH.","zip":"63200"},{"name":"ULAK MAH.","zip":"63200"},{"name":"ULUCANLAR MAH.","zip":"63200"},{"name":"ULUKÖY MAH.","zip":"63200"},{"name":"UMUROBA MAH.","zip":"63200"},{"name":"ÜZERLİK MAH.","zip":"63200"},{"name":"VERGİLİ MAH.","zip":"63200"},{"name":"YAĞMURLU MAH.","zip":"63200"},{"name":"YAKUBİYE MAH.","zip":"63200"},{"name":"YAMAÇALTI MAH.","zip":"63200"},{"name":"YANIKÇÖĞÜR MAH.","zip":"63200"},{"name":"YARDIMCI MAH.","zip":"63200"},{"name":"YAŞAR MAH.","zip":"63200"},{"name":"YAYKILIÇ MAH.","zip":"63200"},{"name":"YEDİYOL MAH.","zip":"63200"},{"name":"YOLBAŞI MAH.","zip":"63200"},{"name":"YOLBİLİR MAH.","zip":"63200"},{"name":"YUKARIÇAYKUYU MAH.","zip":"63200"},{"name":"YUKARIHEMEDAN MAH.","zip":"63200"},{"name":"YUKARIKOÇLU MAH.","zip":"63200"},{"name":"YUKARIYAZICI MAH.","zip":"63200"},{"name":"YUSUF MAH.","zip":"63200"},{"name":"ZEYNEPKÖY MAH.","zip":"63200"}]},{"name":"HALFETİ","cityName":null,"quarters":[{"name":"ARGAÇ MAH.","zip":"63950"},{"name":"ARGIL MAH.","zip":"63950"},{"name":"AŞAĞI GÖKLÜ MAH.","zip":"63950"},{"name":"BALABAN MAH.","zip":"63950"},{"name":"BEYBURCU MAH.","zip":"63950"},{"name":"BOZYAZI MAH.","zip":"63950"},{"name":"BULAKLI MAH.","zip":"63950"},{"name":"CUMHURİYET MAH.","zip":"63950"},{"name":"ÇAKALLI MAH.","zip":"63950"},{"name":"ÇEBEKOĞLU MAH.","zip":"63950"},{"name":"DERGİLİ MAH.","zip":"63950"},{"name":"DURAK MAH.","zip":"63950"},{"name":"DUTLUCA MAH.","zip":"63950"},{"name":"ERİKLİ MAH.","zip":"63950"},{"name":"FIRAT MAH.","zip":"63950"},{"name":"FISTIKÖZÜ MAH.","zip":"63950"},{"name":"GÖZELİ MAH.","zip":"63950"},{"name":"GÜLAÇAN MAH.","zip":"63950"},{"name":"GÜNECE MAH.","zip":"63950"},{"name":"GÜRKUYU MAH.","zip":"63950"},{"name":"GÜRLÜCE MAH.","zip":"63950"},{"name":"HİLALLİ MAH.","zip":"63950"},{"name":"KALKAN MAH.","zip":"63950"},{"name":"KARAOTLAK MAH.","zip":"63950"},{"name":"KAVAKLICA MAH.","zip":"63950"},{"name":"KAYALAR MAH.","zip":"63950"},{"name":"KURUGÖL MAH.","zip":"63950"},{"name":"MACUNLU MAH.","zip":"63950"},{"name":"ORTAYOL MAH.","zip":"63950"},{"name":"ÖMERLİ MAH.","zip":"63950"},{"name":"ÖZMÜŞ MAH.","zip":"63950"},{"name":"RÜŞTİYE MAH.","zip":"63950"},{"name":"SALMANLI MAH.","zip":"63950"},{"name":"SAVAŞAN MAH.","zip":"63950"},{"name":"SAYLAKKAYA MAH.","zip":"63950"},{"name":"SELDEK MAH.","zip":"63950"},{"name":"SIRATAŞLAR MAH.","zip":"63950"},{"name":"SİYAHGÜL MAH.","zip":"63950"},{"name":"SÜTVEREN MAH.","zip":"63950"},{"name":"ŞİMALİYE MAH.","zip":"63950"},{"name":"TAVŞANÖREN MAH.","zip":"63950"},{"name":"YEŞİLÖZEN MAH.","zip":"63950"},{"name":"YUKARIGÖKLÜ MAH.","zip":"63950"}]},{"name":"BAĞLARBAŞI","cityName":null,"quarters":[{"name":"AÇIKYAZI MAH.","zip":"63050"},{"name":"AHMET YESEVİ MAH.","zip":"63050"},{"name":"AKÇALI MAH.","zip":"63050"},{"name":"AKDOĞAN MAH.","zip":"63050"},{"name":"AKTAŞ MAH.","zip":"63050"},{"name":"ALTINDAMLA MAH.","zip":"63050"},{"name":"ALTINTEPE MAH.","zip":"63050"},{"name":"ANAZ MAH.","zip":"63050"},{"name":"ASLANLI MAH.","zip":"63050"},{"name":"ASRİ MAH.","zip":"63050"},{"name":"AŞAĞI İÇKARA MAH.","zip":"63050"},{"name":"AŞAĞIAKÖREN MAH.","zip":"63050"},{"name":"AŞAĞIKOYMAT MAH.","zip":"63050"},{"name":"AŞAĞIVARLICA MAH.","zip":"63050"},{"name":"ATATÜRK MAH.","zip":"63050"},{"name":"AYAZCA MAH.","zip":"63050"},{"name":"BAĞLAR MAH.","zip":"63050"},{"name":"BAĞLARBAŞI MAH.","zip":"63050"},{"name":"BAKIMLI MAH.","zip":"63050"},{"name":"BALKATAN MAH.","zip":"63050"},{"name":"BALLICA MAH.","zip":"63050"},{"name":"BONCUK MAH.","zip":"63050"},{"name":"BOYDERE MAH.","zip":"63050"},{"name":"BÜYÜKMİRDESİ MAH.","zip":"63050"},{"name":"CENGİZ TOPEL MAH.","zip":"63050"},{"name":"ÇAMLIDERE MAH.","zip":"63050"},{"name":"ÇANAKÇI MAH.","zip":"63050"},{"name":"ÇATALLI MAH.","zip":"63050"},{"name":"ÇEKÇEK MAH.","zip":"63050"},{"name":"ÇİÇEKLİ MAH.","zip":"63050"},{"name":"ÇİÇEKTEPESİ MAH.","zip":"63050"},{"name":"ÇUKURDORUÇ MAH.","zip":"63050"},{"name":"DAĞETEĞİ MAH.","zip":"63050"},{"name":"DAĞYANI MAH.","zip":"63050"},{"name":"DALBAŞI MAH.","zip":"63050"},{"name":"DENİZCİ MAH.","zip":"63050"},{"name":"DERİNKUYU MAH.","zip":"63050"},{"name":"DERMAN MAH.","zip":"63050"},{"name":"DEVTEYŞTİ MAH.","zip":"63050"},{"name":"DİKME MAH.","zip":"63050"},{"name":"DİKTAŞ MAH.","zip":"63050"},{"name":"DİPHİSAR MAH.","zip":"63050"},{"name":"EĞERKIRAN MAH.","zip":"63050"},{"name":"EMİRLER MAH.","zip":"63050"},{"name":"ERNEBİ MAH.","zip":"63050"},{"name":"ESENYAYLA MAH.","zip":"63050"},{"name":"GÖKTEPE MAH.","zip":"63050"},{"name":"GÜÇLÜ MAH.","zip":"63050"},{"name":"GÜLVEREN MAH.","zip":"63050"},{"name":"GÜMÜŞTAŞ MAH.","zip":"63050"},{"name":"GÜRPINAR MAH.","zip":"63050"},{"name":"GÜVENLİ MAH.","zip":"63050"},{"name":"GÜZELKÖY MAH.","zip":"63050"},{"name":"GÜZELYURT MAH.","zip":"63050"},{"name":"HALİME MAH.","zip":"63050"},{"name":"HAVŞANLI MAH.","zip":"63050"},{"name":"İBRİK MAH.","zip":"63050"},{"name":"İKİAĞIZ MAH.","zip":"63050"},{"name":"İNCİ MAH.","zip":"63050"},{"name":"İNCİRAĞACI MAH.","zip":"63050"},{"name":"İNCİRLİ MAH.","zip":"63050"},{"name":"İPEKYOL MAH.","zip":"63050"},{"name":"İRİCE MAH.","zip":"63050"},{"name":"KAHRAMAN MAH.","zip":"63050"},{"name":"KALECİK MAH.","zip":"63050"},{"name":"KALINBAYAT MAH.","zip":"63050"},{"name":"KANATLI MAH.","zip":"63050"},{"name":"KANOĞLU MAH.","zip":"63050"},{"name":"KAPAKLI MAH.","zip":"63050"},{"name":"KARATEPE MAH.","zip":"63050"},{"name":"KARGALI MAH.","zip":"63050"},{"name":"KARPUZLU MAH.","zip":"63050"},{"name":"KARSIYAKA MAH.","zip":"63050"},{"name":"KAVAKBAŞI MAH.","zip":"63050"},{"name":"KAYALI MAH.","zip":"63050"},{"name":"KAYGILI MAH.","zip":"63050"},{"name":"KAYNAKLI MAH.","zip":"63050"},{"name":"KEÇİLİ MAH.","zip":"63050"},{"name":"KENGERLİ MAH.","zip":"63050"},{"name":"KEPEZ MAH.","zip":"63050"},{"name":"KEPİRLİ MAH.","zip":"63050"},{"name":"KEREMLİ MAH.","zip":"63050"},{"name":"KESME MAH.","zip":"63050"},{"name":"KISAS MAH.","zip":"63050"},{"name":"KIZILPINAR MAH.","zip":"63050"},{"name":"KOÇAK MAH.","zip":"63050"},{"name":"KONAÇ MAH.","zip":"63050"},{"name":"KONAK MAH.","zip":"63050"},{"name":"KONUKLU MAH.","zip":"63050"},{"name":"KÖRKUYU MAH.","zip":"63050"},{"name":"KÖSECİK MAH.","zip":"63050"},{"name":"KÖSEKÖY MAH.","zip":"63050"},{"name":"KÜÇÜKSENEMAĞARA MAH.","zip":"63050"},{"name":"MAĞARACIK MAH.","zip":"63050"},{"name":"MAMUCA MAH.","zip":"63050"},{"name":"MEHMETÇİK MAH.","zip":"63050"},{"name":"MİL MAH.","zip":"63050"},{"name":"MUTLUCA MAH.","zip":"63050"},{"name":"NOKTA MAH.","zip":"63050"},{"name":"OĞULBEY MAH.","zip":"63050"},{"name":"ORTAÖREN MAH.","zip":"63050"},{"name":"OSMAN GAZİ MAH.","zip":"63050"},{"name":"OSMANBEY MAH.","zip":"63050"},{"name":"ÖRENCİK MAH.","zip":"63050"},{"name":"PARMAKKAPI MAH.","zip":"63050"},{"name":"PAYAMLI MAH.","zip":"63050"},{"name":"PERŞEMBE MAH.","zip":"63050"},{"name":"SARIŞEYH MAH.","zip":"63050"},{"name":"SARITAŞ MAH.","zip":"63050"},{"name":"SARPDERE MAH.","zip":"63050"},{"name":"SEFALI MAH.","zip":"63050"},{"name":"SENDEBELEN MAH.","zip":"63050"},{"name":"SEYRANTEPE MAH.","zip":"63050"},{"name":"SIRRIN MAH.","zip":"63050"},{"name":"SULTAN FATİH MAH.","zip":"63050"},{"name":"SUMAKLI MAH.","zip":"63050"},{"name":"SÜLEYMANİYE MAH.","zip":"63050"},{"name":"ŞENOCAK MAH.","zip":"63050"},{"name":"ŞEYHÇOBAN MAH.","zip":"63050"},{"name":"TAŞLICA MAH.","zip":"63050"},{"name":"TEKERLİ MAH.","zip":"63050"},{"name":"TEPEDİBİ MAH.","zip":"63050"},{"name":"TEPEKÖY MAH.","zip":"63050"},{"name":"TERZİ MAH.","zip":"63050"},{"name":"TOPRAKLI MAH.","zip":"63050"},{"name":"ULUBAĞ MAH.","zip":"63050"},{"name":"ULUHAN MAH.","zip":"63050"},{"name":"UMUT MAH.","zip":"63050"},{"name":"UZUNKÖY MAH.","zip":"63050"},{"name":"ÜÇGÖZE MAH.","zip":"63050"},{"name":"ÜÇKONAK MAH.","zip":"63050"},{"name":"ÜÇKUYU MAH.","zip":"63050"},{"name":"ÜZÜMKARA MAH.","zip":"63050"},{"name":"YARIMSU MAH.","zip":"63050"},{"name":"YAVUZ SELİM MAH.","zip":"63050"},{"name":"YAZILIKAVAK MAH.","zip":"63050"},{"name":"YEDİKUYU MAH.","zip":"63050"},{"name":"YENİCE MAH.","zip":"63050"},{"name":"YENİKÖY MAH.","zip":"63050"},{"name":"YENİSU MAH.","zip":"63050"},{"name":"YEROLUK MAH.","zip":"63050"},{"name":"YEŞİLKÖY MAH.","zip":"63050"},{"name":"YEŞİLTEPE MAH.","zip":"63050"},{"name":"YEŞİLYURT MAH.","zip":"63050"},{"name":"YILDIZ MAH.","zip":"63050"},{"name":"YOLYAZI MAH.","zip":"63050"},{"name":"YUKARIAKÖREN MAH.","zip":"63050"},{"name":"YUKARIKOYMAT MAH.","zip":"63050"}]},{"name":"BAHÇELİEVLER","cityName":null,"quarters":[{"name":"HIZMALI MAH.","zip":"63100"},{"name":"MİMAR SİNAN MAH.","zip":"63100"},{"name":"ŞAİR ŞEVKET MAH.","zip":"63100"},{"name":"ŞEHİTLİK MAH.","zip":"63100"}]},{"name":"ŞAİRNABİ","cityName":null,"quarters":[{"name":"BAMYASUYU MAH.","zip":"63040"},{"name":"İMAM BAKIR MAH.","zip":"63040"},{"name":"KAMBERİYE MAH.","zip":"63040"},{"name":"PAŞABAĞI MAH.","zip":"63040"},{"name":"SANCAKTAR MAH.","zip":"63040"},{"name":"ŞAİR NABİ MAH.","zip":"63040"}]},{"name":"YENİŞEHİR","cityName":null,"quarters":[{"name":"HAMİDİYE MAH.","zip":"63300"},{"name":"REFAHİYE MAH.","zip":"63300"},{"name":"SELAHADDİN EYYÜBİ MAH.","zip":"63300"},{"name":"ULUBATLI MAH.","zip":"63300"},{"name":"VEYSEL KARANİ MAH.","zip":"63300"},{"name":"YENİŞEHİR MAH.","zip":"63300"},{"name":"YEŞİLDİREK MAH.","zip":"63300"}]},{"name":"HARRAN","cityName":null,"quarters":[{"name":"AHMETKARA MAH.","zip":"63510"},{"name":"AKKUŞ MAH.","zip":"63510"},{"name":"ALACALI MAH.","zip":"63510"},{"name":"ALTILI MAH.","zip":"63510"},{"name":"ARIN MAH.","zip":"63510"},{"name":"ASLANKUYUSU MAH.","zip":"63510"},{"name":"ASLANLI MAH.","zip":"63510"},{"name":"AŞAĞIKESMEKAYA MAH.","zip":"63510"},{"name":"AŞAĞIYAKINYOL MAH.","zip":"63510"},{"name":"AŞAĞIYARIMCA MAH.","zip":"63510"},{"name":"AVLAK MAH.","zip":"63510"},{"name":"AYDINCIK MAH.","zip":"63510"},{"name":"AYDINLAR MAH.","zip":"63510"},{"name":"AYDÜŞTÜ MAH.","zip":"63510"},{"name":"BALKAT MAH.","zip":"63510"},{"name":"BALKIR MAH.","zip":"63510"},{"name":"BAŞKARAGÖZ MAH.","zip":"63510"},{"name":"BELLİTAŞ MAH.","zip":"63510"},{"name":"BİLGİLİ MAH.","zip":"63510"},{"name":"BİNEKLİ MAH.","zip":"63510"},{"name":"BOZCEYLAN MAH.","zip":"63510"},{"name":"BOZYAZI MAH.","zip":"63510"},{"name":"BUĞDAYTEPE MAH.","zip":"63510"},{"name":"BULDUM MAH.","zip":"63510"},{"name":"BULGURLU MAH.","zip":"63510"},{"name":"BÜKDERE MAH.","zip":"63510"},{"name":"BÜYÜKTAŞLICA MAH.","zip":"63510"},{"name":"BÜYÜKTÜRBE MAH.","zip":"63510"},{"name":"BÜYÜKYILDIZ MAH.","zip":"63510"},{"name":"CEYLANGÖZÜ MAH.","zip":"63510"},{"name":"CUMHURİYET MAH.","zip":"63510"},{"name":"ÇAĞBAŞI MAH.","zip":"63510"},{"name":"ÇALTILI MAH.","zip":"63510"},{"name":"ÇATALHURMA MAH.","zip":"63510"},{"name":"ÇEPKENLİ MAH.","zip":"63510"},{"name":"ÇİÇEK MAH.","zip":"63510"},{"name":"ÇOLPAN MAH.","zip":"63510"},{"name":"DAYANIKLI MAH.","zip":"63510"},{"name":"DEMİRLİ MAH.","zip":"63510"},{"name":"DOĞUKESMEKAYA MAH.","zip":"63510"},{"name":"DORUÇ MAH.","zip":"63510"},{"name":"DURAN MAH.","zip":"63510"},{"name":"EMEKLİ MAH.","zip":"63510"},{"name":"ESKİHARRAN MAH.","zip":"63510"},{"name":"GİYİMLİ MAH.","zip":"63510"},{"name":"GÖGEÇ MAH.","zip":"63510"},{"name":"GÖKÇE MAH.","zip":"63510"},{"name":"GÖKTAŞ MAH.","zip":"63510"},{"name":"GÖZCÜ MAH.","zip":"63510"},{"name":"GÖZELE MAH.","zip":"63510"},{"name":"GÜRGELEN MAH.","zip":"63510"},{"name":"HUZURLU MAH.","zip":"63510"},{"name":"HZ. YAKUP MAH.","zip":"63510"},{"name":"İBNİ TEYMİYE MAH.","zip":"63510"},{"name":"İMAMBAKIR (MERKEZ) MAH.","zip":"63510"},{"name":"İMAMBAKIR MAH.","zip":"63510"},{"name":"KABATAŞ MAH.","zip":"63510"},{"name":"KARATAŞ MAH.","zip":"63510"},{"name":"KAYACA MAH.","zip":"63510"},{"name":"KAYMAKLI MAH.","zip":"63510"},{"name":"KILIÇLI MAH.","zip":"63510"},{"name":"KIRMITLI MAH.","zip":"63510"},{"name":"KOYUNLUCA MAH.","zip":"63510"},{"name":"KÖKENLİ MAH.","zip":"63510"},{"name":"KURUYER MAH.","zip":"63510"},{"name":"KÜÇÜK EKİNLİ MAH.","zip":"63510"},{"name":"KÜÇÜKMİNARE MAH.","zip":"63510"},{"name":"KÜÇÜKYILDIZ MAH.","zip":"63510"},{"name":"KÜPLÜCE MAH.","zip":"63510"},{"name":"MEYDANKAPI MAH.","zip":"63510"},{"name":"MİNARE MAH.","zip":"63510"},{"name":"OĞULCUK MAH.","zip":"63510"},{"name":"ÖNCÜLER MAH.","zip":"63510"},{"name":"ÖZLÜCE MAH.","zip":"63510"},{"name":"ÖZTAŞ MAH.","zip":"63510"},{"name":"PARAPARA MAH.","zip":"63510"},{"name":"SAİDE MAH.","zip":"63510"},{"name":"SAVACIK MAH.","zip":"63510"},{"name":"SEFERKÖY MAH.","zip":"63510"},{"name":"SEHRİNCE MAH.","zip":"63510"},{"name":"SELALMAZ MAH.","zip":"63510"},{"name":"SOYLU MAH.","zip":"63510"},{"name":"SUGELDİ MAH.","zip":"63510"},{"name":"SÜLEYMAN DEMİREL MAH.","zip":"63510"},{"name":"SÜTLÜCE MAH.","zip":"63510"},{"name":"ŞEYH HAYATİ HARRANİ MAH.","zip":"63510"},{"name":"ŞUAYİPŞEHRİ MAH.","zip":"63510"},{"name":"ŞÜKÜRALİ MAH.","zip":"63510"},{"name":"TAHILALAN MAH.","zip":"63510"},{"name":"TANINMIŞ MAH.","zip":"63510"},{"name":"TANTANA MAH.","zip":"63510"},{"name":"TAYLICA MAH.","zip":"63510"},{"name":"TEKNELİ MAH.","zip":"63510"},{"name":"TOYTEPE MAH.","zip":"63510"},{"name":"TOZLUCA MAH.","zip":"63510"},{"name":"TÜCCARİYE MAH.","zip":"63510"},{"name":"TÜRKOĞLU MAH.","zip":"63510"},{"name":"ULUAĞAÇ MAH.","zip":"63510"},{"name":"UZUNYOL MAH.","zip":"63510"},{"name":"ÜNLÜ MAH.","zip":"63510"},{"name":"VARLIALAN MAH.","zip":"63510"},{"name":"YAKACIK MAH.","zip":"63510"},{"name":"YARDIMLI MAH.","zip":"63510"},{"name":"YAYGILI MAH.","zip":"63510"},{"name":"YAYVANDORUK MAH.","zip":"63510"},{"name":"YENİCE MAH.","zip":"63510"},{"name":"YENİDOĞAN MAH.","zip":"63510"},{"name":"YOLGİDER MAH.","zip":"63510"},{"name":"YUKARIYAKINYOL MAH.","zip":"63510"},{"name":"YUKARIYARIMCA MAH.","zip":"63510"}]},{"name":"HİLVAN","cityName":null,"quarters":[{"name":"AĞVEREN MAH.","zip":"63900"},{"name":"AKÇAKEBİR MAH.","zip":"63900"},{"name":"AKÇAÖREN MAH.","zip":"63900"},{"name":"ALPI MAH.","zip":"63900"},{"name":"ANGAÇ MAH.","zip":"63900"},{"name":"ARICA MAH.","zip":"63900"},{"name":"ARINIK MAH.","zip":"63900"},{"name":"ARPALI MAH.","zip":"63900"},{"name":"ASLANLI MAH.","zip":"63900"},{"name":"AŞAĞIÇATAK MAH.","zip":"63900"},{"name":"AŞAĞIEKECE MAH.","zip":"63900"},{"name":"AŞAĞIKAMIŞ MAH.","zip":"63900"},{"name":"AŞAĞIKUCAK MAH.","zip":"63900"},{"name":"AŞAĞIKÜLÜNÇE MAH.","zip":"63900"},{"name":"AYDINLI MAH.","zip":"63900"},{"name":"BAĞLAR MAH.","zip":"63900"},{"name":"BAHÇECİK MAH.","zip":"63900"},{"name":"BAHÇELİEVLER MAH.","zip":"63900"},{"name":"BALKI MAH.","zip":"63900"},{"name":"BARĞAÇ MAH.","zip":"63900"},{"name":"BÖLÜKBAŞI MAH.","zip":"63900"},{"name":"BUĞUR MAH.","zip":"63900"},{"name":"ÇAĞILLI MAH.","zip":"63900"},{"name":"ÇAKMAK MAH.","zip":"63900"},{"name":"ÇAT MAH.","zip":"63900"},{"name":"ÇİMDELİ MAH.","zip":"63900"},{"name":"DOĞRULAR MAH.","zip":"63900"},{"name":"FAİK MAH.","zip":"63900"},{"name":"GELENEK MAH.","zip":"63900"},{"name":"GÖKTEPE MAH.","zip":"63900"},{"name":"GÖLCÜK MAH.","zip":"63900"},{"name":"GÖLEBAKAN MAH.","zip":"63900"},{"name":"GÜLALDI MAH.","zip":"63900"},{"name":"GÜRGÜR MAH.","zip":"63900"},{"name":"HANMAĞARA MAH.","zip":"63900"},{"name":"HAYRAT MAH.","zip":"63900"},{"name":"HOŞİN MAH.","zip":"63900"},{"name":"İNCİRLİ MAH.","zip":"63900"},{"name":"KADIKENT MAH.","zip":"63900"},{"name":"KARABURÇ MAH.","zip":"63900"},{"name":"KARACURUN MAH.","zip":"63900"},{"name":"KARAPINAR MAH.","zip":"63900"},{"name":"KAVALIK MAH.","zip":"63900"},{"name":"KEPİRHİSAR MAH.","zip":"63900"},{"name":"KEPİRKUCAK MAH.","zip":"63900"},{"name":"KIRBAŞI MAH.","zip":"63900"},{"name":"KORGUN MAH.","zip":"63900"},{"name":"KOVANCI MAH.","zip":"63900"},{"name":"KUSKUNLU MAH.","zip":"63900"},{"name":"KÜÇÜKGÖLCÜK MAH.","zip":"63900"},{"name":"MALÖREN MAH.","zip":"63900"},{"name":"MANTARLI MAH.","zip":"63900"},{"name":"ORGIZ MAH.","zip":"63900"},{"name":"OVACIK MAH.","zip":"63900"},{"name":"OYMAAĞAÇ MAH.","zip":"63900"},{"name":"ÖMERLİ MAH.","zip":"63900"},{"name":"ÖZBAŞ MAH.","zip":"63900"},{"name":"ÖZVEREN MAH.","zip":"63900"},{"name":"SALUCA MAH.","zip":"63900"},{"name":"SÖĞÜTLÜ MAH.","zip":"63900"},{"name":"SUCUHAN MAH.","zip":"63900"},{"name":"USTAHASAN MAH.","zip":"63900"},{"name":"UZUNCUK MAH.","zip":"63900"},{"name":"ÜÇÜZLER MAH.","zip":"63900"},{"name":"YAKINYURT MAH.","zip":"63900"},{"name":"YENİ MAH.","zip":"63900"},{"name":"YEŞERDİ MAH.","zip":"63900"},{"name":"YUVACALI MAH.","zip":"63900"}]},{"name":"KARAKÖPRÜ","cityName":null,"quarters":[{"name":"AĞIZHAN MAH.","zip":"63320"},{"name":"AKBAYIR MAH.","zip":"63320"},{"name":"AKÇAHİSAR MAH.","zip":"63320"},{"name":"AKINCI MAH.","zip":"63320"},{"name":"AKPINAR MAH.","zip":"63320"},{"name":"AKPIYAR MAH.","zip":"63320"},{"name":"AKZİYARET MAH.","zip":"63320"},{"name":"ALİ BABA MAH.","zip":"63320"},{"name":"APAYDIN MAH.","zip":"63320"},{"name":"AŞAĞIÇİFTLİK MAH.","zip":"63320"},{"name":"AŞIKKÖY MAH.","zip":"63320"},{"name":"ATAKENT MAH.","zip":"63320"},{"name":"AYANLAR MAH.","zip":"63320"},{"name":"BAHÇELİ MAH.","zip":"63320"},{"name":"BAŞÖREN MAH.","zip":"63320"},{"name":"BATIKENT MAH.","zip":"63320"},{"name":"BEZİRCİ MAH.","zip":"63320"},{"name":"BOZKÖY MAH.","zip":"63320"},{"name":"BÖLÜCEK MAH.","zip":"63320"},{"name":"BUĞDAYHÜYÜK MAH.","zip":"63320"},{"name":"BÜYÜKALANLI MAH.","zip":"63320"},{"name":"BÜYÜKÇÖMLEKÇİ MAH.","zip":"63320"},{"name":"BÜYÜKKARGILI MAH.","zip":"63320"},{"name":"BÜYÜKÖRDEK MAH.","zip":"63320"},{"name":"BÜYÜKSALKIM MAH.","zip":"63320"},{"name":"CEMAL MAH.","zip":"63320"},{"name":"CÜLMEN MAH.","zip":"63320"},{"name":"ÇAKMAK MAH.","zip":"63320"},{"name":"ÇAMLIYAYLA MAH.","zip":"63320"},{"name":"ÇANKAYA MAH.","zip":"63320"},{"name":"ÇIRALI MAH.","zip":"63320"},{"name":"ÇİFTEKEMER MAH.","zip":"63320"},{"name":"DEMİRCİK MAH.","zip":"63320"},{"name":"DOĞUKENT MAH.","zip":"63320"},{"name":"DOLUNAY MAH.","zip":"63320"},{"name":"DOYUMLU MAH.","zip":"63320"},{"name":"DÜĞER MAH.","zip":"63320"},{"name":"ERGÜNKÖY MAH.","zip":"63320"},{"name":"ESEMKULU MAH.","zip":"63320"},{"name":"ESENTEPE MAH.","zip":"63320"},{"name":"ESTAĞFURULLAH MAH.","zip":"63320"},{"name":"GAZİBEY MAH.","zip":"63320"},{"name":"GEÇİTKÖY MAH.","zip":"63320"},{"name":"GELİBOLU MAH.","zip":"63320"},{"name":"GÖBEKLİ MAH.","zip":"63320"},{"name":"GÖLGEN MAH.","zip":"63320"},{"name":"GÖLPINAR MAH.","zip":"63320"},{"name":"GÜLLÜBAĞ MAH.","zip":"63320"},{"name":"GÜNIŞIK MAH.","zip":"63320"},{"name":"HAMURKESEN MAH.","zip":"63320"},{"name":"HORZUM MAH.","zip":"63320"},{"name":"HÜYÜKLÜ MAH.","zip":"63320"},{"name":"İLHAN MAH.","zip":"63320"},{"name":"İSAÖREN MAH.","zip":"63320"},{"name":"KARATAŞ MAH.","zip":"63320"},{"name":"KARŞIYAKA MAH.","zip":"63320"},{"name":"KASIMKUYU MAH.","zip":"63320"},{"name":"KIRKPINAR MAH.","zip":"63320"},{"name":"KIZILBURÇ MAH.","zip":"63320"},{"name":"KIZLAR MAH.","zip":"63320"},{"name":"KORUKEZEN MAH.","zip":"63320"},{"name":"KÖKSÜREN MAH.","zip":"63320"},{"name":"KUŞLUCA MAH.","zip":"63320"},{"name":"KUYUCAK MAH.","zip":"63320"},{"name":"KÜÇÜKALANLI MAH.","zip":"63320"},{"name":"KÜÇÜKTÜLMEN MAH.","zip":"63320"},{"name":"KÜLAFLI MAH.","zip":"63320"},{"name":"LÜLECİ MAH.","zip":"63320"},{"name":"MAŞUK MAH.","zip":"63320"},{"name":"MEHMETÇİK MAH.","zip":"63320"},{"name":"MİLLİSARAY MAH.","zip":"63320"},{"name":"MUSTAFACIK MAH.","zip":"63320"},{"name":"NARLIKUYU MAH.","zip":"63320"},{"name":"OTLUKALAN MAH.","zip":"63320"},{"name":"ÖĞÜTÇÜ MAH.","zip":"63320"},{"name":"ÖRCÜNLÜ MAH.","zip":"63320"},{"name":"ÖVERLER MAH.","zip":"63320"},{"name":"ÖZGEDİK MAH.","zip":"63320"},{"name":"PINARBAŞI MAH.","zip":"63320"},{"name":"SAKÇA MAH.","zip":"63320"},{"name":"SANCAK MAH.","zip":"63320"},{"name":"SARIM MAH.","zip":"63320"},{"name":"SEYRANTEPE MAH.","zip":"63320"},{"name":"ŞAHİN MAH.","zip":"63320"},{"name":"ŞEKER MAH.","zip":"63320"},{"name":"ŞENEVLER MAH.","zip":"63320"},{"name":"ŞEYHZELİHA MAH.","zip":"63320"},{"name":"TATBURCU MAH.","zip":"63320"},{"name":"TÜLMEN MAH.","zip":"63320"},{"name":"TÜRKMEN MAH.","zip":"63320"},{"name":"UZUNCUK MAH.","zip":"63320"},{"name":"YARIMTEPE MAH.","zip":"63320"},{"name":"YAYLACIK MAH.","zip":"63320"},{"name":"YEDİKUYU MAH.","zip":"63320"},{"name":"YEMİŞLİ MAH.","zip":"63320"},{"name":"YIĞINAK MAH.","zip":"63320"},{"name":"YOĞUNBURÇ MAH.","zip":"63320"},{"name":"YUKARIKOŞMA MAH.","zip":"63320"},{"name":"YUSUFKUYU MAH.","zip":"63320"}]},{"name":"SİVEREK","cityName":null,"quarters":[{"name":"ALAGÜN MAH.","zip":"63600"},{"name":"ALANYURT MAH.","zip":"63600"},{"name":"ALTAYLI MAH.","zip":"63600"},{"name":"ALTINAHIR MAH.","zip":"63600"},{"name":"ALTINLI MAH.","zip":"63600"},{"name":"ALTINPINAR MAH.","zip":"63600"},{"name":"ANACAK MAH.","zip":"63600"},{"name":"ARMAĞANLI MAH.","zip":"63600"},{"name":"AŞAĞIALINCA MAH.","zip":"63600"},{"name":"AŞAĞIKARABAHÇE MAH.","zip":"63600"},{"name":"AŞAĞIKARACAÖREN MAH.","zip":"63600"},{"name":"AŞAĞIYALANKOZ MAH.","zip":"63600"},{"name":"AŞLICA MAH.","zip":"63600"},{"name":"ATMACA MAH.","zip":"63600"},{"name":"AVURTEPE MAH.","zip":"63600"},{"name":"AYRANCI MAH.","zip":"63600"},{"name":"AYVANAT MAH.","zip":"63600"},{"name":"AZIKLI MAH.","zip":"63600"},{"name":"BAĞCI MAH.","zip":"63600"},{"name":"BAĞLAR MAH.","zip":"63600"},{"name":"BAHÇE MAH.","zip":"63600"},{"name":"BAHÇELİEVLER MAH.","zip":"63600"},{"name":"BAKIRCA MAH.","zip":"63600"},{"name":"BAKİ MAH.","zip":"63600"},{"name":"BAKMAÇ MAH.","zip":"63600"},{"name":"BARDAKÇI MAH.","zip":"63600"},{"name":"BAŞBÜK MAH.","zip":"63600"},{"name":"BAŞDEĞİRMEN MAH.","zip":"63600"},{"name":"BATI MAH.","zip":"63600"},{"name":"BAYIRÖZÜ MAH.","zip":"63600"},{"name":"BENEK MAH.","zip":"63600"},{"name":"BEYALİ MAH.","zip":"63600"},{"name":"BEYBABA MAH.","zip":"63600"},{"name":"BEYÇERİ MAH.","zip":"63600"},{"name":"BEYDEŞ MAH.","zip":"63600"},{"name":"BOZKUYU MAH.","zip":"63600"},{"name":"BOZLAK MAH.","zip":"63600"},{"name":"BÖĞÜRTLEN MAH.","zip":"63600"},{"name":"BÜRÜNCEK MAH.","zip":"63600"},{"name":"BÜYÜKGÖL MAH.","zip":"63600"},{"name":"BÜYÜKKAZANLI MAH.","zip":"63600"},{"name":"BÜYÜKOBA MAH.","zip":"63600"},{"name":"BÜYÜKTEPE MAH.","zip":"63600"},{"name":"BÜYÜKYAKITLI MAH.","zip":"63600"},{"name":"CAMİKEBİR MAH.","zip":"63600"},{"name":"CANPOLAT MAH.","zip":"63600"},{"name":"CİNHİSAR MAH.","zip":"63600"},{"name":"ÇAĞA MAH.","zip":"63600"},{"name":"ÇAĞDAŞ MAH.","zip":"63600"},{"name":"ÇANAKÇI MAH.","zip":"63600"},{"name":"ÇATLI MAH.","zip":"63600"},{"name":"ÇAVUŞLU MAH.","zip":"63600"},{"name":"ÇAYLARBAŞI MAH.","zip":"63600"},{"name":"ÇELTİK MAH.","zip":"63600"},{"name":"ÇEPNİ MAH.","zip":"63600"},{"name":"ÇEVİRME MAH.","zip":"63600"},{"name":"ÇİFTÇİBAŞI MAH.","zip":"63600"},{"name":"ÇUBUKLU MAH.","zip":"63600"},{"name":"DAĞBAŞI MAH.","zip":"63600"},{"name":"DAMLICA MAH.","zip":"63600"},{"name":"DARDAĞAN MAH.","zip":"63600"},{"name":"DARICALI MAH.","zip":"63600"},{"name":"DELİKTAŞ MAH.","zip":"63600"},{"name":"DİCLE MAH.","zip":"63600"},{"name":"DİREKLİ MAH.","zip":"63600"},{"name":"DİVAN MAH.","zip":"63600"},{"name":"DOĞUKENT MAH.","zip":"63600"},{"name":"DÖNEMEÇ MAH.","zip":"63600"},{"name":"DÜĞERİN MAH.","zip":"63600"},{"name":"EDİZ MAH.","zip":"63600"},{"name":"EĞRİÇAY MAH.","zip":"63600"},{"name":"ENDARLI MAH.","zip":"63600"},{"name":"ERBEY MAH.","zip":"63600"},{"name":"ERGEN MAH.","zip":"63600"},{"name":"ERKONAĞI MAH.","zip":"63600"},{"name":"ERTEM MAH.","zip":"63600"},{"name":"ESKİHAN MAH.","zip":"63600"},{"name":"ESMER ÇAYI MAH.","zip":"63600"},{"name":"FIRAT MAH.","zip":"63600"},{"name":"GAZİKÖY MAH.","zip":"63600"},{"name":"GEDİK MAH.","zip":"63600"},{"name":"GERÇEK MAH.","zip":"63600"},{"name":"GÖĞERÇİN MAH.","zip":"63600"},{"name":"GÖZCEK MAH.","zip":"63600"},{"name":"GÖZELEK MAH.","zip":"63600"},{"name":"GÖZELİ MAH.","zip":"63600"},{"name":"GÜLABİBEY MAH.","zip":"63600"},{"name":"GÜLLİCE MAH.","zip":"63600"},{"name":"GÜLPINAR MAH.","zip":"63600"},{"name":"GÜNEY MAH.","zip":"63600"},{"name":"GÜRAKAR MAH.","zip":"63600"},{"name":"GÜVENLİ MAH.","zip":"63600"},{"name":"GÜVERCİN MAH.","zip":"63600"},{"name":"GÜZELPINAR MAH.","zip":"63600"},{"name":"HACI ÖMER MAH.","zip":"63600"},{"name":"HALİLİYE MAH.","zip":"63600"},{"name":"HAMAMÖREN MAH.","zip":"63600"},{"name":"HAMİDİYE MAH.","zip":"63600"},{"name":"HASAN ÇELEBİ MAH.","zip":"63600"},{"name":"HASIRLI MAH.","zip":"63600"},{"name":"HAYRİYE MAH.","zip":"63600"},{"name":"İLERİ MAH.","zip":"63600"},{"name":"İNANLI MAH.","zip":"63600"},{"name":"KALE MAH.","zip":"63600"},{"name":"KALEMLİ MAH.","zip":"63600"},{"name":"KALINAĞAÇ MAH.","zip":"63600"},{"name":"KAMIŞLI MAH.","zip":"63600"},{"name":"KAPIKAYA MAH.","zip":"63600"},{"name":"KARABAHÇE MAH.","zip":"63600"},{"name":"KARACADAĞ MAH.","zip":"63600"},{"name":"KARADİBEK MAH.","zip":"63600"},{"name":"KARAHİSAR MAH.","zip":"63600"},{"name":"KARAKEÇİ MAH.","zip":"63600"},{"name":"KARAKOYUN MAH.","zip":"63600"},{"name":"KARGALI MAH.","zip":"63600"},{"name":"KARKAŞI MAH.","zip":"63600"},{"name":"KARPUZCU MAH.","zip":"63600"},{"name":"KAVAKLIDERE MAH.","zip":"63600"},{"name":"KAVALIK MAH.","zip":"63600"},{"name":"KAYALI MAH.","zip":"63600"},{"name":"KAYSERİ MAH.","zip":"63600"},{"name":"KEÇİBURCU MAH.","zip":"63600"},{"name":"KEÇİKIRAN MAH.","zip":"63600"},{"name":"KESMEKAYA MAH.","zip":"63600"},{"name":"KEŞ MAH.","zip":"63600"},{"name":"KIVANÇLI MAH.","zip":"63600"},{"name":"KONURTEPE MAH.","zip":"63600"},{"name":"KULAKSIZ MAH.","zip":"63600"},{"name":"KURBAĞALI MAH.","zip":"63600"},{"name":"KUŞLUGÖL MAH.","zip":"63600"},{"name":"KÜÇÜKGÖL MAH.","zip":"63600"},{"name":"KÜPTEPE MAH.","zip":"63600"},{"name":"MEZRA MAH.","zip":"63600"},{"name":"NARLIKAYA MAH.","zip":"63600"},{"name":"NOHUT MAH.","zip":"63600"},{"name":"OFİS MAH.","zip":"63600"},{"name":"OLUKLU MAH.","zip":"63600"},{"name":"ONAR MAH.","zip":"63600"},{"name":"ORTANCA MAH.","zip":"63600"},{"name":"OYMAN MAH.","zip":"63600"},{"name":"OYUKTAŞ MAH.","zip":"63600"},{"name":"ÖNDER MAH.","zip":"63600"},{"name":"ÖRGÜLÜ MAH.","zip":"63600"},{"name":"PEYNİRCİ MAH.","zip":"63600"},{"name":"SABANCI MAH.","zip":"63600"},{"name":"SALOR MAH.","zip":"63600"},{"name":"SARIDAM MAH.","zip":"63600"},{"name":"SARIKAYA MAH.","zip":"63600"},{"name":"SARIÖREN MAH.","zip":"63600"},{"name":"SAVUCAK MAH.","zip":"63600"},{"name":"SELİM PINAR MAH.","zip":"63600"},{"name":"SİSLİCE MAH.","zip":"63600"},{"name":"SOYDAN MAH.","zip":"63600"},{"name":"SÖYLEMEZ MAH.","zip":"63600"},{"name":"SUMAKLI MAH.","zip":"63600"},{"name":"ŞAİR İBRAHİM RAFET MAH.","zip":"63600"},{"name":"ŞEKERLİ MAH.","zip":"63600"},{"name":"ŞİRİNKUYU MAH.","zip":"63600"},{"name":"TANRIVERDİ MAH.","zip":"63600"},{"name":"TAŞAĞIL MAH.","zip":"63600"},{"name":"TAŞHAN MAH.","zip":"63600"},{"name":"TAŞIKARA MAH.","zip":"63600"},{"name":"TAŞLI MAH.","zip":"63600"},{"name":"TURNA MAH.","zip":"63600"},{"name":"TUTUMLU MAH.","zip":"63600"},{"name":"UZUNZİYARET MAH.","zip":"63600"},{"name":"ÜLKÜLÜ MAH.","zip":"63600"},{"name":"ÜSTÜNTAŞ MAH.","zip":"63600"},{"name":"YELEKEN MAH.","zip":"63600"},{"name":"YENİCELİ MAH.","zip":"63600"},{"name":"YENİŞEHİR MAH.","zip":"63600"},{"name":"YOĞUNCA MAH.","zip":"63600"},{"name":"YUMRUTEPE MAH.","zip":"63600"},{"name":"YUVAR MAH.","zip":"63600"},{"name":"YÜCELEN MAH.","zip":"63600"},{"name":"ZİNCİRLİÇAY MAH.","zip":"63600"}]},{"name":"SURUÇ","cityName":null,"quarters":[{"name":"AKÖREN MAH.","zip":"63800"},{"name":"ALANYURT MAH.","zip":"63800"},{"name":"ALİGÖR MAH.","zip":"63800"},{"name":"AŞAĞIKARINCALI MAH.","zip":"63800"},{"name":"AŞAĞIOYLUM MAH.","zip":"63800"},{"name":"AYBASTI MAH.","zip":"63800"},{"name":"AYDIN MAH.","zip":"63800"},{"name":"AYHAN MAH.","zip":"63800"},{"name":"BALABAN MAH.","zip":"63800"},{"name":"BARIŞ MAH.","zip":"63800"},{"name":"BELLİK MAH.","zip":"63800"},{"name":"BİLGE MAH.","zip":"63800"},{"name":"BİNATLI MAH.","zip":"63800"},{"name":"BOZTEPE MAH.","zip":"63800"},{"name":"BOZYOKUŞ MAH.","zip":"63800"},{"name":"BÜYÜKAĞACI MAH.","zip":"63800"},{"name":"BÜYÜKSERGEN MAH.","zip":"63800"},{"name":"BÜYÜKZİYARET MAH.","zip":"63800"},{"name":"CUMHURİYET MAH.","zip":"63800"},{"name":"ÇANAKÇI MAH.","zip":"63800"},{"name":"ÇAYKARA MAH.","zip":"63800"},{"name":"ÇENGELLİ MAH.","zip":"63800"},{"name":"ÇOMAK MAH.","zip":"63800"},{"name":"DEMOKRASİ MAH.","zip":"63800"},{"name":"DİKİLİ MAH.","zip":"63800"},{"name":"DİNLENCE MAH.","zip":"63800"},{"name":"DUMLUKUYU MAH.","zip":"63800"},{"name":"EKİLİ MAH.","zip":"63800"},{"name":"ESKİCE MAH.","zip":"63800"},{"name":"ESKİÖREN MAH.","zip":"63800"},{"name":"EZGİL MAH.","zip":"63800"},{"name":"FISTIKLI MAH.","zip":"63800"},{"name":"GÖLEÇ MAH.","zip":"63800"},{"name":"GÖLEN MAH.","zip":"63800"},{"name":"GÜNEBAKAN MAH.","zip":"63800"},{"name":"HACILI MAH.","zip":"63800"},{"name":"HARMANALAN MAH.","zip":"63800"},{"name":"HÜRRİYET MAH.","zip":"63800"},{"name":"HÜYÜKYANI MAH.","zip":"63800"},{"name":"İZCİ MAH.","zip":"63800"},{"name":"KALKANLI MAH.","zip":"63800"},{"name":"KAPUCU MAH.","zip":"63800"},{"name":"KARA MAH.","zip":"63800"},{"name":"KARACA MAH.","zip":"63800"},{"name":"KARADUT MAH.","zip":"63800"},{"name":"KARAHÜYÜK MAH.","zip":"63800"},{"name":"KARAKUYU MAH.","zip":"63800"},{"name":"KARATAŞ MAH.","zip":"63800"},{"name":"KEBERLİ MAH.","zip":"63800"},{"name":"KESMECİK MAH.","zip":"63800"},{"name":"KIRMIT MAH.","zip":"63800"},{"name":"KIZILHÜYÜK MAH.","zip":"63800"},{"name":"KÖSELER MAH.","zip":"63800"},{"name":"KÖSEVELİ MAH.","zip":"63800"},{"name":"KURUTEPE MAH.","zip":"63800"},{"name":"KÜÇÜKKÖPRÜ MAH.","zip":"63800"},{"name":"KÜÇÜKOVA MAH.","zip":"63800"},{"name":"KÜÇÜKSERGEN MAH.","zip":"63800"},{"name":"KÜÇÜKZİYARET MAH.","zip":"63800"},{"name":"MERTİSMAİL MAH.","zip":"63800"},{"name":"MOLLAHAMZA MAH.","zip":"63800"},{"name":"MÜRŞİTPINAR MAH.","zip":"63800"},{"name":"ORTA BOSTANCI MAH.","zip":"63800"},{"name":"OYMAKLI MAH.","zip":"63800"},{"name":"ÖLÇEKTEPE MAH.","zip":"63800"},{"name":"ÖZGÖREN MAH.","zip":"63800"},{"name":"ÖZLÜCE MAH.","zip":"63800"},{"name":"SARAYALTI MAH.","zip":"63800"},{"name":"SAYGIN MAH.","zip":"63800"},{"name":"TAŞLIKUYU MAH.","zip":"63800"},{"name":"TAVŞANKÖY MAH.","zip":"63800"},{"name":"TOKÇALI MAH.","zip":"63800"},{"name":"TOPÇULAR MAH.","zip":"63800"},{"name":"ULUDÜZ MAH.","zip":"63800"},{"name":"UYSALLI MAH.","zip":"63800"},{"name":"ÜÇPINAR MAH.","zip":"63800"},{"name":"ÜRKÜTLÜ MAH.","zip":"63800"},{"name":"ÜVEÇLİ MAH.","zip":"63800"},{"name":"YAĞIŞLI MAH.","zip":"63800"},{"name":"YALINCA MAH.","zip":"63800"},{"name":"YALPI MAH.","zip":"63800"},{"name":"YANALOBA MAH.","zip":"63800"},{"name":"YATIRTEPE MAH.","zip":"63800"},{"name":"YAYLATEPE MAH.","zip":"63800"},{"name":"YAZIKÖY MAH.","zip":"63800"},{"name":"YEĞEN MAH.","zip":"63800"},{"name":"YENİŞEHİR MAH.","zip":"63800"},{"name":"YILDIRIM MAH.","zip":"63800"},{"name":"YILDIZ MAH.","zip":"63800"},{"name":"YÖNLÜ MAH.","zip":"63800"},{"name":"YUKARIBOSTANCI MAH.","zip":"63800"},{"name":"YUMURTALIK MAH.","zip":"63800"},{"name":"YURTÇİÇEĞİ MAH.","zip":"63800"},{"name":"ZEYREK MAH.","zip":"63800"}]},{"name":"VİRANŞEHİR","cityName":null,"quarters":[{"name":"ADAKÖY MAH.","zip":"63700"},{"name":"AKÇATAŞ MAH.","zip":"63700"},{"name":"AKKESE MAH.","zip":"63700"},{"name":"ALAKONAK MAH.","zip":"63700"},{"name":"ALTINBAŞAK MAH.","zip":"63700"},{"name":"ANIT MAH.","zip":"63700"},{"name":"ARISU MAH.","zip":"63700"},{"name":"ARITIR MAH.","zip":"63700"},{"name":"ASLANBABA MAH.","zip":"63700"},{"name":"AŞAĞITINAZ MAH.","zip":"63700"},{"name":"ATATÜRK MAH.","zip":"63700"},{"name":"AYAKLI MAH.","zip":"63700"},{"name":"AYRIDÜŞEN MAH.","zip":"63700"},{"name":"AZADİ MAH.","zip":"63700"},{"name":"BAHÇELİEVLER MAH.","zip":"63700"},{"name":"BAKIMLI MAH.","zip":"63700"},{"name":"BALLICA MAH.","zip":"63700"},{"name":"BAŞARAN MAH.","zip":"63700"},{"name":"BAŞKÖY MAH.","zip":"63700"},{"name":"BEĞRÜK MAH.","zip":"63700"},{"name":"BİNEKLİ MAH.","zip":"63700"},{"name":"BOZCA MAH.","zip":"63700"},{"name":"BURÇ MAH.","zip":"63700"},{"name":"BÜYÜKBARDAKÇI MAH.","zip":"63700"},{"name":"BÜYÜKÇAVUŞ MAH.","zip":"63700"},{"name":"BÜYÜKGÖRÜMLÜ MAH.","zip":"63700"},{"name":"BÜYÜKMUTLU MAH.","zip":"63700"},{"name":"CUMHURİYET MAH.","zip":"63700"},{"name":"ÇALICIK MAH.","zip":"63700"},{"name":"ÇAMURLU MAH.","zip":"63700"},{"name":"ÇİFTÇİLER MAH.","zip":"63700"},{"name":"ÇİFTEKUYU MAH.","zip":"63700"},{"name":"ÇOKRAN MAH.","zip":"63700"},{"name":"DEDEKÖY MAH.","zip":"63700"},{"name":"DEFTERDAR MAH.","zip":"63700"},{"name":"DEĞİM MAH.","zip":"63700"},{"name":"DEMİRCİ MAH.","zip":"63700"},{"name":"DİKİLİ MAH.","zip":"63700"},{"name":"DİNÇER MAH.","zip":"63700"},{"name":"DİNÇKÖK MAH.","zip":"63700"},{"name":"EKİNCİLER MAH.","zip":"63700"},{"name":"EKİNDÖVER MAH.","zip":"63700"},{"name":"ELBEĞENDİ MAH.","zip":"63700"},{"name":"ELGÜN MAH.","zip":"63700"},{"name":"EMİROĞLU MAH.","zip":"63700"},{"name":"ENGELLİ MAH.","zip":"63700"},{"name":"ESER MAH.","zip":"63700"},{"name":"ESKİKALE MAH.","zip":"63700"},{"name":"EŞKİN MAH.","zip":"63700"},{"name":"EVCİMEN MAH.","zip":"63700"},{"name":"EYYÜPNEBİ MAH.","zip":"63700"},{"name":"GERMEN MAH.","zip":"63700"},{"name":"GÖĞERLİ MAH.","zip":"63700"},{"name":"GÖKTEPE MAH.","zip":"63700"},{"name":"GÖLBAŞI MAH.","zip":"63700"},{"name":"GÖLCÜK MAH.","zip":"63700"},{"name":"GÖMÜLÜ MAH.","zip":"63700"},{"name":"GÖNÜLLÜ MAH.","zip":"63700"},{"name":"GÖZELİ MAH.","zip":"63700"},{"name":"GÖZLER MAH.","zip":"63700"},{"name":"GÜLERYÜZ MAH.","zip":"63700"},{"name":"GÜRPINAR MAH.","zip":"63700"},{"name":"GÜZLEK MAH.","zip":"63700"},{"name":"HÜRRİYET MAH.","zip":"63700"},{"name":"IŞILDAR MAH.","zip":"63700"},{"name":"İNCİRLİ MAH.","zip":"63700"},{"name":"KADIKÖY MAH.","zip":"63700"},{"name":"KALE MAH.","zip":"63700"},{"name":"KARAKUZU MAH.","zip":"63700"},{"name":"KARATAŞ MAH.","zip":"63700"},{"name":"KARATEPE MAH.","zip":"63700"},{"name":"KARGALI MAH.","zip":"63700"},{"name":"KARINCA MAH.","zip":"63700"},{"name":"KAVURGA MAH.","zip":"63700"},{"name":"KEÇELİ MAH.","zip":"63700"},{"name":"KEMERLİ MAH.","zip":"63700"},{"name":"KERVANSARAYI MAH.","zip":"63700"},{"name":"KINALITEPE MAH.","zip":"63700"},{"name":"KIRBALI MAH.","zip":"63700"},{"name":"KIRKGÖZ MAH.","zip":"63700"},{"name":"KIŞLA MAH.","zip":"63700"},{"name":"KIZLARSARAYI MAH.","zip":"63700"},{"name":"KOLAĞASI MAH.","zip":"63700"},{"name":"KONAKYERİ MAH.","zip":"63700"},{"name":"KOŞULU MAH.","zip":"63700"},{"name":"KUCAK MAH.","zip":"63700"},{"name":"KUMÇEŞME MAH.","zip":"63700"},{"name":"KURTULMUŞ MAH.","zip":"63700"},{"name":"KÜÇÜKMUTLU MAH.","zip":"63700"},{"name":"KÜÇÜKTOPÇA MAH.","zip":"63700"},{"name":"MALTA MAH.","zip":"63700"},{"name":"MEHMETÇİK MAH.","zip":"63700"},{"name":"NERGİZLİ MAH.","zip":"63700"},{"name":"OĞLAKÇI MAH.","zip":"63700"},{"name":"ÖVÜNCÜK MAH.","zip":"63700"},{"name":"ÖZAL MAH.","zip":"63700"},{"name":"PINARLAR MAH.","zip":"63700"},{"name":"REYHANLI MAH.","zip":"63700"},{"name":"SAĞIRTAŞ MAH.","zip":"63700"},{"name":"SAKALAR MAH.","zip":"63700"},{"name":"SAMANLI MAH.","zip":"63700"},{"name":"SARIBAL MAH.","zip":"63700"},{"name":"SATICIK MAH.","zip":"63700"},{"name":"SAYOBA MAH.","zip":"63700"},{"name":"SELAHADDİN EYYUBİ MAH.","zip":"63700"},{"name":"SEPETLİ MAH.","zip":"63700"},{"name":"SÖZERİ MAH.","zip":"63700"},{"name":"SÜLEYMANİYE MAH.","zip":"63700"},{"name":"ŞAHİNLİ MAH.","zip":"63700"},{"name":"ŞARKPINAR MAH.","zip":"63700"},{"name":"ŞEHİT MAH.","zip":"63700"},{"name":"ŞIRNAK MAH.","zip":"63700"},{"name":"TANYELİ MAH.","zip":"63700"},{"name":"TAŞÖNÜ MAH.","zip":"63700"},{"name":"TAŞYAKA MAH.","zip":"63700"},{"name":"TEKKE MAH.","zip":"63700"},{"name":"TEKNELİ MAH.","zip":"63700"},{"name":"TEPEDÜZÜ MAH.","zip":"63700"},{"name":"TOKLU MAH.","zip":"63700"},{"name":"TUNÇBİLEK MAH.","zip":"63700"},{"name":"TÜRKELİ MAH.","zip":"63700"},{"name":"UĞURLU MAH.","zip":"63700"},{"name":"ULAKLI MAH.","zip":"63700"},{"name":"ÜÇGÜL MAH.","zip":"63700"},{"name":"YABAN MAH.","zip":"63700"},{"name":"YAĞIZLAR MAH.","zip":"63700"},{"name":"YARPUZ MAH.","zip":"63700"},{"name":"YAYIK MAH.","zip":"63700"},{"name":"YAZGÜNEŞİ MAH.","zip":"63700"},{"name":"YENİ MAH.","zip":"63700"},{"name":"YENİŞEHİR MAH.","zip":"63700"},{"name":"YEŞİLALIÇ MAH.","zip":"63700"},{"name":"YEŞİLDURAK MAH.","zip":"63700"},{"name":"YILDIZ MAH.","zip":"63700"},{"name":"YOLBİLEN MAH.","zip":"63700"},{"name":"YOLLARBAŞI MAH.","zip":"63700"},{"name":"YUKARIBAĞ MAH.","zip":"63700"},{"name":"YUKARIDİLİMLİ MAH.","zip":"63700"},{"name":"YUKARIŞÖLENLİ MAH.","zip":"63700"},{"name":"YÜCELER MAH.","zip":"63700"}]}]}]}