{"id":64,"name":"UŞAK","cities":[{"name":"city","districts":[{"name":"BANAZ","cityName":null,"quarters":[{"name":"İSLAM MAH.","zip":"64500"},{"name":"ŞEHİTLER MAH.","zip":"64500"}]},{"name":"MERKEZKÖYLER","cityName":null,"quarters":[{"name":"ALABA KÖYÜ","zip":"64502"},{"name":"ASFALT MAH.","zip":"64502"},{"name":"AŞAĞI MAH.","zip":"64502"},{"name":"AVGAN MAH.","zip":"64502"},{"name":"AYRANCI KÖYÜ","zip":"64502"},{"name":"AYVACIK KÖYÜ","zip":"64502"},{"name":"BAĞKONAK KÖYÜ","zip":"64502"},{"name":"BAHADIR KÖYÜ","zip":"64502"},{"name":"BALCIDAMI KÖYÜ","zip":"64502"},{"name":"BALTALI KÖYÜ","zip":"64502"},{"name":"BANAZ KÖYÜ","zip":"64502"},{"name":"BARIŞ MAH.","zip":"64502"},{"name":"BAYINDIR MAH.","zip":"64502"},{"name":"BODUÇDAMI MAH.","zip":"64502"},{"name":"BURHANİYE KÖYÜ","zip":"64502"},{"name":"BÜYÜKOTURAK KÖYÜ","zip":"64502"},{"name":"CORUM KÖYÜ","zip":"64502"},{"name":"CUMHURİYET MAH.","zip":"64502"},{"name":"ÇAMLAR MAH.","zip":"64502"},{"name":"ÇAMSU KÖYÜ","zip":"64502"},{"name":"ÇİFTLİK KÖYÜ","zip":"64502"},{"name":"ÇÖĞÜRLÜ KÖYÜ","zip":"64502"},{"name":"DANAOĞLU MAH.","zip":"64502"},{"name":"DEPREMEVLERİ MAH.","zip":"64502"},{"name":"DERBENT KÖYÜ","zip":"64502"},{"name":"DERE MAH.","zip":"64502"},{"name":"DERE MAH. MAH.","zip":"64502"},{"name":"DÜMENLER KÖYÜ","zip":"64502"},{"name":"DÜZKIŞLA KÖYÜ","zip":"64502"},{"name":"DÜZLÜCE KÖYÜ","zip":"64502"},{"name":"EMEK MAH.","zip":"64502"},{"name":"FAKIDAMI MAH.","zip":"64502"},{"name":"GEBEKAVAK MAH.","zip":"64502"},{"name":"GEDİKLER KÖYÜ","zip":"64502"},{"name":"GÜLLÜÇAM KÖYÜ","zip":"64502"},{"name":"GÜRLEK KÖYÜ","zip":"64502"},{"name":"HALAÇLAR KÖYÜ","zip":"64502"},{"name":"HALIYAZI MAH.","zip":"64502"},{"name":"HAMAMBOĞAZI MAH.","zip":"64502"},{"name":"HANÖNÜ MAH.","zip":"64502"},{"name":"HASANKÖY KÖYÜ","zip":"64502"},{"name":"HASTAOĞLU MAH.","zip":"64502"},{"name":"HATIPLAR KÖYÜ","zip":"64502"},{"name":"KAPLANGI KÖYÜ","zip":"64502"},{"name":"KARACAHİSAR KÖYÜ","zip":"64502"},{"name":"KARAKÖSE KÖYÜ","zip":"64502"},{"name":"KAVACIK KÖYÜ","zip":"64502"},{"name":"KAYAARDI MAH.","zip":"64502"},{"name":"KAYILI KÖYÜ","zip":"64502"},{"name":"KIZILCAÖREN KÖYÜ","zip":"64502"},{"name":"KIZILCASÖĞÜT KÖYÜ","zip":"64502"},{"name":"KIZILHİSAR KÖYÜ","zip":"64502"},{"name":"KOZVİRAN MAH.","zip":"64502"},{"name":"KUŞDEMİR KÖYÜ","zip":"64502"},{"name":"KÜÇÜKLER KÖYÜ","zip":"64502"},{"name":"KÜÇÜKOTURAK KÖYÜ","zip":"64502"},{"name":"KÜKÜRT MAH.","zip":"64502"},{"name":"MERKEZ MAH.","zip":"64502"},{"name":"MISTIKDAMLARI MAH.","zip":"64502"},{"name":"MURATLI KÖYÜ","zip":"64502"},{"name":"NOHUTOVA MAH.","zip":"64502"},{"name":"OKUL MAH.","zip":"64502"},{"name":"OVACIK KÖYÜ","zip":"64502"},{"name":"ÖKSÜZ KÖYÜ","zip":"64502"},{"name":"PAŞACIK KÖYÜ","zip":"64502"},{"name":"REŞADİYE KÖYÜ","zip":"64502"},{"name":"SARIYAZI MAH.","zip":"64502"},{"name":"SUSUZ KÖYÜ","zip":"64502"},{"name":"ŞABAN KÖYÜ","zip":"64502"},{"name":"ŞİRİNDERE MAH.","zip":"64502"},{"name":"ULUPINAR KÖYÜ","zip":"64502"},{"name":"YAZITEPE KÖYÜ","zip":"64502"},{"name":"YENİ MAH.","zip":"64502"},{"name":"YENİCAMİ MAH.","zip":"64502"},{"name":"YENİCE KÖYÜ","zip":"64502"},{"name":"YENİMAHALLE MAH.","zip":"64502"},{"name":"YEŞİLYURT KÖYÜ","zip":"64502"},{"name":"YUKARI MAH.","zip":"64502"}]},{"name":"EŞME","cityName":null,"quarters":[{"name":"İSTASYON MAH.","zip":"64600"},{"name":"KEMER MAH.","zip":"64600"},{"name":"ŞEHİTALİBEY MAH.","zip":"64600"},{"name":"ÜÇEYLÜL MAH.","zip":"64600"}]},{"name":"MERKEZKÖYLER","cityName":null,"quarters":[{"name":"ABDİL ÇAVUŞ MAH.","zip":"64602"},{"name":"ABDURRAHMANLI MAH.","zip":"64602"},{"name":"AĞABEY KÖYÜ","zip":"64602"},{"name":"AHMET ÇAVUŞLAR MAH.","zip":"64602"},{"name":"AHMETLER KÖYÜ","zip":"64602"},{"name":"AKÇAKÖY KÖYÜ","zip":"64602"},{"name":"ALABAŞLI MAH.","zip":"64602"},{"name":"ALAHABALI KÖYÜ","zip":"64602"},{"name":"ALIÇLI KÖYÜ","zip":"64602"},{"name":"ALİAĞALAR MAH.","zip":"64602"},{"name":"ALİBEYLİ MAH.","zip":"64602"},{"name":"AMCALAR MAH.","zip":"64602"},{"name":"ARAPLAR KÖYÜ","zip":"64602"},{"name":"ARIKLI MAH.","zip":"64602"},{"name":"ARMUTLU KÖYÜ","zip":"64602"},{"name":"ARZULAR MAH.","zip":"64602"},{"name":"AŞAĞI MAH.","zip":"64602"},{"name":"AŞILIK MAH.","zip":"64602"},{"name":"AYDINLI KÖYÜ","zip":"64602"},{"name":"AYDINLI MAH.","zip":"64602"},{"name":"AYDOĞANLAR MAH.","zip":"64602"},{"name":"BAHÇE MAH.","zip":"64602"},{"name":"BALABANCI KÖYÜ","zip":"64602"},{"name":"BAYERLER MAH.","zip":"64602"},{"name":"BEKİR DAMLARI MAH.","zip":"64602"},{"name":"BEKİŞLİ KÖYÜ","zip":"64602"},{"name":"BETERLER MAH.","zip":"64602"},{"name":"BOZLAR KÖYÜ","zip":"64602"},{"name":"BOZLAR MERKEZ MAH.","zip":"64602"},{"name":"BOZUKLAR MAH.","zip":"64602"},{"name":"CABERLER KÖYÜ","zip":"64602"},{"name":"CAMİLİ KÖYÜ","zip":"64602"},{"name":"CEMAL MAH.","zip":"64602"},{"name":"CEMALÇAVUŞ KÖYÜ","zip":"64602"},{"name":"CEVİZLİ KÖYÜ","zip":"64602"},{"name":"COŞLU MAH.","zip":"64602"},{"name":"CUMHURİYET MAH.","zip":"64602"},{"name":"ÇABAR DAMI MAH.","zip":"64602"},{"name":"ÇAKIRLAR MAH.","zip":"64602"},{"name":"ÇALIKHASAN KÖYÜ","zip":"64602"},{"name":"ÇATAL MAH.","zip":"64602"},{"name":"ÇAVUŞLU MAH.","zip":"64602"},{"name":"ÇAYKIŞLA KÖYÜ","zip":"64602"},{"name":"ÇOBANLAR MAH.","zip":"64602"},{"name":"ÇOLAKLAR MAH.","zip":"64602"},{"name":"ÇÖNELER MAH.","zip":"64602"},{"name":"ÇÜRÜKLER MAH.","zip":"64602"},{"name":"DAĞDELEN MAH.","zip":"64602"},{"name":"DAVUTLAR KÖYÜ","zip":"64602"},{"name":"DELİBAŞLI KÖYÜ","zip":"64602"},{"name":"DERE MAH.","zip":"64602"},{"name":"DEREBEYLER MAH.","zip":"64602"},{"name":"DEREKÖY KÖYÜ","zip":"64602"},{"name":"DERELİ KÖYÜ","zip":"64602"},{"name":"DERVİŞLİ KÖYÜ","zip":"64602"},{"name":"DEVECİOĞLU MAH.","zip":"64602"},{"name":"DIYILILAR MAH.","zip":"64602"},{"name":"DOĞULAR MAH.","zip":"64602"},{"name":"DUMANLAR MAH.","zip":"64602"},{"name":"DÜDÜKÇÜ MAH.","zip":"64602"},{"name":"DÜZKÖY MAH.","zip":"64602"},{"name":"EKERLİ MAH.","zip":"64602"},{"name":"ELMA GEDİĞİ MAH.","zip":"64602"},{"name":"EMİRLİ KÖYÜ","zip":"64602"},{"name":"ESKİ KÖY MAH.","zip":"64602"},{"name":"EŞELİ MAH.","zip":"64602"},{"name":"EŞMELİ KÖYÜ","zip":"64602"},{"name":"EŞMETAŞ KÖYÜ","zip":"64602"},{"name":"FARAŞATLAR MAH.","zip":"64602"},{"name":"FARSAKDERE MAH.","zip":"64602"},{"name":"FIRTINALAR MAH.","zip":"64602"},{"name":"GEDİK TAVUKÇULUK MAH.","zip":"64602"},{"name":"GEDİKLER MAH.","zip":"64602"},{"name":"GENÇLER-1 MAH.","zip":"64602"},{"name":"GENÇLER-2 MAH.","zip":"64602"},{"name":"GERALİ MAH.","zip":"64602"},{"name":"GÖKBEL MAH.","zip":"64602"},{"name":"GÖKÇUKUR KÖYÜ","zip":"64602"},{"name":"GÜLLÜ KÖYÜ","zip":"64602"},{"name":"GÜLLÜBAĞ KÖYÜ","zip":"64602"},{"name":"GÜNEY KÖYÜ","zip":"64602"},{"name":"GÜNYAKA KÖYÜ","zip":"64602"},{"name":"GÜZEL AHMETLER MAH.","zip":"64602"},{"name":"GÜZEL KÖY MAH.","zip":"64602"},{"name":"HACI HÜSEYİNLİ MAH.","zip":"64602"},{"name":"HACI İSMAİLLER MAH.","zip":"64602"},{"name":"HACI KIRLAR MAH.","zip":"64602"},{"name":"HACI YEŞİLLER MAH.","zip":"64602"},{"name":"HACIBEKİRLİ MAH.","zip":"64602"},{"name":"HACIBİLLER MAH.","zip":"64602"},{"name":"HACIKADİRLİ MAH.","zip":"64602"},{"name":"HACILAR MAH.","zip":"64602"},{"name":"HACIMAHMUTLU MAH.","zip":"64602"},{"name":"HACIŞERİFLİ MAH.","zip":"64602"},{"name":"HAKKI HOCALAR MAH.","zip":"64602"},{"name":"HALİLLİKLER MAH.","zip":"64602"},{"name":"HAMAMDERE KÖYÜ","zip":"64602"},{"name":"HAMELİ MAH.","zip":"64602"},{"name":"HARDALLI KÖYÜ","zip":"64602"},{"name":"HARMANDALI MAH.","zip":"64602"},{"name":"HAZIRLAR MAH.","zip":"64602"},{"name":"HELİMLİ MAH.","zip":"64602"},{"name":"HEMİTLİ MAH.","zip":"64602"},{"name":"HIDIRLAR MAH.","zip":"64602"},{"name":"HOCALAR MAH.","zip":"64602"},{"name":"HÜRRİYET MAH.","zip":"64602"},{"name":"İBRAHİM MAH.","zip":"64602"},{"name":"İLİKLİ MAH.","zip":"64602"},{"name":"İSAHOCALAR MAH.","zip":"64602"},{"name":"İSALAR KÖYÜ","zip":"64602"},{"name":"İSTASYON MAH.","zip":"64602"},{"name":"İSTİKLAL MAH.","zip":"64602"},{"name":"KADILAR MAH.","zip":"64602"},{"name":"KANDEMİRLER KÖYÜ","zip":"64602"},{"name":"KARA İMAMLAR MAH.","zip":"64602"},{"name":"KARA MUSALAR MAH.","zip":"64602"},{"name":"KARAAHMETLİ KÖYÜ","zip":"64602"},{"name":"KARABACAKLI KÖYÜ","zip":"64602"},{"name":"KARACAÖMERLİ KÖYÜ","zip":"64602"},{"name":"KARAKUYU MAH.","zip":"64602"},{"name":"KARAMAHMUTLU MAH.","zip":"64602"},{"name":"KARAPINAR MAH.","zip":"64602"},{"name":"KATRANCILAR KÖYÜ","zip":"64602"},{"name":"KAYADAMLARI MAH.","zip":"64602"},{"name":"KAYALI KÖYÜ","zip":"64602"},{"name":"KAYAPINAR KÖYÜ","zip":"64602"},{"name":"KAZAKLAR KÖYÜ","zip":"64602"},{"name":"KEKLİKLİ KÖYÜ","zip":"64602"},{"name":"KELEŞ ALİ MAH.","zip":"64602"},{"name":"KESTELLİ MAH.","zip":"64602"},{"name":"KILIÇLI MAH.","zip":"64602"},{"name":"KIRANKÖY KÖYÜ","zip":"64602"},{"name":"KIRLAR MAH.","zip":"64602"},{"name":"KIYALAR MAH.","zip":"64602"},{"name":"KOCA AHMETLER MAH.","zip":"64602"},{"name":"KOCABEY KÖYÜ","zip":"64602"},{"name":"KOCAHÜSEYİNLER MAH.","zip":"64602"},{"name":"KOLANKAYA KÖYÜ","zip":"64602"},{"name":"KONAK KÖYÜ","zip":"64602"},{"name":"KOZAKLAR MAH.","zip":"64602"},{"name":"KÖPRÜ MAH.","zip":"64602"},{"name":"KÖSELER KÖYÜ","zip":"64602"},{"name":"KÖYLÜOĞLU KÖYÜ","zip":"64602"},{"name":"KUŞLULAR MAH.","zip":"64602"},{"name":"KUZYAKA MAH.","zip":"64602"},{"name":"MANAVLI KÖYÜ","zip":"64602"},{"name":"MEMİLİ MAH.","zip":"64602"},{"name":"MERKEZ MAH.","zip":"64602"},{"name":"MERYEM OĞLU MAH.","zip":"64602"},{"name":"MESTANLAR MAH.","zip":"64602"},{"name":"MESTANLI MAH.","zip":"64602"},{"name":"MIÇIKLI MAH.","zip":"64602"},{"name":"MOLLA OSMANLI MAH.","zip":"64602"},{"name":"MOLLA SÜLEYMANLI MAH.","zip":"64602"},{"name":"MOLLAHALİL MAH.","zip":"64602"},{"name":"MUSALAR MAH.","zip":"64602"},{"name":"MÜDÜRLÜ MAH.","zip":"64602"},{"name":"NARINCALI KÖYÜ","zip":"64602"},{"name":"NARLI KÖYÜ","zip":"64602"},{"name":"NAZLI MAH.","zip":"64602"},{"name":"NESLİHANLAR MAH.","zip":"64602"},{"name":"NOTULAR MAH.","zip":"64602"},{"name":"ORTA MAH.","zip":"64602"},{"name":"OSMANOĞLU MAH.","zip":"64602"},{"name":"OYMALI KÖYÜ","zip":"64602"},{"name":"ÖMER AĞALAR MAH.","zip":"64602"},{"name":"ÖMERLER MAH.","zip":"64602"},{"name":"PALALI MAH.","zip":"64602"},{"name":"PİŞTAVLI MAH.","zip":"64602"},{"name":"POSLU KÖYÜ","zip":"64602"},{"name":"RECEPLER MAH.","zip":"64602"},{"name":"SANDAL MAH.","zip":"64602"},{"name":"SARAÇLAR MAH.","zip":"64602"},{"name":"SARAYCIK KÖYÜ","zip":"64602"},{"name":"SARIAHMETLİ MAH.","zip":"64602"},{"name":"SARIHASAN MAH.","zip":"64602"},{"name":"SARILAR MAH.","zip":"64602"},{"name":"SEPETLER MAH.","zip":"64602"},{"name":"SİHİRBAZLI MAH.","zip":"64602"},{"name":"SÜLEYMAN HOCALAR MAH.","zip":"64602"},{"name":"ŞALVARLI MAH.","zip":"64602"},{"name":"ŞEHİTLİ KÖYÜ","zip":"64602"},{"name":"ŞERİF DAMLARI MAH.","zip":"64602"},{"name":"TAKMAK KÖYÜ","zip":"64602"},{"name":"TAŞ MAH.","zip":"64602"},{"name":"TAŞÇILAR MAH.","zip":"64602"},{"name":"TAŞDİBİ MAH.","zip":"64602"},{"name":"TAŞKÖY MAH.","zip":"64602"},{"name":"TATLAR MAH.","zip":"64602"},{"name":"TEPE DAMLARI MAH.","zip":"64602"},{"name":"TEPE MAH.","zip":"64602"},{"name":"TEPELİ MAH.","zip":"64602"},{"name":"TOMLU MAH.","zip":"64602"},{"name":"TOPALLAR\/UZUN TARLA MAH.","zip":"64602"},{"name":"TOPUZLU MAH.","zip":"64602"},{"name":"TOZLUTEPE MAH.","zip":"64602"},{"name":"TÜLÜLER MAH.","zip":"64602"},{"name":"ULUYAYLA KÖYÜ","zip":"64602"},{"name":"UZUNLU MAH.","zip":"64602"},{"name":"ÜNALLI MAH.","zip":"64602"},{"name":"VELİBEYLER MAH.","zip":"64602"},{"name":"YAĞCILAR MAH.","zip":"64602"},{"name":"YAHYALAR MAH.","zip":"64602"},{"name":"YAYLAKÖY KÖYÜ","zip":"64602"},{"name":"YELEĞEN KÖYÜ","zip":"64602"},{"name":"YENİ ŞEHİTLİ MAH.","zip":"64602"},{"name":"YENİKÖY KÖYÜ","zip":"64602"},{"name":"YENİKÖY MAH.","zip":"64602"},{"name":"YEŞİLKAVAK KÖYÜ","zip":"64602"},{"name":"YILDIRIMLAR MAH.","zip":"64602"},{"name":"YÖRÜK KOÇ MAH.","zip":"64602"},{"name":"ZABDİYELİ MAH.","zip":"64602"}]},{"name":"KARAHALLI","cityName":null,"quarters":[{"name":"DERE MAH.","zip":"64700"},{"name":"KONAK MAH.","zip":"64700"},{"name":"KONAK OSB MAH.","zip":"64700"},{"name":"YENİ MAH.","zip":"64700"}]},{"name":"MERKEZKÖYLER","cityName":null,"quarters":[{"name":"BEKİ KÖYÜ","zip":"64702"},{"name":"BUĞDAYLI KÖYÜ","zip":"64702"},{"name":"COĞUPLU KÖYÜ","zip":"64702"},{"name":"ÇOKAKLI KÖYÜ","zip":"64702"},{"name":"DELİHIDIRLI KÖYÜ","zip":"64702"},{"name":"DERE MAH.","zip":"64702"},{"name":"DERİNCİK MAH.","zip":"64702"},{"name":"DUMANLI KÖYÜ","zip":"64702"},{"name":"DURAKLI KÖYÜ","zip":"64702"},{"name":"FEVZİ ÇAKMAK MAH.","zip":"64702"},{"name":"KARAYAKUPLU KÖYÜ","zip":"64702"},{"name":"KARBASAN KÖYÜ","zip":"64702"},{"name":"KAVAKLI KÖYÜ","zip":"64702"},{"name":"KAYKILLI KÖYÜ","zip":"64702"},{"name":"KIRKYAREN KÖYÜ","zip":"64702"},{"name":"KÜLKÖY KÖYÜ","zip":"64702"},{"name":"NAMIK KEMAL MAH.","zip":"64702"},{"name":"PAŞALAR KÖYÜ","zip":"64702"},{"name":"PINAR MAH.","zip":"64702"},{"name":"YEDİDEĞİRMEN MAH.","zip":"64702"}]},{"name":"CUMHURİYET","cityName":null,"quarters":[{"name":"AYBEY MAH.","zip":"64200"},{"name":"BOZKURT MAH.","zip":"64200"},{"name":"CUMHURİYET MAH.","zip":"64200"},{"name":"DİKİLİTAŞ MAH.","zip":"64200"},{"name":"DURAK MAH.","zip":"64200"},{"name":"ELMALIDERE MAH.","zip":"64200"},{"name":"FATİH MAH.","zip":"64200"},{"name":"FEVZİ ÇAKMAK MAH.","zip":"64200"},{"name":"IŞIK MAH.","zip":"64200"},{"name":"İSLİCE MAH.","zip":"64200"},{"name":"KARAAĞAÇ MAH.","zip":"64200"},{"name":"KEMALÖZ MAH.","zip":"64200"},{"name":"KÖME MAH.","zip":"64200"},{"name":"KURTULUŞ MAH.","zip":"64200"},{"name":"MEHMET AKİF ERSOY MAH.","zip":"64200"},{"name":"ÖZDEMİR MAH.","zip":"64200"},{"name":"SARAYALTI MAH.","zip":"64200"},{"name":"ÜNALAN MAH.","zip":"64200"}]},{"name":"MERKEZKÖYLER","cityName":null,"quarters":[{"name":"ABDİLER MAH.","zip":"64050"},{"name":"ABDİLLER MAH.","zip":"64050"},{"name":"ADA MAH.","zip":"64050"},{"name":"ADIYALAR MAH.","zip":"64050"},{"name":"AKBIYIKOĞLU MAH.","zip":"64050"},{"name":"AKBULAK KÖYÜ","zip":"64050"},{"name":"AKÇEŞME MAH.","zip":"64050"},{"name":"AKKAYA MAH.","zip":"64050"},{"name":"AKTAŞ KÖYÜ","zip":"64050"},{"name":"AKTAŞ MAH.","zip":"64050"},{"name":"ALİBEY MAH.","zip":"64050"},{"name":"ALİCİKLER MAH.","zip":"64050"},{"name":"ALİŞANLAR MAH.","zip":"64050"},{"name":"ALTINBAŞAK MAH.","zip":"64050"},{"name":"ALTINTAŞ KÖYÜ","zip":"64050"},{"name":"ARAFAT MAH.","zip":"64050"},{"name":"ARAPLAR MAH.","zip":"64050"},{"name":"ARDIÇTEPE MAH.","zip":"64050"},{"name":"AŞAĞI MAH.","zip":"64050"},{"name":"BABACANLAR MAH.","zip":"64050"},{"name":"BAĞBAŞI KÖYÜ","zip":"64050"},{"name":"BAĞRI AÇIKLAR MAH.","zip":"64050"},{"name":"BALDIRAN MAH.","zip":"64050"},{"name":"BAŞTARLA MAH.","zip":"64050"},{"name":"BAŞYİĞİTLER MAH.","zip":"64050"},{"name":"BELKAYA KÖYÜ","zip":"64050"},{"name":"BELKAYA MÜCAVİR MAH.","zip":"64050"},{"name":"BEYLERHAN KÖYÜ","zip":"64050"},{"name":"BEYLERHAN MÜCAVİR MAH.","zip":"64050"},{"name":"BOYALI KÖYÜ","zip":"64050"},{"name":"BOZKÖY KÖYÜ","zip":"64050"},{"name":"BOZKUŞ KÖYÜ","zip":"64050"},{"name":"BOZKUŞ MÜCAVİR MAH.","zip":"64050"},{"name":"BOZLAR MAH.","zip":"64050"},{"name":"BÖLME KÖYÜ","zip":"64050"},{"name":"BUĞDAYLI KÖYÜ","zip":"64050"},{"name":"CELANGÖZ MAH.","zip":"64050"},{"name":"CİĞERDEDE KÖYÜ","zip":"64050"},{"name":"CİĞERDEDE MÜCAVİR MAH.","zip":"64050"},{"name":"ÇAKIRLAR KÖY MERKEZİ MAH.","zip":"64050"},{"name":"ÇALLILAR MAH.","zip":"64050"},{"name":"ÇAM MAH.","zip":"64050"},{"name":"ÇAMBIRAK MAH.","zip":"64050"},{"name":"ÇAMDİBİ MAH.","zip":"64050"},{"name":"ÇAMYAZI KÖYÜ","zip":"64050"},{"name":"ÇAMYUVA KÖYÜ","zip":"64050"},{"name":"ÇANGALOĞLU MAH.","zip":"64050"},{"name":"ÇARIK KÖYÜ","zip":"64050"},{"name":"ÇARIK MÜCAVİR MAH.","zip":"64050"},{"name":"ÇATALBAYIR KÖYÜ","zip":"64050"},{"name":"ÇAY KENARI MAH.","zip":"64050"},{"name":"ÇERÇİDAMLARI MAH.","zip":"64050"},{"name":"ÇEVRE KÖYÜ","zip":"64050"},{"name":"ÇEVREKÖY MÜCAVİR MAH.","zip":"64050"},{"name":"ÇINARCIK KÖYÜ","zip":"64050"},{"name":"ÇINARCIK MÜCAVİR MAH.","zip":"64050"},{"name":"ÇIRGANLAR BAĞ EVİ MAH.","zip":"64050"},{"name":"ÇUHADARLAR MAH.","zip":"64050"},{"name":"ÇUKURAĞIL KÖYÜ","zip":"64050"},{"name":"DAĞDEMİRLER KÖYÜ","zip":"64050"},{"name":"DAĞYENİCE KÖYÜ","zip":"64050"},{"name":"DEDELER MAH.","zip":"64050"},{"name":"DELİHACILAR MAH.","zip":"64050"},{"name":"DEMİRÖREN KÖYÜ","zip":"64050"},{"name":"DERBENT KÖYÜ","zip":"64050"},{"name":"DERE MAH.","zip":"64050"},{"name":"DIŞKAYA KÖYÜ","zip":"64050"},{"name":"DİKMENLER MAH.","zip":"64050"},{"name":"DOLAYKÖY MAH.","zip":"64050"},{"name":"DUMANLAR MAH.","zip":"64050"},{"name":"DURAKLAR MAH.","zip":"64050"},{"name":"DURHOCA MAH.","zip":"64050"},{"name":"DÜNEK MAH.","zip":"64050"},{"name":"EFELER MAH.","zip":"64050"},{"name":"EĞLENCE KÖYÜ","zip":"64050"},{"name":"EĞRİDERE MAH.","zip":"64050"},{"name":"ELİFCİKLER MAH.","zip":"64050"},{"name":"ELMACIK KÖYÜ","zip":"64050"},{"name":"ELMACIK MÜCAVİR MAH.","zip":"64050"},{"name":"EMİNOĞLU MAH.","zip":"64050"},{"name":"EMİRFAKI KÖYÜ","zip":"64050"},{"name":"ERSÖĞÜT BAĞ EVLERİ MAH.","zip":"64050"},{"name":"ESELER MAH.","zip":"64050"},{"name":"ESKİ KÖY MAH.","zip":"64050"},{"name":"ESKİGÜNEY KÖYÜ","zip":"64050"},{"name":"ESKİSARAY KÖYÜ","zip":"64050"},{"name":"ESKİSARAY MÜCAVİR MAH.","zip":"64050"},{"name":"EYNEHAN KÖY MERKEZİ MAH.","zip":"64050"},{"name":"EYNİHAN KÖYÜ","zip":"64050"},{"name":"FAKILI KÖYÜ","zip":"64050"},{"name":"GACARLAR MAH.","zip":"64050"},{"name":"GAZAHMET DERESİ MAH.","zip":"64050"},{"name":"GEYİKLER MAH.","zip":"64050"},{"name":"GÖÇÜK MAH.","zip":"64050"},{"name":"GÖÇÜKLER MAH.","zip":"64050"},{"name":"GÖĞEM KÖYÜ","zip":"64050"},{"name":"GÖKÇEDAL KÖYÜ","zip":"64050"},{"name":"GÖKÇETEPE KÖYÜ","zip":"64050"},{"name":"GÖKDERE MAH.","zip":"64050"},{"name":"GÖL MAH.","zip":"64050"},{"name":"GÜCER KÖYÜ","zip":"64050"},{"name":"GÜCER MÜCAVİR MAH.","zip":"64050"},{"name":"GÜLDEZLER MAH.","zip":"64050"},{"name":"GÜNAYLAR MAH.","zip":"64050"},{"name":"GÜNELİ KÖYÜ","zip":"64050"},{"name":"GÜRE KÖYÜ","zip":"64050"},{"name":"HACI APTİLER MAH.","zip":"64050"},{"name":"HACI HÜSEYİNLER MAH.","zip":"64050"},{"name":"HACI İMAMLAR MAH.","zip":"64050"},{"name":"HACI MUSLULAR MAH.","zip":"64050"},{"name":"HACI ŞERİFLER MAH.","zip":"64050"},{"name":"HACIALİLER MAH.","zip":"64050"},{"name":"HACIBEKİRLER MAH.","zip":"64050"},{"name":"HACIKADEM KÖYÜ","zip":"64050"},{"name":"HACIKADEM MÜCAVİR MAH.","zip":"64050"},{"name":"HACILAR MAH.","zip":"64050"},{"name":"HACIÖMERLİ MAH.","zip":"64050"},{"name":"HALİLEFENDİÇİFTLİĞİ KÖYÜ","zip":"64050"},{"name":"HAMAM MAH.","zip":"64050"},{"name":"HASANLAR MAH.","zip":"64050"},{"name":"HASTALLAR MAH.","zip":"64050"},{"name":"HEDİLER MAH.","zip":"64050"},{"name":"HIDIRLAR MAH.","zip":"64050"},{"name":"HİSAR KÖYÜ","zip":"64050"},{"name":"HOCALAR KÖYÜ","zip":"64050"},{"name":"HOROZCULAR MAH.","zip":"64050"},{"name":"İKİSARAY KÖYÜ","zip":"64050"},{"name":"İKİSARAY MAH.","zip":"64050"},{"name":"İLYASLI KÖYÜ","zip":"64050"},{"name":"İSPİROĞLU ÇİFTLİĞİ MAH.","zip":"64050"},{"name":"İSTASYON MAH.","zip":"64050"},{"name":"İSTİKLAL MAH.","zip":"64050"},{"name":"KABAKLAR KÖYÜ","zip":"64050"},{"name":"KADILAR MAH.","zip":"64050"},{"name":"KALE MAH.","zip":"64050"},{"name":"KALFA KÖYÜ","zip":"64050"},{"name":"KALFA MAH.","zip":"64050"},{"name":"KAPANCIK KÖYÜ","zip":"64050"},{"name":"KARAAĞAÇ KÖYÜ","zip":"64050"},{"name":"KARAAĞAÇ MAH.","zip":"64050"},{"name":"KARABACAKLAR(MRK) MAH.","zip":"64050"},{"name":"KARABEYLİ KÖYÜ","zip":"64050"},{"name":"KARABOL MAH.","zip":"64050"},{"name":"KARACAHİSAR KÖYÜ","zip":"64050"},{"name":"KARAÇORLAR MAH.","zip":"64050"},{"name":"KARAHASAN KÖYÜ","zip":"64050"},{"name":"KARAHASANLAR MAH.","zip":"64050"},{"name":"KARAKAYA MAH.","zip":"64050"},{"name":"KARAKÖSE KÖYÜ","zip":"64050"},{"name":"KARAKUYU KÖYÜ","zip":"64050"},{"name":"KARAKUYU MAH.","zip":"64050"},{"name":"KARAÖKSÜZLER MAH.","zip":"64050"},{"name":"KARATIRNAK MAH.","zip":"64050"},{"name":"KARGILAR MAH.","zip":"64050"},{"name":"KARLIK KÖYÜ","zip":"64050"},{"name":"KARMA OSB MAH.","zip":"64050"},{"name":"KARŞI MAH.","zip":"64050"},{"name":"KAŞBELEN KÖYÜ","zip":"64050"},{"name":"KAŞBELEN MÜCAVİR MAH.","zip":"64050"},{"name":"KAYAĞIL KÖYÜ","zip":"64050"},{"name":"KAYAĞIL MÜCAVİR MAH.","zip":"64050"},{"name":"KAYGISIZ DAMLARI MAH.","zip":"64050"},{"name":"KEDİYÜNÜ KÖYÜ","zip":"64050"},{"name":"KEDİYÜNÜ MÜCAVİR MAH.","zip":"64050"},{"name":"KELBATMAZ MAH.","zip":"64050"},{"name":"KESİK MAH.","zip":"64050"},{"name":"KILCAN KÖYÜ","zip":"64050"},{"name":"KILCAN MÜCAVİR MAH.","zip":"64050"},{"name":"KIRAN MAH.","zip":"64050"},{"name":"KIRHALLAR(ARAPLAR) MAH.","zip":"64050"},{"name":"KIRKA KÖYÜ","zip":"64050"},{"name":"KISIK KÖYÜ","zip":"64050"},{"name":"KİREMİTCİLER  2 MAH.","zip":"64050"},{"name":"KİREMİTCİLER 1 MAH.","zip":"64050"},{"name":"KİTAPCILAR MAH.","zip":"64050"},{"name":"KOCA ÇUKUR MAH.","zip":"64050"},{"name":"KOCADÜZ MAH.","zip":"64050"},{"name":"KOYUNBEYLİ KÖYÜ","zip":"64050"},{"name":"KOZBURUN MAH.","zip":"64050"},{"name":"KÖPRÜBAŞI KÖYÜ","zip":"64050"},{"name":"KÖRLER MAH.","zip":"64050"},{"name":"KÖY BAĞLI EVLERİ MAH.","zip":"64050"},{"name":"KÖY MERKEZİ ( HACINASIFLAR) MAH.","zip":"64050"},{"name":"KÖY MERKEZİ ( SARILAR ) MAH.","zip":"64050"},{"name":"KÖY MERKEZİ (KARAÇAYIR) MAH.","zip":"64050"},{"name":"KÖY MERKEZİ MAH.","zip":"64050"},{"name":"KÖY MERKEZİ(İMAMLAR) MAH.","zip":"64050"},{"name":"KUNDAKLAR MAH.","zip":"64050"},{"name":"KURŞUNLUK MAH.","zip":"64050"},{"name":"KURUGEDİK MAH.","zip":"64050"},{"name":"KUŞOĞLANLAR MAH.","zip":"64050"},{"name":"KUYUCAK KÖYÜ","zip":"64050"},{"name":"KUYUCAK MAH.","zip":"64050"},{"name":"KUZANLAR MAH.","zip":"64050"},{"name":"KÜÇÜK DERBENT MAH.","zip":"64050"},{"name":"KÜPLEMEZLER MAH.","zip":"64050"},{"name":"MERKEZ MAH.","zip":"64050"},{"name":"MERKEZ MAH. (NADARA) MAH.","zip":"64050"},{"name":"MERMERDİREK MAH.","zip":"64050"},{"name":"MESUDİYE KÖYÜ","zip":"64050"},{"name":"MEZARDERESİ MAH.","zip":"64050"},{"name":"MOLLAMUSA KÖYÜ","zip":"64050"},{"name":"MUHARREMŞAH KÖYÜ","zip":"64050"},{"name":"MUHARREMŞAH MÜCAVİR MAH.","zip":"64050"},{"name":"MUSALAR MAH.","zip":"64050"},{"name":"MUSLUOĞLU MAH.","zip":"64050"},{"name":"ORMANDAMI KÖYÜ","zip":"64050"},{"name":"ORTA MAH.","zip":"64050"},{"name":"ORTABAĞ KÖYÜ","zip":"64050"},{"name":"ORTABURUN MAH.","zip":"64050"},{"name":"ORTAKÖY KÖYÜ","zip":"64050"},{"name":"ORTAKÖY MÜCAVİR MAH.","zip":"64050"},{"name":"OVADEMİRLER KÖYÜ","zip":"64050"},{"name":"OVADEMİRLER MÜCAVİR MAH.","zip":"64050"},{"name":"ÖMERLİ MAH.","zip":"64050"},{"name":"ÖRENCİK KÖYÜ","zip":"64050"},{"name":"ÖRENCİK TERMAL TESİSLERİ MAH.","zip":"64050"},{"name":"PAÇACILAR KÖYÜ","zip":"64050"},{"name":"PAYAMLI MAH.","zip":"64050"},{"name":"PIRTILAR MAH.","zip":"64050"},{"name":"RAMAZANLAR MAH.","zip":"64050"},{"name":"SARIDERE KÖYÜ","zip":"64050"},{"name":"SARMAŞIK MAH.","zip":"64050"},{"name":"SAYALAR MAH.","zip":"64050"},{"name":"SELİKLER KÖYÜ","zip":"64050"},{"name":"SELVİLER KÖYÜ","zip":"64050"},{"name":"SELVİOĞLU KÖYÜ","zip":"64050"},{"name":"SİRGE KÖYÜ","zip":"64050"},{"name":"SORKUN KÖYÜ","zip":"64050"},{"name":"SUSUZÖREN KÖYÜ","zip":"64050"},{"name":"SÜLODERESİ MAH.","zip":"64050"},{"name":"SÜMENLİ MAH.","zip":"64050"},{"name":"ŞEKERLİ MAH.","zip":"64050"},{"name":"ŞIHHASAN MAH.","zip":"64050"},{"name":"ŞÜKRANİYE KÖYÜ","zip":"64050"},{"name":"TAŞAVLU MAH.","zip":"64050"},{"name":"TAŞKONAK KÖYÜ","zip":"64050"},{"name":"TATLIPINAR MAH.","zip":"64050"},{"name":"TAVŞANLAR MAH.","zip":"64050"},{"name":"TEKSTİL OSB MAH.","zip":"64050"},{"name":"TEPE DAMLARI MAH.","zip":"64050"},{"name":"TEPE MAH.","zip":"64050"},{"name":"TİLKİLER MAH.","zip":"64050"},{"name":"TOPALLAR MAH.","zip":"64050"},{"name":"TOSBIYIK MAH.","zip":"64050"},{"name":"ULUCAK KÖYÜ","zip":"64050"},{"name":"USTALAR MAH.","zip":"64050"},{"name":"UZUN ÇAĞILLI MAH.","zip":"64050"},{"name":"ÜÇKUYULAR KÖYÜ","zip":"64050"},{"name":"ÜLFETLER MAH.","zip":"64050"},{"name":"ÜRÜN KÖYÜ","zip":"64050"},{"name":"ÜRÜN MÜCAVİR MAH.","zip":"64050"},{"name":"VELİBEYLER MAH.","zip":"64050"},{"name":"VELİKAHYALAR MAH.","zip":"64050"},{"name":"VEZİRLER MAH.","zip":"64050"},{"name":"YAPAĞILAR KÖYÜ","zip":"64050"},{"name":"YAPAĞILAR MAH.","zip":"64050"},{"name":"YAPAĞILAR MÜCAVİR MAH.","zip":"64050"},{"name":"YAŞAMIŞLAR KÖYÜ","zip":"64050"},{"name":"YAVI MÜCAVİR MAH.","zip":"64050"},{"name":"YAVİ KÖYÜ","zip":"64050"},{"name":"YENİ MAH.","zip":"64050"},{"name":"YENİKÖY KÖYÜ","zip":"64050"},{"name":"YENİMAHALLE MAH.","zip":"64050"},{"name":"YENİŞEHİR KÖYÜ","zip":"64050"},{"name":"YEŞİLDERE KÖYÜ","zip":"64050"},{"name":"YEŞİLYURT MAH.","zip":"64050"},{"name":"YİBO MAH.","zip":"64050"},{"name":"YOL KENARI SANAYİ MAH.","zip":"64050"},{"name":"YONCALI KÖYÜ","zip":"64050"},{"name":"YUKARI MAH.","zip":"64050"},{"name":"YUKARI(YENİ) MAH.","zip":"64050"},{"name":"ZAHMAN KÖYÜ","zip":"64050"},{"name":"ZELİHAOĞLU DAMLARI MAH.","zip":"64050"},{"name":"ZEPDERESİ MAH.","zip":"64050"},{"name":"AKALAN MAH.","zip":"64802"},{"name":"AKARCA KÖYÜ","zip":"64802"},{"name":"AKTEPE MAH.","zip":"64802"},{"name":"ATATÜRK MAH.","zip":"64802"},{"name":"AZİZLER KÖYÜ","zip":"64802"},{"name":"BAHÇELİEVLER MAH.","zip":"64802"},{"name":"BAHÇESARAY MAH.","zip":"64802"},{"name":"BUDAKLAR KÖYÜ","zip":"64802"},{"name":"CİNOĞLAN KÖYÜ","zip":"64802"},{"name":"ÇUBUK MAH.","zip":"64802"},{"name":"DEDEBALLAR MAH.","zip":"64802"},{"name":"ELDENİZ KÖYÜ","zip":"64802"},{"name":"ERİCE KÖYÜ","zip":"64802"},{"name":"EROĞLU MAH.","zip":"64802"},{"name":"FATİH MAH.","zip":"64802"},{"name":"FEVZİ ÇAKMAK MAH.","zip":"64802"},{"name":"GAZELLE MAH.","zip":"64802"},{"name":"GÜLBEY MAH.","zip":"64802"},{"name":"GÜLTEPE MAH.","zip":"64802"},{"name":"HACİM KÖYÜ","zip":"64802"},{"name":"HANOĞLU KÖYÜ","zip":"64802"},{"name":"HORZUMLAR MAH.","zip":"64802"},{"name":"KARABOYALIK KÖYÜ","zip":"64802"},{"name":"KARŞI MAH.","zip":"64802"},{"name":"KAVAK MAH.","zip":"64802"},{"name":"KAYLAN MAH.","zip":"64802"},{"name":"KETENLİK KÖYÜ","zip":"64802"},{"name":"KÖKEZ KÖYÜ","zip":"64802"},{"name":"KÖMÜRCÜ MAH.","zip":"64802"},{"name":"MERKEZ MAH.","zip":"64802"},{"name":"MESTAN TEPESİ MAH.","zip":"64802"},{"name":"OKLU DERE MAH.","zip":"64802"},{"name":"ÖZBEYLİ KÖYÜ","zip":"64802"},{"name":"PINAR MAH.","zip":"64802"},{"name":"PINARBAŞI KÖYÜ","zip":"64802"},{"name":"PINARCI MAH.","zip":"64802"},{"name":"SALMANLAR KÖYÜ","zip":"64802"},{"name":"SAMATLAR KÖYÜ","zip":"64802"},{"name":"SAZAK KÖYÜ","zip":"64802"},{"name":"SELÇİKLER KÖYÜ","zip":"64802"},{"name":"SİNDELLİ MAH.","zip":"64802"},{"name":"TATAR KÖYÜ","zip":"64802"},{"name":"TEKELİ MAH.","zip":"64802"},{"name":"TÜLÜCE MAH.","zip":"64802"},{"name":"YAYALAR KÖYÜ","zip":"64802"},{"name":"YENİ YERLEŞİM ALANI MAH.","zip":"64802"},{"name":"YENİERİCE KÖYÜ","zip":"64802"},{"name":"YILDIZTEPE MAH.","zip":"64802"}]},{"name":"SİVASLI","cityName":null,"quarters":[{"name":"AKINCILAR MAH.","zip":"64800"},{"name":"ATATÜRK MAH.","zip":"64800"},{"name":"EVRENLİ MAH.","zip":"64800"},{"name":"GÖLBAHÇE MAH.","zip":"64800"},{"name":"GÜRSEL MAH.","zip":"64800"},{"name":"KONAK MAH.","zip":"64800"}]},{"name":"MERKEZKÖYLER","cityName":null,"quarters":[{"name":"AKSAZ KÖYÜ","zip":"64902"},{"name":"AKSAZ MAH.","zip":"64902"},{"name":"ATATÜRK MAH.","zip":"64902"},{"name":"AVGAN KÖYÜ","zip":"64902"},{"name":"BEKDEMİR KÖYÜ","zip":"64902"},{"name":"BÜYÜKKAYALI KÖYÜ","zip":"64902"},{"name":"ÇALIŞKANLAR MAH.","zip":"64902"},{"name":"ÇAMDERE KÖYÜ","zip":"64902"},{"name":"ÇAMİÇİ MAH.","zip":"64902"},{"name":"ÇAMLIBEL KÖYÜ","zip":"64902"},{"name":"ÇARDAK KÖYÜ","zip":"64902"},{"name":"ÇIRPICILAR KÖYÜ","zip":"64902"},{"name":"ÇITLIK MAH.","zip":"64902"},{"name":"DEREDAM MAH.","zip":"64902"},{"name":"DÖRT DEĞİRMEN MAH.","zip":"64902"},{"name":"DUTLUCA KÖYÜ","zip":"64902"},{"name":"EYREK MAH.","zip":"64902"},{"name":"GEDİKLER KÖYÜ","zip":"64902"},{"name":"GÜMÜŞKOL KÖYÜ","zip":"64902"},{"name":"HACI ALİ MAH.","zip":"64902"},{"name":"HACI HASANLAR MAH.","zip":"64902"},{"name":"HANYERİ KÖYÜ","zip":"64902"},{"name":"HASKÖY KÖYÜ","zip":"64902"},{"name":"İNAY KÖYÜ","zip":"64902"},{"name":"İSHAKLAR KÖYÜ","zip":"64902"},{"name":"İSMET PAŞA MAH.","zip":"64902"},{"name":"İSTASYON MAH.","zip":"64902"},{"name":"KARACAAHMET KÖYÜ","zip":"64902"},{"name":"KIRAN KÖYÜ","zip":"64902"},{"name":"KIŞLA KÖYÜ","zip":"64902"},{"name":"KÖSELER KÖYÜ","zip":"64902"},{"name":"KURUDERE KÖYÜ","zip":"64902"},{"name":"KÜÇÜKİLYASLI KÖYÜ","zip":"64902"},{"name":"KÜÇÜKKAYALI KÖYÜ","zip":"64902"},{"name":"KÜLÇEN KÖYÜ","zip":"64902"},{"name":"MERDİVENLİ MAH.","zip":"64902"},{"name":"MERKEZ MAH.","zip":"64902"},{"name":"OĞUZLAR MAH.","zip":"64902"},{"name":"OMURCA KÖYÜ","zip":"64902"},{"name":"ÖREN MAH.","zip":"64902"},{"name":"SEVİNDİKLER MAH.","zip":"64902"},{"name":"SÖĞÜTLÜ KÖYÜ","zip":"64902"},{"name":"SÜLÜMENLİ KÖYÜ","zip":"64902"},{"name":"YENİCE MAH.","zip":"64902"}]},{"name":"ULUBEY","cityName":null,"quarters":[{"name":"CAMİKEBİR MAH.","zip":"64900"},{"name":"DİLAVER MAH.","zip":"64900"},{"name":"EMİRLER MAH.","zip":"64900"},{"name":"GÖLBAŞI MAH.","zip":"64900"},{"name":"ÜYÜKBAŞI MAH.","zip":"64900"}]}]}]}