{"id":65,"name":"VAN","cities":[{"name":"city","districts":[{"name":"BAHÇESARAY","cityName":null,"quarters":[{"name":"BAĞCILAR MAH.","zip":"65710"},{"name":"CEVİZLİBELEN MAH.","zip":"65710"},{"name":"ÇATBAYIR MAH.","zip":"65710"},{"name":"ÇİÇEKLİ MAH.","zip":"65710"},{"name":"ÇÖMLEKÇİ MAH.","zip":"65710"},{"name":"DOĞANYAYLA MAH.","zip":"65710"},{"name":"ELMAYAKA MAH.","zip":"65710"},{"name":"GÜNEYYAMAÇ MAH.","zip":"65710"},{"name":"İSLAM MAH.","zip":"65710"},{"name":"KARTAL MAH.","zip":"65710"},{"name":"KAŞIKÇILAR MAH.","zip":"65710"},{"name":"PAŞAKÖY MAH.","zip":"65710"},{"name":"ŞİŞLİ MAH.","zip":"65710"},{"name":"ULUBEYLİ MAH.","zip":"65710"},{"name":"ÜNLÜCE MAH.","zip":"65710"},{"name":"YAŞLIKAVAK MAH.","zip":"65710"},{"name":"YAYLAKONAK MAH.","zip":"65710"}]},{"name":"BAŞKALE","cityName":null,"quarters":[{"name":"AKÇALI MAH.","zip":"65600"},{"name":"ALBAYRAK MAH.","zip":"65600"},{"name":"AŞAĞIKÜME MAH.","zip":"65600"},{"name":"AŞALAN MAH.","zip":"65600"},{"name":"ATLILAR MAH.","zip":"65600"},{"name":"AYDEMİR MAH.","zip":"65600"},{"name":"AZIKLI MAH.","zip":"65600"},{"name":"BARIŞ MAH.","zip":"65600"},{"name":"BELENCİK MAH.","zip":"65600"},{"name":"BEŞOCAK MAH.","zip":"65600"},{"name":"BİLGEÇ MAH.","zip":"65600"},{"name":"BÖĞRÜPEK MAH.","zip":"65600"},{"name":"BÖLEKLİ MAH.","zip":"65600"},{"name":"BÜKLÜMDERE MAH.","zip":"65600"},{"name":"ÇAKIRDOĞAN MAH.","zip":"65600"},{"name":"ÇALDIRAN MAH.","zip":"65600"},{"name":"DEREİÇİ MAH.","zip":"65600"},{"name":"DERİNGEÇİT MAH.","zip":"65600"},{"name":"EKECEK MAH.","zip":"65600"},{"name":"EREK MAH.","zip":"65600"},{"name":"ERKONAĞI MAH.","zip":"65600"},{"name":"ESENYAMAÇ MAH.","zip":"65600"},{"name":"EŞMEPINAR MAH.","zip":"65600"},{"name":"GEDİKBAŞI MAH.","zip":"65600"},{"name":"GELENLER MAH.","zip":"65600"},{"name":"GÜLEÇLER MAH.","zip":"65600"},{"name":"GÜROLUK MAH.","zip":"65600"},{"name":"GÜVENDİK MAH.","zip":"65600"},{"name":"HAFİZİYE MAH.","zip":"65600"},{"name":"HASANBEY MAH.","zip":"65600"},{"name":"ILICAK MAH.","zip":"65600"},{"name":"IŞIKLI MAH.","zip":"65600"},{"name":"KAŞKOL MAH.","zip":"65600"},{"name":"KAVURGALI MAH.","zip":"65600"},{"name":"KEÇİLİOBA MAH.","zip":"65600"},{"name":"KIZILCA MAH.","zip":"65600"},{"name":"KOCAKÖY MAH.","zip":"65600"},{"name":"KOÇDAĞI MAH.","zip":"65600"},{"name":"KONUKSAYAR MAH.","zip":"65600"},{"name":"KOVALIPINAR MAH.","zip":"65600"},{"name":"KÖPRÜAĞZI MAH.","zip":"65600"},{"name":"MAHMUTABAT MAH.","zip":"65600"},{"name":"OĞULVEREN MAH.","zip":"65600"},{"name":"ORTAYAZI MAH.","zip":"65600"},{"name":"ORTAYOL MAH.","zip":"65600"},{"name":"ÖMERDAĞI MAH.","zip":"65600"},{"name":"ÖNCÜLER MAH.","zip":"65600"},{"name":"ÖRENCİK MAH.","zip":"65600"},{"name":"ÖRENKALE MAH.","zip":"65600"},{"name":"ÖZPINAR MAH.","zip":"65600"},{"name":"SAÇAN MAH.","zip":"65600"},{"name":"SALLIDERE MAH.","zip":"65600"},{"name":"SAVAŞKÖY MAH.","zip":"65600"},{"name":"TAHIL MAH.","zip":"65600"},{"name":"TEPEBAŞI MAH.","zip":"65600"},{"name":"TINAZLI MAH.","zip":"65600"},{"name":"UĞURLU MAH.","zip":"65600"},{"name":"YANAL MAH.","zip":"65600"},{"name":"YAVUZLAR MAH.","zip":"65600"},{"name":"YENİ MAH.","zip":"65600"},{"name":"YOLMAÇAYIR MAH.","zip":"65600"},{"name":"YUKARIDALLI MAH.","zip":"65600"},{"name":"YUKARIDARICA MAH.","zip":"65600"},{"name":"YUKARIDİKMEN MAH.","zip":"65600"},{"name":"YURTTEPE MAH.","zip":"65600"}]},{"name":"ÇALDIRAN","cityName":null,"quarters":[{"name":"ALAKAYA MAH.","zip":"65970"},{"name":"ALİKELLE MAH.","zip":"65970"},{"name":"ALTIYOL MAH.","zip":"65970"},{"name":"AŞAĞIÇANAK MAH.","zip":"65970"},{"name":"AŞAĞIDİKME MAH.","zip":"65970"},{"name":"AŞAĞIGÜLDEREN MAH.","zip":"65970"},{"name":"AŞAĞIKUYUCAK MAH.","zip":"65970"},{"name":"AŞAĞIMUTLU MAH.","zip":"65970"},{"name":"AŞAĞIYANIKTAŞ MAH.","zip":"65970"},{"name":"AVCIBAŞI MAH.","zip":"65970"},{"name":"AYRANCILAR MAH.","zip":"65970"},{"name":"BAŞEĞMEZ MAH.","zip":"65970"},{"name":"BEYAZIT MAH.","zip":"65970"},{"name":"BEYDOĞAN MAH.","zip":"65970"},{"name":"BEZİRHANE MAH.","zip":"65970"},{"name":"BUĞULUKAYNAK MAH.","zip":"65970"},{"name":"BURÇAKALAN MAH.","zip":"65970"},{"name":"CUMHURİYET MAH.","zip":"65970"},{"name":"ÇAYIRKÖY MAH.","zip":"65970"},{"name":"ÇUBUKLU MAH.","zip":"65970"},{"name":"DEMİRCİK MAH.","zip":"65970"},{"name":"DİREKLİ MAH.","zip":"65970"},{"name":"DOYUMALAN MAH.","zip":"65970"},{"name":"ERGİNLER MAH.","zip":"65970"},{"name":"EVCİLER MAH.","zip":"65970"},{"name":"FATİH SULTAN MEHMET MAH.","zip":"65970"},{"name":"GÜLYOLU MAH.","zip":"65970"},{"name":"GÜNGÖREN MAH.","zip":"65970"},{"name":"HANGEDİĞİ MAH.","zip":"65970"},{"name":"HANKÖY MAH.","zip":"65970"},{"name":"İNCEALAN MAH.","zip":"65970"},{"name":"İSMAİLBABA MAH.","zip":"65970"},{"name":"KALKANDELEN MAH.","zip":"65970"},{"name":"KARADULDA MAH.","zip":"65970"},{"name":"KAŞIM MAH.","zip":"65970"},{"name":"KILAVUZ MAH.","zip":"65970"},{"name":"KIŞLA MAH.","zip":"65970"},{"name":"KİLİMLİ MAH.","zip":"65970"},{"name":"KOÇOVASI MAH.","zip":"65970"},{"name":"KURTOĞLAN MAH.","zip":"65970"},{"name":"KUSKUNKIRAN MAH.","zip":"65970"},{"name":"OSMANLI MAH.","zip":"65970"},{"name":"RECEP TAYYİP ERDOĞAN MAH.","zip":"65970"},{"name":"SALAHANE MAH.","zip":"65970"},{"name":"SARIÇİMEN MAH.","zip":"65970"},{"name":"SARIHARMAN MAH.","zip":"65970"},{"name":"SELLİK MAH.","zip":"65970"},{"name":"SERPMETAŞ MAH.","zip":"65970"},{"name":"SOĞUKSU MAH.","zip":"65970"},{"name":"SUNGUR MAH.","zip":"65970"},{"name":"TEKİNDERE MAH.","zip":"65970"},{"name":"TEMRENLİ MAH.","zip":"65970"},{"name":"TOPRAKSEVEN MAH.","zip":"65970"},{"name":"UMUTTEPE MAH.","zip":"65970"},{"name":"YAĞIBASAN MAH.","zip":"65970"},{"name":"YASSITEPE MAH.","zip":"65970"},{"name":"YAVUZ SELİM MAH.","zip":"65970"},{"name":"YAYKILIÇ MAH.","zip":"65970"},{"name":"YENİYAKA MAH.","zip":"65970"},{"name":"YUKARIÇANAK MAH.","zip":"65970"},{"name":"YUKARIDİKME MAH.","zip":"65970"},{"name":"YUKARIGÜLDEREN MAH.","zip":"65970"},{"name":"YUKARIKUYUCAK MAH.","zip":"65970"},{"name":"YUKARIMUTLU MAH.","zip":"65970"},{"name":"YUKARISAĞMALLI MAH.","zip":"65970"},{"name":"YUKARIYANIKTAŞ MAH.","zip":"65970"},{"name":"YUVACIK MAH.","zip":"65970"},{"name":"YÜCELEN MAH.","zip":"65970"},{"name":"ZÜLFİBULAK MAH.","zip":"65970"}]},{"name":"ÇATAK","cityName":null,"quarters":[{"name":"AĞAÇLIK MAH.","zip":"65870"},{"name":"AKÇABÜK MAH.","zip":"65870"},{"name":"ALACAYAR MAH.","zip":"65870"},{"name":"ANDİÇEN MAH.","zip":"65870"},{"name":"AŞAĞINARLICA MAH.","zip":"65870"},{"name":"ATLIHAN MAH.","zip":"65870"},{"name":"BAHÇELİEVLER MAH.","zip":"65870"},{"name":"BİLGİ MAH.","zip":"65870"},{"name":"BOYUNPINAR MAH.","zip":"65870"},{"name":"CUMHURİYET MAH.","zip":"65870"},{"name":"ÇILGA MAH.","zip":"65870"},{"name":"DALBASTI MAH.","zip":"65870"},{"name":"DEREBAŞI MAH.","zip":"65870"},{"name":"DOKUZDAM MAH.","zip":"65870"},{"name":"ELİAÇIK MAH.","zip":"65870"},{"name":"GÖRENTAŞ MAH.","zip":"65870"},{"name":"HACIOSMAN MAH.","zip":"65870"},{"name":"IŞINLI MAH.","zip":"65870"},{"name":"KAÇIT MAH.","zip":"65870"},{"name":"KARŞIYAKA MAH.","zip":"65870"},{"name":"KONALGA MAH.","zip":"65870"},{"name":"KORULU MAH.","zip":"65870"},{"name":"NARLI MAH.","zip":"65870"},{"name":"ONAĞIL MAH.","zip":"65870"},{"name":"ÖVECEK MAH.","zip":"65870"},{"name":"SELÇUKLU MAH.","zip":"65870"},{"name":"SIRMALI MAH.","zip":"65870"},{"name":"SÖZVEREN MAH.","zip":"65870"},{"name":"SUGELDİ MAH.","zip":"65870"},{"name":"TEKNECİK MAH.","zip":"65870"},{"name":"TOYGA MAH.","zip":"65870"},{"name":"UZUNTEKNE MAH.","zip":"65870"},{"name":"YUKARINARLICA MAH.","zip":"65870"}]},{"name":"GÜMÜŞDERE","cityName":null,"quarters":[{"name":"ERDEMKENT MAH.","zip":"65170"},{"name":"YENİ CAMİ MAH.","zip":"65170"},{"name":"YENİ MAH.","zip":"65170"}]},{"name":"SÜPHAN","cityName":null,"quarters":[{"name":"ANDAÇ MAH.","zip":"65300"},{"name":"AYAZPINAR MAH.","zip":"65300"},{"name":"BAKACIK MAH.","zip":"65300"},{"name":"BAKIMLI MAH.","zip":"65300"},{"name":"ÇAYIRBAŞI MAH.","zip":"65300"},{"name":"ÇİÇEKLİ MAH.","zip":"65300"},{"name":"DİLKAYA MAH.","zip":"65300"},{"name":"DOĞANLAR MAH.","zip":"65300"},{"name":"DÖNEMEÇ MAH.","zip":"65300"},{"name":"EMİNPAŞA MAH.","zip":"65300"},{"name":"ENGİNSU MAH.","zip":"65300"},{"name":"ERENKENT MAH.","zip":"65300"},{"name":"ESENTEPE MAH.","zip":"65300"},{"name":"ESKİ CAMİ MAH.","zip":"65300"},{"name":"FIRAT MAH.","zip":"65300"},{"name":"GÖLKAŞI MAH.","zip":"65300"},{"name":"KAVURMA MAH.","zip":"65300"},{"name":"KIYICAK MAH.","zip":"65300"},{"name":"KÖKLÜ MAH.","zip":"65300"},{"name":"KÖPRÜLER MAH.","zip":"65300"},{"name":"KÖŞKKÖY MAH.","zip":"65300"},{"name":"KURUBAŞ MAH.","zip":"65300"},{"name":"MÜLK MAH.","zip":"65300"},{"name":"SÜPHAN MAH.","zip":"65300"},{"name":"ŞABANİYE MAH.","zip":"65300"},{"name":"TAŞKONAK MAH.","zip":"65300"}]},{"name":"ERCİŞ","cityName":null,"quarters":[{"name":"ADNAN MENDERES MAH.","zip":"65400"},{"name":"AĞAÇÖREN MAH.","zip":"65400"},{"name":"AĞIRKAYA MAH.","zip":"65400"},{"name":"AKBAŞ MAH.","zip":"65400"},{"name":"AKÇAYUVA MAH.","zip":"65400"},{"name":"AKSAKAL MAH.","zip":"65400"},{"name":"ALKANAT MAH.","zip":"65400"},{"name":"AŞAĞIAKÇAGEDİK MAH.","zip":"65400"},{"name":"AŞAĞIÇÖKEK MAH.","zip":"65400"},{"name":"AŞAĞIGÖZE MAH.","zip":"65400"},{"name":"AŞAĞIIŞIKLI MAH.","zip":"65400"},{"name":"AŞAĞIKOZLUCA MAH.","zip":"65400"},{"name":"BAYRAMLI MAH.","zip":"65400"},{"name":"BEYAZIT MAH.","zip":"65400"},{"name":"BOZYAKA MAH.","zip":"65400"},{"name":"BUCAKÖNÜ MAH.","zip":"65400"},{"name":"CAMİİKEBİR MAH.","zip":"65400"},{"name":"ÇAKIRBEY MAH.","zip":"65400"},{"name":"ÇATAKDİBİ MAH.","zip":"65400"},{"name":"ÇATALTEPE MAH.","zip":"65400"},{"name":"ÇELEBİBAĞI MAH.","zip":"65400"},{"name":"ÇETİNTAŞ MAH.","zip":"65400"},{"name":"ÇINARLI MAH.","zip":"65400"},{"name":"ÇİMEN MAH.","zip":"65400"},{"name":"ÇOBANDÜZÜ MAH.","zip":"65400"},{"name":"ÇUBUKLU MAH.","zip":"65400"},{"name":"DELİÇAY MAH.","zip":"65400"},{"name":"DEREKENT MAH.","zip":"65400"},{"name":"DERİMEVİ MAH.","zip":"65400"},{"name":"DİNLENCE MAH.","zip":"65400"},{"name":"DOĞANCI MAH.","zip":"65400"},{"name":"DOLUCA MAH.","zip":"65400"},{"name":"DURACAK MAH.","zip":"65400"},{"name":"DÜVENCİ MAH.","zip":"65400"},{"name":"EKİCİLER MAH.","zip":"65400"},{"name":"ERGÜCÜ MAH.","zip":"65400"},{"name":"EVBEYLİ MAH.","zip":"65400"},{"name":"GEDİKDİBİ MAH.","zip":"65400"},{"name":"GERGİLİ MAH.","zip":"65400"},{"name":"GÖKOĞLAN MAH.","zip":"65400"},{"name":"GÖLAĞZI MAH.","zip":"65400"},{"name":"GÖRÜŞLÜ MAH.","zip":"65400"},{"name":"GÖZÜTOK MAH.","zip":"65400"},{"name":"GÜLTEPE MAH.","zip":"65400"},{"name":"GÜMÜŞOLUK MAH.","zip":"65400"},{"name":"HACIKAŞ MAH.","zip":"65400"},{"name":"HASANABDAL MAH.","zip":"65400"},{"name":"HAYDARBEY MAH.","zip":"65400"},{"name":"HOCAALİ MAH.","zip":"65400"},{"name":"İKİZÇALI MAH.","zip":"65400"},{"name":"İŞBAŞI MAH.","zip":"65400"},{"name":"KADİRASKER MAH.","zip":"65400"},{"name":"KARATAVUK MAH.","zip":"65400"},{"name":"KARDOĞAN MAH.","zip":"65400"},{"name":"KARLIYAYLA MAH.","zip":"65400"},{"name":"KASIMBAĞI MAH.","zip":"65400"},{"name":"KAYABOYUN MAH.","zip":"65400"},{"name":"KEKİKSIRTI MAH.","zip":"65400"},{"name":"KEKLİKOVA MAH.","zip":"65400"},{"name":"KIRKDEĞİRMEN MAH.","zip":"65400"},{"name":"KIRKPINAR MAH.","zip":"65400"},{"name":"KIŞLA MAH.","zip":"65400"},{"name":"KIZILÖREN MAH.","zip":"65400"},{"name":"KOCAPINAR MAH.","zip":"65400"},{"name":"KOÇKÖPRÜ MAH.","zip":"65400"},{"name":"KÖYCÜK MAH.","zip":"65400"},{"name":"LATİFİYE MAH.","zip":"65400"},{"name":"MAĞARA MAH.","zip":"65400"},{"name":"NİŞANCI MAH.","zip":"65400"},{"name":"ORTAYAYLA MAH.","zip":"65400"},{"name":"OYALI MAH.","zip":"65400"},{"name":"ÖRENE MAH.","zip":"65400"},{"name":"PAYKÖY MAH.","zip":"65400"},{"name":"PINARLI MAH.","zip":"65400"},{"name":"SABANBÜKEN MAH.","zip":"65400"},{"name":"SAHİL KENT MAH.","zip":"65400"},{"name":"SALİHİYE MAH.","zip":"65400"},{"name":"SALMANAĞA MAH.","zip":"65400"},{"name":"SÖĞÜTLÜ MAH.","zip":"65400"},{"name":"ŞEHİRPAZAR MAH.","zip":"65400"},{"name":"ŞEREFLİ MAH.","zip":"65400"},{"name":"TAŞEVLER MAH.","zip":"65400"},{"name":"TAŞKAPI MAH.","zip":"65400"},{"name":"TAŞLIÇAY MAH.","zip":"65400"},{"name":"TEKEVLER MAH.","zip":"65400"},{"name":"TEKLER MAH.","zip":"65400"},{"name":"TOPRAKLI MAH.","zip":"65400"},{"name":"ULUPAMİR MAH.","zip":"65400"},{"name":"UNCULAR MAH.","zip":"65400"},{"name":"VANYOLU MAH.","zip":"65400"},{"name":"YALINDAM MAH.","zip":"65400"},{"name":"YANKITEPE MAH.","zip":"65400"},{"name":"YEŞİLOVA MAH.","zip":"65400"},{"name":"YETİŞEN MAH.","zip":"65400"},{"name":"YILANLI MAH.","zip":"65400"},{"name":"YOLDERE MAH.","zip":"65400"},{"name":"YÖRELİ MAH.","zip":"65400"},{"name":"YUKARIAKÇAGEDİK MAH.","zip":"65400"},{"name":"YUKARIIŞIKLI MAH.","zip":"65400"},{"name":"YÜNÖREN MAH.","zip":"65400"}]},{"name":"GEVAŞ","cityName":null,"quarters":[{"name":"AKDAMAR MAH.","zip":"65700"},{"name":"ALADÜZ MAH.","zip":"65700"},{"name":"ALTINSAÇ MAH.","zip":"65700"},{"name":"ANAKÖY MAH.","zip":"65700"},{"name":"ATALAN MAH.","zip":"65700"},{"name":"AYDINOCAK MAH.","zip":"65700"},{"name":"BAĞLAMA MAH.","zip":"65700"},{"name":"BAHÇELİEVLER MAH.","zip":"65700"},{"name":"DAĞYÖRE MAH.","zip":"65700"},{"name":"DALDERE MAH.","zip":"65700"},{"name":"DEĞİRMİTAŞ MAH.","zip":"65700"},{"name":"DİLMETAŞ MAH.","zip":"65700"},{"name":"DOKUZAĞAÇ MAH.","zip":"65700"},{"name":"ELMALI MAH.","zip":"65700"},{"name":"GÖRÜNDÜ MAH.","zip":"65700"},{"name":"GÜNDOĞAN MAH.","zip":"65700"},{"name":"HASBEY MAH.","zip":"65700"},{"name":"HİŞET MAH.","zip":"65700"},{"name":"İKİZLER MAH.","zip":"65700"},{"name":"İNKÖY MAH.","zip":"65700"},{"name":"KARŞIYAKA MAH.","zip":"65700"},{"name":"KAYALAR MAH.","zip":"65700"},{"name":"KAZANÇ MAH.","zip":"65700"},{"name":"KIZILTAŞ MAH.","zip":"65700"},{"name":"KOÇAK MAH.","zip":"65700"},{"name":"KURULTU MAH.","zip":"65700"},{"name":"KUŞLUK MAH.","zip":"65700"},{"name":"ORTA MAH.","zip":"65700"},{"name":"PINARBAŞI MAH.","zip":"65700"},{"name":"SELİMİYE MAH.","zip":"65700"},{"name":"TİMAR MAH.","zip":"65700"},{"name":"TÖRELİ MAH.","zip":"65700"},{"name":"UĞURVEREN MAH.","zip":"65700"},{"name":"YANIKÇAY MAH.","zip":"65700"},{"name":"YEMİŞLİK MAH.","zip":"65700"},{"name":"YOLDÖNDÜ MAH.","zip":"65700"},{"name":"YUVA MAH.","zip":"65700"}]},{"name":"GÜRPINAR","cityName":null,"quarters":[{"name":"AKDOĞU MAH.","zip":"65900"},{"name":"AKPINAR MAH.","zip":"65900"},{"name":"ALNIAK MAH.","zip":"65900"},{"name":"ARINDI MAH.","zip":"65900"},{"name":"AŞAĞIKAYMAZ MAH.","zip":"65900"},{"name":"BAĞRIYANIK MAH.","zip":"65900"},{"name":"BEŞBUDAK MAH.","zip":"65900"},{"name":"BOZYİĞİT MAH.","zip":"65900"},{"name":"BÖLMEÇALI MAH.","zip":"65900"},{"name":"BÜKEÇ MAH.","zip":"65900"},{"name":"CEVİZALAN MAH.","zip":"65900"},{"name":"CUMHURİYET MAH.","zip":"65900"},{"name":"ÇAKINLI MAH.","zip":"65900"},{"name":"ÇATAKDİBİ MAH.","zip":"65900"},{"name":"ÇAVUŞTEPE MAH.","zip":"65900"},{"name":"ÇEPKENLİ MAH.","zip":"65900"},{"name":"ÇÖREKLİ MAH.","zip":"65900"},{"name":"DAĞSEVEN MAH.","zip":"65900"},{"name":"DEĞİRMENDÜZÜ MAH.","zip":"65900"},{"name":"DİKBIYIK MAH.","zip":"65900"},{"name":"DOLAYLI MAH.","zip":"65900"},{"name":"DOLUÇIKIN MAH.","zip":"65900"},{"name":"ELAÇMAZ MAH.","zip":"65900"},{"name":"ERKALDI MAH.","zip":"65900"},{"name":"GEÇERLİ MAH.","zip":"65900"},{"name":"GEZİYURT MAH.","zip":"65900"},{"name":"GİYİMLİ MAH.","zip":"65900"},{"name":"GÖLARDI MAH.","zip":"65900"},{"name":"GÜLEÇLER MAH.","zip":"65900"},{"name":"GÜNBAŞI MAH.","zip":"65900"},{"name":"GÜZELSU MAH.","zip":"65900"},{"name":"HACIKÖY MAH.","zip":"65900"},{"name":"HAMURKESEN MAH.","zip":"65900"},{"name":"IŞIKPINAR MAH.","zip":"65900"},{"name":"KALKANLI MAH.","zip":"65900"},{"name":"KAPÇIK MAH.","zip":"65900"},{"name":"KARAKOÇ MAH.","zip":"65900"},{"name":"KILIÇTUTAN MAH.","zip":"65900"},{"name":"KIRKGEÇİT MAH.","zip":"65900"},{"name":"KOÇGÜDEN MAH.","zip":"65900"},{"name":"KOYUNYATAĞI MAH.","zip":"65900"},{"name":"KUŞDAĞI MAH.","zip":"65900"},{"name":"MOLLAHÜSEYİN MAH.","zip":"65900"},{"name":"MURATALDI MAH.","zip":"65900"},{"name":"OĞULDAMI MAH.","zip":"65900"},{"name":"ONGUN MAH.","zip":"65900"},{"name":"ORTAKÖY MAH.","zip":"65900"},{"name":"OTBİÇER MAH.","zip":"65900"},{"name":"ÖRMELİ MAH.","zip":"65900"},{"name":"ÖVEÇLİ MAH.","zip":"65900"},{"name":"ÖZLÜCE MAH.","zip":"65900"},{"name":"PARMAKKAPI MAH.","zip":"65900"},{"name":"SAKALAR MAH.","zip":"65900"},{"name":"SAPAKONAK MAH.","zip":"65900"},{"name":"SAVACIK MAH.","zip":"65900"},{"name":"SEVİNDİK MAH.","zip":"65900"},{"name":"SICAKSU MAH.","zip":"65900"},{"name":"SÜTLÜCE MAH.","zip":"65900"},{"name":"TAŞDÖNDÜREN MAH.","zip":"65900"},{"name":"TAŞLIYAZI MAH.","zip":"65900"},{"name":"TEPEGÖREN MAH.","zip":"65900"},{"name":"TOPÇUDEĞİRMENİ MAH.","zip":"65900"},{"name":"TOPSAKAL MAH.","zip":"65900"},{"name":"TOPYILDIZ MAH.","zip":"65900"},{"name":"TUTAK MAH.","zip":"65900"},{"name":"TUTMAÇ MAH.","zip":"65900"},{"name":"UMUT MAH.","zip":"65900"},{"name":"UZUNGEDİK MAH.","zip":"65900"},{"name":"ÜÇDOĞAN MAH.","zip":"65900"},{"name":"ÜÇGEN MAH.","zip":"65900"},{"name":"YALINCA MAH.","zip":"65900"},{"name":"YARAMIŞ MAH.","zip":"65900"},{"name":"YATAĞAN MAH.","zip":"65900"},{"name":"YEDİSALKIM MAH.","zip":"65900"},{"name":"YOLAŞAN MAH.","zip":"65900"},{"name":"YOLDÜŞTÜ MAH.","zip":"65900"},{"name":"YUKARIKAYMAZ MAH.","zip":"65900"},{"name":"YURTBAŞI MAH.","zip":"65900"}]},{"name":"ERÇEK","cityName":null,"quarters":[{"name":"AKTAŞ MAH.","zip":"65210"},{"name":"ALİPAŞA MAH.","zip":"65210"}]},{"name":"VALİMİTATBEY","cityName":null,"quarters":[{"name":"AŞAĞIÇİTLİ MAH.","zip":"65100"},{"name":"AŞAĞIGÖLALAN MAH.","zip":"65100"},{"name":"BAHÇIVAN MAH.","zip":"65100"},{"name":"BAKLATEPE MAH.","zip":"65100"},{"name":"BAKRAÇLI MAH.","zip":"65100"},{"name":"BEŞÇATAK MAH.","zip":"65100"},{"name":"BOSTANİÇİ MAH.","zip":"65100"},{"name":"BUZHANE MAH.","zip":"65100"},{"name":"CEVDET PAŞA MAH.","zip":"65100"},{"name":"CUMHURİYET MAH.","zip":"65100"},{"name":"ÇALIMLI MAH.","zip":"65100"},{"name":"DEĞİRMENARKI MAH.","zip":"65100"},{"name":"DEĞİRMENKÖY MAH.","zip":"65100"},{"name":"DEREÜSTÜ MAH.","zip":"65100"},{"name":"DİBEKLİ MAH.","zip":"65100"},{"name":"ERÇEK MAH.","zip":"65100"},{"name":"ESENLER MAH.","zip":"65100"},{"name":"GÖVELEK MAH.","zip":"65100"},{"name":"HACIBEKİR MAH.","zip":"65100"},{"name":"HAFİZİYE MAH.","zip":"65100"},{"name":"HALİLAĞA MAH.","zip":"65100"},{"name":"HATUNİYE MAH.","zip":"65100"},{"name":"ILIKAYNAK MAH.","zip":"65100"},{"name":"IRGAT MAH.","zip":"65100"},{"name":"KARAGÜNDÜZ MAH.","zip":"65100"},{"name":"KARAKOÇ MAH.","zip":"65100"},{"name":"KARPUZALANI MAH.","zip":"65100"},{"name":"KARŞIYAKA MAH.","zip":"65100"},{"name":"KAVUNCU MAH.","zip":"65100"},{"name":"KAYMAKLI MAH.","zip":"65100"},{"name":"KEVENLİ MAH.","zip":"65100"},{"name":"KIRATLI MAH.","zip":"65100"},{"name":"KÖŞEBAŞI MAH.","zip":"65100"},{"name":"ORTANCA MAH.","zip":"65100"},{"name":"SARMAÇ MAH.","zip":"65100"},{"name":"SELİMBEY MAH.","zip":"65100"},{"name":"SERHAT MAH.","zip":"65100"},{"name":"SEYİT FEHİM ARVASİ MAH.","zip":"65100"},{"name":"ŞEREFİYE MAH.","zip":"65100"},{"name":"VALİ MİTHAT BEY MAH.","zip":"65100"},{"name":"YALI MAH.","zip":"65100"},{"name":"YALINAĞAÇ MAH.","zip":"65100"},{"name":"YATIKSIRT MAH.","zip":"65100"},{"name":"YENİ MAH.","zip":"65100"},{"name":"YUKARIGÖLALAN MAH.","zip":"65100"},{"name":"YUKARIGÜNEYCE MAH.","zip":"65100"}]},{"name":"MURADİYE","cityName":null,"quarters":[{"name":"ADAKLI MAH.","zip":"65500"},{"name":"AKBULAK MAH.","zip":"65500"},{"name":"AKÇAÇAY MAH.","zip":"65500"},{"name":"ALKASNAK MAH.","zip":"65500"},{"name":"AŞAĞIARGIT MAH.","zip":"65500"},{"name":"BABACAN MAH.","zip":"65500"},{"name":"BALAKLI MAH.","zip":"65500"},{"name":"BEŞPARMAK MAH.","zip":"65500"},{"name":"BEYDAĞI MAH.","zip":"65500"},{"name":"ÇAKMAK MAH.","zip":"65500"},{"name":"ÇİÇEKLİ MAH.","zip":"65500"},{"name":"DAĞÖREN MAH.","zip":"65500"},{"name":"DEVETAŞ MAH.","zip":"65500"},{"name":"DOĞANGÜN MAH.","zip":"65500"},{"name":"DÜRÜKKAŞ MAH.","zip":"65500"},{"name":"ERİŞEN MAH.","zip":"65500"},{"name":"ESENKOÇ MAH.","zip":"65500"},{"name":"FATİH MAH.","zip":"65500"},{"name":"FEVZİ ÇAKMAK MAH.","zip":"65500"},{"name":"GÖNDERME MAH.","zip":"65500"},{"name":"GÖRECEK MAH.","zip":"65500"},{"name":"GÜLLÜÇİMEN MAH.","zip":"65500"},{"name":"GÜLTEPE MAH.","zip":"65500"},{"name":"GÜMÜŞTEPE MAH.","zip":"65500"},{"name":"KANDAHAR MAH.","zip":"65500"},{"name":"KARAHAN MAH.","zip":"65500"},{"name":"KARAOĞLAN MAH.","zip":"65500"},{"name":"KEÇİKIRAN MAH.","zip":"65500"},{"name":"KEMERKÖPRÜ MAH.","zip":"65500"},{"name":"KOCASABAN MAH.","zip":"65500"},{"name":"KÖŞK MAH.","zip":"65500"},{"name":"KUŞÇU MAH.","zip":"65500"},{"name":"OTLAKBAŞI MAH.","zip":"65500"},{"name":"OVAPINAR MAH.","zip":"65500"},{"name":"SARIMEMET MAH.","zip":"65500"},{"name":"SÜRÜYOLU MAH.","zip":"65500"},{"name":"ŞEHİTMEHMETBEY MAH.","zip":"65500"},{"name":"TANSU MAH.","zip":"65500"},{"name":"TOPUZARPA MAH.","zip":"65500"},{"name":"ULUŞAR MAH.","zip":"65500"},{"name":"ÜNSELİ MAH.","zip":"65500"},{"name":"YAKINCAK MAH.","zip":"65500"},{"name":"YALINDÜZ MAH.","zip":"65500"},{"name":"YAVUZSELİM MAH.","zip":"65500"},{"name":"YENİŞEHİR MAH.","zip":"65500"},{"name":"YUKARIARGIT MAH.","zip":"65500"},{"name":"YUMAKLI MAH.","zip":"65500"}]},{"name":"ÖZALP","cityName":null,"quarters":[{"name":"ALTINBOĞA MAH.","zip":"65800"},{"name":"AŞAĞIAKÇAGÜL MAH.","zip":"65800"},{"name":"AŞAĞIBALÇIKLI MAH.","zip":"65800"},{"name":"AŞAĞIKOÇKIRAN MAH.","zip":"65800"},{"name":"AŞAĞIMOLLAHASAN MAH.","zip":"65800"},{"name":"AŞAĞITULGALI MAH.","zip":"65800"},{"name":"AŞAĞIYORGANLI MAH.","zip":"65800"},{"name":"BAĞRIAÇIK MAH.","zip":"65800"},{"name":"BODURAĞAÇ MAH.","zip":"65800"},{"name":"BOĞAZKESEN MAH.","zip":"65800"},{"name":"BOYALDI MAH.","zip":"65800"},{"name":"CUMHURİYET MAH.","zip":"65800"},{"name":"ÇAMURLU MAH.","zip":"65800"},{"name":"ÇAVUŞLAR MAH.","zip":"65800"},{"name":"ÇIRAKKÖY MAH.","zip":"65800"},{"name":"ÇUBUKLU MAH.","zip":"65800"},{"name":"DAĞDEVİREN MAH.","zip":"65800"},{"name":"DAMLACIK MAH.","zip":"65800"},{"name":"DORUTAY MAH.","zip":"65800"},{"name":"DÖNERDERE MAH.","zip":"65800"},{"name":"EĞRİBELEN MAH.","zip":"65800"},{"name":"EMEK MAH.","zip":"65800"},{"name":"GÖZDEĞMEZ MAH.","zip":"65800"},{"name":"GÜLTEPE MAH.","zip":"65800"},{"name":"GÜNYÜZLÜ MAH.","zip":"65800"},{"name":"HACIALİ MAH.","zip":"65800"},{"name":"HACIKIŞLAK MAH.","zip":"65800"},{"name":"HAZİNE MAH.","zip":"65800"},{"name":"İSTASYON MAH.","zip":"65800"},{"name":"KALECİK MAH.","zip":"65800"},{"name":"KARGALI MAH.","zip":"65800"},{"name":"KARLIYAMAÇ MAH.","zip":"65800"},{"name":"KAŞIKARA MAH.","zip":"65800"},{"name":"KIRKÇALI MAH.","zip":"65800"},{"name":"MAHMUDİYE MAH.","zip":"65800"},{"name":"MEHMETALAN MAH.","zip":"65800"},{"name":"MOLLATOPUZ MAH.","zip":"65800"},{"name":"OYMAKLI MAH.","zip":"65800"},{"name":"SAĞMALI MAH.","zip":"65800"},{"name":"SARIKÖY MAH.","zip":"65800"},{"name":"SAVATLI MAH.","zip":"65800"},{"name":"SEYDİBEY MAH.","zip":"65800"},{"name":"SUGEÇER MAH.","zip":"65800"},{"name":"ŞEHİTTEPE MAH.","zip":"65800"},{"name":"ŞEMSETTİN MAH.","zip":"65800"},{"name":"TEPEDAM MAH.","zip":"65800"},{"name":"YARIMKAYA MAH.","zip":"65800"},{"name":"YAVUZLAR MAH.","zip":"65800"},{"name":"YUKARIAYAZCA MAH.","zip":"65800"},{"name":"YUKARIBALÇIKLI MAH.","zip":"65800"},{"name":"YUKARIÇAVDARLIK MAH.","zip":"65800"},{"name":"YUKARIMOLLAHASAN MAH.","zip":"65800"},{"name":"YUKARITULGALI MAH.","zip":"65800"},{"name":"YUKARIYORGANLI MAH.","zip":"65800"},{"name":"YUMRUKLU MAH.","zip":"65800"},{"name":"YÜNKUŞAK MAH.","zip":"65800"}]},{"name":"SARAY","cityName":null,"quarters":[{"name":"BAKIŞIK MAH.","zip":"65830"},{"name":"BALTEPE MAH.","zip":"65830"},{"name":"BEYARSLAN MAH.","zip":"65830"},{"name":"ÇAKMAKKÖY MAH.","zip":"65830"},{"name":"ÇARTAK MAH.","zip":"65830"},{"name":"ÇAYBAĞI MAH.","zip":"65830"},{"name":"DEĞİRMİGÖL MAH.","zip":"65830"},{"name":"DOLUTAŞ MAH.","zip":"65830"},{"name":"FERİTMELEN MAH.","zip":"65830"},{"name":"KAPIKÖY MAH.","zip":"65830"},{"name":"KARAHİSAR MAH.","zip":"65830"},{"name":"KARGALI MAH.","zip":"65830"},{"name":"KAZIMPAŞA MAH.","zip":"65830"},{"name":"KAZLIGÖL MAH.","zip":"65830"},{"name":"KEÇİKAYASI MAH.","zip":"65830"},{"name":"KEKİKDÜZÜ MAH.","zip":"65830"},{"name":"KEPİR MAH.","zip":"65830"},{"name":"KOÇBAŞI MAH.","zip":"65830"},{"name":"KURUCAN MAH.","zip":"65830"},{"name":"MAHMUDİYE MAH.","zip":"65830"},{"name":"ÖRENBURÇ MAH.","zip":"65830"},{"name":"SIRIMLI MAH.","zip":"65830"},{"name":"TURANKÖY MAH.","zip":"65830"},{"name":"YAMANYURT MAH.","zip":"65830"},{"name":"YEŞİLAĞAÇ MAH.","zip":"65830"},{"name":"ZİNCİRKIRAN MAH.","zip":"65830"}]},{"name":"İSKELE","cityName":null,"quarters":[{"name":"ADIGÜZEL MAH.","zip":"65040"},{"name":"AĞARTI MAH.","zip":"65040"},{"name":"AKÇAÖREN MAH.","zip":"65040"},{"name":"AKÇİFT MAH.","zip":"65040"},{"name":"ALABAYIR MAH.","zip":"65040"},{"name":"ALAKÖY MAH.","zip":"65040"},{"name":"ALTINTEPE MAH.","zip":"65040"},{"name":"ARISU MAH.","zip":"65040"},{"name":"AŞIT MAH.","zip":"65040"},{"name":"ATMACA MAH.","zip":"65040"},{"name":"BAĞDAŞAN MAH.","zip":"65040"},{"name":"BARDAKÇI MAH.","zip":"65040"},{"name":"BEYÜZÜMÜ MAH.","zip":"65040"},{"name":"ÇAKIRBEY MAH.","zip":"65040"},{"name":"ÇİTÖREN MAH.","zip":"65040"},{"name":"ÇOBANOĞLU MAH.","zip":"65040"},{"name":"ÇOLPAN MAH.","zip":"65040"},{"name":"ÇOMAKLI MAH.","zip":"65040"},{"name":"DAĞÖNÜ MAH.","zip":"65040"},{"name":"DEĞİRMENÖZÜ MAH.","zip":"65040"},{"name":"DEREBEY MAH.","zip":"65040"},{"name":"DİBEKDÜZÜ MAH.","zip":"65040"},{"name":"DİLİMLİ MAH.","zip":"65040"},{"name":"ERMİŞLER MAH.","zip":"65040"},{"name":"ESENPINAR MAH.","zip":"65040"},{"name":"GEDELOVA MAH.","zip":"65040"},{"name":"GEDİKBULAK MAH.","zip":"65040"},{"name":"GÖLLÜ MAH.","zip":"65040"},{"name":"GÖLYAZI MAH.","zip":"65040"},{"name":"GÜLSÜNLER MAH.","zip":"65040"},{"name":"GÜVENÇLİ MAH.","zip":"65040"},{"name":"HALKALI MAH.","zip":"65040"},{"name":"HIDIRKÖY MAH.","zip":"65040"},{"name":"İSKELE MAH.","zip":"65040"},{"name":"KALECİK MAH.","zip":"65040"},{"name":"KARAAĞAÇ MAH.","zip":"65040"},{"name":"KASIMOĞLU MAH.","zip":"65040"},{"name":"KELLE MAH.","zip":"65040"},{"name":"KOÇKÖY MAH.","zip":"65040"},{"name":"KOLSATAN MAH.","zip":"65040"},{"name":"KOZLUCA MAH.","zip":"65040"},{"name":"KUMLUCA MAH.","zip":"65040"},{"name":"MEYDANCIK MAH.","zip":"65040"},{"name":"MOLLAKASIM MAH.","zip":"65040"},{"name":"OCAKLI MAH.","zip":"65040"},{"name":"OTLUCA MAH.","zip":"65040"},{"name":"ÖZKAYNAK MAH.","zip":"65040"},{"name":"ÖZYURT MAH.","zip":"65040"},{"name":"PİRGARİP MAH.","zip":"65040"},{"name":"SAĞLAMTAŞ MAH.","zip":"65040"},{"name":"SATIBEY MAH.","zip":"65040"},{"name":"SEYRANTEPE MAH.","zip":"65040"},{"name":"ŞAHGELDİ MAH.","zip":"65040"},{"name":"ŞEMSİBEY MAH.","zip":"65040"},{"name":"ŞEMSİBEYOSB MAH.","zip":"65040"},{"name":"TABANLI MAH.","zip":"65040"},{"name":"TEVEKLİ MAH.","zip":"65040"},{"name":"TOPAKTAŞ MAH.","zip":"65040"},{"name":"YALNIZAĞAÇ MAH.","zip":"65040"},{"name":"YAYLIYAKA MAH.","zip":"65040"},{"name":"YEMLİCE MAH.","zip":"65040"},{"name":"YENİKÖŞK MAH.","zip":"65040"},{"name":"YEŞİLKÖY MAH.","zip":"65040"},{"name":"YEŞİLSU MAH.","zip":"65040"},{"name":"YUMRUTEPE MAH.","zip":"65040"}]},{"name":"İSTASYON","cityName":null,"quarters":[{"name":"İSTASYON MAH.","zip":"65030"}]}]}]}