{"id":68,"name":"AKSARAY","cities":[{"name":"city","districts":[{"name":"AĞAÇÖREN","cityName":null,"quarters":[{"name":"YURTSEVER MAH.","zip":"68600"},{"name":"ZAFER MAH.","zip":"68600"}]},{"name":"MERKEZKÖYLER","cityName":null,"quarters":[{"name":"ABDİUŞAĞI KÖYÜ","zip":"68602"},{"name":"AHIRLI KÖYÜ","zip":"68602"},{"name":"AVŞAR KÖYÜ","zip":"68602"},{"name":"CAMİLİ KÖYÜ","zip":"68602"},{"name":"CUMHURİYET MAH.","zip":"68602"},{"name":"ÇATALÇEŞME KÖYÜ","zip":"68602"},{"name":"DADILAR KÖYÜ","zip":"68602"},{"name":"DEMİRCİLİ KÖYÜ","zip":"68602"},{"name":"FATİH MAH.","zip":"68602"},{"name":"GÖLLÜ KÖYÜ","zip":"68602"},{"name":"GÖYNÜK KÖYÜ","zip":"68602"},{"name":"GÜZELÖZ KÖYÜ","zip":"68602"},{"name":"HACIAHMETLİDAVUTLU KÖYÜ","zip":"68602"},{"name":"HACIAHMETLİTEPEKÖY KÖYÜ","zip":"68602"},{"name":"HACIİSMAİLLİ KÖYÜ","zip":"68602"},{"name":"HÜSREVKÖY KÖYÜ","zip":"68602"},{"name":"İYDELİ MAH.","zip":"68602"},{"name":"KARAPINAR MAH.","zip":"68602"},{"name":"KAŞIÇALIK KÖYÜ","zip":"68602"},{"name":"KEDERLİ KÖYÜ","zip":"68602"},{"name":"KILIÇLI KÖYÜ","zip":"68602"},{"name":"KIRIMİNİ KÖYÜ","zip":"68602"},{"name":"KURTİNİ KÖYÜ","zip":"68602"},{"name":"KÜTÜKLÜ KÖYÜ","zip":"68602"},{"name":"OYMAAĞAÇ KÖYÜ","zip":"68602"},{"name":"SARIAĞIL KÖYÜ","zip":"68602"},{"name":"SARIHASANLI KÖYÜ","zip":"68602"},{"name":"SOFULAR KÖYÜ","zip":"68602"},{"name":"ŞEHİT RASİM BOZKURT MAH.","zip":"68602"},{"name":"YAĞMURHÜYÜĞÜ KÖYÜ","zip":"68602"},{"name":"YENİCE KÖYÜ","zip":"68602"},{"name":"YENİŞABANLI KÖYÜ","zip":"68602"},{"name":"YILMAZLAR MAH.","zip":"68602"}]},{"name":"ESKİL","cityName":null,"quarters":[{"name":"CUMHURİYET MAH.","zip":"68800"},{"name":"FATİH MAH.","zip":"68800"},{"name":"FEVZİ ÇAKMAK MAH.","zip":"68800"},{"name":"HÜRRİYET MAH.","zip":"68800"},{"name":"İSTİKLAL MAH.","zip":"68800"},{"name":"KARŞIYAKA MAH.","zip":"68800"},{"name":"MERKEZ MAH.","zip":"68800"},{"name":"MİMAR SİNAN MAH.","zip":"68800"},{"name":"YILDIRIM MAH.","zip":"68800"},{"name":"ZAFER MAH.","zip":"68800"}]},{"name":"MERKEZKÖYLER","cityName":null,"quarters":[{"name":"BAYRAMDÜĞÜN KÖYÜ","zip":"68802"},{"name":"BAYRAMDÜĞÜN KÜMESİ MAH.","zip":"68802"},{"name":"BEZİRCİ YAYLASI MAH.","zip":"68802"},{"name":"BUTACI YAYLASI MAH.","zip":"68802"},{"name":"BÜĞET KÖYÜ","zip":"68802"},{"name":"CAMİKEBİR MAH.","zip":"68802"},{"name":"CELİL KÖYÜ","zip":"68802"},{"name":"CELİL KÜMESİ MAH.","zip":"68802"},{"name":"ÇAĞLAK YAYLASI MAH.","zip":"68802"},{"name":"ÇİMYAYLA MAH.","zip":"68802"},{"name":"ÇUKURYURT KÖYÜ","zip":"68802"},{"name":"ÇUKURYURT KÜMESİ MAH.","zip":"68802"},{"name":"DERE YAYLASI MAH.","zip":"68802"},{"name":"EŞMEKAYA KÖYÜ","zip":"68802"},{"name":"FİLİKÇİ KÖYÜ","zip":"68802"},{"name":"GEDİK YAYLASI MAH.","zip":"68802"},{"name":"GÖZERLİ YAYLASI MAH.","zip":"68802"},{"name":"GÜLLÜDERE YAYLASI MAH.","zip":"68802"},{"name":"GÜMÜŞDÜĞÜN KÖYÜ","zip":"68802"},{"name":"GÜNEŞLİ KÖYÜ","zip":"68802"},{"name":"HOCA YAYLASI MAH.","zip":"68802"},{"name":"KARABURUN YAYLASI MAH.","zip":"68802"},{"name":"KATRANCI KÖYÜ","zip":"68802"},{"name":"KATRANCI KÜMESİ MAH.","zip":"68802"},{"name":"KAYACIK MAH.","zip":"68802"},{"name":"KÖKEZ KÖYÜ","zip":"68802"},{"name":"SAĞSAK KÖYÜ","zip":"68802"},{"name":"SAĞSAK KÜMESİ MAH.","zip":"68802"},{"name":"ŞAVVEL YAYLASI MAH.","zip":"68802"},{"name":"YENİ MAH.","zip":"68802"},{"name":"YEŞİLYURT MAH.","zip":"68802"},{"name":"YUKARIBEZİRCİ YAYLASI MAH.","zip":"68802"}]},{"name":"GÜLAĞAÇ","cityName":null,"quarters":[{"name":"FATİH MAH.","zip":"68900"},{"name":"HÜRRİYET MAH.","zip":"68900"},{"name":"YENİ MAH.","zip":"68900"}]},{"name":"MERKEZKÖYLER","cityName":null,"quarters":[{"name":"BEKARLAR KÖYÜ","zip":"68902"},{"name":"CAMİLİÖREN KÖYÜ","zip":"68902"},{"name":"CUMHURİYET MAH.","zip":"68902"},{"name":"ÇATALSU KÖYÜ","zip":"68902"},{"name":"DEMİRCİ KÖYÜ","zip":"68902"},{"name":"ESKİCAMİ MAH.","zip":"68902"},{"name":"FATİH MAH.","zip":"68902"},{"name":"FEVZİ ÇAKMAK MAH.","zip":"68902"},{"name":"GÜLPINAR KÖYÜ","zip":"68902"},{"name":"HÜRREM MAH.","zip":"68902"},{"name":"HÜRRİYET MAH.","zip":"68902"},{"name":"İSTİKLAL MAH.","zip":"68902"},{"name":"KALEALTI MAH.","zip":"68902"},{"name":"KARŞIYAKA MAH.","zip":"68902"},{"name":"KAYABAŞI MAH.","zip":"68902"},{"name":"KIZILKAYA KÖYÜ","zip":"68902"},{"name":"KOYUNLU MAH.","zip":"68902"},{"name":"KURTULUŞ MAH.","zip":"68902"},{"name":"MEYDAN MAH.","zip":"68902"},{"name":"OSMANLI KÖYÜ","zip":"68902"},{"name":"PINARBAŞI KÖYÜ","zip":"68902"},{"name":"PINARBAŞI MAH.","zip":"68902"},{"name":"SARATLI KÖYÜ","zip":"68902"},{"name":"SOFULAR KÖYÜ","zip":"68902"},{"name":"SÜLEYMANHÜYÜĞÜ KÖYÜ","zip":"68902"},{"name":"TUZLA MAH.","zip":"68902"},{"name":"YAVUZ SELİM MAH.","zip":"68902"},{"name":"YENİPAZAR MAH.","zip":"68902"},{"name":"ZAFER MAH.","zip":"68902"}]},{"name":"GÜZELYURT","cityName":null,"quarters":[{"name":"AŞAĞI MAH.","zip":"68500"},{"name":"YENİ MAH.","zip":"68500"},{"name":"YUKARI MAH.","zip":"68500"}]},{"name":"MERKEZKÖYLER","cityName":null,"quarters":[{"name":"ALANYURT KÖYÜ","zip":"68502"},{"name":"BELİSIRMA KÖYÜ","zip":"68502"},{"name":"BOZCAYURT KÖYÜ","zip":"68502"},{"name":"GAZİEMİR KÖYÜ","zip":"68502"},{"name":"HARMANLIK MAH.","zip":"68502"},{"name":"IHLARA KÖYÜ","zip":"68502"},{"name":"ILISU KÖYÜ","zip":"68502"},{"name":"KARŞIYAKA MAH.","zip":"68502"},{"name":"KAYAALTI MAH.","zip":"68502"},{"name":"KAYAARDI MAH.","zip":"68502"},{"name":"KÖPRÜBAŞI MAH.","zip":"68502"},{"name":"MEYDAN MAH.","zip":"68502"},{"name":"SELİME KÖYÜ","zip":"68502"},{"name":"SİVRİHİSAR KÖYÜ","zip":"68502"},{"name":"UZUNKAYA KÖYÜ","zip":"68502"},{"name":"YAPRAKHİSAR KÖYÜ","zip":"68502"},{"name":"YENİ MAH.","zip":"68502"}]},{"name":"BAĞLIKAYA","cityName":null,"quarters":[{"name":"YENİMAHALLE MAH.","zip":"68120"}]},{"name":"ÇARŞI","cityName":null,"quarters":[{"name":"ARATOL İSTİKLAL MAH.","zip":"68100"},{"name":"BAHÇELİ MAH.","zip":"68100"},{"name":"BAHÇESARAY MAH.","zip":"68100"},{"name":"COĞLAKİ MAH.","zip":"68100"},{"name":"DERE MAH.","zip":"68100"},{"name":"EREĞLİKAPI MAH.","zip":"68100"},{"name":"FATİH MAH.","zip":"68100"},{"name":"HACIHASANLI MAH.","zip":"68100"},{"name":"HACILAR HARMANI MAH.","zip":"68100"},{"name":"HAMİDİYE MAH.","zip":"68100"},{"name":"HÜRRİYET MAH.","zip":"68100"},{"name":"İSTİKLAL MAH.","zip":"68100"},{"name":"KALANLAR MAH.","zip":"68100"},{"name":"KILIÇASLAN MAH.","zip":"68100"},{"name":"KIRIMLI MAH.","zip":"68100"},{"name":"LALELİ MAH.","zip":"68100"},{"name":"MEHMET AKİF ERSOY MAH.","zip":"68100"},{"name":"MİNARECİK MAH.","zip":"68100"},{"name":"MUHSİN ÇELEBİ MAH.","zip":"68100"},{"name":"PAŞACIK MAH.","zip":"68100"},{"name":"PINAR MAH.","zip":"68100"},{"name":"SELÇUKLU MAH.","zip":"68100"},{"name":"SOFULAR MAH.","zip":"68100"},{"name":"TAŞPAZAR MAH.","zip":"68100"},{"name":"YAVUZ SULTAN SELİM MAH.","zip":"68100"},{"name":"YUNUS EMRE MAH.","zip":"68100"},{"name":"ZİNCİRLİ MAH.","zip":"68100"}]},{"name":"HELVADERE","cityName":null,"quarters":[{"name":"ZAFER MAH.","zip":"68165"}]},{"name":"MERKEZKÖYLER","cityName":null,"quarters":[{"name":"2.KÜME MAH.","zip":"68010"},{"name":"3.KÜME MAH.","zip":"68010"},{"name":"ACIPINAR KÖYÜ","zip":"68010"},{"name":"AĞZIKARAHAN KÖYÜ","zip":"68010"},{"name":"AKHİSAR KÖYÜ","zip":"68010"},{"name":"AKİN KÖYÜ","zip":"68010"},{"name":"ALAYHAN MEZRASI MAH.","zip":"68010"},{"name":"ALAYHANI KÖYÜ","zip":"68010"},{"name":"ALTINKAYA KÖYÜ","zip":"68010"},{"name":"AŞAĞI MAH.","zip":"68010"},{"name":"ATAKÖY KÖYÜ","zip":"68010"},{"name":"ATATÜRK MAH.","zip":"68010"},{"name":"BABAKONAĞI KÖYÜ","zip":"68010"},{"name":"BAGYOLU MAH.","zip":"68010"},{"name":"BAĞ YOLU MAH.","zip":"68010"},{"name":"BAĞLI KÖYÜ","zip":"68010"},{"name":"BAĞLIKAYA KÖYÜ","zip":"68010"},{"name":"BAHÇELİEVLER MAH.","zip":"68010"},{"name":"BAYINDIR KÖYÜ","zip":"68010"},{"name":"BAYMIŞ KÖYÜ","zip":"68010"},{"name":"BEBEK KÖYÜ","zip":"68010"},{"name":"BEYAZSARAY MAH.","zip":"68010"},{"name":"BİRLİK MAH.","zip":"68010"},{"name":"BOĞAZİÇİ MAH.","zip":"68010"},{"name":"BORUCU KÖYÜ","zip":"68010"},{"name":"BOSTANLIK KÖYÜ","zip":"68010"},{"name":"BOYALI KÖYÜ","zip":"68010"},{"name":"BOZCATEPE KÖYÜ","zip":"68010"},{"name":"BÜYÜKGÜVE KÖYÜ","zip":"68010"},{"name":"BÜYÜKPÖRNEKLER KÖYÜ","zip":"68010"},{"name":"CAMİ MAH.","zip":"68010"},{"name":"CAMİİ MAH.","zip":"68010"},{"name":"CANKILLI KÖYÜ","zip":"68010"},{"name":"CERAN KÖYÜ","zip":"68010"},{"name":"CERİT KÖYÜ","zip":"68010"},{"name":"CİTKİRYOLU MAH.","zip":"68010"},{"name":"CUMHURİYET MAH.","zip":"68010"},{"name":"ÇAĞLAYAN KÖYÜ","zip":"68010"},{"name":"ÇAVDARLILAR KÖYÜ","zip":"68010"},{"name":"ÇEKİÇLER KÖYÜ","zip":"68010"},{"name":"ÇELTEK KÖYÜ","zip":"68010"},{"name":"ÇİMELİ MAH.","zip":"68010"},{"name":"ÇİMELİYENİ KÖYÜ","zip":"68010"},{"name":"ÇİTÇİR YOLU MAH.","zip":"68010"},{"name":"ÇOLAKNEBİ KÖYÜ","zip":"68010"},{"name":"DİVANOĞLU MAH.","zip":"68010"},{"name":"DOĞANTARLA KÖYÜ","zip":"68010"},{"name":"EKECİKGÖDELER KÖYÜ","zip":"68010"},{"name":"EKECİKTOL KÖYÜ","zip":"68010"},{"name":"EKECİKYENİ KÖYÜ","zip":"68010"},{"name":"FATİH MAH.","zip":"68010"},{"name":"FATMAUŞAĞI KÖYÜ","zip":"68010"},{"name":"GENÇOSMAN KÖYÜ","zip":"68010"},{"name":"GÖKÇE KÖYÜ","zip":"68010"},{"name":"GÖKSÜGÜZEL KÖYÜ","zip":"68010"},{"name":"GÜCÜNKAYA KÖYÜ","zip":"68010"},{"name":"GÜLHANE MAH.","zip":"68010"},{"name":"GÜLTEPE KÖYÜ","zip":"68010"},{"name":"HANOBASI KÖYÜ","zip":"68010"},{"name":"HATİPOĞLUTOLU KÖYÜ","zip":"68010"},{"name":"HIRKATOL KÖYÜ","zip":"68010"},{"name":"İSMAİLAĞATOLU KÖYÜ","zip":"68010"},{"name":"KALE MAH.","zip":"68010"},{"name":"KALEBALTA KÖYÜ","zip":"68010"},{"name":"KARAÇAYIR KÖYÜ","zip":"68010"},{"name":"KARAKOVA KÖYÜ","zip":"68010"},{"name":"KARAKUYU KÖYÜ","zip":"68010"},{"name":"KARAÖREN KÖYÜ","zip":"68010"},{"name":"KARATAŞ KÖYÜ","zip":"68010"},{"name":"KAZICIK KÖYÜ","zip":"68010"},{"name":"KOCATEPE MAH.","zip":"68010"},{"name":"KOYAK KÖYÜ","zip":"68010"},{"name":"KURTULUŞ MAH.","zip":"68010"},{"name":"KUTLU KÖYÜ","zip":"68010"},{"name":"KÜÇÜKGÜVE KÖYÜ","zip":"68010"},{"name":"KÜÇÜKPÖRNEKLER KÖYÜ","zip":"68010"},{"name":"MACARLI KÖYÜ","zip":"68010"},{"name":"MEDENİ MAH.","zip":"68010"},{"name":"NURGÖZ KÖYÜ","zip":"68010"},{"name":"ÖZ MEVKİİ MAH.","zip":"68010"},{"name":"PEÇENEK MAH.","zip":"68010"},{"name":"SAĞLIK KÖYÜ","zip":"68010"},{"name":"SALMANLI KÖYÜ","zip":"68010"},{"name":"SANAYİ CADDESİ MAH.","zip":"68010"},{"name":"SANAYİ MAH.","zip":"68010"},{"name":"SAPMAZ KÖYÜ","zip":"68010"},{"name":"SARAYHAN KÖYÜ","zip":"68010"},{"name":"SARIAĞIL KÖYÜ","zip":"68010"},{"name":"SELECİKÖSE KÖYÜ","zip":"68010"},{"name":"SEVİNÇLİ KÖYÜ","zip":"68010"},{"name":"SİYEK MEVKİİ MAH.","zip":"68010"},{"name":"SUSADI KÖYÜ","zip":"68010"},{"name":"ŞAHİNLER MAH.","zip":"68010"},{"name":"ŞEYHLER KÖYÜ","zip":"68010"},{"name":"TAPTUK EMRE KÖYÜ","zip":"68010"},{"name":"TATLICA KÖYÜ","zip":"68010"},{"name":"TOPAKKAYA KÖYÜ","zip":"68010"},{"name":"ULUKIŞLATOLU KÖYÜ","zip":"68010"},{"name":"VİRANŞEHİR VE DÖLEK MEVKİ MAH.","zip":"68010"},{"name":"YAĞAN KÖYÜ","zip":"68010"},{"name":"YALMAN KÖYÜ","zip":"68010"},{"name":"YALNIZCEVİZ KÖYÜ","zip":"68010"},{"name":"YANYURT KÖYÜ","zip":"68010"},{"name":"YAPILCAN KÖYÜ","zip":"68010"},{"name":"YENİ MAH.","zip":"68010"},{"name":"YENİMAHALLE MAH.","zip":"68010"},{"name":"YEŞİLÇAM MAH.","zip":"68010"},{"name":"YEŞİLYUR MAH.","zip":"68010"},{"name":"YUVA KÖYÜ","zip":"68010"}]},{"name":"SANAYİ","cityName":null,"quarters":[{"name":"BEDİR MUHTAR MAH.","zip":"68200"},{"name":"BÜYÜK BÖLCEK MAH.","zip":"68200"},{"name":"ÇERDİĞİN MAH.","zip":"68200"},{"name":"ÇİFTLİK MAH.","zip":"68200"},{"name":"HASAS MAH.","zip":"68200"},{"name":"KÜÇÜK BÖLCEK MAH.","zip":"68200"},{"name":"MEYDAN MAH.","zip":"68200"},{"name":"NAKKAŞ MAH.","zip":"68200"},{"name":"PAMUCAK MAH.","zip":"68200"},{"name":"SANAYİ MAH.","zip":"68200"},{"name":"SOMUNCU BABA MAH.","zip":"68200"},{"name":"ŞAMLI MAH.","zip":"68200"},{"name":"ŞEYHHAMİT MAH.","zip":"68200"},{"name":"ŞİFAHANE MAH.","zip":"68200"},{"name":"TACİN MAH.","zip":"68200"}]},{"name":"SULTANHANI","cityName":null,"quarters":[{"name":"GAZİ MAH.","zip":"68190"},{"name":"İSTİKAMET MAH.","zip":"68190"},{"name":"KOYUNCU MAH.","zip":"68190"},{"name":"SELÇUK MAH.","zip":"68190"},{"name":"SULTANHANI KÖYÜ","zip":"68190"},{"name":"TÜRKİSTAN MAH.","zip":"68190"},{"name":"YEŞİLTÖMEK KÖYÜ","zip":"68190"},{"name":"ZAFER MAH.","zip":"68190"}]},{"name":"TAŞPINAR","cityName":null,"quarters":[{"name":"2.KÜME MAH.","zip":"68220"},{"name":"3.KÜME MAH.","zip":"68220"},{"name":"4.KÜME MAH.","zip":"68220"},{"name":"5.KÜME MAH.","zip":"68220"},{"name":"6.KÜME MAH.","zip":"68220"},{"name":"AKÇAKENT KÖYÜ","zip":"68220"},{"name":"AKSEKİ MAH.","zip":"68220"},{"name":"ARMUTLU KÖYÜ","zip":"68220"},{"name":"AYDINLAR MAH.","zip":"68220"},{"name":"CAMİKEBİR MAH.","zip":"68220"},{"name":"CUMHURİYET MAH.","zip":"68220"},{"name":"DİKMEN KÖYÜ","zip":"68220"},{"name":"ELMACIK KÖYÜ","zip":"68220"},{"name":"ERENLER MAH.","zip":"68220"},{"name":"ERENLER OSB MAH.","zip":"68220"},{"name":"GENÇ OSMAN MAH.","zip":"68220"},{"name":"GÖZLÜKUYU KÖYÜ","zip":"68220"},{"name":"HELVADERE KÖYÜ","zip":"68220"},{"name":"HÜRRİYET MAH.","zip":"68220"},{"name":"İNCESU KÖYÜ","zip":"68220"},{"name":"KARACAÖREN KÖYÜ","zip":"68220"},{"name":"KARKIN KÖYÜ","zip":"68220"},{"name":"KARŞIYAKA MAH.","zip":"68220"},{"name":"KİRAZLI MAH.","zip":"68220"},{"name":"KOÇPINAR KÖYÜ","zip":"68220"},{"name":"TAŞPINAR KÖYÜ","zip":"68220"},{"name":"VATAN MAH.","zip":"68220"},{"name":"YAVUZ SELİM MAH.","zip":"68220"},{"name":"YENİ CAMİ MAH.","zip":"68220"},{"name":"YENİKENT MAH.","zip":"68220"},{"name":"YENİPINAR KÖYÜ","zip":"68220"},{"name":"ZAFER MAH.","zip":"68220"}]},{"name":"YEŞİLOVA","cityName":null,"quarters":[{"name":"ÇALIŞKAN MAH.","zip":"68180"},{"name":"DARIHÜYÜK KÖYÜ","zip":"68180"},{"name":"FATİH MAH.","zip":"68180"},{"name":"GAZİ MAH.","zip":"68180"},{"name":"HÜRRİYET MAH.","zip":"68180"},{"name":"İSTİKLAL MAH.","zip":"68180"},{"name":"KÖSELİ MAH.","zip":"68180"},{"name":"PARABAŞLI MAH.","zip":"68180"},{"name":"ULUKIŞLA KÖYÜ","zip":"68180"},{"name":"YAVUZ MAH.","zip":"68180"},{"name":"YENİKENT KÖYÜ","zip":"68180"},{"name":"YEŞİLOVA KÖYÜ","zip":"68180"},{"name":"YEŞİLTEPE KÖYÜ","zip":"68180"},{"name":"ZAFER MAH.","zip":"68180"}]},{"name":"BALCI","cityName":null,"quarters":[{"name":"AŞAĞI MAH.","zip":"68601"},{"name":"BAĞ KÜMESİ MAH.","zip":"68601"},{"name":"BALCI KÖYÜ","zip":"68601"},{"name":"CABER KÜMESİ MAH.","zip":"68601"},{"name":"CECELİ KÖYÜ","zip":"68601"},{"name":"CUMALİ KÖYÜ","zip":"68601"},{"name":"ÇATİN KÖYÜ","zip":"68601"},{"name":"ÇETİNKAYA  KÜMESİ MAH.","zip":"68601"},{"name":"DURHASANLI KÖYÜ","zip":"68601"},{"name":"EKİNCİOĞLU MAH.","zip":"68601"},{"name":"KARAMANOĞLU MAH.","zip":"68601"},{"name":"KARŞI KÜME MAH.","zip":"68601"},{"name":"KARŞI MAH.","zip":"68601"},{"name":"KOCELİ KÜMESİ MAH.","zip":"68601"},{"name":"KÜMBET KÖYÜ","zip":"68601"},{"name":"MUSALLA KÜMESİ MAH.","zip":"68601"},{"name":"ORTA KÜME MAH.","zip":"68601"},{"name":"OZANCIK KÖYÜ","zip":"68601"},{"name":"PİRLİ KÖYÜ","zip":"68601"},{"name":"REŞADİYE KÖYÜ","zip":"68601"},{"name":"SALARIGÖDELER KÖYÜ","zip":"68601"},{"name":"SARIKARAMAN KÖYÜ","zip":"68601"},{"name":"SATANSARI KÖYÜ","zip":"68601"},{"name":"ŞENER KÜMESİ MAH.","zip":"68601"},{"name":"YEŞİLYURT MAH.","zip":"68601"},{"name":"YUKARI MAH.","zip":"68601"},{"name":"YUNUS EMRE MAH.","zip":"68601"}]},{"name":"MERKEZKÖYLER","cityName":null,"quarters":[{"name":"2.KÜME MAH.","zip":"68402"},{"name":"3.KÜME MAH.","zip":"68402"},{"name":"4.KÜME MAH.","zip":"68402"},{"name":"AKPINAR KÖYÜ","zip":"68402"},{"name":"BOZKIR KÖYÜ","zip":"68402"},{"name":"CAMIZLIK YAYLA MAH.","zip":"68402"},{"name":"CAMUZLUK KÖYÜ","zip":"68402"},{"name":"CUMHURİYET MAH.","zip":"68402"},{"name":"ÇİFTEVİ KÖYÜ","zip":"68402"},{"name":"ÇOKYATAN MAH.","zip":"68402"},{"name":"DEVEDAMI KÖYÜ","zip":"68402"},{"name":"GÖKKAYA KÖYÜ","zip":"68402"},{"name":"GÖKLER KÖYÜ","zip":"68402"},{"name":"GÖKLER MAH.","zip":"68402"},{"name":"HACIİBRAHİMUŞAĞI KÖYÜ","zip":"68402"},{"name":"HACIMAHMUTUŞAĞI KÖYÜ","zip":"68402"},{"name":"HARMANDALI KÖYÜ","zip":"68402"},{"name":"HIDIRLI KÖYÜ","zip":"68402"},{"name":"HOCABEYLİ KÖYÜ","zip":"68402"},{"name":"HÜRRİYET MAH.","zip":"68402"},{"name":"İ.KARAPINAR MAH.","zip":"68402"},{"name":"KARAPINAR KÖYÜ","zip":"68402"},{"name":"KARŞIYAKA MAH.","zip":"68402"},{"name":"KÜME 1 MAH.","zip":"68402"},{"name":"NAMLIKIŞLA KÖYÜ","zip":"68402"},{"name":"OĞUZLAR 2 MAH.","zip":"68402"},{"name":"OĞUZLAR KÖYÜ","zip":"68402"},{"name":"OĞUZLAR1 MAH.","zip":"68402"},{"name":"PINARBAŞI KÖYÜ","zip":"68402"},{"name":"SALARIALACA KÖYÜ","zip":"68402"},{"name":"SEKSENUŞAĞI KÖYÜ","zip":"68402"},{"name":"ŞEHİT ERSOY MAH.","zip":"68402"},{"name":"ŞEHİT MEHMET ALİ MAH.","zip":"68402"},{"name":"ŞHT.YZB.BAHTİYAR ER MAH.","zip":"68402"},{"name":"YEŞİLYURT MAH.","zip":"68402"},{"name":"YILDIRIMLAR KÖYÜ","zip":"68402"},{"name":"YİĞİTLER MAH.","zip":"68402"},{"name":"ZAFER MAH.","zip":"68402"}]},{"name":"ORTAKÖY","cityName":null,"quarters":[{"name":"ESENTEPE MAH.","zip":"68400"},{"name":"FATİH MAH.","zip":"68400"},{"name":"İSTİKLAL MAH.","zip":"68400"},{"name":"KARŞI MAH.","zip":"68400"},{"name":"KIZILAY MAH.","zip":"68400"},{"name":"MALTEPE MAH.","zip":"68400"},{"name":"MEHMET AKİF ERSOY MAH.","zip":"68400"},{"name":"PLEVNE MAH.","zip":"68400"},{"name":"YENİ MAH.","zip":"68400"},{"name":"ZAFER MAH.","zip":"68400"}]},{"name":"MERKEZKÖYLER","cityName":null,"quarters":[{"name":"BOĞAZİÇİ MAH.","zip":"68702"},{"name":"BOĞAZKÖY KÖYÜ","zip":"68702"},{"name":"DEMİRCİOBASI KÖYÜ","zip":"68702"},{"name":"KURTULUŞ MAH.","zip":"68702"},{"name":"SİPAHİLER KÖYÜ","zip":"68702"},{"name":"YAYLAK KÖYÜ","zip":"68702"},{"name":"YAYLAK MAH.","zip":"68702"},{"name":"YENİ MAH.","zip":"68702"},{"name":"YENİTORUNOBASI KÖYÜ","zip":"68702"}]},{"name":"SARIYAHŞİ","cityName":null,"quarters":[{"name":"KARŞIYAKA MAH.","zip":"68700"},{"name":"KIZILIRMAK MAH.","zip":"68700"},{"name":"KURTULUŞ MAH.","zip":"68700"},{"name":"ÖZAL MAH.","zip":"68700"},{"name":"ŞAFAKTEPE MAH.","zip":"68700"},{"name":"YENİDOĞAN MAH.","zip":"68700"}]}]}]}