{"id":69,"name":"BAYBURT","cities":[{"name":"city","districts":[{"name":"AYDINTEPE","cityName":null,"quarters":[{"name":"KALE MAH.","zip":"69500"},{"name":"YAKUDİYE MAH.","zip":"69500"}]},{"name":"MERKEZKÖYLER","cityName":null,"quarters":[{"name":"ALACA KÖYÜ","zip":"69502"},{"name":"AŞAĞIKIRZI KÖYÜ","zip":"69502"},{"name":"BAŞPINAR KÖYÜ","zip":"69502"},{"name":"ÇATIKSU KÖYÜ","zip":"69502"},{"name":"ÇAYIRKÖPRÜ KÖYÜ","zip":"69502"},{"name":"ÇEMÇÜL YAYLA MAH.","zip":"69502"},{"name":"ÇİĞDEMLİK KÖYÜ","zip":"69502"},{"name":"DUMLU KÖYÜ","zip":"69502"},{"name":"ERİKDİBİ KÖYÜ","zip":"69502"},{"name":"GÜMÜŞDAMLA KÖYÜ","zip":"69502"},{"name":"GÜMÜŞDAMLA MAH.","zip":"69502"},{"name":"GÜNBULDU KÖYÜ","zip":"69502"},{"name":"İNCİLİ KÖYÜ","zip":"69502"},{"name":"KAVLATAN KÖYÜ","zip":"69502"},{"name":"KILIÇKAYA KÖYÜ","zip":"69502"},{"name":"KOŞMER MAH.","zip":"69502"},{"name":"MERKEZ MAH.","zip":"69502"},{"name":"PINARGÖZÜ KÖYÜ","zip":"69502"},{"name":"SIRATAŞLAR KÖYÜ","zip":"69502"},{"name":"SORKUNLU KÖYÜ","zip":"69502"},{"name":"SULUDERE KÖYÜ","zip":"69502"},{"name":"ŞALCILAR KÖYÜ","zip":"69502"},{"name":"YANOBA KÖYÜ","zip":"69502"},{"name":"YAPRACIK KÖYÜ","zip":"69502"},{"name":"YAZLIK KÖYÜ","zip":"69502"},{"name":"YUKARIKIRZI KÖYÜ","zip":"69502"}]},{"name":"DEMİRÖZÜ","cityName":null,"quarters":[{"name":"ESENTEPE MAH.","zip":"69400"},{"name":"GÜNEŞLİ MAH.","zip":"69400"},{"name":"ŞİRİN MAH.","zip":"69400"}]},{"name":"MERKEZKÖYLER","cityName":null,"quarters":[{"name":"BAYRAMPAŞA KÖYÜ","zip":"69402"},{"name":"BEŞPINAR KÖYÜ","zip":"69402"},{"name":"ÇAĞILLI KÖYÜ","zip":"69402"},{"name":"ÇAKIRÖZÜ KÖYÜ","zip":"69402"},{"name":"ÇATALÇEŞME KÖYÜ","zip":"69402"},{"name":"ÇİMENTEPE KÖYÜ","zip":"69402"},{"name":"DAMLICA KÖYÜ","zip":"69402"},{"name":"DEVETAŞI KÖYÜ","zip":"69402"},{"name":"DİKMETAŞ KÖYÜ","zip":"69402"},{"name":"ELMALI KÖYÜ","zip":"69402"},{"name":"ESENYURT MAH.","zip":"69402"},{"name":"EYMÜR KÖYÜ","zip":"69402"},{"name":"GÖKÇEDERE KÖYÜ","zip":"69402"},{"name":"GÜÇLÜ KÖYÜ","zip":"69402"},{"name":"GÜVERCİNDERE KÖYÜ","zip":"69402"},{"name":"IŞIKOVA KÖYÜ","zip":"69402"},{"name":"KALECİK KÖYÜ","zip":"69402"},{"name":"KARAYAŞMAK KÖYÜ","zip":"69402"},{"name":"KARŞIYAKA MAH.","zip":"69402"},{"name":"KAVAKLI KÖYÜ","zip":"69402"},{"name":"OTLUKBELİ KÖYÜ","zip":"69402"},{"name":"PETEKLİ KÖYÜ","zip":"69402"},{"name":"PINARBAŞI MAH.","zip":"69402"},{"name":"PINARCIK KÖYÜ","zip":"69402"},{"name":"SERENLİ KÖYÜ","zip":"69402"},{"name":"YAKUPABDAL KÖYÜ","zip":"69402"},{"name":"YAZIBAŞI KÖYÜ","zip":"69402"},{"name":"YELPINAR KÖYÜ","zip":"69402"},{"name":"YEŞİLYURT MAH.","zip":"69402"},{"name":"YUKARIPINARLI KÖYÜ","zip":"69402"}]},{"name":"BAYBURT","cityName":null,"quarters":[{"name":"ESENTEPE MAH.","zip":"69010"},{"name":"GENÇOSMAN MAH.","zip":"69010"},{"name":"HALFİKALE (KALEARDI) MAH.","zip":"69010"},{"name":"KADIZADE MAH.","zip":"69010"},{"name":"KARASAKAL MAH.","zip":"69010"},{"name":"MEHMET ÇELEBİ MAH.","zip":"69010"},{"name":"ŞEYHHAYRAN MAH.","zip":"69010"},{"name":"ŞİNGAH MAH.","zip":"69010"},{"name":"TUZCUZADE MAH.","zip":"69010"},{"name":"UZUNGAZİ MAH.","zip":"69010"},{"name":"VELİŞABAN MAH.","zip":"69010"},{"name":"VEYSEL MAH.","zip":"69010"},{"name":"ZAHİT MAH.","zip":"69010"}]},{"name":"MADEN","cityName":null,"quarters":[{"name":"A.ÖRENCE HANLARI MAH.","zip":"69350"},{"name":"AĞÖREN KÖYÜ","zip":"69350"},{"name":"AKDURAN KÖYÜ","zip":"69350"},{"name":"AŞAĞI GEZ MAH.","zip":"69350"},{"name":"AŞAĞI KIRATLI MAH.","zip":"69350"},{"name":"AŞAĞIÇIMAĞIL KÖYÜ","zip":"69350"},{"name":"BAŞÇIMAĞIL KÖYÜ","zip":"69350"},{"name":"ÇALIDERE HANLARI MAH.","zip":"69350"},{"name":"ÇALIDERE KÖYÜ","zip":"69350"},{"name":"DEMİRKAŞ KÖYÜ","zip":"69350"},{"name":"DEREÇIMAĞIL MAH.","zip":"69350"},{"name":"DURUSU MAH.","zip":"69350"},{"name":"GENÇOSMAN KÖYÜ","zip":"69350"},{"name":"GEZ KÖYÜ","zip":"69350"},{"name":"HELVA KÖYÜ","zip":"69350"},{"name":"IĞDIR KÖYÜ","zip":"69350"},{"name":"KALEBOYNU MAH.","zip":"69350"},{"name":"KIRATLI KÖYÜ","zip":"69350"},{"name":"KOP KÖYÜ","zip":"69350"},{"name":"KUZULAR MAH.","zip":"69350"},{"name":"MADEN KÖYÜ","zip":"69350"},{"name":"MASAT KÖYÜ","zip":"69350"},{"name":"MERKEZ MAH.","zip":"69350"},{"name":"ORTAÇIMAĞIL KÖYÜ","zip":"69350"},{"name":"ORTAKOP MAH.","zip":"69350"},{"name":"ÖRENCE KÖYÜ","zip":"69350"},{"name":"PETEKKAYA KÖYÜ","zip":"69350"},{"name":"SIĞIRCI KÖYÜ","zip":"69350"},{"name":"ŞEHİTLİK MAH.","zip":"69350"},{"name":"TAŞÇILAR KÖYÜ","zip":"69350"},{"name":"TAŞIN DİBİ MAH.","zip":"69350"},{"name":"YAYLAPINAR KÖYÜ","zip":"69350"},{"name":"YUKARI GEZ MAH.","zip":"69350"},{"name":"YUKARI KOP MAH.","zip":"69350"},{"name":"YUKARI MASAT MAH.","zip":"69350"}]},{"name":"MERKEZKÖYLER","cityName":null,"quarters":[{"name":"AKÇAKUZU KÖYÜ","zip":"69002"},{"name":"AKSAÇLI KÖYÜ","zip":"69002"},{"name":"AKŞAR KÖYÜ","zip":"69002"},{"name":"ALAPELİT KÖYÜ","zip":"69002"},{"name":"ALIÇLIK KÖYÜ","zip":"69002"},{"name":"ARDIÇGÖZE KÖYÜ","zip":"69002"},{"name":"ARMUTLU KÖYÜ","zip":"69002"},{"name":"ARPALI KÖYÜ","zip":"69002"},{"name":"ARSLANDEDE KÖYÜ","zip":"69002"},{"name":"AŞAĞI GÜMÜŞSU MAH.","zip":"69002"},{"name":"AŞAĞI TAŞOCAĞI MAH.","zip":"69002"},{"name":"AŞAĞI YONCALI MAH.","zip":"69002"},{"name":"AŞAĞIKIŞLAK KÖYÜ","zip":"69002"},{"name":"AŞAĞIPINARLI KÖYÜ","zip":"69002"},{"name":"AYDINCIK KÖYÜ","zip":"69002"},{"name":"BALCA KÖYÜ","zip":"69002"},{"name":"BALKAYNAK KÖYÜ","zip":"69002"},{"name":"BALLIKAYA KÖYÜ","zip":"69002"},{"name":"BAYIRTEPE KÖYÜ","zip":"69002"},{"name":"BAYRAKTAR KÖYÜ","zip":"69002"},{"name":"BUĞDAYLI KÖYÜ","zip":"69002"},{"name":"CUMHURİYET MAH.","zip":"69002"},{"name":"ÇAKIRBAĞ KÖYÜ","zip":"69002"},{"name":"ÇAMDERE KÖYÜ","zip":"69002"},{"name":"ÇAMLIKOZ KÖYÜ","zip":"69002"},{"name":"ÇATILAR MAH.","zip":"69002"},{"name":"ÇAYIRÖZÜ KÖYÜ","zip":"69002"},{"name":"ÇAYIRYOLU KÖYÜ","zip":"69002"},{"name":"ÇERÇİ KÖYÜ","zip":"69002"},{"name":"ÇİÇEKLİ MAH.","zip":"69002"},{"name":"ÇİĞDEMTEPE KÖYÜ","zip":"69002"},{"name":"ÇORAK KÖYÜ","zip":"69002"},{"name":"DAĞÇATI KÖYÜ","zip":"69002"},{"name":"DAĞTARLA KÖYÜ","zip":"69002"},{"name":"DANİŞMENT KÖYÜ","zip":"69002"},{"name":"DARICA KÖYÜ","zip":"69002"},{"name":"DEĞİRMENCİK KÖYÜ","zip":"69002"},{"name":"DEMİRIŞIK KÖYÜ","zip":"69002"},{"name":"DİKMETAŞ KÖYÜ","zip":"69002"},{"name":"DÖVMEKAYA KÖYÜ","zip":"69002"},{"name":"ERENLER MAH.","zip":"69002"},{"name":"ERENLİ KÖYÜ","zip":"69002"},{"name":"ERENLİ MÜCAVİR MAH.","zip":"69002"},{"name":"ESENTEPE MAH.","zip":"69002"},{"name":"FATİH MAH.","zip":"69002"},{"name":"GÖKÇELİ KÖYÜ","zip":"69002"},{"name":"GÖKLER KÖYÜ","zip":"69002"},{"name":"GÖKPINAR KÖYÜ","zip":"69002"},{"name":"GÖLDERE KÖYÜ","zip":"69002"},{"name":"GÖLOBA KÖYÜ","zip":"69002"},{"name":"GÜDER KÖYÜ","zip":"69002"},{"name":"GÜLLÜCE KÖYÜ","zip":"69002"},{"name":"GÜLTEPE MAH.","zip":"69002"},{"name":"GÜMÜŞSU KÖYÜ","zip":"69002"},{"name":"GÜMÜŞSU MÜCAVİR MAH.","zip":"69002"},{"name":"GÜNEYDERE KÖYÜ","zip":"69002"},{"name":"GÜNLÜCE MAH.","zip":"69002"},{"name":"GÜZELCE KÖYÜ","zip":"69002"},{"name":"HACIOĞLU KÖYÜ","zip":"69002"},{"name":"HARMANÖZÜ KÖYÜ","zip":"69002"},{"name":"HEYBETEPE KÖYÜ","zip":"69002"},{"name":"HÜRRİYET MAH.","zip":"69002"},{"name":"KABAÇAYIR KÖYÜ","zip":"69002"},{"name":"KARLICA KÖYÜ","zip":"69002"},{"name":"KARŞIGEÇİT KÖYÜ","zip":"69002"},{"name":"KARŞIYAKA MAH.","zip":"69002"},{"name":"KAVACIK KÖYÜ","zip":"69002"},{"name":"KAVAKYANI KÖYÜ","zip":"69002"},{"name":"KEMERTAŞ KÖYÜ","zip":"69002"},{"name":"KIRKPINAR KÖYÜ","zip":"69002"},{"name":"KIZILCAÖREN MAH.","zip":"69002"},{"name":"KİTRE KÖYÜ","zip":"69002"},{"name":"KOÇBAYIR KÖYÜ","zip":"69002"},{"name":"KONURSU KÖYÜ","zip":"69002"},{"name":"KOPUZ KÖYÜ","zip":"69002"},{"name":"KOZLUK KÖYÜ","zip":"69002"},{"name":"KURBANPINAR KÖYÜ","zip":"69002"},{"name":"KURCAKOL MAH.","zip":"69002"},{"name":"KURUGÜNEY KÖYÜ","zip":"69002"},{"name":"KUTLUBEY MAH.","zip":"69002"},{"name":"MANAS KÖYÜ","zip":"69002"},{"name":"MERKEZ MAH.","zip":"69002"},{"name":"MUTLU KÖYÜ","zip":"69002"},{"name":"NİŞANTAŞI KÖYÜ","zip":"69002"},{"name":"ORUÇBEYLİ KÖYÜ","zip":"69002"},{"name":"OZANSU KÖYÜ","zip":"69002"},{"name":"PAMUKTAŞ KÖYÜ","zip":"69002"},{"name":"PELİTLİ KÖYÜ","zip":"69002"},{"name":"POLATLI KÖYÜ","zip":"69002"},{"name":"RÜŞTÜ KÖYÜ","zip":"69002"},{"name":"SAKIZLI KÖYÜ","zip":"69002"},{"name":"SALKIMSU KÖYÜ","zip":"69002"},{"name":"SANCAKTEPE KÖYÜ","zip":"69002"},{"name":"SARAYCIK KÖYÜ","zip":"69002"},{"name":"SARIHAN KÖYÜ","zip":"69002"},{"name":"SARIMEŞE KÖYÜ","zip":"69002"},{"name":"SEYDİYAKUP KÖYÜ","zip":"69002"},{"name":"SIRAKAYALAR KÖYÜ","zip":"69002"},{"name":"SOĞUKGÖZE KÖYÜ","zip":"69002"},{"name":"SÖĞÜTLÜ KÖYÜ","zip":"69002"},{"name":"ŞEHİT METE MAH.","zip":"69002"},{"name":"TAHT KÖYÜ","zip":"69002"},{"name":"TAŞBURUN KÖYÜ","zip":"69002"},{"name":"TAŞKESEN KÖYÜ","zip":"69002"},{"name":"TAŞOCAĞI KÖYÜ","zip":"69002"},{"name":"TEPETARLA KÖYÜ","zip":"69002"},{"name":"TOMLACIK KÖYÜ","zip":"69002"},{"name":"UĞRAK KÖYÜ","zip":"69002"},{"name":"UĞUR MAH.","zip":"69002"},{"name":"UĞURGELDİ KÖYÜ","zip":"69002"},{"name":"ULUÇAYIR KÖYÜ","zip":"69002"},{"name":"ÜZENGİLİ KÖYÜ","zip":"69002"},{"name":"Y.ÇERÇİ MAH.","zip":"69002"},{"name":"YAMALI YAYLASI MAH.","zip":"69002"},{"name":"YANIKÇAM KÖYÜ","zip":"69002"},{"name":"YAVUZ MAH.","zip":"69002"},{"name":"YAYLA EVLERİ MAH.","zip":"69002"},{"name":"YAYLALAR KÖYÜ","zip":"69002"},{"name":"YAZYURDU KÖYÜ","zip":"69002"},{"name":"YEDİGÖZE KÖYÜ","zip":"69002"},{"name":"YENİKÖY KÖYÜ","zip":"69002"},{"name":"YERLİCE KÖYÜ","zip":"69002"},{"name":"YEŞİLYURT KÖYÜ","zip":"69002"},{"name":"YOLALTI KÖYÜ","zip":"69002"},{"name":"YOLALTI OSB MAH.","zip":"69002"},{"name":"YONCALI KÖYÜ","zip":"69002"},{"name":"YUKARI DARICA MAH.","zip":"69002"},{"name":"YUKARI UĞRAK MAH.","zip":"69002"},{"name":"YUKARIKIŞLAK KÖYÜ","zip":"69002"}]}]}]}