{"id":7,"name":"ANTALYA","cities":[{"name":"city","districts":[{"name":"AKSEKİ","cityName":null,"quarters":[{"name":"BADEMLİ MAH.","zip":"07630"},{"name":"BELENALAN MAH.","zip":"07630"},{"name":"BOĞAZ MAH.","zip":"07630"},{"name":"BUCAKALAN MAH.","zip":"07630"},{"name":"BUCAKKIŞLA MAH.","zip":"07630"},{"name":"BÜYÜKALAN MAH.","zip":"07630"},{"name":"CECELER MAH.","zip":"07630"},{"name":"CEMERLER MAH.","zip":"07630"},{"name":"CENDEVE MAH.","zip":"07630"},{"name":"ÇALTILIÇUKUR MAH.","zip":"07630"},{"name":"ÇANAKPINAR MAH.","zip":"07630"},{"name":"ÇINARDİBİ MAH.","zip":"07630"},{"name":"ÇİMİKÖY MAH.","zip":"07630"},{"name":"ÇUKURKÖY MAH.","zip":"07630"},{"name":"DEĞİRMENLİK MAH.","zip":"07630"},{"name":"DEMİRCİLER MAH.","zip":"07630"},{"name":"DİKMEN MAH.","zip":"07630"},{"name":"DUTLUCA MAH.","zip":"07630"},{"name":"EMİRAŞIKLAR MAH.","zip":"07630"},{"name":"ERENYAKA MAH.","zip":"07630"},{"name":"FAKILAR MAH.","zip":"07630"},{"name":"GERİŞ MAH.","zip":"07630"},{"name":"GÜÇLÜKÖY MAH.","zip":"07630"},{"name":"GÜMÜŞDAMLA MAH.","zip":"07630"},{"name":"GÜNEYKAYA MAH.","zip":"07630"},{"name":"GÜNYAKA MAH.","zip":"07630"},{"name":"GÜZELSU MAH.","zip":"07630"},{"name":"HACI İLYAS MAH.","zip":"07630"},{"name":"HOCAKÖY MAH.","zip":"07630"},{"name":"HÜSAMETTİNKÖY MAH.","zip":"07630"},{"name":"KARAKIŞLA MAH.","zip":"07630"},{"name":"KEPEZ MAH.","zip":"07630"},{"name":"KEPEZBELENİ MAH.","zip":"07630"},{"name":"KUYUCAK MAH.","zip":"07630"},{"name":"MAHMUTLU MAH.","zip":"07630"},{"name":"MENTEŞBEY MAH.","zip":"07630"},{"name":"MİNARELİ MAH.","zip":"07630"},{"name":"PINARBAŞI MAH.","zip":"07630"},{"name":"SADIKLAR MAH.","zip":"07630"},{"name":"SALİHLER MAH.","zip":"07630"},{"name":"SARIHACILAR MAH.","zip":"07630"},{"name":"SARIHALİLLER MAH.","zip":"07630"},{"name":"SİNANHOCA MAH.","zip":"07630"},{"name":"SUSUZŞAHAP MAH.","zip":"07630"},{"name":"SÜLEYMANİYE MAH.","zip":"07630"},{"name":"TAŞLICA MAH.","zip":"07630"},{"name":"YARPUZ MAH.","zip":"07630"}]},{"name":"CEVİZLİ","cityName":null,"quarters":null},{"name":"AKSU","cityName":null,"quarters":[{"name":"ALTINTAŞ MAH.","zip":"07112"},{"name":"ATATÜRK MAH.","zip":"07112"},{"name":"BARBAROS MAH.","zip":"07112"},{"name":"BOZTEPE MAH.","zip":"07112"},{"name":"CİHADİYE MAH.","zip":"07112"},{"name":"CUMHURİYET MAH.","zip":"07112"},{"name":"ÇALKAYA MAH.","zip":"07112"},{"name":"ÇAMKÖY MAH.","zip":"07112"},{"name":"DUMANLAR MAH.","zip":"07112"},{"name":"FATİH MAH.","zip":"07112"},{"name":"FETTAHLI MAH.","zip":"07112"},{"name":"GÖKDERE MAH.","zip":"07112"},{"name":"GÜLOLUK MAH.","zip":"07112"},{"name":"GÜZELYURT MAH.","zip":"07112"},{"name":"HACIALİLER MAH.","zip":"07112"},{"name":"İHSANİYE MAH.","zip":"07112"},{"name":"KARAÇALLI MAH.","zip":"07112"},{"name":"KARAÖZ MAH.","zip":"07112"},{"name":"KAYADİBİ MAH.","zip":"07112"},{"name":"KEMERAĞZI MAH.","zip":"07112"},{"name":"KONAK MAH.","zip":"07112"},{"name":"KUMKÖY MAH.","zip":"07112"},{"name":"KUNDU MAH.","zip":"07112"},{"name":"KURŞUNLU MAH.","zip":"07112"},{"name":"MACUN MAH.","zip":"07112"},{"name":"MANDIRLAR MAH.","zip":"07112"},{"name":"MURTUNA MAH.","zip":"07112"},{"name":"PINARLI MAH.","zip":"07112"},{"name":"SOĞUCAKSU MAH.","zip":"07112"},{"name":"SOLAK MAH.","zip":"07112"},{"name":"TOPALLI MAH.","zip":"07112"},{"name":"YENİDUMANLAR MAH.","zip":"07112"},{"name":"YEŞİLKARAMAN MAH.","zip":"07112"},{"name":"YURTPINAR MAH.","zip":"07112"}]},{"name":"ALANYA","cityName":null,"quarters":[{"name":"AKDAM MAH.","zip":"07400"},{"name":"ALACAMİ MAH.","zip":"07400"},{"name":"ALARA MAH.","zip":"07400"},{"name":"ASMACA MAH.","zip":"07400"},{"name":"BADEMAĞACI MAH.","zip":"07400"},{"name":"BASIRLI MAH.","zip":"07400"},{"name":"BAYIR MAH.","zip":"07400"},{"name":"BAYIRKOZAĞACI MAH.","zip":"07400"},{"name":"BEKTAŞ MAH.","zip":"07400"},{"name":"BIÇAKÇI MAH.","zip":"07400"},{"name":"BUCAK MAH.","zip":"07400"},{"name":"BURÇAKLAR MAH.","zip":"07400"},{"name":"BÜYÜKHASBAHÇE MAH.","zip":"07400"},{"name":"CİKCİLLİ MAH.","zip":"07400"},{"name":"CUMHURİYET MAH.","zip":"07400"},{"name":"ÇAKALLAR MAH.","zip":"07400"},{"name":"ÇARŞI MAH.","zip":"07400"},{"name":"ÇIPLAKLI MAH.","zip":"07400"},{"name":"DEĞİRMENDERE MAH.","zip":"07400"},{"name":"DERE MAH.","zip":"07400"},{"name":"DİNEK MAH.","zip":"07400"},{"name":"ELİKESİK MAH.","zip":"07400"},{"name":"EMİŞBELENİ MAH.","zip":"07400"},{"name":"FIĞLA MAH.","zip":"07400"},{"name":"GÖZÜBÜYÜK MAH.","zip":"07400"},{"name":"GÜLLER PINARI MAH.","zip":"07400"},{"name":"GÜMÜŞGÖZE MAH.","zip":"07400"},{"name":"GÜMÜŞKAVAK MAH.","zip":"07400"},{"name":"GÜNEY MAH.","zip":"07400"},{"name":"GÜZELBAĞ MAH.","zip":"07400"},{"name":"HACET MAH.","zip":"07400"},{"name":"HACIKERİMLER MAH.","zip":"07400"},{"name":"HACIMEHMETLİ MAH.","zip":"07400"},{"name":"HİSARİÇİ MAH.","zip":"07400"},{"name":"KADIPAŞA MAH.","zip":"07400"},{"name":"KARAKOCALI MAH.","zip":"07400"},{"name":"KARAMANLAR MAH.","zip":"07400"},{"name":"KAYABAŞI MAH.","zip":"07400"},{"name":"KIZILCAŞEHİR MAH.","zip":"07400"},{"name":"KIZLAR PINARI MAH.","zip":"07400"},{"name":"KONAKLI MAH.","zip":"07400"},{"name":"KUZYAKA MAH.","zip":"07400"},{"name":"KÜÇÜKHASBAHÇE MAH.","zip":"07400"},{"name":"MAHMUTSEYDİ MAH.","zip":"07400"},{"name":"OBA MAH.","zip":"07400"},{"name":"OBAALACAMİ MAH.","zip":"07400"},{"name":"ORHAN MAH.","zip":"07400"},{"name":"ÖTEKÖY MAH.","zip":"07400"},{"name":"PAŞAKÖY MAH.","zip":"07400"},{"name":"PAYALLAR MAH.","zip":"07400"},{"name":"SABURLAR MAH.","zip":"07400"},{"name":"SARAY MAH.","zip":"07400"},{"name":"SOĞUKPINAR MAH.","zip":"07400"},{"name":"SUGÖZÜ MAH.","zip":"07400"},{"name":"SÜLEYMANLAR MAH.","zip":"07400"},{"name":"ŞEKERHANE MAH.","zip":"07400"},{"name":"TAŞBAŞI MAH.","zip":"07400"},{"name":"TEPE MAH.","zip":"07400"},{"name":"TOPHANE MAH.","zip":"07400"},{"name":"TOSLAK MAH.","zip":"07400"},{"name":"TOSMUR MAH.","zip":"07400"},{"name":"TÜRKLER MAH.","zip":"07400"},{"name":"TÜRKTAŞ MAH.","zip":"07400"},{"name":"UĞURLU MAH.","zip":"07400"},{"name":"UZUNÖZ MAH.","zip":"07400"},{"name":"ÜZÜMLÜ MAH.","zip":"07400"},{"name":"YALÇI MAH.","zip":"07400"},{"name":"YASİRALİ MAH.","zip":"07400"},{"name":"YENİCE MAH.","zip":"07400"},{"name":"YENİKÖY MAH.","zip":"07400"}]},{"name":"AVSALLAR","cityName":null,"quarters":[{"name":"İNCEKUM MAH.","zip":"07410"},{"name":"OKURCALAR MAH.","zip":"07410"}]},{"name":"MAHMUTLAR","cityName":null,"quarters":[{"name":"BAŞKÖY MAH.","zip":"07450"},{"name":"BELDİBİ MAH.","zip":"07450"},{"name":"BEYRELİ MAH.","zip":"07450"},{"name":"BÜYÜKPINAR MAH.","zip":"07450"},{"name":"ÇAMLICA MAH.","zip":"07450"},{"name":"DEMİRTAŞ MAH.","zip":"07450"},{"name":"FAKIRCALI MAH.","zip":"07450"},{"name":"GÖZÜKÜÇÜKLÜ MAH.","zip":"07450"},{"name":"HOCALAR MAH.","zip":"07450"},{"name":"İMAMLI MAH.","zip":"07450"},{"name":"İSBATLI MAH.","zip":"07450"},{"name":"İSHAKLI MAH.","zip":"07450"},{"name":"KARAPINAR MAH.","zip":"07450"},{"name":"KARGICAK MAH.","zip":"07450"},{"name":"KESTEL MAH.","zip":"07450"},{"name":"KEŞEFLİ MAH.","zip":"07450"},{"name":"KOCAOĞLANLI MAH.","zip":"07450"},{"name":"MAHMUTLAR MAH.","zip":"07450"},{"name":"ÖZVADİ MAH.","zip":"07450"},{"name":"SAPADERE MAH.","zip":"07450"},{"name":"SEKİ MAH.","zip":"07450"},{"name":"ŞIHLAR MAH.","zip":"07450"},{"name":"TIRILAR MAH.","zip":"07450"},{"name":"UĞRAK MAH.","zip":"07450"},{"name":"YAYLAKONAK MAH.","zip":"07450"},{"name":"YAYLALI MAH.","zip":"07450"},{"name":"YEŞİLÖZ MAH.","zip":"07450"}]},{"name":"DAVAZLAR","cityName":null,"quarters":[{"name":"ÇAĞMAN MAH.","zip":"07572"},{"name":"ÇEVRELİ MAH.","zip":"07572"},{"name":"DAVAZLAR MAH.","zip":"07572"},{"name":"GÜRSES MAH.","zip":"07572"},{"name":"KALEÜÇAĞIZ MAH.","zip":"07572"},{"name":"KAPAKLI MAH.","zip":"07572"},{"name":"YAVU MAH.","zip":"07572"}]},{"name":"DEMRE","cityName":null,"quarters":[{"name":"BÜYÜKKUM MAH.","zip":"07570"},{"name":"GÖKYAZI MAH.","zip":"07570"},{"name":"KARABUCAK MAH.","zip":"07570"},{"name":"KÜÇÜKKUM MAH.","zip":"07570"},{"name":"YAYLAKAYA MAH.","zip":"07570"}]},{"name":"KALE","cityName":null,"quarters":[{"name":"KAYAALTI MAH.","zip":"07571"},{"name":"KÖŞKERLER MAH.","zip":"07571"}]},{"name":"DÖŞEMEALTI","cityName":null,"quarters":[{"name":"AKKOÇ MAH.","zip":"07190"},{"name":"ALTINKALE MAH.","zip":"07190"},{"name":"AOSB1KISIM MAH.","zip":"07190"},{"name":"AOSB2KISIM MAH.","zip":"07190"},{"name":"AOSB3KISIM MAH.","zip":"07190"},{"name":"AŞAĞIOBA MAH.","zip":"07190"},{"name":"AYANLAR MAH.","zip":"07190"},{"name":"AYDINLAR MAH.","zip":"07190"},{"name":"BADEMAĞACI MAH.","zip":"07190"},{"name":"BAHÇEYAKA MAH.","zip":"07190"},{"name":"BIYIKLI MAH.","zip":"07190"},{"name":"CAMİLİ MAH.","zip":"07190"},{"name":"ÇIĞLIK MAH.","zip":"07190"},{"name":"ÇIPLAKLI MAH.","zip":"07190"},{"name":"DAĞBELİ MAH.","zip":"07190"},{"name":"DERELİ MAH.","zip":"07190"},{"name":"DÜZLERÇAMI MAH.","zip":"07190"},{"name":"EKŞİLİ MAH.","zip":"07190"},{"name":"ILICAKÖY MAH.","zip":"07190"},{"name":"KARAMAN MAH.","zip":"07190"},{"name":"KARATAŞ MAH.","zip":"07190"},{"name":"KARAVELİLER MAH.","zip":"07190"},{"name":"KEVŞİRLER MAH.","zip":"07190"},{"name":"KİLLİK MAH.","zip":"07190"},{"name":"KOVANLIK MAH.","zip":"07190"},{"name":"KÖMÜRCÜLER MAH.","zip":"07190"},{"name":"NEBİLER MAH.","zip":"07190"},{"name":"ORTA MAH.","zip":"07190"},{"name":"SELİMİYE MAH.","zip":"07190"},{"name":"TOMALAR MAH.","zip":"07190"},{"name":"YAĞCA MAH.","zip":"07190"},{"name":"YALINLI MAH.","zip":"07190"},{"name":"YENİKÖY MAH.","zip":"07190"},{"name":"YEŞİLBAYIR MAH.","zip":"07190"}]},{"name":"AKÇAY","cityName":null,"quarters":null},{"name":"ELMALI","cityName":null,"quarters":[{"name":"AHATLI MAH.","zip":"07700"},{"name":"AKÇAİNİŞ MAH.","zip":"07700"},{"name":"ARMUTLU MAH.","zip":"07700"},{"name":"BAYINDIR MAH.","zip":"07700"},{"name":"BAYRALAR MAH.","zip":"07700"},{"name":"BEYLER MAH.","zip":"07700"},{"name":"BOZHÜYÜK MAH.","zip":"07700"},{"name":"BÜYÜKSÖĞLE MAH.","zip":"07700"},{"name":"CAMİATİK MAH.","zip":"07700"},{"name":"CAMİCEDİT MAH.","zip":"07700"},{"name":"ÇALPINAR MAH.","zip":"07700"},{"name":"ÇAYBAŞI MAH.","zip":"07700"},{"name":"ÇOBANİSA MAH.","zip":"07700"},{"name":"ÇUKURELMA MAH.","zip":"07700"},{"name":"DEREKÖY MAH.","zip":"07700"},{"name":"DÜDEN MAH.","zip":"07700"},{"name":"ESKİHİSAR MAH.","zip":"07700"},{"name":"EYMİR MAH.","zip":"07700"},{"name":"GEÇİT MAH.","zip":"07700"},{"name":"GEÇMEN MAH.","zip":"07700"},{"name":"GÖKPINAR MAH.","zip":"07700"},{"name":"GÖLOVA MAH.","zip":"07700"},{"name":"GÖLTARLA MAH.","zip":"07700"},{"name":"GÜMÜŞYAKA MAH.","zip":"07700"},{"name":"GÜNDOĞAN MAH.","zip":"07700"},{"name":"HACIMUSALAR MAH.","zip":"07700"},{"name":"HACIYUSUFLAR MAH.","zip":"07700"},{"name":"İMİRCİK MAH.","zip":"07700"},{"name":"İPLİK PAZARI MAH.","zip":"07700"},{"name":"İSLAMLAR MAH.","zip":"07700"},{"name":"KAPMESCİT MAH.","zip":"07700"},{"name":"KARAKÖY MAH.","zip":"07700"},{"name":"KARAMIK MAH.","zip":"07700"},{"name":"KARYAĞDI MAH.","zip":"07700"},{"name":"KIŞLA MAH.","zip":"07700"},{"name":"KIZILCA MAH.","zip":"07700"},{"name":"KOCAPINAR MAH.","zip":"07700"},{"name":"KUZKÖY MAH.","zip":"07700"},{"name":"KÜÇÜKSÖĞLE MAH.","zip":"07700"},{"name":"MACUN MAH.","zip":"07700"},{"name":"MURSAL MAH.","zip":"07700"},{"name":"OVACIK MAH.","zip":"07700"},{"name":"ÖZDEMİR MAH.","zip":"07700"},{"name":"PİRHASANLAR MAH.","zip":"07700"},{"name":"SALUR MAH.","zip":"07700"},{"name":"SARILAR MAH.","zip":"07700"},{"name":"TAHTAMESCİT MAH.","zip":"07700"},{"name":"TAVULLAR MAH.","zip":"07700"},{"name":"TEKKE MAH.","zip":"07700"},{"name":"TOKLULAR MAH.","zip":"07700"},{"name":"YAKAÇİFTLİKKÖYÜ MAH.","zip":"07700"},{"name":"YALNIZDAM MAH.","zip":"07700"},{"name":"YAPRAKLI MAH.","zip":"07700"},{"name":"YENİ MAH.","zip":"07700"},{"name":"YILMAZLI MAH.","zip":"07700"},{"name":"YÖRENLER MAH.","zip":"07700"},{"name":"YUVA MAH.","zip":"07700"},{"name":"ZÜMRÜTOVA MAH.","zip":"07700"}]},{"name":"FİNİKE","cityName":null,"quarters":[{"name":"ALACADAĞ MAH.","zip":"07740"},{"name":"ARİF MAH.","zip":"07740"},{"name":"ASARÖNÜ MAH.","zip":"07740"},{"name":"BOLDAĞ MAH.","zip":"07740"},{"name":"ÇAMLIBEL MAH.","zip":"07740"},{"name":"DAĞBAĞ MAH.","zip":"07740"},{"name":"ESKİ MAH.","zip":"07740"},{"name":"GÖKBÜK MAH.","zip":"07740"},{"name":"GÖKÇEYAKA MAH.","zip":"07740"},{"name":"GÜNÇALI MAH.","zip":"07740"},{"name":"HASYURT MAH.","zip":"07740"},{"name":"İSKELE MAH.","zip":"07740"},{"name":"KALE MAH.","zip":"07740"},{"name":"KARŞIYAKA MAH.","zip":"07740"},{"name":"KIZILCA MAH.","zip":"07740"},{"name":"SAHİLKENT MAH.","zip":"07740"},{"name":"SAKLISU MAH.","zip":"07740"},{"name":"TURUNÇOVA MAH.","zip":"07740"},{"name":"YALNIZ MAH.","zip":"07740"},{"name":"YAZIR MAH.","zip":"07740"},{"name":"YENİ MAH.","zip":"07740"},{"name":"YEŞİLKÖY MAH.","zip":"07740"},{"name":"YEŞİLYURT MAH.","zip":"07740"},{"name":"YUVALI MAH.","zip":"07740"}]},{"name":"GAZİPAŞA","cityName":null,"quarters":[{"name":"AYDIN MAH.","zip":"07900"},{"name":"AYDINCIK MAH.","zip":"07900"},{"name":"BAKILAR MAH.","zip":"07900"},{"name":"BEYOBASI MAH.","zip":"07900"},{"name":"BEYREBUCAK MAH.","zip":"07900"},{"name":"CUMHURİYET MAH.","zip":"07900"},{"name":"ÇAKMAK MAH.","zip":"07900"},{"name":"ÇALIPINAR MAH.","zip":"07900"},{"name":"ÇAMLICA MAH.","zip":"07900"},{"name":"ÇIĞLIK MAH.","zip":"07900"},{"name":"ÇİLE MAH.","zip":"07900"},{"name":"ÇİMENBAĞ MAH.","zip":"07900"},{"name":"ÇOBANLAR MAH.","zip":"07900"},{"name":"ÇÖRÜŞ MAH.","zip":"07900"},{"name":"DOĞANCA MAH.","zip":"07900"},{"name":"EKMEL MAH.","zip":"07900"},{"name":"ESENPINAR MAH.","zip":"07900"},{"name":"ESENTEPE MAH.","zip":"07900"},{"name":"GAZİ MAH.","zip":"07900"},{"name":"GÖÇÜK MAH.","zip":"07900"},{"name":"GÖKÇEBELEN MAH.","zip":"07900"},{"name":"GÖKÇESARAY MAH.","zip":"07900"},{"name":"GÜNEYKÖY MAH.","zip":"07900"},{"name":"GÜRÇAM MAH.","zip":"07900"},{"name":"HASDERE MAH.","zip":"07900"},{"name":"ILICA MAH.","zip":"07900"},{"name":"İNAL MAH.","zip":"07900"},{"name":"İNCEĞİZ MAH.","zip":"07900"},{"name":"İSTİKLAL MAH.","zip":"07900"},{"name":"KAHYALAR MAH.","zip":"07900"},{"name":"KARAÇUKUR MAH.","zip":"07900"},{"name":"KARALAR MAH.","zip":"07900"},{"name":"KARATEPE MAH.","zip":"07900"},{"name":"KIRAHMETLER MAH.","zip":"07900"},{"name":"KIZILGÜNEY MAH.","zip":"07900"},{"name":"KORU MAH.","zip":"07900"},{"name":"KORUBAŞI MAH.","zip":"07900"},{"name":"KÜÇÜKLÜ MAH.","zip":"07900"},{"name":"MACAR MAH.","zip":"07900"},{"name":"MUZKENT MAH.","zip":"07900"},{"name":"ÖZNURTEPE MAH.","zip":"07900"},{"name":"PAZARCI MAH.","zip":"07900"},{"name":"SARIAĞAÇ MAH.","zip":"07900"},{"name":"SUGÖZÜ MAH.","zip":"07900"},{"name":"ŞAHİNLER MAH.","zip":"07900"},{"name":"ÜÇKONAK MAH.","zip":"07900"},{"name":"YAKACIK MAH.","zip":"07900"},{"name":"YENİ MAH.","zip":"07900"},{"name":"YENİGÜNEY MAH.","zip":"07900"},{"name":"YENİKÖY MAH.","zip":"07900"},{"name":"YEŞİLYURT MAH.","zip":"07900"},{"name":"ZEYTİNADA MAH.","zip":"07900"}]},{"name":"GÜNDOĞMUŞ","cityName":null,"quarters":[{"name":"BALKAYA MAH.","zip":"07860"},{"name":"BEDAN MAH.","zip":"07860"},{"name":"ÇALTI MAH.","zip":"07860"},{"name":"ÇAMLIALAN MAH.","zip":"07860"},{"name":"ÇAYIRÖZÜ MAH.","zip":"07860"},{"name":"ÇİÇEKOLUK MAH.","zip":"07860"},{"name":"ESKİBAĞ MAH.","zip":"07860"},{"name":"FATİH MAH.","zip":"07860"},{"name":"GÜNEYCİK MAH.","zip":"07860"},{"name":"GÜNEYYAKA MAH.","zip":"07860"},{"name":"KALECİK MAH.","zip":"07860"},{"name":"KARABUL MAH.","zip":"07860"},{"name":"KARADERE MAH.","zip":"07860"},{"name":"KARAİSA MAH.","zip":"07860"},{"name":"KARAKÖY MAH.","zip":"07860"},{"name":"KAYABÜKÜ MAH.","zip":"07860"},{"name":"KOZAĞACI MAH.","zip":"07860"},{"name":"KÖPRÜLÜ MAH.","zip":"07860"},{"name":"NARAĞACI MAH.","zip":"07860"},{"name":"ORTAKONUŞ MAH.","zip":"07860"},{"name":"ORTAKÖY MAH.","zip":"07860"},{"name":"ÖZÜGÜR MAH.","zip":"07860"},{"name":"PEMBELİK MAH.","zip":"07860"},{"name":"RASİH KAPLAN MAH.","zip":"07860"},{"name":"SENİR MAH.","zip":"07860"},{"name":"SERİNYAKA MAH.","zip":"07860"},{"name":"UMUTLU MAH.","zip":"07860"},{"name":"YENİKÖY MAH.","zip":"07860"}]},{"name":"AYDINKENT","cityName":null,"quarters":[{"name":"AYDINYAYLA MAH.","zip":"07680"},{"name":"BAŞLAR MAH.","zip":"07680"},{"name":"ÇUKURVİRAN MAH.","zip":"07680"},{"name":"DÜZLEN MAH.","zip":"07680"},{"name":"ORMANA MAH.","zip":"07680"},{"name":"ÜRÜNLÜ MAH.","zip":"07680"},{"name":"ÜZÜMDERE MAH.","zip":"07680"},{"name":"YUKARI MAH.","zip":"07680"}]},{"name":"CEMRE","cityName":null,"quarters":[{"name":"CEMRE MAH.","zip":"07582"},{"name":"ÇAMLIKÖY MAH.","zip":"07582"},{"name":"ÇAMLIOVA MAH.","zip":"07582"},{"name":"SÜTLEĞEN MAH.","zip":"07582"},{"name":"YAYLAKILINÇLI MAH.","zip":"07582"},{"name":"YAYLAPALAMUT MAH.","zip":"07582"},{"name":"YEŞİLBARAK MAH.","zip":"07582"},{"name":"YUVACIK MAH.","zip":"07582"}]},{"name":"GÖMBE","cityName":null,"quarters":null},{"name":"KALKAN","cityName":null,"quarters":[{"name":"BEZİRGAN MAH.","zip":"07960"},{"name":"ÇAVDIR MAH.","zip":"07960"},{"name":"ÇAYKÖY MAH.","zip":"07960"},{"name":"GELEMİŞ MAH.","zip":"07960"},{"name":"HACIOĞLAN MAH.","zip":"07960"},{"name":"İKİZCE MAH.","zip":"07960"},{"name":"İSLAMLAR MAH.","zip":"07960"},{"name":"KALKAN MAH.","zip":"07960"},{"name":"PALAMUT MAH.","zip":"07960"},{"name":"SARIBELEN MAH.","zip":"07960"},{"name":"ÜZÜMLÜ MAH.","zip":"07960"}]},{"name":"KAŞ","cityName":null,"quarters":[{"name":"AHATLI MAH.","zip":"07580"},{"name":"AKÖRÜ MAH.","zip":"07580"},{"name":"ANDİFLİ MAH.","zip":"07580"},{"name":"BAYINDIR MAH.","zip":"07580"},{"name":"BELENLİ MAH.","zip":"07580"},{"name":"BELKONAK MAH.","zip":"07580"},{"name":"BOĞAZCIK MAH.","zip":"07580"},{"name":"ÇATALOLUK MAH.","zip":"07580"},{"name":"ÇERLER MAH.","zip":"07580"},{"name":"ÇEŞME MAH.","zip":"07580"},{"name":"ÇUKURBAĞ MAH.","zip":"07580"},{"name":"DERE MAH.","zip":"07580"},{"name":"DİRGENLER MAH.","zip":"07580"},{"name":"DOĞANTAŞ MAH.","zip":"07580"},{"name":"GÖKÇEÖREN MAH.","zip":"07580"},{"name":"GÖKÇEYAZI MAH.","zip":"07580"},{"name":"GÜRSU MAH.","zip":"07580"},{"name":"KARADAĞ MAH.","zip":"07580"},{"name":"KASABA MAH.","zip":"07580"},{"name":"KEMER MAH.","zip":"07580"},{"name":"KIZILAĞAÇ MAH.","zip":"07580"},{"name":"ORTABAĞ MAH.","zip":"07580"},{"name":"PINARBAŞI MAH.","zip":"07580"},{"name":"SAHİLKILINÇLI MAH.","zip":"07580"},{"name":"SARILAR MAH.","zip":"07580"},{"name":"SİNNELİ MAH.","zip":"07580"},{"name":"UĞRAR MAH.","zip":"07580"},{"name":"YENİKÖY MAH.","zip":"07580"}]},{"name":"KINIK","cityName":null,"quarters":null},{"name":"OVA","cityName":null,"quarters":null},{"name":"YEŞİLKÖY","cityName":null,"quarters":null},{"name":"BEYCİK","cityName":null,"quarters":[{"name":"OVACIK MAH.","zip":"07982"},{"name":"ULUPINAR MAH.","zip":"07982"}]},{"name":"ÇAMYUVA","cityName":null,"quarters":null},{"name":"GÖYNÜK","cityName":null,"quarters":[{"name":"KİRİŞ MAH.","zip":"07994"}]},{"name":"KEMER","cityName":null,"quarters":[{"name":"GÖYNÜK MAH.","zip":"07980"},{"name":"KUZDERE MAH.","zip":"07980"},{"name":"MERKEZ MAH.","zip":"07980"},{"name":"YENİ MAH.","zip":"07980"}]},{"name":"TEKİROVA","cityName":null,"quarters":null},{"name":"AHATLI","cityName":null,"quarters":[{"name":"FABRİKALAR MAH.","zip":"07090"},{"name":"KEPEZ MAH.","zip":"07090"},{"name":"KÜLTÜR MAH.","zip":"07090"},{"name":"SANTRAL MAH.","zip":"07090"},{"name":"YENİ DOĞAN MAH.","zip":"07090"}]},{"name":"ALTINOVA","cityName":null,"quarters":[{"name":"ALTINOVA ORTA MAH.","zip":"07170"},{"name":"ALTINOVA SİNAN MAH.","zip":"07170"}]},{"name":"DOKUMA","cityName":null,"quarters":[{"name":"ÖZGÜRLÜK MAH.","zip":"07025"},{"name":"ULUS MAH.","zip":"07025"},{"name":"YEŞİLTEPE MAH.","zip":"07025"},{"name":"YÜKSELİŞ MAH.","zip":"07025"},{"name":"ZAFER MAH.","zip":"07025"}]},{"name":"DURALİLER","cityName":null,"quarters":[{"name":"DURALİLER MAH.","zip":"07220"},{"name":"GÜLVEREN MAH.","zip":"07220"},{"name":"ŞAFAK MAH.","zip":"07220"},{"name":"ÜNSAL MAH.","zip":"07220"},{"name":"YEŞİLYURT MAH.","zip":"07220"}]},{"name":"DÜDENBAŞI","cityName":null,"quarters":[{"name":"DÜDENBAŞI MAH.","zip":"07260"},{"name":"GÖKSU MAH.","zip":"07260"},{"name":"GÜNEŞ MAH.","zip":"07260"},{"name":"TEOMANPAŞA MAH.","zip":"07260"}]},{"name":"ERENKÖY","cityName":null,"quarters":[{"name":"ÇAMLIBEL MAH.","zip":"07080"},{"name":"ÇANKAYA MAH.","zip":"07080"},{"name":"ERENKÖY MAH.","zip":"07080"},{"name":"FATİH MAH.","zip":"07080"},{"name":"GÖÇERLER MAH.","zip":"07080"},{"name":"KANAL MAH.","zip":"07080"},{"name":"KAZIM KARABEKİR MAH.","zip":"07080"},{"name":"KÜTÜKÇÜ MAH.","zip":"07080"},{"name":"YAVUZ SELİM MAH.","zip":"07080"}]},{"name":"SÜTÇÜLER","cityName":null,"quarters":[{"name":"GAZİ MAH.","zip":"07320"},{"name":"HABİBLER MAH.","zip":"07320"},{"name":"HÜSNÜ KARAKAŞ MAH.","zip":"07320"},{"name":"MEHMET AKİF ERSOY MAH.","zip":"07320"},{"name":"SÜTÇÜLER MAH.","zip":"07320"}]},{"name":"VARSAK","cityName":null,"quarters":[{"name":"AYANOĞLU MAH.","zip":"07020"},{"name":"DEMİREL MAH.","zip":"07020"},{"name":"ESENTEPE MAH.","zip":"07020"},{"name":"FEVZİ ÇAKMAK MAH.","zip":"07020"},{"name":"GAZİLER MAH.","zip":"07020"},{"name":"KARŞIYAKA MAH.","zip":"07020"},{"name":"MENDERES MAH.","zip":"07020"},{"name":"ŞELALE MAH.","zip":"07020"},{"name":"VARSAK ESENTEPE MAH.","zip":"07020"},{"name":"VARSAK KARŞIYAKA MAH.","zip":"07020"},{"name":"VARSAK MENDERES MAH.","zip":"07020"},{"name":"ZEYTİNLİK MAH.","zip":"07020"}]},{"name":"YENİEMEK","cityName":null,"quarters":[{"name":"ÇAMLICA MAH.","zip":"07060"},{"name":"DUACI MAH.","zip":"07060"},{"name":"EMEK MAH.","zip":"07060"},{"name":"GÜNDOĞDU MAH.","zip":"07060"},{"name":"KIZILLI MAH.","zip":"07060"},{"name":"KİRİŞÇİLER MAH.","zip":"07060"},{"name":"KUZEYYAKA MAH.","zip":"07060"},{"name":"ODABAŞI MAH.","zip":"07060"},{"name":"YENİ EMEK MAH.","zip":"07060"},{"name":"YENİ MAH.","zip":"07060"}]},{"name":"ARAPSUYU","cityName":null,"quarters":[{"name":"AKKUYU MAH.","zip":"07070"},{"name":"ALTINKUM MAH.","zip":"07070"},{"name":"ARAPSUYU MAH.","zip":"07070"},{"name":"AŞAĞIKARAMAN MAH.","zip":"07070"},{"name":"ÇAĞLARCA MAH.","zip":"07070"},{"name":"ÇAMLIBEL MAH.","zip":"07070"},{"name":"ÇİTDİBİ MAH.","zip":"07070"},{"name":"DAĞ MAH.","zip":"07070"},{"name":"DOYRAN MAH.","zip":"07070"},{"name":"GEYİKBAYIRI MAH.","zip":"07070"},{"name":"GÖKÇAM MAH.","zip":"07070"},{"name":"GÜRSU MAH.","zip":"07070"},{"name":"HACISEKİLİLER MAH.","zip":"07070"},{"name":"HİSARÇANDIR MAH.","zip":"07070"},{"name":"KARATEPE MAH.","zip":"07070"},{"name":"KIR MAH.","zip":"07070"},{"name":"KUŞKAVAĞI MAH.","zip":"07070"},{"name":"MOLLA YUSUF MAH.","zip":"07070"},{"name":"ÖĞRETMENEVLERİ MAH.","zip":"07070"},{"name":"PINARBAŞI MAH.","zip":"07070"},{"name":"SİTELER MAH.","zip":"07070"},{"name":"TOROS MAH.","zip":"07070"},{"name":"ULUÇ MAH.","zip":"07070"},{"name":"UNCALI MAH.","zip":"07070"},{"name":"ÜÇOLUK MAH.","zip":"07070"},{"name":"YARBAŞÇANDIR MAH.","zip":"07070"}]},{"name":"LİMAN","cityName":null,"quarters":[{"name":"BAHTILI MAH.","zip":"07130"},{"name":"ÇAKIRLAR MAH.","zip":"07130"},{"name":"DEMİRCİLİK MAH.","zip":"07130"},{"name":"GÖKDERE MAH.","zip":"07130"},{"name":"HURMA MAH.","zip":"07130"},{"name":"KURUÇAY MAH.","zip":"07130"},{"name":"LİMAN MAH.","zip":"07130"},{"name":"LİMAN SB MAH.","zip":"07130"},{"name":"SARISU MAH.","zip":"07130"},{"name":"SUİÇECEK MAH.","zip":"07130"},{"name":"YENİ MAH.","zip":"07130"},{"name":"ZÜMRÜT MAH.","zip":"07130"}]},{"name":"KORKUTELİ","cityName":null,"quarters":[{"name":"ALAADDİN MAH.","zip":"07800"},{"name":"AŞAĞIPAZAR MAH.","zip":"07800"},{"name":"AVDAN MAH.","zip":"07800"},{"name":"BAHÇEYAKA MAH.","zip":"07800"},{"name":"BAYAT MAH.","zip":"07800"},{"name":"BAYATBADEMLERİ MAH.","zip":"07800"},{"name":"BEĞİŞ MAH.","zip":"07800"},{"name":"BOZOVA MAH.","zip":"07800"},{"name":"BÜYÜKKÖY MAH.","zip":"07800"},{"name":"ÇAYKENARI MAH.","zip":"07800"},{"name":"ÇIVGALAR MAH.","zip":"07800"},{"name":"ÇOMAKLI MAH.","zip":"07800"},{"name":"ÇUKURCA MAH.","zip":"07800"},{"name":"DEREKÖY MAH.","zip":"07800"},{"name":"DURALİLER MAH.","zip":"07800"},{"name":"ESENYURT MAH.","zip":"07800"},{"name":"GARİPCE MAH.","zip":"07800"},{"name":"GÖÇERLER MAH.","zip":"07800"},{"name":"GÜMÜŞLÜ MAH.","zip":"07800"},{"name":"GÜZLE MAH.","zip":"07800"},{"name":"İMECİK MAH.","zip":"07800"},{"name":"İMRAHOR MAH.","zip":"07800"},{"name":"KARABAYIR MAH.","zip":"07800"},{"name":"KARAKUYU MAH.","zip":"07800"},{"name":"KARATAŞ MAH.","zip":"07800"},{"name":"KARGALIK MAH.","zip":"07800"},{"name":"KARGIN MAH.","zip":"07800"},{"name":"KARŞIYAKA MAH.","zip":"07800"},{"name":"KAYABAŞ MAH.","zip":"07800"},{"name":"KEMERAĞZI MAH.","zip":"07800"},{"name":"KIRKPINAR MAH.","zip":"07800"},{"name":"KIZILALİLER MAH.","zip":"07800"},{"name":"KIZILCADAĞ MAH.","zip":"07800"},{"name":"KİREMİTLİ MAH.","zip":"07800"},{"name":"KOZAĞACI MAH.","zip":"07800"},{"name":"KÖSELER MAH.","zip":"07800"},{"name":"KÜÇÜKKÖY MAH.","zip":"07800"},{"name":"KÜÇÜKLÜ MAH.","zip":"07800"},{"name":"LEYLEK MAH.","zip":"07800"},{"name":"MAMATLAR MAH.","zip":"07800"},{"name":"MANAY MAH.","zip":"07800"},{"name":"NEBİLER MAH.","zip":"07800"},{"name":"OSMANKALFALAR MAH.","zip":"07800"},{"name":"SÖĞÜTCÜK MAH.","zip":"07800"},{"name":"SÜLEKLER MAH.","zip":"07800"},{"name":"TAŞKESİĞİ MAH.","zip":"07800"},{"name":"TATKÖY MAH.","zip":"07800"},{"name":"ULUCAK MAH.","zip":"07800"},{"name":"UZUNOLUK MAH.","zip":"07800"},{"name":"YAKAKÖY MAH.","zip":"07800"},{"name":"YAZIR MAH.","zip":"07800"},{"name":"YELEME MAH.","zip":"07800"},{"name":"YELTEN MAH.","zip":"07800"},{"name":"YENİ MAH.","zip":"07800"},{"name":"YEŞİLOBA MAH.","zip":"07800"},{"name":"YEŞİLYAYLA MAH.","zip":"07800"},{"name":"YUKARIKARAMAN MAH.","zip":"07800"}]},{"name":"KUMLUCA","cityName":null,"quarters":[{"name":"ALTINYAKA MAH.","zip":"07350"},{"name":"BAĞLIK MAH.","zip":"07350"},{"name":"BELEN MAH.","zip":"07350"},{"name":"BEŞİKÇİ MAH.","zip":"07350"},{"name":"BEYKONAK MAH.","zip":"07350"},{"name":"BÜYÜKALAN MAH.","zip":"07350"},{"name":"CUMHURİYET MAH.","zip":"07350"},{"name":"ÇALTI MAH.","zip":"07350"},{"name":"ÇAYİÇİ MAH.","zip":"07350"},{"name":"DEREKÖY MAH.","zip":"07350"},{"name":"ELLİNCİ YIL MAHALLESİ MAH.","zip":"07350"},{"name":"ERENTEPE MAH.","zip":"07350"},{"name":"ESKİCAMİ MAH.","zip":"07350"},{"name":"GÖKSU MAH.","zip":"07350"},{"name":"GÖLCÜK MAH.","zip":"07350"},{"name":"GÜZÖREN MAH.","zip":"07350"},{"name":"HACIVELİLER MAH.","zip":"07350"},{"name":"HIZIRKAHYA MAH.","zip":"07350"},{"name":"İNCİRCİK MAH.","zip":"07350"},{"name":"KARACAAĞAÇ MAH.","zip":"07350"},{"name":"KARACAÖREN MAH.","zip":"07350"},{"name":"KARŞIYAKA MAH.","zip":"07350"},{"name":"KASAPÇAYIRI MAH.","zip":"07350"},{"name":"KAVAKKÖY MAH.","zip":"07350"},{"name":"KUM MAH.","zip":"07350"},{"name":"KUZCA MAH.","zip":"07350"},{"name":"MERKEZ MAH.","zip":"07350"},{"name":"MEYDAN MAH.","zip":"07350"},{"name":"NARENCİYE MAH.","zip":"07350"},{"name":"ORTAKÖY MAH.","zip":"07350"},{"name":"SALUR MAH.","zip":"07350"},{"name":"SARICASU MAH.","zip":"07350"},{"name":"SARIKAVAK MAH.","zip":"07350"},{"name":"TEMEL EĞİTİM MAHALLESİ MAH.","zip":"07350"},{"name":"TOPTAŞ MAH.","zip":"07350"},{"name":"YAZIR MAH.","zip":"07350"},{"name":"YENİ MAH.","zip":"07350"},{"name":"YENİKIŞLA MAH.","zip":"07350"},{"name":"YEŞİLKÖY MAH.","zip":"07350"}]},{"name":"MAVİKENT","cityName":null,"quarters":null},{"name":"ÇOLAKLI","cityName":null,"quarters":[{"name":"KALEMLER MAH.","zip":"07620"}]},{"name":"MANAVGAT","cityName":null,"quarters":[{"name":"A. PAZARCI MAH.","zip":"07600"},{"name":"AHMETLER MAH.","zip":"07600"},{"name":"AKSAZ MAH.","zip":"07600"},{"name":"AŞAĞIIŞIKLAR MAH.","zip":"07600"},{"name":"AYDINEVLER MAH.","zip":"07600"},{"name":"BAHÇELİEVLER MAH.","zip":"07600"},{"name":"BELENOBASI MAH.","zip":"07600"},{"name":"BOZTEPE MAH.","zip":"07600"},{"name":"BUCAKŞEYHLER MAH.","zip":"07600"},{"name":"CEVİZLER MAH.","zip":"07600"},{"name":"ÇAĞLAYAN MAH.","zip":"07600"},{"name":"ÇAVUŞKÖY MAH.","zip":"07600"},{"name":"ÇAYYAZI MAH.","zip":"07600"},{"name":"ÇELTİKÇİ MAH.","zip":"07600"},{"name":"ÇENGER MAH.","zip":"07600"},{"name":"DEĞİRMENLİ MAH.","zip":"07600"},{"name":"DEMİRCİLER MAH.","zip":"07600"},{"name":"DİKMEN MAH.","zip":"07600"},{"name":"DOĞANÇAM MAH.","zip":"07600"},{"name":"DOLBAZLAR MAH.","zip":"07600"},{"name":"EMEK MAH.","zip":"07600"},{"name":"ESKİ HİSAR MAH.","zip":"07600"},{"name":"EVRENLERYAVŞI MAH.","zip":"07600"},{"name":"EVRENSEKİ MAH.","zip":"07600"},{"name":"GEBECE MAH.","zip":"07600"},{"name":"GENÇLER MAH.","zip":"07600"},{"name":"GÜLTEPE MAH.","zip":"07600"},{"name":"GÜZELYALI MAH.","zip":"07600"},{"name":"HACIALİ MAH.","zip":"07600"},{"name":"HACIİSALI MAH.","zip":"07600"},{"name":"HACIOBASI MAH.","zip":"07600"},{"name":"HALİTAĞALAR MAH.","zip":"07600"},{"name":"HATİPLER MAH.","zip":"07600"},{"name":"HOCALI MAH.","zip":"07600"},{"name":"ILICA MAH.","zip":"07600"},{"name":"KADILAR MAH.","zip":"07600"},{"name":"KARACALAR MAH.","zip":"07600"},{"name":"KARAKAYA MAH.","zip":"07600"},{"name":"KARAÖZ MAH.","zip":"07600"},{"name":"KASAPLAR MAH.","zip":"07600"},{"name":"KAVAKLI MAH.","zip":"07600"},{"name":"KIZILAĞAÇ MAH.","zip":"07600"},{"name":"KIZILOT MAH.","zip":"07600"},{"name":"MİLLİ EGEMENLİK MAH.","zip":"07600"},{"name":"MİMAR SİNAN MAH.","zip":"07600"},{"name":"NAMARAS MAH.","zip":"07600"},{"name":"ODAÖNÜ MAH.","zip":"07600"},{"name":"OYMAPINAR MAH.","zip":"07600"},{"name":"ÖRENŞEHİR MAH.","zip":"07600"},{"name":"ÖRNEK MAH.","zip":"07600"},{"name":"SALKIM EVLER MAH.","zip":"07600"},{"name":"SALUR MAH.","zip":"07600"},{"name":"SANAYİ MAH.","zip":"07600"},{"name":"SARAÇLI MAH.","zip":"07600"},{"name":"SARILAR MAH.","zip":"07600"},{"name":"SEVİNÇKÖY MAH.","zip":"07600"},{"name":"SEYDİLER MAH.","zip":"07600"},{"name":"SIRTKÖY MAH.","zip":"07600"},{"name":"SORGUN MAH.","zip":"07600"},{"name":"SÜLEK MAH.","zip":"07600"},{"name":"ŞELALE MAH.","zip":"07600"},{"name":"ŞİŞELER MAH.","zip":"07600"},{"name":"TAŞKESİĞİ MAH.","zip":"07600"},{"name":"TEPEKÖY MAH.","zip":"07600"},{"name":"TİLKİLER MAH.","zip":"07600"},{"name":"ULUKAPI MAH.","zip":"07600"},{"name":"UZUNKALE MAH.","zip":"07600"},{"name":"UZUNLAR MAH.","zip":"07600"},{"name":"Y.HİSAR MAH.","zip":"07600"},{"name":"Y.PAZARCI MAH.","zip":"07600"},{"name":"YALÇIDİBİ MAH.","zip":"07600"},{"name":"YAYLA MAH.","zip":"07600"},{"name":"YAYLAALAN MAH.","zip":"07600"},{"name":"YENİKÖY MAH.","zip":"07600"},{"name":"YUKARIIŞIKLAR MAH.","zip":"07600"}]},{"name":"SİDE","cityName":null,"quarters":null},{"name":"TAŞAĞIL","cityName":null,"quarters":[{"name":"BALLIBUCAK MAH.","zip":"07550"},{"name":"BEREKET MAH.","zip":"07550"},{"name":"BEYDİĞİN MAH.","zip":"07550"},{"name":"BOZYAKA MAH.","zip":"07550"},{"name":"BURMAHAN MAH.","zip":"07550"},{"name":"BÜKLÜCE MAH.","zip":"07550"},{"name":"ÇAKIŞ MAH.","zip":"07550"},{"name":"ÇALTEPE MAH.","zip":"07550"},{"name":"ÇARDAKKÖY MAH.","zip":"07550"},{"name":"DEĞİRMENÖZÜ MAH.","zip":"07550"},{"name":"DENİZKENT MAH.","zip":"07550"},{"name":"DENİZYAKA MAH.","zip":"07550"},{"name":"DÜZAĞAÇ MAH.","zip":"07550"},{"name":"GAZİLER MAH.","zip":"07550"},{"name":"GÜNDOĞDU MAH.","zip":"07550"},{"name":"HOCALAR MAH.","zip":"07550"},{"name":"KARABUCAK MAH.","zip":"07550"},{"name":"KARABÜK MAH.","zip":"07550"},{"name":"KIRKKAVAK MAH.","zip":"07550"},{"name":"KISALAR MAH.","zip":"07550"},{"name":"KIZILDAĞ MAH.","zip":"07550"},{"name":"PERAKENDE MAH.","zip":"07550"},{"name":"SAĞIRİN MAH.","zip":"07550"},{"name":"TAŞAĞIL MAH.","zip":"07550"},{"name":"YAVRUDOĞAN MAH.","zip":"07550"},{"name":"YEŞİLBAĞ MAH.","zip":"07550"}]},{"name":"BAHÇELİEVLER","cityName":null,"quarters":[{"name":"BAHÇELİEVLER MAH.","zip":"07050"},{"name":"DENİZ MAH.","zip":"07050"},{"name":"MEMUREVLERİ MAH.","zip":"07050"},{"name":"VARLIK MAH.","zip":"07050"},{"name":"YILDIZ MAH.","zip":"07050"}]},{"name":"ÇARŞI","cityName":null,"quarters":[{"name":"ELMALI MAH.","zip":"07040"},{"name":"KIŞLA MAH.","zip":"07040"},{"name":"KIZILSARAY MAH.","zip":"07040"},{"name":"TAHILPAZARI MAH.","zip":"07040"},{"name":"ÜÇGEN MAH.","zip":"07040"}]},{"name":"ESKİSANAYİ","cityName":null,"quarters":[{"name":"DUTLUBAHÇE MAH.","zip":"07010"},{"name":"ETİLER MAH.","zip":"07010"},{"name":"KONUKSEVER MAH.","zip":"07010"},{"name":"MURATPAŞA MAH.","zip":"07010"},{"name":"SEDİR MAH.","zip":"07010"}]},{"name":"GENÇLİK","cityName":null,"quarters":[{"name":"ÇAYBAŞI MAH.","zip":"07100"},{"name":"DEMİRCİKARA MAH.","zip":"07100"},{"name":"GENÇLİK MAH.","zip":"07100"},{"name":"HAŞİMİŞCAN MAH.","zip":"07100"},{"name":"KILINÇARSLAN MAH.","zip":"07100"},{"name":"SELÇUK MAH.","zip":"07100"},{"name":"SİNAN MAH.","zip":"07100"},{"name":"TUZCULAR MAH.","zip":"07100"},{"name":"ZERDALİLİK MAH.","zip":"07100"}]},{"name":"KIZILTOPRAK","cityName":null,"quarters":[{"name":"GEBİZLİ MAH.","zip":"07300"},{"name":"KIZILTOPRAK MAH.","zip":"07300"},{"name":"MEHMETÇİK MAH.","zip":"07300"},{"name":"TOPÇULAR MAH.","zip":"07300"}]},{"name":"LARA","cityName":null,"quarters":[{"name":"ERMENEK MAH.","zip":"07230"},{"name":"FENER MAH.","zip":"07230"},{"name":"GÜZELBAĞ MAH.","zip":"07230"},{"name":"GÜZELOBA MAH.","zip":"07230"},{"name":"GÜZELOLUK MAH.","zip":"07230"},{"name":"KIRCAMİ MAH.","zip":"07230"},{"name":"MEYDANKAVAĞI MAH.","zip":"07230"},{"name":"ŞİRİNYALI MAH.","zip":"07230"},{"name":"TARIM MAH.","zip":"07230"},{"name":"YENİGÖL MAH.","zip":"07230"},{"name":"YEŞİLBAHÇE MAH.","zip":"07230"},{"name":"YEŞİLKÖY MAH.","zip":"07230"},{"name":"YEŞİLOVA MAH.","zip":"07230"},{"name":"ZÜMRÜTOVA MAH.","zip":"07230"}]},{"name":"MELTEM","cityName":null,"quarters":[{"name":"GÜVENLİK MAH.","zip":"07030"},{"name":"MELTEM MAH.","zip":"07030"},{"name":"SOĞUKSU MAH.","zip":"07030"}]},{"name":"YENİGÜN","cityName":null,"quarters":[{"name":"YENİGÜN MAH.","zip":"07310"},{"name":"YEŞİLDERE MAH.","zip":"07310"},{"name":"YÜKSEKALAN MAH.","zip":"07310"}]},{"name":"SERİK","cityName":null,"quarters":[{"name":"AKBAŞ MAH.","zip":"07500"},{"name":"AKÇAALAN MAH.","zip":"07500"},{"name":"AKÇAPINAR MAH.","zip":"07500"},{"name":"ALACAMİ MAH.","zip":"07500"},{"name":"AŞAĞIÇATMA MAH.","zip":"07500"},{"name":"AŞAĞIKOCAYATAK MAH.","zip":"07500"},{"name":"AŞAĞIOBA MAH.","zip":"07500"},{"name":"BELEK MAH.","zip":"07500"},{"name":"BELKIS MAH.","zip":"07500"},{"name":"BELPINAR MAH.","zip":"07500"},{"name":"BERENDİ MAH.","zip":"07500"},{"name":"BİLGİNLER MAH.","zip":"07500"},{"name":"BOĞAZKENT MAH.","zip":"07500"},{"name":"BOZDOĞAN MAH.","zip":"07500"},{"name":"BUCAKKÖY MAH.","zip":"07500"},{"name":"BURMAHANCI MAH.","zip":"07500"},{"name":"BÜĞÜŞ MAH.","zip":"07500"},{"name":"CUMALI MAH.","zip":"07500"},{"name":"CUMHURİYET MAH.","zip":"07500"},{"name":"ÇAKALLIK MAH.","zip":"07500"},{"name":"ÇANAKÇI MAH.","zip":"07500"},{"name":"ÇANDIR MAH.","zip":"07500"},{"name":"ÇATALLAR MAH.","zip":"07500"},{"name":"DEMİRCİLER MAH.","zip":"07500"},{"name":"DENİZTEPESİ MAH.","zip":"07500"},{"name":"DİKMEN MAH.","zip":"07500"},{"name":"DORUMLAR MAH.","zip":"07500"},{"name":"EMİNCELER MAH.","zip":"07500"},{"name":"ESKİYÜRÜK MAH.","zip":"07500"},{"name":"ETLER MAH.","zip":"07500"},{"name":"GEBİZ MAH.","zip":"07500"},{"name":"GEDİK MAH.","zip":"07500"},{"name":"GÖKÇEPINAR MAH.","zip":"07500"},{"name":"HACIOSMANLAR MAH.","zip":"07500"},{"name":"HASDÜMEN MAH.","zip":"07500"},{"name":"HASKIZILÖREN MAH.","zip":"07500"},{"name":"HASPINAR MAH.","zip":"07500"},{"name":"KADRİYE MAH.","zip":"07500"},{"name":"KARADAYI MAH.","zip":"07500"},{"name":"KARATAŞ MAH.","zip":"07500"},{"name":"KARINCALI MAH.","zip":"07500"},{"name":"KAYABURNU MAH.","zip":"07500"},{"name":"KIRBAŞ MAH.","zip":"07500"},{"name":"KOZAĞACI MAH.","zip":"07500"},{"name":"KOZAN MAH.","zip":"07500"},{"name":"KÖKEZ MAH.","zip":"07500"},{"name":"KUŞLAR MAH.","zip":"07500"},{"name":"KÜRÜŞ MAH.","zip":"07500"},{"name":"MERKEZ MAH.","zip":"07500"},{"name":"NEBİLER MAH.","zip":"07500"},{"name":"ORTA MAH.","zip":"07500"},{"name":"PINARCIK MAH.","zip":"07500"},{"name":"SARIABALI MAH.","zip":"07500"},{"name":"ŞATIRLI MAH.","zip":"07500"},{"name":"TEKKE MAH.","zip":"07500"},{"name":"TÖNGÜŞLÜ MAH.","zip":"07500"},{"name":"ÜRÜNDÜ MAH.","zip":"07500"},{"name":"YANKÖY MAH.","zip":"07500"},{"name":"YENİ MAH.","zip":"07500"},{"name":"YEŞİLVADİ MAH.","zip":"07500"},{"name":"YEŞİLYURT MAH.","zip":"07500"},{"name":"YUKARIÇATMA MAH.","zip":"07500"},{"name":"YUKARIKOCAYATAK MAH.","zip":"07500"},{"name":"YUMAKLAR MAH.","zip":"07500"},{"name":"ZIRLANKAYA MAH.","zip":"07500"}]}]}]}