{"id":70,"name":"KARAMAN","cities":[{"name":"city","districts":[{"name":"AYRANCI","cityName":null,"quarters":[{"name":"YENİ MAH.","zip":"70500"}]},{"name":"MERKEZKÖYLER","cityName":null,"quarters":[{"name":"AKOLUK MAH.","zip":"70502"},{"name":"AKPINAR KÖYÜ","zip":"70502"},{"name":"ALİBAĞLI MAH.","zip":"70502"},{"name":"AMBAR KÖYÜ","zip":"70502"},{"name":"ANDIKARA MAH.","zip":"70502"},{"name":"AŞAĞI KIRAMANOĞLU MAH.","zip":"70502"},{"name":"BAŞÇAYIR MAH.","zip":"70502"},{"name":"BERENDİ KÖYÜ","zip":"70502"},{"name":"BÖĞECİK KÖYÜ","zip":"70502"},{"name":"BUĞDAYLI KÖYÜ","zip":"70502"},{"name":"BÜYÜKKORAŞ KÖYÜ","zip":"70502"},{"name":"ÇATKÖY KÖYÜ","zip":"70502"},{"name":"DOKUZYOL KÖYÜ","zip":"70502"},{"name":"ELFETİN MAH.","zip":"70502"},{"name":"GÜNEYDAĞI MAH.","zip":"70502"},{"name":"HÜYÜKBURUN KÖYÜ","zip":"70502"},{"name":"KALEKÖY KÖYÜ","zip":"70502"},{"name":"KARAAĞAÇ KÖYÜ","zip":"70502"},{"name":"KAVAKÖZÜ KÖYÜ","zip":"70502"},{"name":"KAVUKLAR KÖYÜ","zip":"70502"},{"name":"KAYAÖNÜ KÖYÜ","zip":"70502"},{"name":"KEŞİR MAH.","zip":"70502"},{"name":"KIRAMAN KÖYÜ","zip":"70502"},{"name":"KIRAMANOĞLU MAH.","zip":"70502"},{"name":"KÜÇÜKKORAŞ KÖYÜ","zip":"70502"},{"name":"MELİKLİ KÖYÜ","zip":"70502"},{"name":"PINARKAYA KÖYÜ","zip":"70502"},{"name":"SARAYKÖY KÖYÜ","zip":"70502"},{"name":"SARIKAYA MAH.","zip":"70502"},{"name":"SAVRAN MAH.","zip":"70502"},{"name":"ÜÇHARMAN KÖYÜ","zip":"70502"},{"name":"YARIKKUYU KÖYÜ","zip":"70502"}]},{"name":"BAŞYAYLA","cityName":null,"quarters":[{"name":"GÖZTEPE MAH.","zip":"70700"},{"name":"KİRAZLIYAYLA MAH.","zip":"70700"},{"name":"ŞİRİNDERE MAH.","zip":"70700"},{"name":"YENİMAHALLE MAH.","zip":"70700"}]},{"name":"MERKEZKÖYLER","cityName":null,"quarters":[{"name":"BÜYÜKKARAPINAR KÖYÜ","zip":"70702"},{"name":"KIŞLAKÖY KÖYÜ","zip":"70702"},{"name":"SÖĞÜTLÜ MAH.","zip":"70702"},{"name":"ÜZÜMLÜ KÖYÜ","zip":"70702"},{"name":"YENİCE MAH.","zip":"70702"}]},{"name":"ERMENEK","cityName":null,"quarters":[{"name":"BAŞPINAR MAH.","zip":"70400"},{"name":"ÇINARLISU MAH.","zip":"70400"},{"name":"DEĞİRMENLİK MAH.","zip":"70400"},{"name":"GÜLLÜK MAH.","zip":"70400"},{"name":"GÜLPAZAR MAH.","zip":"70400"},{"name":"KARALAR MAH.","zip":"70400"},{"name":"KEBENDİBİ MAH.","zip":"70400"},{"name":"KEÇİPAZAR MAH.","zip":"70400"},{"name":"KEŞİLLİK MAH.","zip":"70400"},{"name":"MEYDAN MAH.","zip":"70400"},{"name":"ORTA MAH.","zip":"70400"},{"name":"SANDIKLI MAH.","zip":"70400"},{"name":"SEYRAN MAH.","zip":"70400"},{"name":"SUSAKLI MAH.","zip":"70400"},{"name":"TAŞBAŞI MAH.","zip":"70400"}]},{"name":"KAZANCI","cityName":null,"quarters":[{"name":"AŞAĞI MAH.","zip":"70460"},{"name":"BAĞARASI MAH.","zip":"70460"},{"name":"BELİÇEKKOZ MAH.","zip":"70460"},{"name":"BUCAK MAH.","zip":"70460"},{"name":"ÇATALBADEM MAH.","zip":"70460"},{"name":"DEĞİRMEN MAH.","zip":"70460"},{"name":"DUT AĞACI MAH.","zip":"70460"},{"name":"FİDE MAH.","zip":"70460"},{"name":"GÖKCELER MAH.","zip":"70460"},{"name":"GÖKÇEKENT KÖYÜ","zip":"70460"},{"name":"HAVUZ MERKEZ MAH.","zip":"70460"},{"name":"İKİZÇINAR KÖYÜ","zip":"70460"},{"name":"İSLAMLI MAH.","zip":"70460"},{"name":"KAZANCI KÖYÜ","zip":"70460"},{"name":"MERKEZ MAH.","zip":"70460"},{"name":"SARIVADİ KÖYÜ","zip":"70460"},{"name":"TEPECİK MAH.","zip":"70460"},{"name":"TÜRBESEKİ MAH.","zip":"70460"},{"name":"ULUKÖY MAH.","zip":"70460"},{"name":"YAYLAPAZARI KÖYÜ","zip":"70460"},{"name":"YEŞİLKÖY KÖYÜ","zip":"70460"},{"name":"YUKARI MAH.","zip":"70460"}]},{"name":"MERKEZKÖYLER","cityName":null,"quarters":[{"name":"ARALIK MAH.","zip":"70402"},{"name":"AŞAĞIÇAĞLAR KÖYÜ","zip":"70402"},{"name":"AVCILAR MAH.","zip":"70402"},{"name":"BAĞARASI MAH.","zip":"70402"},{"name":"BALKUSAN KÖYÜ","zip":"70402"},{"name":"BELEN MAH.","zip":"70402"},{"name":"BOYALIK KÖYÜ","zip":"70402"},{"name":"BOZYAKA MAH.","zip":"70402"},{"name":"CAMİ MAH.","zip":"70402"},{"name":"ÇAMLICA KÖYÜ","zip":"70402"},{"name":"ÇARIKLI MAH.","zip":"70402"},{"name":"ÇATALARMUT MAH.","zip":"70402"},{"name":"ÇATALARMUTBÜKÜ MAH.","zip":"70402"},{"name":"ÇAVUŞ KÖYÜ","zip":"70402"},{"name":"ÇAYIRLIALAN MAH.","zip":"70402"},{"name":"EDİL ALANI MAH.","zip":"70402"},{"name":"ELMAYURDU KÖYÜ","zip":"70402"},{"name":"ESKİCE KÖYÜ","zip":"70402"},{"name":"EVSİN KÖYÜ","zip":"70402"},{"name":"GÖBETTE MAH.","zip":"70402"},{"name":"GÖKCESEKİ KÖYÜ","zip":"70402"},{"name":"GÖRMELİ KÖYÜ","zip":"70402"},{"name":"GÜNERİ MAH.","zip":"70402"},{"name":"GÜNEY MAH.","zip":"70402"},{"name":"GÜNEYYURT KÖYÜ","zip":"70402"},{"name":"HABİB MAH.","zip":"70402"},{"name":"HARMANBAĞI MAH.","zip":"70402"},{"name":"HATİLLA MAH.","zip":"70402"},{"name":"İĞDEYAKASI MAH.","zip":"70402"},{"name":"KATRANLI KÖYÜ","zip":"70402"},{"name":"KAYAÖNÜ KÖYÜ","zip":"70402"},{"name":"KIŞLA MAH.","zip":"70402"},{"name":"KIŞLACIK MAH.","zip":"70402"},{"name":"KIZILALAN MAH.","zip":"70402"},{"name":"KÖPRÜBAŞI MAH.","zip":"70402"},{"name":"KÖYYAKASI MAH.","zip":"70402"},{"name":"KUMYAKA MAH.","zip":"70402"},{"name":"MEZARLIALAN MAH.","zip":"70402"},{"name":"NİSA MAH.","zip":"70402"},{"name":"ODA MAH.","zip":"70402"},{"name":"OLUKPINAR KÖYÜ","zip":"70402"},{"name":"ORTA MAH.","zip":"70402"},{"name":"PAMUKLU KÖYÜ","zip":"70402"},{"name":"PINARGÖZÜ MAH.","zip":"70402"},{"name":"PINARÖNÜ KÖYÜ","zip":"70402"},{"name":"ŞAHİNLER MAH.","zip":"70402"},{"name":"TAŞTEKNE MAH.","zip":"70402"},{"name":"TEKKE MAH.","zip":"70402"},{"name":"TEPEBAŞI KÖYÜ","zip":"70402"},{"name":"ÜLÜĞER MAH.","zip":"70402"},{"name":"YALINDAL KÖYÜ","zip":"70402"},{"name":"YENİMAHALLE MAH.","zip":"70402"},{"name":"YERBAĞ KÖYÜ","zip":"70402"},{"name":"YOLÇATI MAH.","zip":"70402"},{"name":"YUKARIÇAĞLAR KÖYÜ","zip":"70402"}]},{"name":"KAZIMKARABEKİR","cityName":null,"quarters":[{"name":"EMİNETTİN MAH.","zip":"70600"},{"name":"EMSALHAYAT MAH.","zip":"70600"},{"name":"OBA MAH.","zip":"70600"},{"name":"PAZAR MAH.","zip":"70600"},{"name":"SELÇUKLU MAH.","zip":"70600"},{"name":"SUBAŞI MAH.","zip":"70600"},{"name":"TİMSAL MAH.","zip":"70600"}]},{"name":"MERKEZKÖYLER","cityName":null,"quarters":[{"name":"KARALGAZİ KÖYÜ","zip":"70602"},{"name":"KIZILKUYU KÖYÜ","zip":"70602"},{"name":"MECİDİYE KÖYÜ","zip":"70602"},{"name":"ÖZYURT KÖYÜ","zip":"70602"},{"name":"SİNCİ KÖYÜ","zip":"70602"}]},{"name":"AKÇAŞEHİR","cityName":null,"quarters":[{"name":"FATİH MAH.","zip":"70110"},{"name":"HÜRRİYET MAH.","zip":"70110"}]},{"name":"HİSAR","cityName":null,"quarters":[{"name":"AHMET YESEVİ MAH.","zip":"70200"},{"name":"BEYAZKENT MAH.","zip":"70200"},{"name":"ÇELTEK MAH.","zip":"70200"},{"name":"ELMAŞEHİR MAH.","zip":"70200"},{"name":"GAZİDÜKKAN MAH.","zip":"70200"},{"name":"GEVHER HATUN MAH.","zip":"70200"},{"name":"HİSAR MAH.","zip":"70200"},{"name":"İBRAHİM HAKKI KONYALI MAH.","zip":"70200"},{"name":"İMARET MAH.","zip":"70200"},{"name":"KARAMANOĞLU MEHMET BEY MAH.","zip":"70200"},{"name":"KIRBAĞI MAH.","zip":"70200"},{"name":"KOÇAKDEDE MAH.","zip":"70200"},{"name":"MANSURDEDE MAH.","zip":"70200"},{"name":"MEHMET AKİF ERSOY MAH.","zip":"70200"},{"name":"MÜMİNE HATUN MAH.","zip":"70200"},{"name":"OSMANGAZİ MAH.","zip":"70200"},{"name":"SAKABAŞI MAH.","zip":"70200"},{"name":"SEKİÇEŞME MAH.","zip":"70200"},{"name":"SİYAHSER MAH.","zip":"70200"},{"name":"ŞEYH EDEBALİ MAH.","zip":"70200"},{"name":"TABDUK EMRE MAH.","zip":"70200"},{"name":"TOPUCAK MAH.","zip":"70200"},{"name":"URGAN MAH.","zip":"70200"},{"name":"YEŞİLADA MAH.","zip":"70200"},{"name":"YUNUSKENT MAH.","zip":"70200"},{"name":"ZEMBİLLİ ALİ EFENDİ MAH.","zip":"70200"},{"name":"ZİYA GÖKALP MAH.","zip":"70200"}]},{"name":"MERKEZKÖYLER","cityName":null,"quarters":[{"name":"ADAYSIZ MAH.","zip":"70202"},{"name":"AĞAÇLI MAH.","zip":"70202"},{"name":"AĞAÇYURDU KÖYÜ","zip":"70202"},{"name":"AĞILÖNÜ KÖYÜ","zip":"70202"},{"name":"AKÇAALAN KÖYÜ","zip":"70202"},{"name":"AKÇAŞEHİR KÖYÜ","zip":"70202"},{"name":"AKPINAR KÖYÜ","zip":"70202"},{"name":"ALAÇATI KÖYÜ","zip":"70202"},{"name":"ALİAĞA MAH.","zip":"70202"},{"name":"ARAKÖY MAH.","zip":"70202"},{"name":"ARNAVUT MAH.","zip":"70202"},{"name":"AŞAĞI MAH.","zip":"70202"},{"name":"AŞAĞI YAYLA MAH.","zip":"70202"},{"name":"AŞAĞIAKIN KÖYÜ","zip":"70202"},{"name":"AŞAĞIKIZILCA KÖYÜ","zip":"70202"},{"name":"ATATÜRK MAH.","zip":"70202"},{"name":"AYBASTI KÖYÜ","zip":"70202"},{"name":"BADEMLİ KÖYÜ","zip":"70202"},{"name":"BAĞDAT MAH.","zip":"70202"},{"name":"BAĞLIBÜK MAH.","zip":"70202"},{"name":"BAĞLIK MAH.","zip":"70202"},{"name":"BAHÇELİEVLER MAH.","zip":"70202"},{"name":"BARUTKAVURAN KÖYÜ","zip":"70202"},{"name":"BAŞKIŞLA KÖYÜ","zip":"70202"},{"name":"BAYIR KÖYÜ","zip":"70202"},{"name":"BELVARYOLU MAH.","zip":"70202"},{"name":"BEYDİLİ KÖYÜ","zip":"70202"},{"name":"BOSTANÖZÜ KÖYÜ","zip":"70202"},{"name":"BOYACI MAH.","zip":"70202"},{"name":"BOYALI KÖYÜ","zip":"70202"},{"name":"BOZKANDAK KÖYÜ","zip":"70202"},{"name":"BÖLÜKYAZI KÖYÜ","zip":"70202"},{"name":"BUCAKKIŞLA KÖYÜ","zip":"70202"},{"name":"BURHAN KÖYÜ","zip":"70202"},{"name":"BURUNOBA KÖYÜ","zip":"70202"},{"name":"CAMİKEBİR MAH.","zip":"70202"},{"name":"CERİT KÖYÜ","zip":"70202"},{"name":"CUMHURİYET MAH.","zip":"70202"},{"name":"ÇAKIRBAĞ KÖYÜ","zip":"70202"},{"name":"ÇAKIRDAĞ MAH.","zip":"70202"},{"name":"ÇAMLIK MAH.","zip":"70202"},{"name":"ÇARŞI MAH.","zip":"70202"},{"name":"ÇATAK KÖYÜ","zip":"70202"},{"name":"ÇAVUŞPINARI KÖYÜ","zip":"70202"},{"name":"ÇIKMAZ MAH.","zip":"70202"},{"name":"ÇİĞDEMLİ KÖYÜ","zip":"70202"},{"name":"ÇİMEN MAH.","zip":"70202"},{"name":"ÇİMENKUYU KÖYÜ","zip":"70202"},{"name":"ÇOĞLU KÖYÜ","zip":"70202"},{"name":"ÇUKUR KÖYÜ","zip":"70202"},{"name":"ÇUKURBAĞ KÖYÜ","zip":"70202"},{"name":"DAĞKONAK KÖYÜ","zip":"70202"},{"name":"DAMLAPINAR KÖYÜ","zip":"70202"},{"name":"DEĞİRMENBAŞI KÖYÜ","zip":"70202"},{"name":"DEMİRYURT KÖYÜ","zip":"70202"},{"name":"DENİRCİK MAH.","zip":"70202"},{"name":"DERE KÖYÜ","zip":"70202"},{"name":"DEVELİ MAH.","zip":"70202"},{"name":"DİNEK KÖYÜ","zip":"70202"},{"name":"DUMA MAH.","zip":"70202"},{"name":"DÜZ MAH.","zip":"70202"},{"name":"EĞİLMEZ KÖYÜ","zip":"70202"},{"name":"EKİNÖZÜ KÖYÜ","zip":"70202"},{"name":"ELMADAĞI KÖYÜ","zip":"70202"},{"name":"EMİNLER KÖYÜ","zip":"70202"},{"name":"ERENKAVAK KÖYÜ","zip":"70202"},{"name":"ESENTEPE MAH.","zip":"70202"},{"name":"ESKİKÖY MAH.","zip":"70202"},{"name":"FATİH MAH.","zip":"70202"},{"name":"GAZİ MAH.","zip":"70202"},{"name":"GÖÇER KÖYÜ","zip":"70202"},{"name":"GÖKÇE KÖYÜ","zip":"70202"},{"name":"GÖKÇEPINAR MAH.","zip":"70202"},{"name":"GÖZTEPE KÖYÜ","zip":"70202"},{"name":"GÜÇLER KÖYÜ","zip":"70202"},{"name":"GÜLDERE KÖYÜ","zip":"70202"},{"name":"GÜLKAYA KÖYÜ","zip":"70202"},{"name":"GÜMÜŞKUYU MAH.","zip":"70202"},{"name":"HACI İLYAS MAH.","zip":"70202"},{"name":"HACIBAYRAM MAH.","zip":"70202"},{"name":"HAMİDİYE KÖYÜ","zip":"70202"},{"name":"HARMAN MAH.","zip":"70202"},{"name":"HİNSAR MAH.","zip":"70202"},{"name":"HÜRRİYET MAH.","zip":"70202"},{"name":"İBRAHİM FAKI MAH.","zip":"70202"},{"name":"İHSANİYE KÖYÜ","zip":"70202"},{"name":"İMAMLAR MAH.","zip":"70202"},{"name":"İMAMOĞLU MAH.","zip":"70202"},{"name":"İSLİHİSAR KÖYÜ","zip":"70202"},{"name":"İSTASYON MAH.","zip":"70202"},{"name":"KALABA KÖYÜ","zip":"70202"},{"name":"KAMENİ KÖYÜ","zip":"70202"},{"name":"KARACAÖREN KÖYÜ","zip":"70202"},{"name":"KARAMANOĞLU MEHMET BEY MAH.","zip":"70202"},{"name":"KASIM MESCİT MAH.","zip":"70202"},{"name":"KAŞIKÇI MAH.","zip":"70202"},{"name":"KAŞOBA KÖYÜ","zip":"70202"},{"name":"KAYAÖNÜ MAH.","zip":"70202"},{"name":"KAYAPINAR MAH.","zip":"70202"},{"name":"KAYNAR MAH.","zip":"70202"},{"name":"KETENCİ MAH.","zip":"70202"},{"name":"KILBASAN KÖYÜ","zip":"70202"},{"name":"KIR MAH.","zip":"70202"},{"name":"KIZIK KÖYÜ","zip":"70202"},{"name":"KIZILLARAĞINI KÖYÜ","zip":"70202"},{"name":"KIZILYAKA KÖYÜ","zip":"70202"},{"name":"KİSECİK KÖYÜ","zip":"70202"},{"name":"KOVALIÖZ MAH.","zip":"70202"},{"name":"KOZLUBUCAK KÖYÜ","zip":"70202"},{"name":"KUMOBA MAH.","zip":"70202"},{"name":"KURTDERESİ KÖYÜ","zip":"70202"},{"name":"KURUCABEL KÖYÜ","zip":"70202"},{"name":"LALE KÖYÜ","zip":"70202"},{"name":"MADENŞEHRİ KÖYÜ","zip":"70202"},{"name":"MAŞAT MAH.","zip":"70202"},{"name":"MEDRESELİK KÖYÜ","zip":"70202"},{"name":"MERKEZ MAH.","zip":"70202"},{"name":"MESUDİYE KÖYÜ","zip":"70202"},{"name":"MORCALI KÖYÜ","zip":"70202"},{"name":"MURATDEDE KÖYÜ","zip":"70202"},{"name":"MUSALLA MAH.","zip":"70202"},{"name":"NARLIDERE KÖYÜ","zip":"70202"},{"name":"NUNU MAH.","zip":"70202"},{"name":"ORTACAMİ MAH.","zip":"70202"},{"name":"ORTAOBA KÖYÜ","zip":"70202"},{"name":"OSMANİYE KÖYÜ","zip":"70202"},{"name":"OTUK YAYLA MAH.","zip":"70202"},{"name":"ÖZALAN MAH.","zip":"70202"},{"name":"ÖZDEMİR KÖYÜ","zip":"70202"},{"name":"PAMUKDERE MAH.","zip":"70202"},{"name":"PAŞABAĞI KÖYÜ","zip":"70202"},{"name":"PELİTLİ MAH.","zip":"70202"},{"name":"PERENTİ MAH.","zip":"70202"},{"name":"PINARBAŞI KÖYÜ","zip":"70202"},{"name":"SALUR KÖYÜ","zip":"70202"},{"name":"SARIKAYA KÖYÜ","zip":"70202"},{"name":"SARNIÇ MAH.","zip":"70202"},{"name":"SAZLIYAKA KÖYÜ","zip":"70202"},{"name":"SEYİTHASAN KÖYÜ","zip":"70202"},{"name":"SORGUN MAH.","zip":"70202"},{"name":"SUDURAĞI KÖYÜ","zip":"70202"},{"name":"SÜLEYMANHACI KÖYÜ","zip":"70202"},{"name":"ŞAHİNBÜKÜ MAH.","zip":"70202"},{"name":"ŞEYHLER KÖYÜ","zip":"70202"},{"name":"TABANLI MAH.","zip":"70202"},{"name":"TARLAÖREN KÖYÜ","zip":"70202"},{"name":"TAŞKALE KÖYÜ","zip":"70202"},{"name":"TAŞMESCİT MAH.","zip":"70202"},{"name":"TAVŞANLI KÖYÜ","zip":"70202"},{"name":"TOPALHACI CİFTLİĞİ MAH.","zip":"70202"},{"name":"TUTLUTEPE MAH.","zip":"70202"},{"name":"ULUPINAR MAH.","zip":"70202"},{"name":"UZUNKUYU MAH.","zip":"70202"},{"name":"ÜÇBAŞ KÖYÜ","zip":"70202"},{"name":"ÜÇKUYU KÖYÜ","zip":"70202"},{"name":"ÜZÜMLÜ MAH.","zip":"70202"},{"name":"YASSI TEPE MAH.","zip":"70202"},{"name":"YAYLADEDE MAH.","zip":"70202"},{"name":"YAZILI KÖYÜ","zip":"70202"},{"name":"YEDİPINAR MAH.","zip":"70202"},{"name":"YEMİŞLİ MAH.","zip":"70202"},{"name":"YEŞİLDERE KÖYÜ","zip":"70202"},{"name":"YILANGÖMÜ KÖYÜ","zip":"70202"},{"name":"YOLLARBAŞI KÖYÜ","zip":"70202"},{"name":"YÖRÜKLER MAH.","zip":"70202"},{"name":"YUKARI MAH.","zip":"70202"},{"name":"YUKARI YAYLA MAH.","zip":"70202"},{"name":"YUKARIAKIN KÖYÜ","zip":"70202"},{"name":"YUKARIKIZILCA KÖYÜ","zip":"70202"},{"name":"YUNUS MAH.","zip":"70202"},{"name":"YUVATEPE KÖYÜ","zip":"70202"},{"name":"ZENGEN KÖYÜ","zip":"70202"}]},{"name":"SUDURAĞI","cityName":null,"quarters":[{"name":"CUMHURİYET MAH.","zip":"70140"}]},{"name":"SÜMER","cityName":null,"quarters":[{"name":"ALACASULUK MAH.","zip":"70100"},{"name":"ALİŞAHANE MAH.","zip":"70100"},{"name":"BAŞAKŞEHİR MAH.","zip":"70100"},{"name":"CEDİT MAH.","zip":"70100"},{"name":"FENARİ MAH.","zip":"70100"},{"name":"HACICELAL MAH.","zip":"70100"},{"name":"HAMİDİYE MAH.","zip":"70100"},{"name":"KAZIM KARABEKİR PAŞA MAH.","zip":"70100"},{"name":"KİRİŞÇİ MAH.","zip":"70100"},{"name":"KÜLHAN MAH.","zip":"70100"},{"name":"LARENDE MAH.","zip":"70100"},{"name":"MAHMUDİYE MAH.","zip":"70100"},{"name":"NEFİSE SULTAN MAH.","zip":"70100"},{"name":"ORGANİZE SANAYİİ BÖLGESİ MAH.","zip":"70100"},{"name":"PİRİREİS MAH.","zip":"70100"},{"name":"RAUF DENKTAŞ MAH.","zip":"70100"},{"name":"SÜMER MAH.","zip":"70100"},{"name":"ŞEYH ŞAMİL MAH.","zip":"70100"},{"name":"TAHSİN ÜNAL MAH.","zip":"70100"},{"name":"ÜNİVERSİTE MAH.","zip":"70100"},{"name":"VALİDE SULTAN MAH.","zip":"70100"},{"name":"YENİMAHALLE MAH.","zip":"70100"},{"name":"YENİŞEHİR MAH.","zip":"70100"}]},{"name":"GÖKTEPE","cityName":null,"quarters":[{"name":"BEYÇAYIR MAH.","zip":"70810"},{"name":"BOYALI MAH.","zip":"70810"},{"name":"BOYUNAĞIL MAH.","zip":"70810"},{"name":"CİVANDERE KÖYÜ","zip":"70810"},{"name":"CİVLER KÖYÜ","zip":"70810"},{"name":"CUMHURİYET MAH.","zip":"70810"},{"name":"ÇETİNCE ÖNÜ MAH.","zip":"70810"},{"name":"ÇEVLİK BAŞI MAH.","zip":"70810"},{"name":"ÇUKURBAĞ MAH.","zip":"70810"},{"name":"ÇULHALAR-KIZILÇUKUR-AŞAĞI SÜVARİ-YUKARI-SİVARI-ALA MAH.","zip":"70810"},{"name":"DARAN KÖYÜ","zip":"70810"},{"name":"DİKENLİ MAH.","zip":"70810"},{"name":"DUMLUGÖZE KÖYÜ","zip":"70810"},{"name":"ESENTEPE MAH.","zip":"70810"},{"name":"GEZİRAİL MAH.","zip":"70810"},{"name":"GÖKSU MAH.","zip":"70810"},{"name":"GÖKTEPE KÖYÜ","zip":"70810"},{"name":"GÜLPAZAR MAH.","zip":"70810"},{"name":"GÜNDER MAH.","zip":"70810"},{"name":"HACALARDI MAH.","zip":"70810"},{"name":"HESBEK MAH.","zip":"70810"},{"name":"IŞIKLI KÖYÜ","zip":"70810"},{"name":"KABALAK MAH.","zip":"70810"},{"name":"KALE DÖŞEĞİ MAH.","zip":"70810"},{"name":"KAYA BAŞI -GÜRÜSDÜ-MUSURDU-OLUCAK-DERE-KAYABAŞI-AĞ MAH.","zip":"70810"},{"name":"KAYNARCA MAH.","zip":"70810"},{"name":"KOÇAŞLI KÖYÜ","zip":"70810"},{"name":"MAKAM (AKÇAPINAR) MAH.","zip":"70810"},{"name":"MANASTIR MAH.","zip":"70810"},{"name":"MERKEZ MAH.","zip":"70810"},{"name":"NACI ALİ YURDU MAH.","zip":"70810"},{"name":"PİRELİ\/AŞAKBEL MAH.","zip":"70810"},{"name":"PİRELİ\/AŞAKBEL-GEVEN-DİKENLİ-ORMANLI-ÇUKUR-ÇETİNCY MAH.","zip":"70810"},{"name":"SITMA PINARI MAH.","zip":"70810"},{"name":"SULİÇİ MAH.","zip":"70810"},{"name":"SUSANLI MAH.","zip":"70810"},{"name":"TAŞPINAR MAH.","zip":"70810"},{"name":"UĞURLU KÖYÜ","zip":"70810"},{"name":"YAYLA EVLERİ MAH.","zip":"70810"},{"name":"YAYLALAR MAH.","zip":"70810"},{"name":"YEŞİLYURT MAH.","zip":"70810"},{"name":"YILDIZ MAH.","zip":"70810"}]},{"name":"MERKEZKÖYLER","cityName":null,"quarters":null},{"name":"SARIVELİLER","cityName":null,"quarters":[{"name":"BAŞ MAH.","zip":"70800"},{"name":"ÇAKILLAR MAH.","zip":"70800"},{"name":"KARAKAYA MAH.","zip":"70800"},{"name":"KÜÇÜK KARAPINAR MAH.","zip":"70800"},{"name":"MERKEZ MAH.","zip":"70800"},{"name":"ORTAKÖY MAH.","zip":"70800"},{"name":"TURCALAR MAH.","zip":"70800"},{"name":"ULUCAMİ MAH.","zip":"70800"},{"name":"YEŞİLYURT MAH.","zip":"70800"}]}]}]}