{"id":71,"name":"KIRIKKALE","cities":[{"name":"city","districts":[{"name":"BAHŞILI","cityName":null,"quarters":[{"name":"HÜSEYİN ONBAŞI MAH.","zip":"71460"},{"name":"YEŞİLKÖY MAH.","zip":"71460"}]},{"name":"MERKEZKÖYLER","cityName":null,"quarters":[{"name":"BAHÇELİEVLER MAH.","zip":"71462"},{"name":"ÇAMLICA KÖYÜ","zip":"71462"},{"name":"DENİZLİ ERCANLAR MAH.","zip":"71462"},{"name":"ESENTEPE MAH.","zip":"71462"},{"name":"KARAAHMETLİ KÖYÜ","zip":"71462"},{"name":"KÜÇÜKSARIKAYALAR KÖYÜ","zip":"71462"},{"name":"KÜREBOĞAZI KÖYÜ","zip":"71462"},{"name":"MEZRA MAH.","zip":"71462"},{"name":"SARIKAYALAR KÖYÜ","zip":"71462"},{"name":"YAYLA EVLERİ MAH.","zip":"71462"},{"name":"YAYLAEVİ MAH.","zip":"71462"},{"name":"YEŞİL KONAK MAH.","zip":"71462"}]},{"name":"BALIŞEYH","cityName":null,"quarters":[{"name":"OBA MAH.","zip":"71520"},{"name":"TOKİ MAH.","zip":"71520"},{"name":"YENİ MAH.","zip":"71520"}]},{"name":"MERKEZKÖYLER","cityName":null,"quarters":[{"name":"AŞAĞIKARAKISIK KÖYÜ","zip":"71522"},{"name":"AYDINŞIH KÖYÜ","zip":"71522"},{"name":"AYVADERESİ MAH.","zip":"71522"},{"name":"AZGIN YAYLASI MAH.","zip":"71522"},{"name":"BAĞLARBAŞI MAH.","zip":"71522"},{"name":"BAHÇELİEVLER MAH.","zip":"71522"},{"name":"BATTALOBA KÖYÜ","zip":"71522"},{"name":"BEŞBIÇAK KÖYÜ","zip":"71522"},{"name":"BEYOBASI KÖYÜ","zip":"71522"},{"name":"BIYIKAYDIN KÖYÜ","zip":"71522"},{"name":"DİKMEN KÖYÜ","zip":"71522"},{"name":"DOSTLAR MAH.","zip":"71522"},{"name":"ELDELEK KÖYÜ","zip":"71522"},{"name":"ELDELEK MAH.","zip":"71522"},{"name":"ESENTEPE MAH.","zip":"71522"},{"name":"FATİH MAH.","zip":"71522"},{"name":"GAZİ MAH.","zip":"71522"},{"name":"HIDIRŞIH KÖYÜ","zip":"71522"},{"name":"HÜSEYİNOBA KÖYÜ","zip":"71522"},{"name":"IŞIKLAR KÖYÜ","zip":"71522"},{"name":"İZZETTİN KÖYÜ","zip":"71522"},{"name":"KARAHOCALI MAH.","zip":"71522"},{"name":"KARALI KÖYÜ","zip":"71522"},{"name":"KARGIN KÖYÜ","zip":"71522"},{"name":"KENANOBA KÖYÜ","zip":"71522"},{"name":"KILEVLİ KÖYÜ","zip":"71522"},{"name":"KIRLANGIÇ KÖYÜ","zip":"71522"},{"name":"KOÇUBABA KÖYÜ","zip":"71522"},{"name":"KÖSEDURAK KÖYÜ","zip":"71522"},{"name":"KULAKSIZ KÖYÜ","zip":"71522"},{"name":"KUŞBURNU MAH.","zip":"71522"},{"name":"MEHMETBEYOBASI KÖYÜ","zip":"71522"},{"name":"MEVKİ MAH.","zip":"71522"},{"name":"SELAMLI KÖYÜ","zip":"71522"},{"name":"UFUK MAH.","zip":"71522"},{"name":"ULAKLI KÖYÜ","zip":"71522"},{"name":"UZUNLAR KÖYÜ","zip":"71522"},{"name":"YASSIBAĞ MAH.","zip":"71522"},{"name":"YENİCE KÖYÜ","zip":"71522"},{"name":"YENİLLİ KÖYÜ","zip":"71522"},{"name":"YUKARIKARAKISIK KÖYÜ","zip":"71522"}]},{"name":"ÇELEBİ","cityName":null,"quarters":[{"name":"FATİH MAH.","zip":"71810"},{"name":"GÜLVEREN MAH.","zip":"71810"},{"name":"YENİ MAH.","zip":"71810"}]},{"name":"MERKEZKÖYLER","cityName":null,"quarters":[{"name":"HACIYUSUFLU KÖYÜ","zip":"71812"},{"name":"HALİLDEDE KÖYÜ","zip":"71812"},{"name":"İĞDEBELİ KÖYÜ","zip":"71812"},{"name":"KALDIRIM KÖYÜ","zip":"71812"},{"name":"KARAAĞAÇ KÖYÜ","zip":"71812"},{"name":"KARAAĞIL KÖYÜ","zip":"71812"},{"name":"KARABUCAK KÖYÜ","zip":"71812"},{"name":"KARAHACILI KÖYÜ","zip":"71812"},{"name":"KARAHACILI MÜCAVİR MAH.","zip":"71812"},{"name":"KARAYAKUP KÖYÜ","zip":"71812"},{"name":"KEPİRLİ KÖYÜ","zip":"71812"},{"name":"TİLKİLİ KÖYÜ","zip":"71812"},{"name":"YUKARIŞIH KÖYÜ","zip":"71812"}]},{"name":"DELİCE","cityName":null,"quarters":[{"name":"CUMHURİYET MAH.","zip":"71700"},{"name":"FATİH MAH.","zip":"71700"},{"name":"FEVZİ ÇAKMAK MAH.","zip":"71700"},{"name":"GÜNDÜZ MAH.","zip":"71700"},{"name":"HÜRRİYET MAH.","zip":"71700"},{"name":"KARABEKİR MAH.","zip":"71700"},{"name":"MİMAR SİNAN MAH.","zip":"71700"}]},{"name":"MERKEZKÖYLER","cityName":null,"quarters":[{"name":"ALCILI KÖYÜ","zip":"71702"},{"name":"ARBİŞLİ KÖYÜ","zip":"71702"},{"name":"AŞAĞIİHSANGAZİLİ KÖYÜ","zip":"71702"},{"name":"AVŞAR MAH.","zip":"71702"},{"name":"AYDINLAR MAH.","zip":"71702"},{"name":"BAHÇELİEVLER MAH.","zip":"71702"},{"name":"BARAKLI KÖYÜ","zip":"71702"},{"name":"BOĞAZİÇİ MAH.","zip":"71702"},{"name":"BOZKÖY KÖYÜ","zip":"71702"},{"name":"BÜYÜKAFŞAR KÖYÜ","zip":"71702"},{"name":"BÜYÜKYAĞLI KÖYÜ","zip":"71702"},{"name":"COĞUL KÖYÜ","zip":"71702"},{"name":"CUMHURİYET MAH.","zip":"71702"},{"name":"ÇATALLI KÖYÜ","zip":"71702"},{"name":"ÇATALLIKARAKOYUNLU KÖYÜ","zip":"71702"},{"name":"ÇERİKLİ KÖYÜ","zip":"71702"},{"name":"ÇONGAR KÖYÜ","zip":"71702"},{"name":"DAĞOBASI KÖYÜ","zip":"71702"},{"name":"DEREKIŞLA KÖYÜ","zip":"71702"},{"name":"DOĞANÖREN KÖYÜ","zip":"71702"},{"name":"ELMALI KÖYÜ","zip":"71702"},{"name":"EVLİYALI KÖYÜ","zip":"71702"},{"name":"FADILOBASI KÖYÜ","zip":"71702"},{"name":"GÖKÇEBEL MAH.","zip":"71702"},{"name":"GÖZÜKIZILLI KÖYÜ","zip":"71702"},{"name":"HACIOBASI KÖYÜ","zip":"71702"},{"name":"HALİTLİ KÖYÜ","zip":"71702"},{"name":"HEREKLİ KÖYÜ","zip":"71702"},{"name":"İMİRLİ KÖYÜ","zip":"71702"},{"name":"KARAKÖSELİ KÖYÜ","zip":"71702"},{"name":"KARPUZ KÖYÜ","zip":"71702"},{"name":"KARŞIYAKA MAH.","zip":"71702"},{"name":"KAVAKKÖY KÖYÜ","zip":"71702"},{"name":"KOCABAŞ KÖYÜ","zip":"71702"},{"name":"KURTOĞLU KÖYÜ","zip":"71702"},{"name":"KUZAYYURT KÖYÜ","zip":"71702"},{"name":"KÜÇÜKAFŞAR KÖYÜ","zip":"71702"},{"name":"MERKEZ MAH.","zip":"71702"},{"name":"MEŞEYAYLA KÖYÜ","zip":"71702"},{"name":"OCAKBAŞI KÖYÜ","zip":"71702"},{"name":"SAKARYA MAH.","zip":"71702"},{"name":"SARIYAKA KÖYÜ","zip":"71702"},{"name":"ŞAHCALI KÖYÜ","zip":"71702"},{"name":"TAŞYAZI KÖYÜ","zip":"71702"},{"name":"TATLICAK KÖYÜ","zip":"71702"},{"name":"TAVAÖZÜ KÖYÜ","zip":"71702"},{"name":"TEKKEKÖY KÖYÜ","zip":"71702"},{"name":"YAYLAYURT KÖYÜ","zip":"71702"},{"name":"YENİ MAH.","zip":"71702"},{"name":"YENİYAPAN KÖYÜ","zip":"71702"},{"name":"YERLİKENT MAH.","zip":"71702"},{"name":"YILDIZ MAH.","zip":"71702"}]},{"name":"KARAKEÇİLİ","cityName":null,"quarters":[{"name":"HOCA AHMET YESEVİ MAH.","zip":"71500"},{"name":"KARŞIYAKA MAH.","zip":"71500"},{"name":"KURTULUŞ MAH.","zip":"71500"},{"name":"MAREŞAL FEVZİ ÇAKMAK MAH.","zip":"71500"},{"name":"YAVUZ SULTAN SELİM MAH.","zip":"71500"},{"name":"YEŞİLEVLER MAH.","zip":"71500"},{"name":"ZAFER MAH.","zip":"71500"}]},{"name":"MERKEZKÖYLER","cityName":null,"quarters":[{"name":"SULUBÜK KÖYÜ","zip":"71502"}]},{"name":"KESKİN","cityName":null,"quarters":[{"name":"BOZKURT MAH.","zip":"71800"},{"name":"GÜNDOĞDU MAH.","zip":"71800"},{"name":"MADEN MAH.","zip":"71800"},{"name":"YENİ MAH.","zip":"71800"},{"name":"YENİCE MAH.","zip":"71800"}]},{"name":"MERKEZKÖYLER","cityName":null,"quarters":[{"name":"ARMUTLU KÖYÜ","zip":"71860"},{"name":"AŞAĞI OLUNLU MAH.","zip":"71860"},{"name":"AŞAĞIŞIH KÖYÜ","zip":"71860"},{"name":"BAHÇELİEVLER MAH.","zip":"71860"},{"name":"BARAK KÖYÜ","zip":"71860"},{"name":"BARAKOBASI KÖYÜ","zip":"71860"},{"name":"BEŞLER KÖYÜ","zip":"71860"},{"name":"BÜYÜKCECELİ KÖYÜ","zip":"71860"},{"name":"CABATOBASI KÖYÜ","zip":"71860"},{"name":"CANKURTARAN KÖYÜ","zip":"71860"},{"name":"CEBRAİLLİ KÖYÜ","zip":"71860"},{"name":"CERİTKALE KÖYÜ","zip":"71860"},{"name":"CERİTMÜMİNLİ KÖYÜ","zip":"71860"},{"name":"CERİTOBASI KÖYÜ","zip":"71860"},{"name":"CİNALİ KÖYÜ","zip":"71860"},{"name":"ÇALIŞ KÖYÜ","zip":"71860"},{"name":"ÇAMURABATMAZ KÖYÜ","zip":"71860"},{"name":"ÇİPİDERESİ KÖYÜ","zip":"71860"},{"name":"DAĞSOLAKLISI KÖYÜ","zip":"71860"},{"name":"DANACIOBASI KÖYÜ","zip":"71860"},{"name":"EFENDİKÖY KÖYÜ","zip":"71860"},{"name":"ELİFOĞLU MAH.","zip":"71860"},{"name":"EMİNEFENDİ KÖYÜ","zip":"71860"},{"name":"EROĞLU KÖYÜ","zip":"71860"},{"name":"ESATMÜMİNLİ KÖYÜ","zip":"71860"},{"name":"ESKİALİBUDAK KÖYÜ","zip":"71860"},{"name":"FATİH MAH.","zip":"71860"},{"name":"GAZİBEYLİ KÖYÜ","zip":"71860"},{"name":"GÖÇBEYLİ KÖYÜ","zip":"71860"},{"name":"GÖKTAŞ KÖYÜ","zip":"71860"},{"name":"GÜLKONAK KÖYÜ","zip":"71860"},{"name":"GÜNEŞ MAH.","zip":"71860"},{"name":"GÜZELYAKA MAH.","zip":"71860"},{"name":"HACIALİOBASI KÖYÜ","zip":"71860"},{"name":"HACIÖMERSOLAKLISI KÖYÜ","zip":"71860"},{"name":"HAMİT MEVKİ MAH.","zip":"71860"},{"name":"HAYDARDEDE KÖYÜ","zip":"71860"},{"name":"İNZİLOĞLU KÖYÜ","zip":"71860"},{"name":"KAÇAKKÖY KÖYÜ","zip":"71860"},{"name":"KARAFAKILI KÖYÜ","zip":"71860"},{"name":"KARŞIYAKA MAH.","zip":"71860"},{"name":"KASIMAĞA KÖYÜ","zip":"71860"},{"name":"KAVLAK KÖYÜ","zip":"71860"},{"name":"KAVURGALI KÖYÜ","zip":"71860"},{"name":"KAYALAKSOLAKLISI KÖYÜ","zip":"71860"},{"name":"KESKİNKAYALAR MAH.","zip":"71860"},{"name":"KEVENLİ KÖYÜ","zip":"71860"},{"name":"KONUR KÖYÜ","zip":"71860"},{"name":"KONURHACIOBASI KÖYÜ","zip":"71860"},{"name":"KÖPRÜKÖY KÖYÜ","zip":"71860"},{"name":"KÖŞKER MAH.","zip":"71860"},{"name":"KURŞUNKAYA KÖYÜ","zip":"71860"},{"name":"KUZUGÜDENLİ KÖYÜ","zip":"71860"},{"name":"KÜREK MAH.","zip":"71860"},{"name":"MÜSELLİM KÖYÜ","zip":"71860"},{"name":"OLUNLU KÖYÜ","zip":"71860"},{"name":"ORGANİZE SANAYİ BÖLGESİ MAH.","zip":"71860"},{"name":"ORTASÖKEN KÖYÜ","zip":"71860"},{"name":"ÖMERİN MAH.","zip":"71860"},{"name":"POLATYURDU KÖYÜ","zip":"71860"},{"name":"SEYFLİ KÖYÜ","zip":"71860"},{"name":"ŞEKERPINARI MAH.","zip":"71860"},{"name":"TAKAZLI KÖYÜ","zip":"71860"},{"name":"TANDOĞAN MAH.","zip":"71860"},{"name":"TAŞLIK MAH.","zip":"71860"},{"name":"TOPALLAR MAH.","zip":"71860"},{"name":"TURHANLI KÖYÜ","zip":"71860"},{"name":"UFUK MAH.","zip":"71860"},{"name":"ÜÇEVLER KÖYÜ","zip":"71860"},{"name":"ÜÇKUYU KÖYÜ","zip":"71860"},{"name":"YENİ MAH.","zip":"71860"},{"name":"YENİALİBUDAK KÖYÜ","zip":"71860"},{"name":"YENİMERDEN MAH.","zip":"71860"},{"name":"YENİYAPAN KÖYÜ","zip":"71860"},{"name":"YEŞİLTAŞ MAH.","zip":"71860"},{"name":"YONCALI KÖYÜ","zip":"71860"}]},{"name":"FABRİKALAR","cityName":null,"quarters":[{"name":"ÇALILIÖZ MAH.","zip":"71100"},{"name":"ÇULLU MAH.","zip":"71100"},{"name":"FABRİKALAR MAH.","zip":"71100"},{"name":"YAYLACIK MAH.","zip":"71100"},{"name":"YENİMAHALLE MAH.","zip":"71100"}]},{"name":"MERKEZKÖYLER","cityName":null,"quarters":[{"name":"ALTINOVA MAH.","zip":"71010"},{"name":"BAĞLAR MAH.","zip":"71010"},{"name":"BAHÇELİEVLER MAH.","zip":"71010"},{"name":"DAĞEVİ KÖYÜ","zip":"71010"},{"name":"GÜLEVLER MAH.","zip":"71010"},{"name":"GÜNDOĞDU MAH.","zip":"71010"},{"name":"HACIBEY MAH.","zip":"71010"},{"name":"HACILAR KÖYÜ","zip":"71010"},{"name":"HASANDEDE KÖYÜ","zip":"71010"},{"name":"KARACAALİ KÖYÜ","zip":"71010"},{"name":"KAZMACA KÖYÜ","zip":"71010"},{"name":"KIZILDERE KÖYÜ","zip":"71010"},{"name":"ÖMERLİ MAH.","zip":"71010"},{"name":"PAZARCIK KÖYÜ","zip":"71010"},{"name":"PINARBAŞI MAH.","zip":"71010"},{"name":"SAĞLIK MAH.","zip":"71010"},{"name":"TEKKE MAH.","zip":"71010"},{"name":"ULAŞ KÖYÜ","zip":"71010"},{"name":"YUKARIMAHMUTLAR KÖYÜ","zip":"71010"}]},{"name":"SANAYİ","cityName":null,"quarters":[{"name":"BAĞLARBAŞI MAH.","zip":"71400"},{"name":"ETİLER MAH.","zip":"71400"},{"name":"FATİH MAH.","zip":"71400"},{"name":"GÜNDOĞDU MAH.","zip":"71400"},{"name":"KALETEPE MAH.","zip":"71400"},{"name":"KIRIKKÖYÜ MAH.","zip":"71400"},{"name":"OSMANGAZİ MAH.","zip":"71400"},{"name":"SANAYİ MAH.","zip":"71400"}]},{"name":"TEPEBAŞI","cityName":null,"quarters":[{"name":"GÜZELTEPE MAH.","zip":"71200"},{"name":"HÜSEYİN KAHYA MAH.","zip":"71200"},{"name":"KURTULUŞ MAH.","zip":"71200"},{"name":"OVACIK MAH.","zip":"71200"},{"name":"TEPEBAŞI MAH.","zip":"71200"},{"name":"YENİDOĞAN MAH.","zip":"71200"}]},{"name":"YUVA","cityName":null,"quarters":[{"name":"KARŞIYAKA MAH.","zip":"71300"},{"name":"KIZILIRMAK MAH.","zip":"71300"},{"name":"KİMESKİ MAH.","zip":"71300"},{"name":"SELİM ÖZER MAH.","zip":"71300"},{"name":"YUVA MAH.","zip":"71300"}]},{"name":"MERKEZKÖYLER","cityName":null,"quarters":[{"name":"AKKUYU KÖYÜ","zip":"71902"},{"name":"ALİŞEYHLİ KÖYÜ","zip":"71902"},{"name":"AMBARDERE KÖYÜ","zip":"71902"},{"name":"AYVATLI KÖYÜ","zip":"71902"},{"name":"BARIŞ MAH.","zip":"71902"},{"name":"CUMHURİYET MAH.","zip":"71902"},{"name":"ÇAYOBA KÖYÜ","zip":"71902"},{"name":"ÇEVRİMLİ KÖYÜ","zip":"71902"},{"name":"DANACI KÖYÜ","zip":"71902"},{"name":"DEREDÜZÜ KÖYÜ","zip":"71902"},{"name":"ESENPINAR KÖYÜ","zip":"71902"},{"name":"FARAŞLI KÖYÜ","zip":"71902"},{"name":"FATİH MAH.","zip":"71902"},{"name":"GÜZELYURT KÖYÜ","zip":"71902"},{"name":"HAMZALI KÖYÜ","zip":"71902"},{"name":"HÜRRİYET MAH.","zip":"71902"},{"name":"İMAMOĞLUÇEŞMESİ KÖYÜ","zip":"71902"},{"name":"KALEKIŞLA KÖYÜ","zip":"71902"},{"name":"KIYIHALİLİNCELİ KÖYÜ","zip":"71902"},{"name":"KIYIKAVURGALI KÖYÜ","zip":"71902"},{"name":"KORUKÖY KÖYÜ","zip":"71902"},{"name":"KÖRKUYU MAH.","zip":"71902"},{"name":"KURTULUŞ MAH.","zip":"71902"},{"name":"MEVLANA MAH.","zip":"71902"},{"name":"ORTAKÖY KÖYÜ","zip":"71902"},{"name":"SARIKIZLI KÖYÜ","zip":"71902"},{"name":"SARIMBEY KÖYÜ","zip":"71902"},{"name":"SOFULARÇİFTLİĞİ KÖYÜ","zip":"71902"},{"name":"YAĞBASAN KÖYÜ","zip":"71902"},{"name":"YENİCELİ KÖYÜ","zip":"71902"},{"name":"YEŞİLLİ KÖYÜ","zip":"71902"},{"name":"YEŞİLYAZI KÖYÜ","zip":"71902"},{"name":"YUNUS EMRE MAH.","zip":"71902"}]},{"name":"SULAKYURT","cityName":null,"quarters":[{"name":"YENİ MAH.","zip":"71900"},{"name":"YENİ ÖZ MAH.","zip":"71900"},{"name":"YENİHAYAT MAH.","zip":"71900"},{"name":"YEŞİLYURT MAH.","zip":"71900"},{"name":"YILDIZ MAH.","zip":"71900"},{"name":"YÜKSELEN MAH.","zip":"71900"}]},{"name":"MERKEZKÖYLER","cityName":null,"quarters":[{"name":"ARAPLI MEVKİİ MAH.","zip":"71452"},{"name":"BAHÇELİEVLER MAH.","zip":"71452"},{"name":"BATTALGAZİ MAH.","zip":"71452"},{"name":"BEDESTEN KÖYÜ","zip":"71452"},{"name":"BOĞAZİÇİ MAH.","zip":"71452"},{"name":"ÇİFTLİK MAH.","zip":"71452"},{"name":"ENVER PAŞA MAH.","zip":"71452"},{"name":"FATİH MAH.","zip":"71452"},{"name":"GEDİKARDI MAH.","zip":"71452"},{"name":"GÜLLÜK ÇİFTLİĞİ MAH.","zip":"71452"},{"name":"GÜZEREN MAH.","zip":"71452"},{"name":"HACIBALI KÖYÜ","zip":"71452"},{"name":"HACIBALIOSB MAH.","zip":"71452"},{"name":"HİSARKÖY KÖYÜ","zip":"71452"},{"name":"IRMAK KÖYÜ","zip":"71452"},{"name":"KALECİK KARADAĞ MEVKİİ MAH.","zip":"71452"},{"name":"KEÇİLİ KÖYÜ","zip":"71452"},{"name":"KILIÇLAR KÖYÜ","zip":"71452"},{"name":"KÖYÖNÜ MEVKİİ MAH.","zip":"71452"},{"name":"KÜTÜKLÜ MAH.","zip":"71452"},{"name":"MAHMUTLAR KÖYÜ","zip":"71452"},{"name":"SEYİTALİ MAH.","zip":"71452"},{"name":"SEYRANTEPE MAH.","zip":"71452"},{"name":"ŞEHİT TÜRKER MAH.","zip":"71452"},{"name":"ÜZÜMLÜ MAH.","zip":"71452"},{"name":"ÜZÜMLÜ MEVKİİ MAH.","zip":"71452"},{"name":"VAKAĞIN TEPESİ MAH.","zip":"71452"},{"name":"YAZI MEVKİİ MAH.","zip":"71452"},{"name":"YEŞİLÖZ MAH.","zip":"71452"}]},{"name":"YAHŞİHAN","cityName":null,"quarters":[{"name":"DOĞANLIK MAH.","zip":"71450"},{"name":"EMİRLER MAH.","zip":"71450"},{"name":"ERENLER MAH.","zip":"71450"},{"name":"KADIOĞLU MAH.","zip":"71450"},{"name":"YENİŞEHİR MAH.","zip":"71450"},{"name":"YEŞİL VADİ MAH.","zip":"71450"}]}]}]}