{"id":72,"name":"BATMAN","cities":[{"name":"city","districts":[{"name":"BEŞİRİ","cityName":null,"quarters":[{"name":"KOBİN MAH.","zip":"72200"},{"name":"MEHMET YATKIN MAH.","zip":"72200"},{"name":"MİLLİ EGEMENLİK MAH.","zip":"72200"}]},{"name":"MERKEZKÖYLER","cityName":null,"quarters":[{"name":"AKTAŞ MAH.","zip":"72202"},{"name":"ALACA KÖYÜ","zip":"72202"},{"name":"ALIÇLI MAH.","zip":"72202"},{"name":"ALİ BEY MAH.","zip":"72202"},{"name":"ARILI MAH.","zip":"72202"},{"name":"ASMADERE KÖYÜ","zip":"72202"},{"name":"AŞAĞI KÜRSÜ MAH.","zip":"72202"},{"name":"AŞAĞI ÜRÜNLÜ MAH.","zip":"72202"},{"name":"ATBAĞI KÖYÜ","zip":"72202"},{"name":"AYIŞIĞI MAH.","zip":"72202"},{"name":"AYRANCI KÖYÜ","zip":"72202"},{"name":"BAHÇELİ KÖYÜ","zip":"72202"},{"name":"BAŞARI KÖYÜ","zip":"72202"},{"name":"BAŞLAMIŞ MAH.","zip":"72202"},{"name":"BAYRAMLI MAH.","zip":"72202"},{"name":"BEŞPINAR KÖYÜ","zip":"72202"},{"name":"BEYÇAYIRI KÖYÜ","zip":"72202"},{"name":"BIGEVRA MAH.","zip":"72202"},{"name":"BİLEK KÖYÜ","zip":"72202"},{"name":"ÇAKILLI KÖYÜ","zip":"72202"},{"name":"ÇAVUŞBAYIRI KÖYÜ","zip":"72202"},{"name":"ÇAY KENARI MAH.","zip":"72202"},{"name":"ÇAYKENARI MAH.","zip":"72202"},{"name":"ÇEVRİMOVA KÖYÜ","zip":"72202"},{"name":"ÇIĞIRLI KÖYÜ","zip":"72202"},{"name":"DAĞYOLU KÖYÜ","zip":"72202"},{"name":"DANACI MAH.","zip":"72202"},{"name":"DANALI KÖYÜ","zip":"72202"},{"name":"DAYILAR KÖYÜ","zip":"72202"},{"name":"DEĞİRMENÜSTÜ KÖYÜ","zip":"72202"},{"name":"DEMİRDÖVEN MAH.","zip":"72202"},{"name":"DEVEBOYNU KÖYÜ","zip":"72202"},{"name":"DOĞANKAVAK KÖYÜ","zip":"72202"},{"name":"DOĞANPAZARI KÖYÜ","zip":"72202"},{"name":"DORUKLU MAH.","zip":"72202"},{"name":"DÖŞEME MAH.","zip":"72202"},{"name":"DURUCAK KÖYÜ","zip":"72202"},{"name":"EKİNCİLER MAH.","zip":"72202"},{"name":"ESENCE KÖYÜ","zip":"72202"},{"name":"ESKİHAMUR KÖYÜ","zip":"72202"},{"name":"GEDİKLİ MAH.","zip":"72202"},{"name":"GÖKTAŞ MAH.","zip":"72202"},{"name":"GÜVERCİNLİK KÖYÜ","zip":"72202"},{"name":"HANLI MAH.","zip":"72202"},{"name":"ILICA KÖYÜ","zip":"72202"},{"name":"IŞIKVEREN KÖYÜ","zip":"72202"},{"name":"İKİKÖPRÜ KÖYÜ","zip":"72202"},{"name":"İKİYAKA KÖYÜ","zip":"72202"},{"name":"İNPINAR KÖYÜ","zip":"72202"},{"name":"İSLAM MAH.","zip":"72202"},{"name":"İSLAMKÖY MAH.","zip":"72202"},{"name":"KALE MAH.","zip":"72202"},{"name":"KAPAKLI MAH.","zip":"72202"},{"name":"KARADUMAN MAH.","zip":"72202"},{"name":"KARATAŞ MAH.","zip":"72202"},{"name":"KARATEPE KÖYÜ","zip":"72202"},{"name":"KAŞÜSTÜ KÖYÜ","zip":"72202"},{"name":"KAYATEPE KÖYÜ","zip":"72202"},{"name":"KESİKTAŞ MAH.","zip":"72202"},{"name":"KEZİK MAH.","zip":"72202"},{"name":"KIŞLACIK MAH.","zip":"72202"},{"name":"KIYANÇ MAH.","zip":"72202"},{"name":"KÖKEBİ MAH.","zip":"72202"},{"name":"KUMÇAY KÖYÜ","zip":"72202"},{"name":"KUMGEÇİT KÖYÜ","zip":"72202"},{"name":"KUMRULU MAH.","zip":"72202"},{"name":"KURUKAVAK KÖYÜ","zip":"72202"},{"name":"KUŞÇUKURU KÖYÜ","zip":"72202"},{"name":"KÜTÜKLÜ KÖYÜ","zip":"72202"},{"name":"MEYDANCIK MAH.","zip":"72202"},{"name":"MEZELKAN MAH.","zip":"72202"},{"name":"NEJAN MAH.","zip":"72202"},{"name":"NURETTİN MAH.","zip":"72202"},{"name":"OĞUZ KÖYÜ","zip":"72202"},{"name":"ONBAŞI MAH.","zip":"72202"},{"name":"ORGANİZE SANAYİ BÖLGESİ MAH.","zip":"72202"},{"name":"ORTAALAN MAH.","zip":"72202"},{"name":"OTLUCA KÖYÜ","zip":"72202"},{"name":"ÖRMEGÖZE KÖYÜ","zip":"72202"},{"name":"PİRİNÇLİK MAH.","zip":"72202"},{"name":"POMPALI MAH.","zip":"72202"},{"name":"REMİKAN MAH.","zip":"72202"},{"name":"SAMANLI KÖYÜ","zip":"72202"},{"name":"SAPANLI MAH.","zip":"72202"},{"name":"SÜTLÜCE MAH.","zip":"72202"},{"name":"TEKAĞAÇ KÖYÜ","zip":"72202"},{"name":"TEPECİK KÖYÜ","zip":"72202"},{"name":"TURGUT ÖZAL MAH.","zip":"72202"},{"name":"UĞURCA KÖYÜ","zip":"72202"},{"name":"ÜÇKUYULAR KÖYÜ","zip":"72202"},{"name":"YAĞLICA MAH.","zip":"72202"},{"name":"YAKACIK KÖYÜ","zip":"72202"},{"name":"YALINCA KÖYÜ","zip":"72202"},{"name":"YALINKAVAK KÖYÜ","zip":"72202"},{"name":"YARIMTAŞ KÖYÜ","zip":"72202"},{"name":"YAVUZ MAH.","zip":"72202"},{"name":"YAZIHAN KÖYÜ","zip":"72202"},{"name":"YAZYURDU MAH.","zip":"72202"},{"name":"YENİ MAH.","zip":"72202"},{"name":"YENİPINAR KÖYÜ","zip":"72202"},{"name":"YENİYOL KÖYÜ","zip":"72202"},{"name":"YEŞİLOBA KÖYÜ","zip":"72202"},{"name":"YOLBOYU MAH.","zip":"72202"},{"name":"YOLKONAK KÖYÜ","zip":"72202"},{"name":"YONTUKYAZI KÖYÜ","zip":"72202"},{"name":"YUKARI BAYRAMLI MAH.","zip":"72202"},{"name":"YUKARI KÜRSÜ MAH.","zip":"72202"},{"name":"YUKARI ÜRÜNLÜ MAH.","zip":"72202"},{"name":"YUMRUKAYA MAH.","zip":"72202"}]},{"name":"GERCÜŞ","cityName":null,"quarters":[{"name":"ÇUKURÇEŞME MAH.","zip":"72300"},{"name":"PINARBAŞI MAH.","zip":"72300"}]},{"name":"MERKEZKÖYLER","cityName":null,"quarters":[{"name":"AKBAŞ MAH.","zip":"72302"},{"name":"AKBURÇ KÖYÜ","zip":"72302"},{"name":"AKÇA MAH.","zip":"72302"},{"name":"AKYAR KÖYÜ","zip":"72302"},{"name":"ARDIÇ KÖYÜ","zip":"72302"},{"name":"ARDIÇLI KÖYÜ","zip":"72302"},{"name":"ARICA KÖYÜ","zip":"72302"},{"name":"AYDINCA KÖYÜ","zip":"72302"},{"name":"AYDINLI KÖYÜ","zip":"72302"},{"name":"BABNİR KÖYÜ","zip":"72302"},{"name":"BAĞLICA KÖYÜ","zip":"72302"},{"name":"BAĞÖZÜ KÖYÜ","zip":"72302"},{"name":"BAŞARKÖY KÖYÜ","zip":"72302"},{"name":"BAŞOVA KÖYÜ","zip":"72302"},{"name":"BECİRMAN KÖYÜ","zip":"72302"},{"name":"BOĞAZKÖY KÖYÜ","zip":"72302"},{"name":"CEVİZLİ KÖYÜ","zip":"72302"},{"name":"ÇALIŞKAN KÖYÜ","zip":"72302"},{"name":"ÇİÇEKLİ KÖYÜ","zip":"72302"},{"name":"ÇUKURYURT KÖYÜ","zip":"72302"},{"name":"DEREİ MAH.","zip":"72302"},{"name":"DEREİÇİ KÖYÜ","zip":"72302"},{"name":"DERELİ KÖYÜ","zip":"72302"},{"name":"DİREKLİ MAH.","zip":"72302"},{"name":"DORUK KÖYÜ","zip":"72302"},{"name":"DÜZMEŞE KÖYÜ","zip":"72302"},{"name":"ESENTEPE MAH.","zip":"72302"},{"name":"EYMİR KÖYÜ","zip":"72302"},{"name":"GEÇİT KÖYÜ","zip":"72302"},{"name":"GÖKÇE KÖYÜ","zip":"72302"},{"name":"GÖKÇEPINAR KÖYÜ","zip":"72302"},{"name":"GÖNÜLLÜ KÖYÜ","zip":"72302"},{"name":"GÜRBÜZ KÖYÜ","zip":"72302"},{"name":"GÜZELÖZ KÖYÜ","zip":"72302"},{"name":"HANİK MAH.","zip":"72302"},{"name":"HAYDARPAŞA MAH.","zip":"72302"},{"name":"HİSAR KÖYÜ","zip":"72302"},{"name":"HİSARMERKEZ MAH.","zip":"72302"},{"name":"KANİYA DELAVA MAH.","zip":"72302"},{"name":"KANTAR KÖYÜ","zip":"72302"},{"name":"KARALAN KÖYÜ","zip":"72302"},{"name":"KAYALAR KÖYÜ","zip":"72302"},{"name":"KAYAPINAR KÖYÜ","zip":"72302"},{"name":"KAYNARCA MAH.","zip":"72302"},{"name":"KELAN MAH.","zip":"72302"},{"name":"KESİKSU KÖYÜ","zip":"72302"},{"name":"KIRKAT KÖYÜ","zip":"72302"},{"name":"KIŞLAK KÖYÜ","zip":"72302"},{"name":"KOÇAK KÖYÜ","zip":"72302"},{"name":"KONAK MAH.","zip":"72302"},{"name":"KOYUNLU KÖYÜ","zip":"72302"},{"name":"KOZLU KÖYÜ","zip":"72302"},{"name":"KÖMÜRCÜ KÖYÜ","zip":"72302"},{"name":"KUTLU KÖYÜ","zip":"72302"},{"name":"MAĞARALI MAH.","zip":"72302"},{"name":"MURATLI MAH.","zip":"72302"},{"name":"NURLU KÖYÜ","zip":"72302"},{"name":"OTLU MAH.","zip":"72302"},{"name":"ÖTEYAKA MAH.","zip":"72302"},{"name":"ÖZLER KÖYÜ","zip":"72302"},{"name":"PINARBAŞI MAH.","zip":"72302"},{"name":"POYRAZ KÖYÜ","zip":"72302"},{"name":"RÜZGARLI KÖYÜ","zip":"72302"},{"name":"SARGIN KÖYÜ","zip":"72302"},{"name":"SEKİ KÖYÜ","zip":"72302"},{"name":"SERİNKÖY KÖYÜ","zip":"72302"},{"name":"SEYRANTEPE MAH.","zip":"72302"},{"name":"TAŞÇI KÖYÜ","zip":"72302"},{"name":"TEPECİK KÖYÜ","zip":"72302"},{"name":"TUTUMLU MAH.","zip":"72302"},{"name":"ULAŞ KÖYÜ","zip":"72302"},{"name":"YAKITLI KÖYÜ","zip":"72302"},{"name":"YAMANLAR KÖYÜ","zip":"72302"},{"name":"YASSICA KÖYÜ","zip":"72302"},{"name":"YAYLADÜZÜ KÖYÜ","zip":"72302"},{"name":"YEMİŞLİ KÖYÜ","zip":"72302"},{"name":"YENİCE KÖYÜ","zip":"72302"},{"name":"YEŞİLYURT MAH.","zip":"72302"},{"name":"YOLAĞZI KÖYÜ","zip":"72302"},{"name":"YÜCEKÖY KÖYÜ","zip":"72302"}]},{"name":"HASANKEYF","cityName":null,"quarters":[{"name":"KALE MAH.","zip":"72350"}]},{"name":"MERKEZKÖYLER","cityName":null,"quarters":[{"name":"AKSU KÖYÜ","zip":"72352"},{"name":"ATLIHAN MAH.","zip":"72352"},{"name":"BAYIRLI KÖYÜ","zip":"72352"},{"name":"BÜYÜKDERE KÖYÜ","zip":"72352"},{"name":"ÇARDAKLI KÖYÜ","zip":"72352"},{"name":"IRMAK KÖYÜ","zip":"72352"},{"name":"İNCİRLİ KÖYÜ","zip":"72352"},{"name":"KARAKÖY KÖYÜ","zip":"72352"},{"name":"KAVACIK MAH.","zip":"72352"},{"name":"KAVAK MAH.","zip":"72352"},{"name":"KUMLUCA KÖYÜ","zip":"72352"},{"name":"ÖĞÜTLÜ KÖYÜ","zip":"72352"},{"name":"PALAMUT KÖYÜ","zip":"72352"},{"name":"SAKLI KÖYÜ","zip":"72352"},{"name":"SOĞUCAK KÖYÜ","zip":"72352"},{"name":"TAŞLI MAH.","zip":"72352"},{"name":"TEPEBAŞI KÖYÜ","zip":"72352"},{"name":"UZUNDERE KÖYÜ","zip":"72352"},{"name":"ÜÇYOL KÖYÜ","zip":"72352"},{"name":"YAKAKÖY KÖYÜ","zip":"72352"},{"name":"YOLÜSTÜ KÖYÜ","zip":"72352"}]},{"name":"KOZLUK","cityName":null,"quarters":[{"name":"ÇAYBAŞI MAH.","zip":"72400"},{"name":"DEĞİRMENDERE MAH.","zip":"72400"},{"name":"HAMAM MAH.","zip":"72400"},{"name":"İSLAMBEY MAH.","zip":"72400"},{"name":"KALE MAH.","zip":"72400"},{"name":"KOMANDO MAH.","zip":"72400"},{"name":"KÖPRÜBAŞI MAH.","zip":"72400"},{"name":"SELAHADDİNİ EYYÜBİ MAH.","zip":"72400"},{"name":"ŞEMDİNAĞA MAH.","zip":"72400"},{"name":"TEPECİK MAH.","zip":"72400"},{"name":"YAMAÇLI MAH.","zip":"72400"},{"name":"YENİ MAH.","zip":"72400"},{"name":"YUKARI GÜNEŞLİ MAH.","zip":"72400"}]},{"name":"MERKEZKÖYLER","cityName":null,"quarters":[{"name":"AĞAÇLIK MAH.","zip":"72402"},{"name":"AĞILBAŞ MAH.","zip":"72402"},{"name":"AĞLEMK MAH.","zip":"72402"},{"name":"AKAĞAÇ MAH.","zip":"72402"},{"name":"AKÇAKIŞLA KÖYÜ","zip":"72402"},{"name":"AKÇALI KÖYÜ","zip":"72402"},{"name":"AKSARAY MAH.","zip":"72402"},{"name":"ALACA MAH.","zip":"72402"},{"name":"ALIÇLI KÖYÜ","zip":"72402"},{"name":"ARIKAYA KÖYÜ","zip":"72402"},{"name":"ARIKBAŞI MAH.","zip":"72402"},{"name":"ARMUTLU KÖYÜ","zip":"72402"},{"name":"ASLAN KÖY MAH.","zip":"72402"},{"name":"ASLANLI MAH.","zip":"72402"},{"name":"AŞAĞIKIRATLI KÖYÜ","zip":"72402"},{"name":"ATALAR MAH.","zip":"72402"},{"name":"AVA MAH.","zip":"72402"},{"name":"BACAK MAH.","zip":"72402"},{"name":"BAHÇELİ MAH.","zip":"72402"},{"name":"BAŞEYMEZ MAH.","zip":"72402"},{"name":"BEKİRHAN KÖYÜ","zip":"72402"},{"name":"BEKİRHAN YENİDOĞAN KÖYÜ","zip":"72402"},{"name":"BEŞEVLER MAH.","zip":"72402"},{"name":"BEŞKONAK KÖYÜ","zip":"72402"},{"name":"BEYBAĞI KÖYÜ","zip":"72402"},{"name":"BÖLÜKKONAK KÖYÜ","zip":"72402"},{"name":"BUDAKLI MAH.","zip":"72402"},{"name":"BULGURLU MAH.","zip":"72402"},{"name":"CAMİLİ MAH.","zip":"72402"},{"name":"CANLAR MAH.","zip":"72402"},{"name":"CEMALO MAH.","zip":"72402"},{"name":"CİNDO MAH.","zip":"72402"},{"name":"ÇAKIRLAR MAH.","zip":"72402"},{"name":"ÇAMLICA KÖYÜ","zip":"72402"},{"name":"ÇAVUŞLU MAH.","zip":"72402"},{"name":"ÇAY KENARI MAH.","zip":"72402"},{"name":"ÇAY MAH.","zip":"72402"},{"name":"ÇAYGEÇİT KÖYÜ","zip":"72402"},{"name":"ÇAYHAN KÖYÜ","zip":"72402"},{"name":"ÇAYÖNÜ KÖYÜ","zip":"72402"},{"name":"ÇAYÖNÜ MAH.","zip":"72402"},{"name":"ÇEVRECİK KÖYÜ","zip":"72402"},{"name":"DAMARLI MAH.","zip":"72402"},{"name":"DANAGÖZÜ KÖYÜ","zip":"72402"},{"name":"DELAVA MAH.","zip":"72402"},{"name":"DERE KÖYÜ","zip":"72402"},{"name":"DERİNCE KÖYÜ","zip":"72402"},{"name":"DİKBAYIR MAH.","zip":"72402"},{"name":"DİKENLİ MAH.","zip":"72402"},{"name":"DİLİMLİ MAH.","zip":"72402"},{"name":"DOĞANCIK MAH.","zip":"72402"},{"name":"DÖVECİK KÖYÜ","zip":"72402"},{"name":"DUTLUCA MAH.","zip":"72402"},{"name":"DUYGULU KÖYÜ","zip":"72402"},{"name":"ESENTEPE MAH.","zip":"72402"},{"name":"ESHABE MAH.","zip":"72402"},{"name":"ESİNLİK MAH.","zip":"72402"},{"name":"ESKİCE KÖYÜ","zip":"72402"},{"name":"GEÇİTALTI KÖYÜ","zip":"72402"},{"name":"GELŞE MAH.","zip":"72402"},{"name":"GERTAVİ MAH.","zip":"72402"},{"name":"GEYİKLİ KÖYÜ","zip":"72402"},{"name":"GOLAZENG MAH.","zip":"72402"},{"name":"GÖKBUDAK MAH.","zip":"72402"},{"name":"GÜLLÜCE KÖYÜ","zip":"72402"},{"name":"GÜLOVASI MAH.","zip":"72402"},{"name":"GÜLPINAR MAH.","zip":"72402"},{"name":"GÜLTEPE MAH.","zip":"72402"},{"name":"GÜMÜŞÖRGÜ KÖYÜ","zip":"72402"},{"name":"GÜNDÜZLÜ KÖYÜ","zip":"72402"},{"name":"GÜNYAYLA KÖYÜ","zip":"72402"},{"name":"GÜRPINAR KÖYÜ","zip":"72402"},{"name":"GÜVEÇLİ MAH.","zip":"72402"},{"name":"HANDELU MAH.","zip":"72402"},{"name":"HASKÖY MAH.","zip":"72402"},{"name":"HAZARİ MAH.","zip":"72402"},{"name":"HÜRRİYET MAH.","zip":"72402"},{"name":"IRMAK MAH.","zip":"72402"},{"name":"İKİPINAR MAH.","zip":"72402"},{"name":"İNANLI MAH.","zip":"72402"},{"name":"İNCİLİ MAH.","zip":"72402"},{"name":"İNCİRLİK MAH.","zip":"72402"},{"name":"İNİŞLİ KÖYÜ","zip":"72402"},{"name":"KAHVECİ KÖYÜ","zip":"72402"},{"name":"KALE MAH.","zip":"72402"},{"name":"KALETEPE KÖYÜ","zip":"72402"},{"name":"KALKANCIK MAH.","zip":"72402"},{"name":"KAMIŞLI KÖYÜ","zip":"72402"},{"name":"KANİYEBİNE MAH.","zip":"72402"},{"name":"KARAOĞLAK KÖYÜ","zip":"72402"},{"name":"KARPUZLU KÖYÜ","zip":"72402"},{"name":"KARPUZLU MAH.","zip":"72402"},{"name":"KARSER MAH.","zip":"72402"},{"name":"KARŞIYAKA KÖYÜ","zip":"72402"},{"name":"KAVAKDİBİ KÖYÜ","zip":"72402"},{"name":"KAVAKLI MAH.","zip":"72402"},{"name":"KAYADİBİ KÖYÜ","zip":"72402"},{"name":"KEKLİKPINAR MAH.","zip":"72402"},{"name":"KEMALPAŞA MAH.","zip":"72402"},{"name":"KESELİ MAH.","zip":"72402"},{"name":"KETTI MAH.","zip":"72402"},{"name":"KOCABEY MAH.","zip":"72402"},{"name":"KOÇAKLI KÖYÜ","zip":"72402"},{"name":"KONAKLI KÖYÜ","zip":"72402"},{"name":"KOYUNCULAR MAH.","zip":"72402"},{"name":"KÖMK MAH.","zip":"72402"},{"name":"KÖMÜRLÜ MAH.","zip":"72402"},{"name":"KÖSELER MAH.","zip":"72402"},{"name":"KULLUDERE KÖYÜ","zip":"72402"},{"name":"KUMLUPINAR KÖYÜ","zip":"72402"},{"name":"KUMRUAR MAH.","zip":"72402"},{"name":"KURŞUNLU MAH.","zip":"72402"},{"name":"MERCAN MAH.","zip":"72402"},{"name":"MERCE MAH.","zip":"72402"},{"name":"MERGEDERE MAH.","zip":"72402"},{"name":"METİNGA MAH.","zip":"72402"},{"name":"MEZARLIK MAH.","zip":"72402"},{"name":"NAVALA MAH.","zip":"72402"},{"name":"NORŞEN MAH.","zip":"72402"},{"name":"OKÇULAR MAH.","zip":"72402"},{"name":"ORTA MAH.","zip":"72402"},{"name":"ORTACA KÖYÜ","zip":"72402"},{"name":"ORTAÇAY MAH.","zip":"72402"},{"name":"OYUKTAŞ KÖYÜ","zip":"72402"},{"name":"ÖRENSU KÖYÜ","zip":"72402"},{"name":"ÖRNEK MAH.","zip":"72402"},{"name":"PARMAKKAPI KÖYÜ","zip":"72402"},{"name":"PINARBAŞI MAH.","zip":"72402"},{"name":"PINARHİSAR KÖYÜ","zip":"72402"},{"name":"SALİHLİ MAH.","zip":"72402"},{"name":"SAMANYOLU KÖYÜ","zip":"72402"},{"name":"SARIDA MAH.","zip":"72402"},{"name":"SARIKUŞ MAH.","zip":"72402"},{"name":"SATI MAH.","zip":"72402"},{"name":"SEYHAN MAH.","zip":"72402"},{"name":"SEYİTLER KÖYÜ","zip":"72402"},{"name":"SEYİTLER MAH.","zip":"72402"},{"name":"SEYMENLER MAH.","zip":"72402"},{"name":"SEYRANTEPE KÖYÜ","zip":"72402"},{"name":"SEYRANTEPE MAH.","zip":"72402"},{"name":"SOĞUKPINAR MAH.","zip":"72402"},{"name":"SORK MAH.","zip":"72402"},{"name":"SOYLU MAH.","zip":"72402"},{"name":"SÖĞÜTLÜPINAR MAH.","zip":"72402"},{"name":"SUGESİYE MAH.","zip":"72402"},{"name":"SÜLEYMANA MAH.","zip":"72402"},{"name":"SÜLEYMANLAR MAH.","zip":"72402"},{"name":"ŞAKULİ MAH.","zip":"72402"},{"name":"ŞERİKAN MAH.","zip":"72402"},{"name":"ŞÖPİR MAH.","zip":"72402"},{"name":"TAAVA MAH.","zip":"72402"},{"name":"TAŞLIDERE KÖYÜ","zip":"72402"},{"name":"TAŞLIK KÖYÜ","zip":"72402"},{"name":"TAŞOLUK MAH.","zip":"72402"},{"name":"TEKELİ MAH.","zip":"72402"},{"name":"TEPECİK MAH.","zip":"72402"},{"name":"TEPELİ MAH.","zip":"72402"},{"name":"TEPEÜSTÜ MAH.","zip":"72402"},{"name":"TOMURCAK MAH.","zip":"72402"},{"name":"TOPTAŞ MAH.","zip":"72402"},{"name":"TOSUNPINAR KÖYÜ","zip":"72402"},{"name":"TUNÇBİLEK MAH.","zip":"72402"},{"name":"TURGUT ÖZAL MAH.","zip":"72402"},{"name":"TUZLAGÖZÜ KÖYÜ","zip":"72402"},{"name":"UĞURLU MAH.","zip":"72402"},{"name":"ULAŞLI KÖYÜ","zip":"72402"},{"name":"ULUCANLAR MAH.","zip":"72402"},{"name":"UZUNÇAYIR KÖYÜ","zip":"72402"},{"name":"UZUNYAYLA MAH.","zip":"72402"},{"name":"UZUNYAZI KÖYÜ","zip":"72402"},{"name":"ÜÇYOL MAH.","zip":"72402"},{"name":"ÜNSALDI KÖYÜ","zip":"72402"},{"name":"ÜZÜMLÜ MAH.","zip":"72402"},{"name":"YANIKKAYA KÖYÜ","zip":"72402"},{"name":"YANKILI KÖYÜ","zip":"72402"},{"name":"YAPAKLI KÖYÜ","zip":"72402"},{"name":"YAPRAKLI MAH.","zip":"72402"},{"name":"YAYALAR KÖYÜ","zip":"72402"},{"name":"YAZILI KÖYÜ","zip":"72402"},{"name":"YAZPINAR KÖYÜ","zip":"72402"},{"name":"YEDİBÖLÜK KÖYÜ","zip":"72402"},{"name":"YEMİŞLİK MAH.","zip":"72402"},{"name":"YENİ MAH.","zip":"72402"},{"name":"YENİÇAĞLAR KÖYÜ","zip":"72402"},{"name":"YENİDOĞAN ASE KÖYÜ","zip":"72402"},{"name":"YENİKÖY MAH.","zip":"72402"},{"name":"YEŞİLKÖY MAH.","zip":"72402"},{"name":"YEŞİLÖZ MAH.","zip":"72402"},{"name":"YEŞİLTEPE MAH.","zip":"72402"},{"name":"YEŞİLYURT MAH.","zip":"72402"},{"name":"YILDIZLI KÖYÜ","zip":"72402"},{"name":"YOKUŞ MAH.","zip":"72402"},{"name":"YOLALTI MAH.","zip":"72402"},{"name":"YOLBAŞI MAH.","zip":"72402"},{"name":"YOLKENARI MAH.","zip":"72402"},{"name":"YOLÜSTÜ MAH.","zip":"72402"},{"name":"YUKARI ŞAT MAH.","zip":"72402"},{"name":"YUKARI ZİYARET MAH.","zip":"72402"},{"name":"YUKARIKIRATLI KÖYÜ","zip":"72402"},{"name":"YUVACIK MAH.","zip":"72402"},{"name":"ZİYARET KÖYÜ","zip":"72402"},{"name":"ZORLUCA MAH.","zip":"72402"}]},{"name":"ÇARŞI","cityName":null,"quarters":[{"name":"AYDINLIKEVLER MAH.","zip":"72050"},{"name":"BEŞEVLER MAH.","zip":"72050"},{"name":"ÇARŞI MAH.","zip":"72050"},{"name":"ÇAY MAH.","zip":"72050"},{"name":"HUZUR MAH.","zip":"72050"},{"name":"İLUH MAH.","zip":"72050"},{"name":"KISMET MAH.","zip":"72050"},{"name":"MEYDAN MAH.","zip":"72050"},{"name":"YENİ MAH.","zip":"72050"},{"name":"YEŞİLTEPE MAH.","zip":"72050"}]},{"name":"GAP","cityName":null,"quarters":[{"name":"BAYINDIR MAH.","zip":"72070"},{"name":"BELDE MAH.","zip":"72070"},{"name":"CUDİ MAH.","zip":"72070"},{"name":"CUMHURİYET MAH.","zip":"72070"},{"name":"ÇAMLITEPE MAH.","zip":"72070"},{"name":"FATİH MAH.","zip":"72070"},{"name":"GAP MAH.","zip":"72070"},{"name":"GÜLTEPE MAH.","zip":"72070"},{"name":"KORİK MAH.","zip":"72070"},{"name":"ŞAFAK MAH.","zip":"72070"},{"name":"ŞİRİNEVLER MAH.","zip":"72070"},{"name":"TİLMERC MAH.","zip":"72070"}]},{"name":"KÜLTÜR","cityName":null,"quarters":[{"name":"HİLAL MAH.","zip":"72060"},{"name":"KÜLTÜR MAH.","zip":"72060"},{"name":"PAZARYERİ MAH.","zip":"72060"},{"name":"PINARBAŞI MAH.","zip":"72060"},{"name":"RAMAN MAH.","zip":"72060"},{"name":"SAĞLIK MAH.","zip":"72060"},{"name":"ZİYAGÖKALP MAH.","zip":"72060"}]},{"name":"MERKEZKÖYLER","cityName":null,"quarters":[{"name":"AKOBA KÖYÜ","zip":"72100"},{"name":"AZİZİYE MAH.","zip":"72100"},{"name":"BADELEN MAH.","zip":"72100"},{"name":"BALPINAR KÖYÜ","zip":"72100"},{"name":"BALPINAR MAH.","zip":"72100"},{"name":"BAYRAKLI KÖYÜ","zip":"72100"},{"name":"BELİKLİ MAH.","zip":"72100"},{"name":"BEST MAH.","zip":"72100"},{"name":"BIÇAKÇI KÖYÜ","zip":"72100"},{"name":"BİNATLI KÖYÜ","zip":"72100"},{"name":"ÇARIKLI KÖYÜ","zip":"72100"},{"name":"ÇAYELİ MAH.","zip":"72100"},{"name":"ÇAYÜSTÜ KÖYÜ","zip":"72100"},{"name":"ÇEŞMEBAŞI MAH.","zip":"72100"},{"name":"DEMİRBİLEK KÖYÜ","zip":"72100"},{"name":"DEMİRCİ MAH.","zip":"72100"},{"name":"DEMİRLİPINAR KÖYÜ","zip":"72100"},{"name":"DİKTEPE KÖYÜ","zip":"72100"},{"name":"DOLUCA KÖYÜ","zip":"72100"},{"name":"ESENTEPE MAH.","zip":"72100"},{"name":"GÖLBAŞI MAH.","zip":"72100"},{"name":"GÜNEŞLİ KÖYÜ","zip":"72100"},{"name":"GÜVERCİN KÖYÜ","zip":"72100"},{"name":"HACI ÖMER MAH.","zip":"72100"},{"name":"HANLI MAH.","zip":"72100"},{"name":"İKİZTEPE KÖYÜ","zip":"72100"},{"name":"İKİZTEPE MAH.","zip":"72100"},{"name":"KARAYÜN KÖYÜ","zip":"72100"},{"name":"KAYABAĞI KÖYÜ","zip":"72100"},{"name":"KESMEKÖPRÜ KÖYÜ","zip":"72100"},{"name":"KILIÇ KÖYÜ","zip":"72100"},{"name":"KIRMATAŞ MAH.","zip":"72100"},{"name":"KOCALAR KÖYÜ","zip":"72100"},{"name":"KOLBAŞI MAH.","zip":"72100"},{"name":"KÖSETARLA KÖYÜ","zip":"72100"},{"name":"KUMTEPE MAH.","zip":"72100"},{"name":"KUYUBAŞI KÖYÜ","zip":"72100"},{"name":"NEVAL MAH.","zip":"72100"},{"name":"OKÇU MAH.","zip":"72100"},{"name":"OLUKLU MAH.","zip":"72100"},{"name":"OYMATAŞ KÖYÜ","zip":"72100"},{"name":"ÖDEMİŞ MAH.","zip":"72100"},{"name":"RECEPLER KÖYÜ","zip":"72100"},{"name":"REYHAN MAH.","zip":"72100"},{"name":"SALKIMLI MAH.","zip":"72100"},{"name":"SEGİRKAN KÖYÜ","zip":"72100"},{"name":"SELAMET MAH.","zip":"72100"},{"name":"SEYRANTEPE MAH.","zip":"72100"},{"name":"SİNCANLI MAH.","zip":"72100"},{"name":"SOĞUKSU MAH.","zip":"72100"},{"name":"SUÇEKEN KÖYÜ","zip":"72100"},{"name":"ŞERBET MAH.","zip":"72100"},{"name":"ŞEYHÇOBAN MAH.","zip":"72100"},{"name":"UĞRAK MAH.","zip":"72100"},{"name":"URGANLI KÖYÜ","zip":"72100"},{"name":"ÜÇTEPE MAH.","zip":"72100"},{"name":"ÜNLÜCE MAH.","zip":"72100"},{"name":"YAĞMURLU KÖYÜ","zip":"72100"},{"name":"YAKITLI KÖYÜ","zip":"72100"},{"name":"YAYLICA KÖYÜ","zip":"72100"},{"name":"YEDİYOL KÖYÜ","zip":"72100"},{"name":"YENİ KÖY MAH.","zip":"72100"},{"name":"YENİKÖY KÖYÜ","zip":"72100"},{"name":"YENİMAHALLE MAH.","zip":"72100"},{"name":"YENİŞEHİR MAH.","zip":"72100"},{"name":"YEŞİLÖZ KÖYÜ","zip":"72100"},{"name":"YOĞURTLU MAH.","zip":"72100"},{"name":"YOLAĞZI KÖYÜ","zip":"72100"},{"name":"YOLVEREN KÖYÜ","zip":"72100"},{"name":"ZORKÖY MAH.","zip":"72100"}]},{"name":"PETROL","cityName":null,"quarters":[{"name":"ÇAMLICA MAH.","zip":"72040"},{"name":"ERKÖKLÜ KÖYÜ","zip":"72040"},{"name":"ERKÖKLÜ MAH.","zip":"72040"},{"name":"GÜNEYKENT MAH.","zip":"72040"},{"name":"HÜRRİYET MAH.","zip":"72040"},{"name":"KARŞIYAKA MAH.","zip":"72040"},{"name":"PETROL MAH.","zip":"72040"},{"name":"PETROLKENT MAH.","zip":"72040"},{"name":"SEYİTLER MAH.","zip":"72040"},{"name":"SİTE MAH.","zip":"72040"}]},{"name":"MERKEZKÖYLER","cityName":null,"quarters":[{"name":"AĞAKÜNÜK MAH.","zip":"72502"},{"name":"AHKAR MEZRA MAH.","zip":"72502"},{"name":"AKBELEN MAH.","zip":"72502"},{"name":"AKYEMİŞ MEZRA MAH.","zip":"72502"},{"name":"ALTINDERE KÖYÜ","zip":"72502"},{"name":"AMBARLI MEZRA MAH.","zip":"72502"},{"name":"ARKÖK MAH.","zip":"72502"},{"name":"ARPACIK MEZRA MAH.","zip":"72502"},{"name":"AŞAĞI ÇAYIRLI MAH.","zip":"72502"},{"name":"AYDINLIK MAH.","zip":"72502"},{"name":"AYKONAK MAH.","zip":"72502"},{"name":"BAKİHİSAR MAH.","zip":"72502"},{"name":"BALBAŞI KÖYÜ","zip":"72502"},{"name":"BARIŞ MAH.","zip":"72502"},{"name":"BAYRAMLAR KÖYÜ","zip":"72502"},{"name":"BERGAZİ MAH.","zip":"72502"},{"name":"BEYPSİYE MAH.","zip":"72502"},{"name":"BİNEKLİ MAH.","zip":"72502"},{"name":"BİNÖNİ MEZRA MAH.","zip":"72502"},{"name":"BOĞAZKAPI KÖYÜ","zip":"72502"},{"name":"BOZDOĞAN MEZRA MAH.","zip":"72502"},{"name":"CEVİZLİ KÖYÜ","zip":"72502"},{"name":"ÇADIRKENT MAH.","zip":"72502"},{"name":"ÇAĞLI KÖYÜ","zip":"72502"},{"name":"ÇAKIRPINAR KÖYÜ","zip":"72502"},{"name":"ÇAKMAKLI MEZRA MAH.","zip":"72502"},{"name":"ÇALIŞIRLAR KÖYÜ","zip":"72502"},{"name":"ÇAYIRLI KÖYÜ","zip":"72502"},{"name":"ÇEMEŞEŞO MEZRA MAH.","zip":"72502"},{"name":"ÇEMEŞEVKE MAH.","zip":"72502"},{"name":"ÇINARLI KÖYÜ","zip":"72502"},{"name":"ÇUKURCA MAH.","zip":"72502"},{"name":"DAĞÇATI KÖYÜ","zip":"72502"},{"name":"DAĞLICA MEZRA MAH.","zip":"72502"},{"name":"DELİKTAŞ MEZRA MAH.","zip":"72502"},{"name":"DEREİÇİ KÖYÜ","zip":"72502"},{"name":"DEREKÖY KÖYÜ","zip":"72502"},{"name":"DERİNCE KÖYÜ","zip":"72502"},{"name":"DİBEK MAH.","zip":"72502"},{"name":"DİKBAYIR KÖYÜ","zip":"72502"},{"name":"DİKMETAŞ MAH.","zip":"72502"},{"name":"DÖRTBÖLÜK KÖYÜ","zip":"72502"},{"name":"EKİNLİK MEZRA MAH.","zip":"72502"},{"name":"ELAGÖZ MAH.","zip":"72502"},{"name":"ELLİBREN MAH.","zip":"72502"},{"name":"ELMAPINAR MEZRA MAH.","zip":"72502"},{"name":"ERGÜNÜ KÖYÜ","zip":"72502"},{"name":"ERİKLİ KÖYÜ","zip":"72502"},{"name":"GEÇİTLİ KÖYÜ","zip":"72502"},{"name":"GENÇLER KÖYÜ","zip":"72502"},{"name":"GİRASUR MAH.","zip":"72502"},{"name":"GİRİBANİ MEZRA MAH.","zip":"72502"},{"name":"GOMAN MEZRA MAH.","zip":"72502"},{"name":"GORTİR MEZRA MAH.","zip":"72502"},{"name":"GÖLBAŞI MAH.","zip":"72502"},{"name":"GÖRTİL MAH.","zip":"72502"},{"name":"GÖŞEK MEZRA MAH.","zip":"72502"},{"name":"GÜLEÇ MAH.","zip":"72502"},{"name":"GÜNDOĞDU MEZRA MAH.","zip":"72502"},{"name":"GÜNEŞLİ MAH.","zip":"72502"},{"name":"GÜNEŞLİ MEZRA MAH.","zip":"72502"},{"name":"GÜNLÜCE MAH.","zip":"72502"},{"name":"GÜNYECİK MEZRA MAH.","zip":"72502"},{"name":"GÜRGENLİ KÖYÜ","zip":"72502"},{"name":"GÜVENÇ MEZRA MAH.","zip":"72502"},{"name":"GÜVERCİNLİK KÖYÜ","zip":"72502"},{"name":"HASANBEY MAH.","zip":"72502"},{"name":"HASANLAR MEZRA MAH.","zip":"72502"},{"name":"HAYDAR MAH.","zip":"72502"},{"name":"HAZZANK MAH.","zip":"72502"},{"name":"HEYBELİ KÖYÜ","zip":"72502"},{"name":"HILINSUR MAH.","zip":"72502"},{"name":"HOPİR MEZRA MAH.","zip":"72502"},{"name":"İNCESU KÖYÜ","zip":"72502"},{"name":"KALEYOLU KÖYÜ","zip":"72502"},{"name":"KAMAN MAH.","zip":"72502"},{"name":"KARAAĞAÇ MAH.","zip":"72502"},{"name":"KARAMEŞE KÖYÜ","zip":"72502"},{"name":"KARAYÜN KÖYÜ","zip":"72502"},{"name":"KARŞIYAKA MAH.","zip":"72502"},{"name":"KAŞYAYLA KÖYÜ","zip":"72502"},{"name":"KAVAKLI KÖYÜ","zip":"72502"},{"name":"KAYADİBİ MAH.","zip":"72502"},{"name":"KAYADÜZÜ KÖYÜ","zip":"72502"},{"name":"KEÇELİ MAH.","zip":"72502"},{"name":"KEÇİLER MAH.","zip":"72502"},{"name":"KELHASAN KÖYÜ","zip":"72502"},{"name":"KINALI KÖYÜ","zip":"72502"},{"name":"KISRAK MAH.","zip":"72502"},{"name":"KİLİMLİ KÖYÜ","zip":"72502"},{"name":"KİLİS KÖYÜ","zip":"72502"},{"name":"KOCANLAR MEZRA MAH.","zip":"72502"},{"name":"KOÇKAYA MAH.","zip":"72502"},{"name":"KONAKLI MEZRA MAH.","zip":"72502"},{"name":"KÖMÜRDÜR MAH.","zip":"72502"},{"name":"KÖPRÜBAŞI KÖYÜ","zip":"72502"},{"name":"KULAKSIZ MAH.","zip":"72502"},{"name":"KURT MAH.","zip":"72502"},{"name":"KUZKONCUK MAH.","zip":"72502"},{"name":"MERGE MAH.","zip":"72502"},{"name":"MERKEZ MAH.","zip":"72502"},{"name":"MEŞELİ KÖYÜ","zip":"72502"},{"name":"ORDU MEZRA MAH.","zip":"72502"},{"name":"OSMANİK MAH.","zip":"72502"},{"name":"ÖRENAĞIL KÖYÜ","zip":"72502"},{"name":"ÖZLÜCE MEZRA MAH.","zip":"72502"},{"name":"PAZARCIK MEZRA MAH.","zip":"72502"},{"name":"PIJUNİK MAH.","zip":"72502"},{"name":"PİVANK MAH.","zip":"72502"},{"name":"SARIKIZ MAH.","zip":"72502"},{"name":"SARIYAYLA KÖYÜ","zip":"72502"},{"name":"SARİGAN MEZRA MAH.","zip":"72502"},{"name":"SİNEMERG MEZRA MAH.","zip":"72502"},{"name":"SOĞANLI KÖYÜ","zip":"72502"},{"name":"SOĞE MAH.","zip":"72502"},{"name":"SUARKI MAH.","zip":"72502"},{"name":"ŞAHİNLİ MEZRA MAH.","zip":"72502"},{"name":"ŞEHAN MEZRA MAH.","zip":"72502"},{"name":"ŞENGİRİK MEZRA MAH.","zip":"72502"},{"name":"ŞIMDANK MAH.","zip":"72502"},{"name":"ŞİLFO MEZRA MAH.","zip":"72502"},{"name":"TAHTİKA MEZRA MAH.","zip":"72502"},{"name":"TAŞBURUN MAH.","zip":"72502"},{"name":"TAŞLICA MAH.","zip":"72502"},{"name":"TAŞYUVA KÖYÜ","zip":"72502"},{"name":"TAŞYUVA MAH.","zip":"72502"},{"name":"TEPE MAH.","zip":"72502"},{"name":"TEPECİK MEZRA MAH.","zip":"72502"},{"name":"TEŞBETRİK MEZRA MAH.","zip":"72502"},{"name":"TİRE MAH.","zip":"72502"},{"name":"TOPLUCA MEZRA MAH.","zip":"72502"},{"name":"TURNALI KÖYÜ","zip":"72502"},{"name":"UMURLU KÖYÜ","zip":"72502"},{"name":"ÜÇDİREK MAH.","zip":"72502"},{"name":"ÜÇEVLER MAH.","zip":"72502"},{"name":"YAKABAĞ KÖYÜ","zip":"72502"},{"name":"YAMANLI MEZRA MAH.","zip":"72502"},{"name":"YAYARLI MAH.","zip":"72502"},{"name":"YEDİGÖZ MAH.","zip":"72502"},{"name":"YELEK MEZ MAH.","zip":"72502"},{"name":"YENİKÖY KÖYÜ","zip":"72502"},{"name":"YENİYURT MAH.","zip":"72502"},{"name":"YILDIZ MAH.","zip":"72502"},{"name":"YILDIZKAYA MAH.","zip":"72502"},{"name":"YİĞİTLER KÖYÜ","zip":"72502"},{"name":"YİĞİTLİ MEZRA MAH.","zip":"72502"},{"name":"YOLLAÇ MAH.","zip":"72502"},{"name":"YOLÜSTÜ KÖYÜ","zip":"72502"},{"name":"YONCADÜZÜ MAH.","zip":"72502"},{"name":"YONCALI MEZRA MAH.","zip":"72502"},{"name":"YUKARI ERGÜNÜ MAH.","zip":"72502"},{"name":"YUVALAR KÖYÜ","zip":"72502"},{"name":"YUVARLAR MEZRA MAH.","zip":"72502"},{"name":"YÜCEBAĞ KÖYÜ","zip":"72502"},{"name":"YÜREKLİ KÖYÜ","zip":"72502"},{"name":"ZİYARET MAH.","zip":"72502"},{"name":"ZORNİK MEZRA MAH.","zip":"72502"}]},{"name":"SASON","cityName":null,"quarters":[{"name":"AYKUT OZAN MAH.","zip":"72500"},{"name":"BEŞEVLER MAH.","zip":"72500"},{"name":"DEMETEVLER MAH.","zip":"72500"},{"name":"DUMLUPINAR MAH.","zip":"72500"},{"name":"EMEK MAH.","zip":"72500"},{"name":"ERDEMLİ MAH.","zip":"72500"},{"name":"GÜRPINAR MAH.","zip":"72500"},{"name":"HAYDAR MAH.","zip":"72500"},{"name":"KARŞIYAKA MAH.","zip":"72500"},{"name":"KAYABAŞI MAH.","zip":"72500"},{"name":"KURTULUŞ MAH.","zip":"72500"},{"name":"MEHMET AKİF MAH.","zip":"72500"},{"name":"ORTA MAH.","zip":"72500"},{"name":"PINARBAŞI MAH.","zip":"72500"},{"name":"SEVEK MAH.","zip":"72500"},{"name":"ŞİRİNEVLER MAH.","zip":"72500"},{"name":"TEKEVLER MAH.","zip":"72500"},{"name":"TEKİNLER MAH.","zip":"72500"},{"name":"YAYLATEPE MAH.","zip":"72500"},{"name":"YENİ MAH.","zip":"72500"},{"name":"YEŞİLEVLER MAH.","zip":"72500"},{"name":"YEŞİLLER MAH.","zip":"72500"},{"name":"YEŞİLOVA MAH.","zip":"72500"},{"name":"YEŞİLTEPE MAH.","zip":"72500"},{"name":"YILDIZ MAH.","zip":"72500"},{"name":"YUKARI MAH.","zip":"72500"},{"name":"ZAFER MAH.","zip":"72500"}]}]}]}