{"id":73,"name":"ŞIRNAK","cities":[{"name":"city","districts":[{"name":"BEYTÜŞŞEBAP","cityName":null,"quarters":[{"name":"PINARBAŞI MAH.","zip":"73800"}]},{"name":"MERKEZKÖYLER","cityName":null,"quarters":[{"name":"AKÇAYOL KÖYÜ","zip":"73802"},{"name":"AŞAĞIDERE KÖYÜ","zip":"73802"},{"name":"AYVALIK KÖYÜ","zip":"73802"},{"name":"BAŞARAN KÖYÜ","zip":"73802"},{"name":"BEŞAĞAÇ KÖYÜ","zip":"73802"},{"name":"BOĞAZÖREN KÖYÜ","zip":"73802"},{"name":"BOLAĞAÇ KÖYÜ","zip":"73802"},{"name":"BÖLÜCEK KÖYÜ","zip":"73802"},{"name":"CEVİZAĞACI KÖYÜ","zip":"73802"},{"name":"ÇIĞLICA KÖYÜ","zip":"73802"},{"name":"DAĞALTI KÖYÜ","zip":"73802"},{"name":"DOĞANYOL KÖYÜ","zip":"73802"},{"name":"GÖKÇE KÖYÜ","zip":"73802"},{"name":"GÜNEYYAKA KÖYÜ","zip":"73802"},{"name":"GÜNYÜZÜ KÖYÜ","zip":"73802"},{"name":"ILICAK KÖYÜ","zip":"73802"},{"name":"KOYUNOBA KÖYÜ","zip":"73802"},{"name":"MEZRA KÖYÜ","zip":"73802"},{"name":"MUTLUCA KÖYÜ","zip":"73802"},{"name":"OKUL MAH.","zip":"73802"},{"name":"ORTALI KÖYÜ","zip":"73802"},{"name":"OYMAKAYA KÖYÜ","zip":"73802"},{"name":"PİRİNÇLİ KÖYÜ","zip":"73802"},{"name":"SÖĞÜTCE KÖYÜ","zip":"73802"},{"name":"TAŞKIRAN MAH.","zip":"73802"},{"name":"TİMUR MAH.","zip":"73802"},{"name":"TOPTEPE KÖYÜ","zip":"73802"},{"name":"TOPTEPE MAH.","zip":"73802"},{"name":"YEŞİLÖZ KÖYÜ","zip":"73802"}]},{"name":"CİZRE","cityName":null,"quarters":[{"name":"CİZRE OSB MAH.","zip":"73200"},{"name":"CUDİ MAH.","zip":"73200"},{"name":"DAĞ KAPI MAH.","zip":"73200"},{"name":"DİCLE MAH.","zip":"73200"},{"name":"KALE MAH.","zip":"73200"},{"name":"KONAK MAH.","zip":"73200"},{"name":"NUR MAH.","zip":"73200"},{"name":"SUR MAH.","zip":"73200"},{"name":"ŞAH MAH.","zip":"73200"},{"name":"YAFES MAH.","zip":"73200"}]},{"name":"MERKEZKÖYLER","cityName":null,"quarters":[{"name":"AŞAĞIÇEŞME MAH.","zip":"73202"},{"name":"AŞAĞIKONAK KÖYÜ","zip":"73202"},{"name":"BAĞLARBAŞI KÖYÜ","zip":"73202"},{"name":"BOZALAN KÖYÜ","zip":"73202"},{"name":"ÇAĞIL KÖYÜ","zip":"73202"},{"name":"ÇAĞIL MERKEZ MAH.","zip":"73202"},{"name":"ÇATAL KÖYÜ","zip":"73202"},{"name":"ÇAVUŞ KÖYÜ","zip":"73202"},{"name":"DİRSEKLİ KÖYÜ","zip":"73202"},{"name":"DÜZOVA KÖYÜ","zip":"73202"},{"name":"ERDEM KÖYÜ","zip":"73202"},{"name":"GİRİKOVA MAH.","zip":"73202"},{"name":"GÜÇLÜ KÖYÜ","zip":"73202"},{"name":"GÜRSU KÖYÜ","zip":"73202"},{"name":"HAVUZLU KÖYÜ","zip":"73202"},{"name":"İNCİ MAH.","zip":"73202"},{"name":"İSAĞA MAH.","zip":"73202"},{"name":"KATRAN KÖYÜ","zip":"73202"},{"name":"KAYA KÖYÜ","zip":"73202"},{"name":"KEBELİ KÖYÜ","zip":"73202"},{"name":"KERUH KÖYÜ","zip":"73202"},{"name":"KİRİŞ MAH.","zip":"73202"},{"name":"KOCAPINAR KÖYÜ","zip":"73202"},{"name":"KOÇTEPE KÖYÜ","zip":"73202"},{"name":"KOLGEZER MAH.","zip":"73202"},{"name":"KONUTLAR MAH.","zip":"73202"},{"name":"KORUCU KÖYÜ","zip":"73202"},{"name":"KURTULUŞ KÖYÜ","zip":"73202"},{"name":"KURTULUŞ MERKEZ MAH.","zip":"73202"},{"name":"KUŞTEPE KÖYÜ","zip":"73202"},{"name":"MİRHASEN MAH.","zip":"73202"},{"name":"ÖRENCİK MAH.","zip":"73202"},{"name":"REŞMİL MAH.","zip":"73202"},{"name":"SEYRANTEPE MAH.","zip":"73202"},{"name":"SİYAHTEPE MAH.","zip":"73202"},{"name":"SULAK KÖYÜ","zip":"73202"},{"name":"ŞABANİ MAH.","zip":"73202"},{"name":"TAŞHÖYÜK KÖYÜ","zip":"73202"},{"name":"TEPEÖNÜ KÖYÜ","zip":"73202"},{"name":"UĞUR KÖYÜ","zip":"73202"},{"name":"ULAŞ KÖYÜ","zip":"73202"},{"name":"VARLIK KÖYÜ","zip":"73202"},{"name":"YAKACIK KÖYÜ","zip":"73202"},{"name":"YALINTEPE KÖYÜ","zip":"73202"},{"name":"YEŞİLYURT KÖYÜ","zip":"73202"},{"name":"YUKARIÇEŞME MEZRASI MAH.","zip":"73202"},{"name":"YUKARIKONAK MAH.","zip":"73202"},{"name":"ZURAN MAH.","zip":"73202"}]},{"name":"GÜÇLÜKONAK","cityName":null,"quarters":[{"name":"YENİ MAH.","zip":"73700"}]},{"name":"MERKEZKÖYLER","cityName":null,"quarters":[{"name":"AKÇAKUŞAK KÖYÜ","zip":"73702"},{"name":"AKDİZGİN KÖYÜ","zip":"73702"},{"name":"BAHÇELİEVLER MAH.","zip":"73702"},{"name":"BOYUNCUK KÖYÜ","zip":"73702"},{"name":"BULMUŞLAR KÖYÜ","zip":"73702"},{"name":"CUMHURİYET MAH.","zip":"73702"},{"name":"ÇETİNKAYA KÖYÜ","zip":"73702"},{"name":"ÇEVRİMLİ KÖYÜ","zip":"73702"},{"name":"ÇOBANKAZANI KÖYÜ","zip":"73702"},{"name":"DAĞYELİ KÖYÜ","zip":"73702"},{"name":"DAMLABAŞI KÖYÜ","zip":"73702"},{"name":"DAMLARCA KÖYÜ","zip":"73702"},{"name":"DEMİRBOĞAZ KÖYÜ","zip":"73702"},{"name":"DÜĞÜNYURDU KÖYÜ","zip":"73702"},{"name":"FINDIK KÖYÜ","zip":"73702"},{"name":"GÜMÜŞYAZI MAH.","zip":"73702"},{"name":"KARŞIYAKA MAH.","zip":"73702"},{"name":"KOÇTEPE KÖYÜ","zip":"73702"},{"name":"KOÇYURDU MAH.","zip":"73702"},{"name":"ORMANİÇİ KÖYÜ","zip":"73702"},{"name":"ORMANİÇİ MAH.","zip":"73702"},{"name":"SAĞKOL KÖYÜ","zip":"73702"},{"name":"SOĞUCAK MAH.","zip":"73702"},{"name":"TAŞKONAK KÖYÜ","zip":"73702"},{"name":"YAĞIZOYMAK KÖYÜ","zip":"73702"},{"name":"YAĞMURKUYUSU KÖYÜ","zip":"73702"},{"name":"YATAĞANKAYA KÖYÜ","zip":"73702"},{"name":"YENİMAH. MAH.","zip":"73702"}]},{"name":"İDİL","cityName":null,"quarters":[{"name":"ATAKENT MAH.","zip":"73300"},{"name":"TURGUT ÖZAL MAH.","zip":"73300"},{"name":"YENİ MAH.","zip":"73300"},{"name":"YUKARI MAH.","zip":"73300"}]},{"name":"MERKEZKÖYLER","cityName":null,"quarters":[{"name":"AĞAÇLI MAH.","zip":"73302"},{"name":"AKDAĞ KÖYÜ","zip":"73302"},{"name":"AKKOYUNLU KÖYÜ","zip":"73302"},{"name":"AKSOY KÖYÜ","zip":"73302"},{"name":"ALAKAMIŞ KÖYÜ","zip":"73302"},{"name":"ALATAŞ MAH.","zip":"73302"},{"name":"BABET MAH.","zip":"73302"},{"name":"BAŞAKKÖY KÖYÜ","zip":"73302"},{"name":"BEREKETLİ KÖYÜ","zip":"73302"},{"name":"BOZBURUN KÖYÜ","zip":"73302"},{"name":"BOZKIR KÖYÜ","zip":"73302"},{"name":"CAMİLİ MAH.","zip":"73302"},{"name":"ÇALKE TAHTI MAH.","zip":"73302"},{"name":"ÇALKETEHTİ MAH.","zip":"73302"},{"name":"ÇAYIRLI MAH.","zip":"73302"},{"name":"ÇIĞIR KÖYÜ","zip":"73302"},{"name":"ÇINARLI KÖYÜ","zip":"73302"},{"name":"ÇUKURLU KÖYÜ","zip":"73302"},{"name":"DERA MAH.","zip":"73302"},{"name":"DİCLE MAH.","zip":"73302"},{"name":"DİRSEKLİ KÖYÜ","zip":"73302"},{"name":"DOĞANCIK MAH.","zip":"73302"},{"name":"DUMANLI KÖYÜ","zip":"73302"},{"name":"DURUKÖY KÖYÜ","zip":"73302"},{"name":"ELCANİ MAH.","zip":"73302"},{"name":"FIRAT MAH.","zip":"73302"},{"name":"GEDİK KÖYÜ","zip":"73302"},{"name":"GIRBARAZ MAH.","zip":"73302"},{"name":"GÜLTEPE MAH.","zip":"73302"},{"name":"GÜZELOVA KÖYÜ","zip":"73302"},{"name":"HABERLİ KÖYÜ","zip":"73302"},{"name":"HENDEKKÖY KÖYÜ","zip":"73302"},{"name":"IŞIK KÖYÜ","zip":"73302"},{"name":"KARALAR KÖYÜ","zip":"73302"},{"name":"KAŞIKÇI KÖYÜ","zip":"73302"},{"name":"KAYALI KÖYÜ","zip":"73302"},{"name":"KAYI KÖYÜ","zip":"73302"},{"name":"KENTLİ KÖYÜ","zip":"73302"},{"name":"KIRCA KÖYÜ","zip":"73302"},{"name":"KOZLUCA KÖYÜ","zip":"73302"},{"name":"KÖŞKLÜ MAH.","zip":"73302"},{"name":"KÖYCEĞİZ KÖYÜ","zip":"73302"},{"name":"KURTULUŞ KÖYÜ","zip":"73302"},{"name":"KUYULU KÖYÜ","zip":"73302"},{"name":"MAĞARAKÖY KÖYÜ","zip":"73302"},{"name":"OCAKLI KÖYÜ","zip":"73302"},{"name":"OKÇU KÖYÜ","zip":"73302"},{"name":"ORTACA KÖYÜ","zip":"73302"},{"name":"ORTAKÖY KÖYÜ","zip":"73302"},{"name":"OYALI KÖYÜ","zip":"73302"},{"name":"OYMAK KÖYÜ","zip":"73302"},{"name":"ÖĞÜNDÜK KÖYÜ","zip":"73302"},{"name":"ÖZBEK KÖYÜ","zip":"73302"},{"name":"ÖZEN KÖYÜ","zip":"73302"},{"name":"PEÇENEK KÖYÜ","zip":"73302"},{"name":"PINARBAŞI KÖYÜ","zip":"73302"},{"name":"SARIKÖY KÖYÜ","zip":"73302"},{"name":"SIRTKÖY KÖYÜ","zip":"73302"},{"name":"SULAK KÖYÜ","zip":"73302"},{"name":"ŞAMİL MAH.","zip":"73302"},{"name":"ŞEKER MAH.","zip":"73302"},{"name":"TEKEKÖY KÖYÜ","zip":"73302"},{"name":"TELZİP MAH.","zip":"73302"},{"name":"TEMEL MAH.","zip":"73302"},{"name":"TEPECİK KÖYÜ","zip":"73302"},{"name":"TEPEKÖY KÖYÜ","zip":"73302"},{"name":"TEPELİ MAH.","zip":"73302"},{"name":"TOKLU KÖYÜ","zip":"73302"},{"name":"TOPRAKLI KÖYÜ","zip":"73302"},{"name":"UÇARLI KÖYÜ","zip":"73302"},{"name":"UĞRAK KÖYÜ","zip":"73302"},{"name":"ULAK KÖYÜ","zip":"73302"},{"name":"ÜÇOK KÖYÜ","zip":"73302"},{"name":"VARIMLI KÖYÜ","zip":"73302"},{"name":"YAĞMURCA KÖYÜ","zip":"73302"},{"name":"YALAZ KÖYÜ","zip":"73302"},{"name":"YARBAŞI KÖYÜ","zip":"73302"},{"name":"YAVŞAN KÖYÜ","zip":"73302"},{"name":"YAYALAR KÖYÜ","zip":"73302"},{"name":"YAZMAN KÖYÜ","zip":"73302"},{"name":"YENİ KÖY MAH.","zip":"73302"},{"name":"YENİ MAH.","zip":"73302"},{"name":"YEŞİLCE MAH.","zip":"73302"},{"name":"YOKUŞLU MAH.","zip":"73302"},{"name":"YOLAÇAN KÖYÜ","zip":"73302"},{"name":"YÖRÜK KÖYÜ","zip":"73302"},{"name":"YUKARI AKSOY MAH.","zip":"73302"},{"name":"YUKARI YAVŞAN MAH.","zip":"73302"},{"name":"YUVALI KÖYÜ","zip":"73302"},{"name":"YÜKSEKKÖY KÖYÜ","zip":"73302"},{"name":"ZİRİNCAN MAH.","zip":"73302"},{"name":"AKÇAY KÖYÜ","zip":"73002"},{"name":"ARAKÖY KÖYÜ","zip":"73002"},{"name":"AŞAĞI MAH.","zip":"73002"},{"name":"ATATÜRK MAH.","zip":"73002"},{"name":"ATBAŞI KÖYÜ","zip":"73002"},{"name":"AYDINLAR MAH.","zip":"73002"},{"name":"BAHÇELİEVLER MAH.","zip":"73002"},{"name":"BALVEREN KÖYÜ","zip":"73002"},{"name":"BAŞAĞAÇ KÖYÜ","zip":"73002"},{"name":"BELKİS MAH.","zip":"73002"},{"name":"BOĞAZ MAH.","zip":"73002"},{"name":"ÇADIRLI MAH.","zip":"73002"},{"name":"ÇAVUŞHAN MAH.","zip":"73002"},{"name":"DAĞKONAK KÖYÜ","zip":"73002"},{"name":"DAVUT KÖY MAH.","zip":"73002"},{"name":"GEÇİTBOYU KÖYÜ","zip":"73002"},{"name":"GÖZLÜCE MAH.","zip":"73002"},{"name":"GÜNEYCE KÖYÜ","zip":"73002"},{"name":"GÜNEYÇAM KÖYÜ","zip":"73002"},{"name":"HATİPLER MAH.","zip":"73002"},{"name":"İKİZCE KÖYÜ","zip":"73002"},{"name":"KASRİK KÖYÜ","zip":"73002"},{"name":"KAVUNCU KÖYÜ","zip":"73002"},{"name":"KAYABOYUN KÖYÜ","zip":"73002"},{"name":"KAYMAKAMÇEŞMESİ MAH.","zip":"73002"},{"name":"KIRKKUYU KÖYÜ","zip":"73002"},{"name":"KIZILSU KÖYÜ","zip":"73002"},{"name":"KOÇBEYİ KÖYÜ","zip":"73002"},{"name":"KUMÇATI KÖYÜ","zip":"73002"},{"name":"NASIRHAN MAH.","zip":"73002"},{"name":"ÖZVEREN MAH.","zip":"73002"},{"name":"SUCULAR MAH.","zip":"73002"},{"name":"ŞAFAK MAH.","zip":"73002"},{"name":"TOPTEPE KÖYÜ","zip":"73002"},{"name":"YAYLA MAH.","zip":"73002"},{"name":"YENİ MAH.","zip":"73002"},{"name":"YENİASLANBAŞAR KÖYÜ","zip":"73002"},{"name":"YOĞURTÇULAR KÖYÜ","zip":"73002"}]},{"name":"ŞIRNAK","cityName":null,"quarters":[{"name":"AYDINLIKEVLER MAH.","zip":"73100"},{"name":"BAHÇELİEVLER MAH.","zip":"73100"},{"name":"CUMHURİYET MAH.","zip":"73100"},{"name":"DİCLE MAH.","zip":"73100"},{"name":"GAZİ PAŞA MAH.","zip":"73100"},{"name":"GÜNDOĞDU MAH.","zip":"73100"},{"name":"İSMET PAŞA MAH.","zip":"73100"},{"name":"ŞEHRİNUH MAH.","zip":"73100"},{"name":"VAKIFKENT MAH.","zip":"73100"},{"name":"YENİ MAH.","zip":"73100"},{"name":"YEŞİLYURT MAH.","zip":"73100"}]},{"name":"MERKEZKÖYLER","cityName":null,"quarters":[{"name":"ATATÜRK MAH.","zip":"73402"},{"name":"BABINDAK MAH.","zip":"73402"},{"name":"BAŞVAN MAH.","zip":"73402"},{"name":"BAŞVERİMLİ KÖYÜ","zip":"73402"},{"name":"BİRLİKKÖY KÖYÜ","zip":"73402"},{"name":"BOĞAZ MAH.","zip":"73402"},{"name":"BOSTANCI KÖYÜ","zip":"73402"},{"name":"BUĞDAYLI KÖYÜ","zip":"73402"},{"name":"CEYLAN MAH.","zip":"73402"},{"name":"CUMHURİYET MAH.","zip":"73402"},{"name":"ÇALIŞKAN KÖYÜ","zip":"73402"},{"name":"ÇARDAKLI KÖYÜ","zip":"73402"},{"name":"ÇİÇEKLİ MAH.","zip":"73402"},{"name":"ÇİFTLİKKÖY KÖYÜ","zip":"73402"},{"name":"ÇUKURCA MAH.","zip":"73402"},{"name":"DAMLACA KÖYÜ","zip":"73402"},{"name":"DEDELER KÖYÜ","zip":"73402"},{"name":"DORUKLU KÖYÜ","zip":"73402"},{"name":"EĞRİKONAK MAH.","zip":"73402"},{"name":"ESENLİ KÖYÜ","zip":"73402"},{"name":"FATİH MAH.","zip":"73402"},{"name":"GÖRÜMLÜ KÖYÜ","zip":"73402"},{"name":"GÜVEN MAH.","zip":"73402"},{"name":"ILICALAR MAH.","zip":"73402"},{"name":"KAPILI KÖYÜ","zip":"73402"},{"name":"KAPILI MÜCAVİR MAH.","zip":"73402"},{"name":"KAVAKÖZÜ KÖYÜ","zip":"73402"},{"name":"KAVALLI KÖYÜ","zip":"73402"},{"name":"KÖPRÜBAŞI MAH.","zip":"73402"},{"name":"KÖSRELİ KÖYÜ","zip":"73402"},{"name":"MAHMUTLU KÖYÜ","zip":"73402"},{"name":"ORTAKÖY KÖYÜ","zip":"73402"},{"name":"OTLUDERE MAH.","zip":"73402"},{"name":"OVAKÖY KÖYÜ","zip":"73402"},{"name":"ÖZGEN KÖYÜ","zip":"73402"},{"name":"PINARÖNÜ KÖYÜ","zip":"73402"},{"name":"POYRAZ MAH.","zip":"73402"},{"name":"RİHANİ MAH.","zip":"73402"},{"name":"SELÇİK KÖYÜ","zip":"73402"},{"name":"SEYRANTEPE MAH.","zip":"73402"},{"name":"SİSLİ MAH.","zip":"73402"},{"name":"ŞEMALBEG MAH.","zip":"73402"},{"name":"TAŞLICA MAH.","zip":"73402"},{"name":"ÜÇAĞAÇ KÖYÜ","zip":"73402"},{"name":"VATAN MAH.","zip":"73402"},{"name":"YAMAÇ MAH.","zip":"73402"},{"name":"YANKALE MAH.","zip":"73402"},{"name":"YENİ MAH.","zip":"73402"},{"name":"YENİKÖY KÖYÜ","zip":"73402"},{"name":"YEŞİLYURT MAH.","zip":"73402"},{"name":"YOLAĞIZI MAH.","zip":"73402"}]},{"name":"SİLOPİ","cityName":null,"quarters":[{"name":"BAŞAK MAH.","zip":"73400"},{"name":"CUDİ MAH.","zip":"73400"},{"name":"CUMHURİYET MAH.","zip":"73400"},{"name":"DİCLE MAH.","zip":"73400"},{"name":"KARŞIYAKA MAH.","zip":"73400"},{"name":"NUH MAH.","zip":"73400"},{"name":"OFİS MAH.","zip":"73400"},{"name":"ŞHT. HARUN BOY MAH.","zip":"73400"},{"name":"YENİŞEHİR MAH.","zip":"73400"},{"name":"YEŞİLTEPE MAH.","zip":"73400"}]},{"name":"MERKEZKÖYLER","cityName":null,"quarters":[{"name":"ASLANLI MAH.","zip":"73602"},{"name":"AYYILDIZ MAH.","zip":"73602"},{"name":"BAĞLI KÖYÜ","zip":"73602"},{"name":"BAĞLICA KÖYÜ","zip":"73602"},{"name":"BALLI KÖYÜ","zip":"73602"},{"name":"BAŞKAYA MAH.","zip":"73602"},{"name":"BULAKBAŞI KÖYÜ","zip":"73602"},{"name":"CUMHURİYET. MAH.","zip":"73602"},{"name":"DAĞDİBİ KÖYÜ","zip":"73602"},{"name":"GAZİ MAH.","zip":"73602"},{"name":"GÜLYAZI KÖYÜ","zip":"73602"},{"name":"GÜNEŞLİ MAH.","zip":"73602"},{"name":"HİLAL KÖYÜ","zip":"73602"},{"name":"IŞIKVEREN KÖYÜ","zip":"73602"},{"name":"İNCELER KÖYÜ","zip":"73602"},{"name":"ORTABAĞ KÖYÜ","zip":"73602"},{"name":"ORTAKÖY KÖYÜ","zip":"73602"},{"name":"ORTASU KÖYÜ","zip":"73602"},{"name":"PINARBAŞI MAH.","zip":"73602"},{"name":"ŞEHAN MAH.","zip":"73602"},{"name":"ŞENOBA KÖYÜ","zip":"73602"},{"name":"TANİN MAH.","zip":"73602"},{"name":"TAŞDELEN KÖYÜ","zip":"73602"},{"name":"UZUNGEÇİT KÖYÜ","zip":"73602"},{"name":"YEMİŞLİ KÖYÜ","zip":"73602"},{"name":"YENİŞEHİR MAH.","zip":"73602"},{"name":"YILDIZ MAH.","zip":"73602"}]},{"name":"ULUDERE","cityName":null,"quarters":[{"name":"KILABAN MAH.","zip":"73600"},{"name":"KÜÇÜKÇAY MAH.","zip":"73600"},{"name":"ÖDÜL MAH.","zip":"73600"},{"name":"ÖZELLİ MAH.","zip":"73600"},{"name":"YEŞİLYOVA MAH.","zip":"73600"}]}]}]}