{"id":74,"name":"BARTIN","cities":[{"name":"city","districts":[{"name":"AMASRA","cityName":null,"quarters":[{"name":"KALEŞAH MAH.","zip":"74300"},{"name":"KUM MAH.","zip":"74300"}]},{"name":"MERKEZKÖYLER","cityName":null,"quarters":[{"name":"ACARLAR KÖYÜ","zip":"74310"},{"name":"AFEREN MAH.","zip":"74310"},{"name":"AĞ MAH.","zip":"74310"},{"name":"AHATLAR KÖYÜ","zip":"74310"},{"name":"AHMETLER MAH.","zip":"74310"},{"name":"AKKONAK KÖYÜ","zip":"74310"},{"name":"ALİOBASI KÖYÜ","zip":"74310"},{"name":"ANKULAR MAH.","zip":"74310"},{"name":"AŞAĞI MAH.","zip":"74310"},{"name":"AŞAĞI MEYDAN MAH.","zip":"74310"},{"name":"AZİMLER MAH.","zip":"74310"},{"name":"BALDIRAN MAH.","zip":"74310"},{"name":"BEŞİRLER MAH.","zip":"74310"},{"name":"BOSTANLAR KÖYÜ","zip":"74310"},{"name":"CAMİ ÖNÜ MAH.","zip":"74310"},{"name":"CAVCAV MAH.","zip":"74310"},{"name":"CUMAYANI KÖYÜ","zip":"74310"},{"name":"ÇAKRAZBOZ KÖYÜ","zip":"74310"},{"name":"ÇAKRAZOVA KÖYÜ","zip":"74310"},{"name":"ÇAKRAZŞEYHLER KÖYÜ","zip":"74310"},{"name":"ÇAMCI MAH.","zip":"74310"},{"name":"ÇANAKÇILAR KÖYÜ","zip":"74310"},{"name":"ÇAPAK MEVKİİ MAH.","zip":"74310"},{"name":"ÇINAR YOLU MAH.","zip":"74310"},{"name":"DADA MAH.","zip":"74310"},{"name":"DAĞ MAH.","zip":"74310"},{"name":"DEDE MAH.","zip":"74310"},{"name":"DEMİRCİLER MAH.","zip":"74310"},{"name":"DEREDİBİ MAH.","zip":"74310"},{"name":"DEREMESCİT MAH.","zip":"74310"},{"name":"DİNDAR MAH.","zip":"74310"},{"name":"DOĞANCI MAH.","zip":"74310"},{"name":"DÜZ MAH.","zip":"74310"},{"name":"ESENLER KÖYÜ","zip":"74310"},{"name":"ESKİLER MAH.","zip":"74310"},{"name":"FER MAH.","zip":"74310"},{"name":"GÖÇKÜN KÖYÜ","zip":"74310"},{"name":"GÖÇKÜNDEMİRCİ KÖYÜ","zip":"74310"},{"name":"GÖMÜ KÖYÜ","zip":"74310"},{"name":"GÖYNÜK MAH.","zip":"74310"},{"name":"HATİPLER KÖYÜ","zip":"74310"},{"name":"İNCİĞEZ KÖYÜ","zip":"74310"},{"name":"İNPİRİ KÖYÜ","zip":"74310"},{"name":"KADI MAH.","zip":"74310"},{"name":"KALAYCI KÖYÜ","zip":"74310"},{"name":"KARA YUSUFLAR MAH.","zip":"74310"},{"name":"KARAKAÇAK KÖYÜ","zip":"74310"},{"name":"KARŞI MAH.","zip":"74310"},{"name":"KAYRAN BAŞI MAH.","zip":"74310"},{"name":"KAZPINARI KÖYÜ","zip":"74310"},{"name":"KECİNLER MAH.","zip":"74310"},{"name":"KESTANELİK MAH.","zip":"74310"},{"name":"KOCAKÖY KÖYÜ","zip":"74310"},{"name":"KONAKLAR MAH.","zip":"74310"},{"name":"KONUKLAR MAH.","zip":"74310"},{"name":"KÖKYOL MAH.","zip":"74310"},{"name":"KÖPRÜBAŞI MAH.","zip":"74310"},{"name":"KÖY ORTASI MAH.","zip":"74310"},{"name":"KUYUPINAR MAH.","zip":"74310"},{"name":"KÜÇÜKÖREN MAH.","zip":"74310"},{"name":"MAKARACI KÖYÜ","zip":"74310"},{"name":"MERKEZ MAH.","zip":"74310"},{"name":"MEŞELİ MAH.","zip":"74310"},{"name":"MEYDAN MAH.","zip":"74310"},{"name":"MEYDAN2 MAH.","zip":"74310"},{"name":"OKULLAR MAH.","zip":"74310"},{"name":"ORTA KÖYÜ MAH.","zip":"74310"},{"name":"ORTA MAH.","zip":"74310"},{"name":"OVACIK MAH.","zip":"74310"},{"name":"ÖTEKÖY MAH.","zip":"74310"},{"name":"SARAYDÜZÜ KÖYÜ","zip":"74310"},{"name":"SARI AHMETLER MAH.","zip":"74310"},{"name":"SAZAKLAR MAH.","zip":"74310"},{"name":"SERENLİ MAH.","zip":"74310"},{"name":"ŞENYURT KÖYÜ","zip":"74310"},{"name":"ŞÜKÜRLER KÖYÜ","zip":"74310"},{"name":"TARLAAĞZI KÖYÜ","zip":"74310"},{"name":"TAŞLIK MAH.","zip":"74310"},{"name":"TOPALLAR KÖYÜ","zip":"74310"},{"name":"TOPDERESİ KÖYÜ","zip":"74310"},{"name":"YAHYAYAZICILAR KÖYÜ","zip":"74310"},{"name":"YERKÖY MAH.","zip":"74310"},{"name":"YESİRLER MAH.","zip":"74310"},{"name":"YÖRÜKLER MAH.","zip":"74310"},{"name":"YUKARI MAH.","zip":"74310"},{"name":"YUKARISAL KÖYÜ","zip":"74310"},{"name":"ZİCA MAH.","zip":"74310"}]},{"name":"KURUCAŞİLE","cityName":null,"quarters":[{"name":"LİMAN MAH.","zip":"74500"},{"name":"ÖMERLER MAH.","zip":"74500"},{"name":"ŞİLE MAH.","zip":"74500"}]},{"name":"MERKEZKÖYLER","cityName":null,"quarters":[{"name":"ALAPINAR KÖYÜ","zip":"74510"},{"name":"ATAKDİBİ MAH.","zip":"74510"},{"name":"AYDOĞMUŞ KÖYÜ","zip":"74510"},{"name":"BAŞKÖY KÖYÜ","zip":"74510"},{"name":"CURUNLU KÖYÜ","zip":"74510"},{"name":"ÇAYALTI KÖYÜ","zip":"74510"},{"name":"ÇAYIRLI MAH.","zip":"74510"},{"name":"ÇENGELLİ MAH.","zip":"74510"},{"name":"ÇUKURKÖY MAH.","zip":"74510"},{"name":"DANİŞMENT KÖYÜ","zip":"74510"},{"name":"DATÇA MAH.","zip":"74510"},{"name":"DEMİRCİ KÖYÜ","zip":"74510"},{"name":"DERE MAH.","zip":"74510"},{"name":"DİP MAH.","zip":"74510"},{"name":"DİZLER MAH.","zip":"74510"},{"name":"DİZLERMEZECİ KÖYÜ","zip":"74510"},{"name":"ELVANLAR KÖYÜ","zip":"74510"},{"name":"ESENTEPE MAH.","zip":"74510"},{"name":"GÜRGENLİK MAH.","zip":"74510"},{"name":"HACIKÖY KÖYÜ","zip":"74510"},{"name":"HASANLAR MAH.","zip":"74510"},{"name":"HİSARKÖY KÖYÜ","zip":"74510"},{"name":"HÜSEYİN PAŞA MAH.","zip":"74510"},{"name":"İLYASGEÇİDİ KÖYÜ","zip":"74510"},{"name":"KALEKÖY KÖYÜ","zip":"74510"},{"name":"KANATLI KÖYÜ","zip":"74510"},{"name":"KAPISUYU KÖYÜ","zip":"74510"},{"name":"KARAMAN KÖYÜ","zip":"74510"},{"name":"KARŞIGEÇE MAH.","zip":"74510"},{"name":"KAŞALTI MAH.","zip":"74510"},{"name":"KAVAKLI KÖYÜ","zip":"74510"},{"name":"KAYALI MAH.","zip":"74510"},{"name":"KİRLİKMÜSLİMHOCA KÖYÜ","zip":"74510"},{"name":"KÖMEÇ KÖYÜ","zip":"74510"},{"name":"MERKEZ MAH.","zip":"74510"},{"name":"MERYEMLER MAH.","zip":"74510"},{"name":"MEYDAN KÖYÜ","zip":"74510"},{"name":"MEZECİ MAH.","zip":"74510"},{"name":"OVATEKKEÖNÜ KÖYÜ","zip":"74510"},{"name":"ÖMERLER KÖYÜ","zip":"74510"},{"name":"PAŞALILAR KÖYÜ","zip":"74510"},{"name":"SARIDERESİ KÖYÜ","zip":"74510"},{"name":"ŞABANLAR MAH.","zip":"74510"},{"name":"ŞEYHLER KÖYÜ","zip":"74510"},{"name":"ŞİMŞİRDERE MAH.","zip":"74510"},{"name":"UĞURLU KÖYÜ","zip":"74510"},{"name":"YAKACI MAH.","zip":"74510"},{"name":"YALI MAH.","zip":"74510"},{"name":"YAYLACIK MAH.","zip":"74510"},{"name":"YENİCE MAH.","zip":"74510"},{"name":"YENİKÖY KÖYÜ","zip":"74510"},{"name":"ZİYARETKÖY KÖYÜ","zip":"74510"}]},{"name":"DEMİRCİLER","cityName":null,"quarters":[{"name":"DEMİRCİLER MAH.","zip":"74100"},{"name":"GÖLBUCAĞI MAH.","zip":"74100"},{"name":"HÜRRİYET MAH.","zip":"74100"},{"name":"KARAÇAY MAH.","zip":"74100"},{"name":"KEMER KÖPRÜ MAH.","zip":"74100"},{"name":"KIRTEPE MAH.","zip":"74100"},{"name":"KÖYORTASI MAH.","zip":"74100"},{"name":"OKULAK MAH.","zip":"74100"},{"name":"ORDUYERİ MAH.","zip":"74100"},{"name":"ORTA MAH.","zip":"74100"},{"name":"ŞİREMİRÇAVUŞ MAH.","zip":"74100"},{"name":"TUNA MAH.","zip":"74100"}]},{"name":"KOZCAĞIZ","cityName":null,"quarters":[{"name":"AĞBAŞI MAH.","zip":"74400"},{"name":"AKAĞAÇ KÖYÜ","zip":"74400"},{"name":"AKBAŞ KÖYÜ","zip":"74400"},{"name":"AKÇAMESCİT KÖYÜ","zip":"74400"},{"name":"AKINCILAR KÖYÜ","zip":"74400"},{"name":"AŞAĞI MAH.","zip":"74400"},{"name":"AŞAĞIDERE KÖYÜ","zip":"74400"},{"name":"AŞIKLAR MAH.","zip":"74400"},{"name":"AVGÖLÜ KÖYÜ","zip":"74400"},{"name":"BAKİOĞLU KÖYÜ","zip":"74400"},{"name":"BARKAÇBOZ KÖYÜ","zip":"74400"},{"name":"BAŞOĞLU KÖYÜ","zip":"74400"},{"name":"BEDİL KÖYÜ","zip":"74400"},{"name":"BEZİRCİLER MAH.","zip":"74400"},{"name":"BODRA MAH.","zip":"74400"},{"name":"BOĞAZ MAH.","zip":"74400"},{"name":"BÖREKÇİ MAH.","zip":"74400"},{"name":"CELİLBEYOĞLU KÖYÜ","zip":"74400"},{"name":"CIDDIMOĞLU MAH.","zip":"74400"},{"name":"ÇAKILALTI MAH.","zip":"74400"},{"name":"ÇAKIRLAR MAH.","zip":"74400"},{"name":"ÇAKMACIK MAH.","zip":"74400"},{"name":"ÇAPRUZLAR MAH.","zip":"74400"},{"name":"ÇAY MAH.","zip":"74400"},{"name":"ÇAYBÜKÜ KÖYÜ","zip":"74400"},{"name":"ÇAYIRLARDİBİ MAH.","zip":"74400"},{"name":"ÇAYLIK MAH.","zip":"74400"},{"name":"ÇELİKLER MAH.","zip":"74400"},{"name":"ÇİFTÇİLER MAH.","zip":"74400"},{"name":"ÇİMKEOĞLU MAH.","zip":"74400"},{"name":"ÇİT MAH.","zip":"74400"},{"name":"ÇOBANOĞLU MAH.","zip":"74400"},{"name":"ÇOLAKLAR MAH.","zip":"74400"},{"name":"ÇOLAKOĞLU MAH.","zip":"74400"},{"name":"ÇOLUKLAR MAH.","zip":"74400"},{"name":"ÇÖMLEKLER MAH.","zip":"74400"},{"name":"ÇUBUKÇU DERESİ MAH.","zip":"74400"},{"name":"DAVUTLAR MAH.","zip":"74400"},{"name":"DEĞİRMENCİ MAH.","zip":"74400"},{"name":"DELİKTAŞ MAH.","zip":"74400"},{"name":"DEMİRCİ AHMETLER MAH.","zip":"74400"},{"name":"DEMİRCİ MAH.","zip":"74400"},{"name":"DIRAZLAR KÖYÜ","zip":"74400"},{"name":"DIRAZLAR MAH.","zip":"74400"},{"name":"DOROĞLU MAH.","zip":"74400"},{"name":"DÜZ MAH.","zip":"74400"},{"name":"ECİKLER KÖYÜ","zip":"74400"},{"name":"ELLİBAŞ KÖYÜ","zip":"74400"},{"name":"ELMACI MAH.","zip":"74400"},{"name":"EMİROĞLU MAH.","zip":"74400"},{"name":"ESELER MAH.","zip":"74400"},{"name":"ESENLER MAH.","zip":"74400"},{"name":"ESKİEMİRLER KÖYÜ","zip":"74400"},{"name":"ESKİHAMİDİYE KÖYÜ","zip":"74400"},{"name":"EYÜPOĞLU KÖYÜ","zip":"74400"},{"name":"FATİH MAH.","zip":"74400"},{"name":"FIRDAN MAH.","zip":"74400"},{"name":"GARTOSMANLAR MAH.","zip":"74400"},{"name":"GECİKSUYU MAH.","zip":"74400"},{"name":"GERİŞLİ MAH.","zip":"74400"},{"name":"GOFUROĞLU MAH.","zip":"74400"},{"name":"GÖCÜ MAH.","zip":"74400"},{"name":"GÖÇMENLER MAH.","zip":"74400"},{"name":"GÜMMELLER MAH.","zip":"74400"},{"name":"HACI HASAN DERE MAH.","zip":"74400"},{"name":"HACI İBRAHİM MAH.","zip":"74400"},{"name":"HACILAR MAH.","zip":"74400"},{"name":"HACIRASUL MAH.","zip":"74400"},{"name":"HANYERİ KÖYÜ","zip":"74400"},{"name":"HASANEFENDİ KÖYÜ","zip":"74400"},{"name":"HASANKADI KÖYÜ","zip":"74400"},{"name":"HATİPLER MAH.","zip":"74400"},{"name":"HEPLER MAH.","zip":"74400"},{"name":"HIDIRLAR KÖYÜ","zip":"74400"},{"name":"HOCAOĞLU KÖYÜ","zip":"74400"},{"name":"HOŞAFLAR MAH.","zip":"74400"},{"name":"KAHYA MAH.","zip":"74400"},{"name":"KAPUCUOĞLU MAH.","zip":"74400"},{"name":"KARACAOĞLU KÖYÜ","zip":"74400"},{"name":"KARAMANLAR MAH.","zip":"74400"},{"name":"KARAOTLU MAH.","zip":"74400"},{"name":"KARAYAKUP KÖYÜ","zip":"74400"},{"name":"KARGA MAH.","zip":"74400"},{"name":"KARŞI MAH.","zip":"74400"},{"name":"KARŞIBAKRAÇ MAH.","zip":"74400"},{"name":"KARŞIYAKA KÖYÜ","zip":"74400"},{"name":"KAVLAKLIK MAH.","zip":"74400"},{"name":"KAYIMLAR MAH.","zip":"74400"},{"name":"KERİMOĞLU MAH.","zip":"74400"},{"name":"KERPİÇLİK MAH.","zip":"74400"},{"name":"KESMÜKLÜ MAH.","zip":"74400"},{"name":"KIRAN MAH.","zip":"74400"},{"name":"KIRANPAZARI MAH.","zip":"74400"},{"name":"KIŞLA MAH.","zip":"74400"},{"name":"KİREMLİ MAH.","zip":"74400"},{"name":"KOCAOĞLU MAH.","zip":"74400"},{"name":"KOZCAĞIZ KÖYÜ","zip":"74400"},{"name":"KÖSELER MAH.","zip":"74400"},{"name":"KÖSTEKÇİOĞLU MAH.","zip":"74400"},{"name":"KÖYYERİ KÖYÜ","zip":"74400"},{"name":"KULAKLAR MAH.","zip":"74400"},{"name":"KUZYAKA MAH.","zip":"74400"},{"name":"LAZLAR MAH.","zip":"74400"},{"name":"LAZOĞLU MAH.","zip":"74400"},{"name":"MAMAK KÖYÜ","zip":"74400"},{"name":"MASKARLAR MAH.","zip":"74400"},{"name":"MERKEZ MAH.","zip":"74400"},{"name":"MERYEMOĞLU MAH.","zip":"74400"},{"name":"MUSAOĞLU MAH.","zip":"74400"},{"name":"MUZAFFERLER MAH.","zip":"74400"},{"name":"NEZİROĞLU MAH.","zip":"74400"},{"name":"ORTA MAH.","zip":"74400"},{"name":"ORTAÇAY MAH.","zip":"74400"},{"name":"ORUÇLAR MAH.","zip":"74400"},{"name":"OSMANBEYOĞLU MAH.","zip":"74400"},{"name":"ÖLÇEKOĞLU MAH.","zip":"74400"},{"name":"ÖMERLER MAH.","zip":"74400"},{"name":"ÖZBAŞI KÖYÜ","zip":"74400"},{"name":"ÖZCANLAR MAH.","zip":"74400"},{"name":"SARAÇLAR MAH.","zip":"74400"},{"name":"SATILMIŞOĞLU MAH.","zip":"74400"},{"name":"SAZLIK MAH.","zip":"74400"},{"name":"SOFULAR KÖYÜ","zip":"74400"},{"name":"SOLGANLAR MAH.","zip":"74400"},{"name":"SUBAŞI MAH.","zip":"74400"},{"name":"SÜLEK KÖYÜ","zip":"74400"},{"name":"SÜTLÜCE KÖYÜ","zip":"74400"},{"name":"ŞABANKADI KÖYÜ","zip":"74400"},{"name":"ŞABANKADI MAH.","zip":"74400"},{"name":"ŞANLILAR MAH.","zip":"74400"},{"name":"ŞARKÖY KÖYÜ","zip":"74400"},{"name":"ŞIVGILAR MAH.","zip":"74400"},{"name":"ŞİRİNKÖY KÖYÜ","zip":"74400"},{"name":"TASMACI KÖYÜ","zip":"74400"},{"name":"TEKKE MAH.","zip":"74400"},{"name":"TEPEYANI MAH.","zip":"74400"},{"name":"TEREZOĞLU MAH.","zip":"74400"},{"name":"TIRA MAH.","zip":"74400"},{"name":"TOKLUOĞLU MAH.","zip":"74400"},{"name":"TOPAL ALİ MAH.","zip":"74400"},{"name":"TOPALLAR MAH.","zip":"74400"},{"name":"TOROĞLU MAH.","zip":"74400"},{"name":"TURUPLAR MAH.","zip":"74400"},{"name":"TÜLOĞLU MAH.","zip":"74400"},{"name":"ULUKÖY KÖYÜ","zip":"74400"},{"name":"USLULAR MAH.","zip":"74400"},{"name":"USTAOĞLU KÖYÜ","zip":"74400"},{"name":"YABALAR MAH.","zip":"74400"},{"name":"YEĞENLİ KÖYÜ","zip":"74400"},{"name":"YENİ MAH.","zip":"74400"},{"name":"YENİHAMİDİYE KÖYÜ","zip":"74400"},{"name":"YEŞİLYURT KÖYÜ","zip":"74400"},{"name":"YILMAZLAR MAH.","zip":"74400"},{"name":"YUKARI ALİ OSMANLAR MAH.","zip":"74400"},{"name":"YUKARI MAH.","zip":"74400"},{"name":"YUKARI MAHELLE MERKEZ TOSYANI MAH.","zip":"74400"},{"name":"YUKARI YABALAR MAH.","zip":"74400"},{"name":"ZOROĞLU MAH.","zip":"74400"}]},{"name":"MERKEZKÖYLER","cityName":null,"quarters":[{"name":"AHATLI MAH.","zip":"74110"},{"name":"AHCIOĞLU MAH.","zip":"74110"},{"name":"AHMETLER MAH.","zip":"74110"},{"name":"AHMETPAŞA KÖYÜ","zip":"74110"},{"name":"AKBABA KÖYÜ","zip":"74110"},{"name":"AKÇAKÖY MAH.","zip":"74110"},{"name":"AKÇALI KÖYÜ","zip":"74110"},{"name":"AKGÖZ KÖYÜ","zip":"74110"},{"name":"AKMANLAR KÖYÜ","zip":"74110"},{"name":"AKPINAR KÖYÜ","zip":"74110"},{"name":"ALAÇAM MAH.","zip":"74110"},{"name":"ALDIRAK MAH.","zip":"74110"},{"name":"ALİBAŞ KÖYÜ","zip":"74110"},{"name":"ALİEFENDİ MAH.","zip":"74110"},{"name":"ARABACI MAH.","zip":"74110"},{"name":"ARIÖNÜ KÖYÜ","zip":"74110"},{"name":"ARIT KÖYÜ","zip":"74110"},{"name":"AŞAĞI 1 MAH.","zip":"74110"},{"name":"AŞAĞI 2 MAH.","zip":"74110"},{"name":"AŞAĞI DÜZ MEVKİ MAH.","zip":"74110"},{"name":"AŞAĞI KIŞLA MAH.","zip":"74110"},{"name":"AŞAĞI MAH.","zip":"74110"},{"name":"AYAZLAR MAH.","zip":"74110"},{"name":"AYDINLAR KÖYÜ","zip":"74110"},{"name":"AYDINLAR MAH.","zip":"74110"},{"name":"AYGIROĞLU MAH.","zip":"74110"},{"name":"BACAKLAR MAH.","zip":"74110"},{"name":"BAKACAK MAH.","zip":"74110"},{"name":"BAKAL MAH.","zip":"74110"},{"name":"BAKLA MAH.","zip":"74110"},{"name":"BAKLACIOĞLU MAH.","zip":"74110"},{"name":"BALAT KÖYÜ","zip":"74110"},{"name":"BAYIRYÜZÜ KÖYÜ","zip":"74110"},{"name":"BAYRAMOĞLU MAH.","zip":"74110"},{"name":"BEKİRLER MAH.","zip":"74110"},{"name":"BERBEROĞLU MAH.","zip":"74110"},{"name":"BEŞKÖPRÜ KÖYÜ","zip":"74110"},{"name":"BEYOĞLU MAH.","zip":"74110"},{"name":"BİLALLAR MAH.","zip":"74110"},{"name":"BODURLAR MAH.","zip":"74110"},{"name":"BOĞAZ MAH.","zip":"74110"},{"name":"BOZACIOĞLU MAH.","zip":"74110"},{"name":"BUDAKDÜZÜ KÖYÜ","zip":"74110"},{"name":"BÜYÜKKIRAN KÖYÜ","zip":"74110"},{"name":"BÜYÜKKIZILKUM KÖYÜ","zip":"74110"},{"name":"CANKÖYÜ MAH.","zip":"74110"},{"name":"CEBECİ MAH.","zip":"74110"},{"name":"CONDUR MAH.","zip":"74110"},{"name":"CONKURLAR MAH.","zip":"74110"},{"name":"CÖCÜ KÖYÜ","zip":"74110"},{"name":"CUMAYANI MAH.","zip":"74110"},{"name":"ÇAKIRDEMİRCİ KÖYÜ","zip":"74110"},{"name":"ÇAKIRKADI KÖYÜ","zip":"74110"},{"name":"ÇAKIRLAR MAH.","zip":"74110"},{"name":"ÇAKIRÖMERAĞA KÖYÜ","zip":"74110"},{"name":"ÇALIKOĞLU MAH.","zip":"74110"},{"name":"ÇAMALTI KÖYÜ","zip":"74110"},{"name":"ÇAMLIK KÖYÜ","zip":"74110"},{"name":"ÇAMLIK MAH.","zip":"74110"},{"name":"ÇAPKINLAR MAH.","zip":"74110"},{"name":"ÇAVUŞ MAH.","zip":"74110"},{"name":"ÇAVUŞLAR MAH.","zip":"74110"},{"name":"ÇAYIR KÖYÜ","zip":"74110"},{"name":"ÇAYIR MAH.","zip":"74110"},{"name":"ÇELEBİOĞLU MAH.","zip":"74110"},{"name":"ÇEŞTEPE KÖYÜ","zip":"74110"},{"name":"ÇETME MAH.","zip":"74110"},{"name":"ÇIVGINLAR MAH.","zip":"74110"},{"name":"ÇİFTLİKKÖY KÖYÜ","zip":"74110"},{"name":"ÇİMKE MAH.","zip":"74110"},{"name":"ÇİTOĞLU MAH.","zip":"74110"},{"name":"ÇİVAKLAR MAH.","zip":"74110"},{"name":"ÇOBANLAR MAH.","zip":"74110"},{"name":"ÇORAK MAH.","zip":"74110"},{"name":"ÇÖMLEKÇİ MAH.","zip":"74110"},{"name":"ÇÖPBEY KÖYÜ","zip":"74110"},{"name":"ÇUKURBÜK KÖYÜ","zip":"74110"},{"name":"DAĞ MAH.","zip":"74110"},{"name":"DAĞDİBİ MAH.","zip":"74110"},{"name":"DAĞLI MAH.","zip":"74110"},{"name":"DALLICA KÖYÜ","zip":"74110"},{"name":"DARIÖREN KÖYÜ","zip":"74110"},{"name":"DELLALLAR MAH.","zip":"74110"},{"name":"DEMİRCİLER MAH.","zip":"74110"},{"name":"DERBENT KÖYÜ","zip":"74110"},{"name":"DERE MAH.","zip":"74110"},{"name":"DEREDİBİ MAH.","zip":"74110"},{"name":"DEVECİLER MAH.","zip":"74110"},{"name":"DEVŞEYLİ MAH.","zip":"74110"},{"name":"DIRAZLAR MAH.","zip":"74110"},{"name":"DİBEKTAŞ MAH.","zip":"74110"},{"name":"DİREKLER MAH.","zip":"74110"},{"name":"DOĞAŞI KÖYÜ","zip":"74110"},{"name":"DOLAŞIKLAR MAH.","zip":"74110"},{"name":"DÖRTKOL MAH.","zip":"74110"},{"name":"DÜRÜKLER MAH.","zip":"74110"},{"name":"DÜZMEVKİ MAH.","zip":"74110"},{"name":"EBİŞLER MAH.","zip":"74110"},{"name":"EBZEN MAH.","zip":"74110"},{"name":"ECİKLER MAH.","zip":"74110"},{"name":"EDEY MAH.","zip":"74110"},{"name":"ELA MAH.","zip":"74110"},{"name":"ELMALIK MAH.","zip":"74110"},{"name":"EMRİ MAH.","zip":"74110"},{"name":"EPÇİLER KÖYÜ","zip":"74110"},{"name":"EPÇİLERKADI KÖYÜ","zip":"74110"},{"name":"ERSANLAR MAH.","zip":"74110"},{"name":"ESBEY KÖYÜ","zip":"74110"},{"name":"ESENLER MAH.","zip":"74110"},{"name":"ESENPINAR MAH.","zip":"74110"},{"name":"ESENYURT KÖYÜ","zip":"74110"},{"name":"FERMÜT MAH.","zip":"74110"},{"name":"FIRINLI KÖYÜ","zip":"74110"},{"name":"GAFFAR MAH.","zip":"74110"},{"name":"GAFFAR MÜCAVİR MAH.","zip":"74110"},{"name":"GAGİLLER MAH.","zip":"74110"},{"name":"GALAYGÖZ MAH.","zip":"74110"},{"name":"GANGAHU MAH.","zip":"74110"},{"name":"GECEN KÖYÜ","zip":"74110"},{"name":"GENÇALİ KÖYÜ","zip":"74110"},{"name":"GENEVİR MAH.","zip":"74110"},{"name":"GERİŞ KÖYÜ","zip":"74110"},{"name":"GERİŞKATIRCI KÖYÜ","zip":"74110"},{"name":"GÖKÇE MUSA MAH.","zip":"74110"},{"name":"GÖKÇEKIRAN KÖYÜ","zip":"74110"},{"name":"GÖKÇEKIRAN MAH.","zip":"74110"},{"name":"GÖKLER MAH.","zip":"74110"},{"name":"GÖKMENLER MAH.","zip":"74110"},{"name":"GÖZPINAR KÖYÜ","zip":"74110"},{"name":"GÜNEYDAĞI MAH.","zip":"74110"},{"name":"GÜRCÜLER MAH.","zip":"74110"},{"name":"GÜRGENPINARI KÖYÜ","zip":"74110"},{"name":"GÜRPINAR KÖYÜ","zip":"74110"},{"name":"GÜZELCEHİSAR KÖYÜ","zip":"74110"},{"name":"HACI GÜLLÜ MAH.","zip":"74110"},{"name":"HACI MAH.","zip":"74110"},{"name":"HACIÇAVUŞLAR MAH.","zip":"74110"},{"name":"HACIHATİPOĞLU KÖYÜ","zip":"74110"},{"name":"HACIKADI MAH.","zip":"74110"},{"name":"HACIKIRAMOĞLU MAH.","zip":"74110"},{"name":"HACIOĞLU MAH.","zip":"74110"},{"name":"HACIOSMANOĞLU KÖYÜ","zip":"74110"},{"name":"HACIOSMANOĞLU MAH.","zip":"74110"},{"name":"HALİLLER MAH.","zip":"74110"},{"name":"HALİLPAŞA MAH.","zip":"74110"},{"name":"HALİM MAH.","zip":"74110"},{"name":"HAMAMCI MAH.","zip":"74110"},{"name":"HAMZA MAH.","zip":"74110"},{"name":"HANCILAR MAH.","zip":"74110"},{"name":"HAS MAH.","zip":"74110"},{"name":"HASANÇAVUŞ MAH.","zip":"74110"},{"name":"HASANLAR KÖYÜ","zip":"74110"},{"name":"HASANLAR MAH.","zip":"74110"},{"name":"HASAŞLAR MAH.","zip":"74110"},{"name":"HATİPLER KÖYÜ","zip":"74110"},{"name":"HATİPLER MAH.","zip":"74110"},{"name":"HAYDELİ MAH.","zip":"74110"},{"name":"HEYELLİ MAH.","zip":"74110"},{"name":"HİSAR MAH.","zip":"74110"},{"name":"HOCA MAH.","zip":"74110"},{"name":"HORNA MAH.","zip":"74110"},{"name":"HOROZ MAH.","zip":"74110"},{"name":"HOŞKÖY MAH.","zip":"74110"},{"name":"HÜSEYİNPAŞAOĞLU MAH.","zip":"74110"},{"name":"ICAK MAH.","zip":"74110"},{"name":"IHLAMUR MAH.","zip":"74110"},{"name":"ISPALA MAH.","zip":"74110"},{"name":"İBRAMBEYOĞLU MAH.","zip":"74110"},{"name":"İLYASLAR MAH.","zip":"74110"},{"name":"İMAMLAR KÖYÜ","zip":"74110"},{"name":"İMAMLAR MAH.","zip":"74110"},{"name":"İMAMOĞLU MAH.","zip":"74110"},{"name":"İNKUM İSKELE MAH.","zip":"74110"},{"name":"İNKUM YENİ MAH.","zip":"74110"},{"name":"KABAGÖZ KÖYÜ","zip":"74110"},{"name":"KABAŞLAR MAH.","zip":"74110"},{"name":"KADI MAH.","zip":"74110"},{"name":"KADIKÖY MAH.","zip":"74110"},{"name":"KADIOĞLU MAH.","zip":"74110"},{"name":"KALAFATOĞLU MAH.","zip":"74110"},{"name":"KALAYCI MAH.","zip":"74110"},{"name":"KALAYCIOĞLU MAH.","zip":"74110"},{"name":"KALDIRIM MAH.","zip":"74110"},{"name":"KAMAN KÖYÜ","zip":"74110"},{"name":"KANBERLER MAH.","zip":"74110"},{"name":"KANBUR MAH.","zip":"74110"},{"name":"KANIÇ MAH.","zip":"74110"},{"name":"KARAALİOĞLU MAH.","zip":"74110"},{"name":"KARACAOĞLU MAH.","zip":"74110"},{"name":"KARAÇAY MAH.","zip":"74110"},{"name":"KARADAĞLIOĞLU MAH.","zip":"74110"},{"name":"KARADUT MAH.","zip":"74110"},{"name":"KARAHASAN MAH.","zip":"74110"},{"name":"KARAHÜSEYİNLER MAH.","zip":"74110"},{"name":"KARAHÜSEYİNLİ KÖYÜ","zip":"74110"},{"name":"KARAİNLER KÖYÜ","zip":"74110"},{"name":"KARAKADI MAH.","zip":"74110"},{"name":"KARAKIZ MAH.","zip":"74110"},{"name":"KARAKÖY MAH.","zip":"74110"},{"name":"KARAKÖYŞEYHLER KÖYÜ","zip":"74110"},{"name":"KARALAR BURGUCU MAH.","zip":"74110"},{"name":"KARAMAZAK KÖYÜ","zip":"74110"},{"name":"KARAMUSTAFA (GAZİLER) MAH.","zip":"74110"},{"name":"KARASU KÖYÜ","zip":"74110"},{"name":"KARŞI KÖY MAH.","zip":"74110"},{"name":"KARŞI MAH.","zip":"74110"},{"name":"KARTELİ MAH.","zip":"74110"},{"name":"KASAPOĞLU MAH.","zip":"74110"},{"name":"KAŞBAŞI KÖYÜ","zip":"74110"},{"name":"KAŞIKÇI MAH.","zip":"74110"},{"name":"KAVLAK MAH.","zip":"74110"},{"name":"KAYA ARKASI MAH.","zip":"74110"},{"name":"KAYACILAR KÖYÜ","zip":"74110"},{"name":"KAYADİBİ KÖYÜ","zip":"74110"},{"name":"KAYADİBİ MERKEZ MAH.","zip":"74110"},{"name":"KAYADİBİÇAVUŞ KÖYÜ","zip":"74110"},{"name":"KAYADİBİKAVLAK KÖYÜ","zip":"74110"},{"name":"KAYPAKLAR MAH.","zip":"74110"},{"name":"KELLER MAH.","zip":"74110"},{"name":"KINALIOĞLU MAH.","zip":"74110"},{"name":"KIRAÇ MAH.","zip":"74110"},{"name":"KIRMA MAH.","zip":"74110"},{"name":"KIŞLAKÖY KÖYÜ","zip":"74110"},{"name":"KIZILELMA KÖYÜ","zip":"74110"},{"name":"KİRENCİLER MAH.","zip":"74110"},{"name":"K-KIRAN MAH.","zip":"74110"},{"name":"KOCABEYOĞLU MAH.","zip":"74110"},{"name":"KOCAREİS KÖYÜ","zip":"74110"},{"name":"KOCİKUZU MAH.","zip":"74110"},{"name":"KOLÇAKLAR MAH.","zip":"74110"},{"name":"KOZCAĞIZ KÖYÜ","zip":"74110"},{"name":"KÖSEOĞLU MAH.","zip":"74110"},{"name":"KÖSEOĞLU MÜCAVİR MAH.","zip":"74110"},{"name":"KÖYORTASI MAH.","zip":"74110"},{"name":"KULA MAH.","zip":"74110"},{"name":"KULAKSIZ MAH.","zip":"74110"},{"name":"KUMAÇORAK KÖYÜ","zip":"74110"},{"name":"KURT KÖYÜ","zip":"74110"},{"name":"KURT MAH.","zip":"74110"},{"name":"KUTLUBEY MAH.","zip":"74110"},{"name":"KUTLUBEYDEMİRCİ KÖYÜ","zip":"74110"},{"name":"KUTLUBEYTABAKLAR KÖYÜ","zip":"74110"},{"name":"KUTLUBEYYAZICILAR KÖYÜ","zip":"74110"},{"name":"KUYU MAH.","zip":"74110"},{"name":"KUYUMCU MAH.","zip":"74110"},{"name":"KÜÇÜKKIZILKUM KÖYÜ","zip":"74110"},{"name":"KÜLCÜLER MAH.","zip":"74110"},{"name":"KÜLÜKOĞLU MAH.","zip":"74110"},{"name":"KÜMESLER KÖYÜ","zip":"74110"},{"name":"LAZLAR MAH.","zip":"74110"},{"name":"MACIRLAR MAH.","zip":"74110"},{"name":"MADEN MAH.","zip":"74110"},{"name":"MAHMUTOĞLU MAH.","zip":"74110"},{"name":"MANAÇ MAH.","zip":"74110"},{"name":"MANOĞLU MAH.","zip":"74110"},{"name":"MARUZLAR MAH.","zip":"74110"},{"name":"MAZMOĞLU MAH.","zip":"74110"},{"name":"MEHMETBEYOĞLU MAH.","zip":"74110"},{"name":"MEKEÇ MAH.","zip":"74110"},{"name":"MEKEÇLER KÖYÜ","zip":"74110"},{"name":"MELLİOĞLU MAH.","zip":"74110"},{"name":"MEMOĞLU MAH.","zip":"74110"},{"name":"MENCİ MAH.","zip":"74110"},{"name":"MENTEŞLER MAH.","zip":"74110"},{"name":"MENTEŞPİRİ MAH.","zip":"74110"},{"name":"MERKEZ (KAPAKLI) MAH.","zip":"74110"},{"name":"MERKEZ MAH.","zip":"74110"},{"name":"MEYDAN MAH.","zip":"74110"},{"name":"MOLLA MAH.","zip":"74110"},{"name":"MOLLA OSMAN MAH.","zip":"74110"},{"name":"MOLLABEKİR MAH.","zip":"74110"},{"name":"MUGADA MAH.","zip":"74110"},{"name":"MUGADA SAHİL MAH.","zip":"74110"},{"name":"MUHACİRLER MAH.","zip":"74110"},{"name":"MURATBEY KÖYÜ","zip":"74110"},{"name":"MUSAKALFAOGLU MAH.","zip":"74110"},{"name":"MUTAF MAH.","zip":"74110"},{"name":"NANE MAH.","zip":"74110"},{"name":"NASUH MAH.","zip":"74110"},{"name":"ODAMEHMETOĞLU MAH.","zip":"74110"},{"name":"OKÇULAR KÖYÜ","zip":"74110"},{"name":"OKÇULAR MAH.","zip":"74110"},{"name":"ORGANİZE SANAYİ BÖLGESİ MAH.","zip":"74110"},{"name":"ORMANOĞLU MAH.","zip":"74110"},{"name":"ORTA MAH.","zip":"74110"},{"name":"ORTAKÖY MAH.","zip":"74110"},{"name":"OSMAN MAH.","zip":"74110"},{"name":"OSMANBAŞOĞLU MAH.","zip":"74110"},{"name":"OVAZLAR MAH.","zip":"74110"},{"name":"ÖMERKÖY MAH.","zip":"74110"},{"name":"ÖMERLER MAH.","zip":"74110"},{"name":"ÖREN KÖYÜ","zip":"74110"},{"name":"ÖRENCİK MAH.","zip":"74110"},{"name":"ÖTEYÜZ MAH.","zip":"74110"},{"name":"PİRNALLAR MAH.","zip":"74110"},{"name":"POSTAL MAH.","zip":"74110"},{"name":"RECEPOĞLU MAH.","zip":"74110"},{"name":"RECEPPAŞA MAH.","zip":"74110"},{"name":"SAKAOĞLU MAH.","zip":"74110"},{"name":"SARAYLI KÖYÜ","zip":"74110"},{"name":"SARIMSAKÇIOĞLU MAH.","zip":"74110"},{"name":"SEFERLER MAH.","zip":"74110"},{"name":"SERDAR KÖYÜ","zip":"74110"},{"name":"SIRALI MAH.","zip":"74110"},{"name":"SİNOPLU MAH.","zip":"74110"},{"name":"SİPAHİLER KÖYÜ","zip":"74110"},{"name":"SOFUOĞLU MAH.","zip":"74110"},{"name":"SÖĞÜTLÜ KÖYÜ","zip":"74110"},{"name":"SUCUOĞLU MAH.","zip":"74110"},{"name":"ŞABANLAR MAH.","zip":"74110"},{"name":"ŞAHİN KÖYÜ","zip":"74110"},{"name":"ŞAHİN MAH.","zip":"74110"},{"name":"ŞAHİN PAŞA MAH.","zip":"74110"},{"name":"ŞAHNE KÖYÜ","zip":"74110"},{"name":"ŞAHNE MAH.","zip":"74110"},{"name":"ŞIPBEN MAH.","zip":"74110"},{"name":"ŞİREMİRTABAKLAR KÖYÜ","zip":"74110"},{"name":"ŞİŞMAN MAH.","zip":"74110"},{"name":"TABAKLAR MAH.","zip":"74110"},{"name":"TABAKLI MAH.","zip":"74110"},{"name":"TABAKOĞLU MAH.","zip":"74110"},{"name":"TABANÖZÜ KÖYÜ","zip":"74110"},{"name":"TAŞ KÖPRÜ MAH.","zip":"74110"},{"name":"TATAROĞLU MAH.","zip":"74110"},{"name":"TEKKE MAH.","zip":"74110"},{"name":"TELLİOĞLU MAH.","zip":"74110"},{"name":"TERKE MAH.","zip":"74110"},{"name":"TERKEHALİLLER KÖYÜ","zip":"74110"},{"name":"TERKEHATİPLER KÖYÜ","zip":"74110"},{"name":"TERKELİ MAH.","zip":"74110"},{"name":"TOMAÇ MAH.","zip":"74110"},{"name":"TOPALCIOĞLU MAH.","zip":"74110"},{"name":"TOPALLAR MAH.","zip":"74110"},{"name":"TOPLUCA KÖYÜ","zip":"74110"},{"name":"TOPSAKAL MAH.","zip":"74110"},{"name":"TURANLAR KÖYÜ","zip":"74110"},{"name":"TUZCULAR KÖYÜ","zip":"74110"},{"name":"TÜFENKÇİOĞLU MAH.","zip":"74110"},{"name":"TÜRBECİ MAH.","zip":"74110"},{"name":"TÜRDÜ MAH.","zip":"74110"},{"name":"UÇARI MAH.","zip":"74110"},{"name":"UĞURLAR KÖYÜ","zip":"74110"},{"name":"ULUGEÇİTAMBARCI KÖYÜ","zip":"74110"},{"name":"ULUGEÇİTKADI KÖYÜ","zip":"74110"},{"name":"UZUNLAR MAH.","zip":"74110"},{"name":"UZUNÖZ KÖYÜ","zip":"74110"},{"name":"ÜÇKURNALI MAH.","zip":"74110"},{"name":"YAĞCI MAH.","zip":"74110"},{"name":"YANAZ KÖYÜ","zip":"74110"},{"name":"YANIK MAH.","zip":"74110"},{"name":"YAYALAR MAH.","zip":"74110"},{"name":"YAYLACIK MAH.","zip":"74110"},{"name":"YAZICILAR MAH.","zip":"74110"},{"name":"YEMENİCİ MAH.","zip":"74110"},{"name":"YENİ MAH.","zip":"74110"},{"name":"YENİEV MAH.","zip":"74110"},{"name":"YENİKÖY KÖYÜ","zip":"74110"},{"name":"YENİŞAR MAH.","zip":"74110"},{"name":"YEŞİLKAYA KÖYÜ","zip":"74110"},{"name":"YILANCILAR MAH.","zip":"74110"},{"name":"YILDIZ KÖYÜ","zip":"74110"},{"name":"YUKARI MAH.","zip":"74110"},{"name":"YUKARIKÖY MAH.","zip":"74110"},{"name":"YUKARIŞEYHLER KÖYÜ","zip":"74110"},{"name":"YUMUŞAKLAR MAH.","zip":"74110"},{"name":"YUSUFBAŞOGLU MAH.","zip":"74110"},{"name":"YUSUFOĞLU MAH.","zip":"74110"},{"name":"ZEYBEKLER MAH.","zip":"74110"},{"name":"ZOTLAR MAH.","zip":"74110"}]},{"name":"YENİSANAYİ","cityName":null,"quarters":[{"name":"CUMHURİYET MAH.","zip":"74200"},{"name":"ÇAYDÜZÜ MAH.","zip":"74200"},{"name":"ESENTEPE MAH.","zip":"74200"},{"name":"KARAKÖY MAH.","zip":"74200"}]},{"name":"KUMLUCA","cityName":null,"quarters":[{"name":"AHMET SOFUOĞLU MAH.","zip":"74410"},{"name":"AKÖRENSÖKÜLER KÖYÜ","zip":"74410"},{"name":"AKSARAY MAH.","zip":"74410"},{"name":"ALAKÖY MAH.","zip":"74410"},{"name":"ALAOĞLU MAH.","zip":"74410"},{"name":"ALİ EFENDİOĞLU MAH.","zip":"74410"},{"name":"ALİ KADIOĞLU MAH.","zip":"74410"},{"name":"AŞAĞI MAH.","zip":"74410"},{"name":"AZGIN MAH.","zip":"74410"},{"name":"BAĞDATLI KÖYÜ","zip":"74410"},{"name":"BAYIRLAR MAH.","zip":"74410"},{"name":"BAYISLAR MAH.","zip":"74410"},{"name":"BAYRAKTAROĞLU MAH.","zip":"74410"},{"name":"BAYRAMOĞLU MAH.","zip":"74410"},{"name":"BOĞAZ MAH.","zip":"74410"},{"name":"CAMUŞOĞLU MAH.","zip":"74410"},{"name":"CEYÜPLER KÖYÜ","zip":"74410"},{"name":"CEYÜPLER MAH.","zip":"74410"},{"name":"CUMADÜZÜ MAH.","zip":"74410"},{"name":"ÇANDIRLAR MAH.","zip":"74410"},{"name":"ÇAYTARLA MAH.","zip":"74410"},{"name":"ÇENGELLİ MAH.","zip":"74410"},{"name":"ÇUBUKLU KÖYÜ","zip":"74410"},{"name":"ÇUKURTARLA MAH.","zip":"74410"},{"name":"DAĞLAR MAH.","zip":"74410"},{"name":"DEDEOĞLU MAH.","zip":"74410"},{"name":"DEĞİRMENYANI MAH.","zip":"74410"},{"name":"DENGEZLER MAH.","zip":"74410"},{"name":"DERE MAH.","zip":"74410"},{"name":"DERECAMİ MAH.","zip":"74410"},{"name":"DİBEKTAŞ KÖYÜ","zip":"74410"},{"name":"DOĞANKIZI MAH.","zip":"74410"},{"name":"DOĞANKÖY KÖYÜ","zip":"74410"},{"name":"DÖNGELLER KÖYÜ","zip":"74410"},{"name":"DÜZAĞAÇ MAH.","zip":"74410"},{"name":"DÜZYER MAH.","zip":"74410"},{"name":"EKMEKÇİOĞLU MAH.","zip":"74410"},{"name":"ESEOĞLU MAH.","zip":"74410"},{"name":"ESMİR MAH.","zip":"74410"},{"name":"FABRİKAYANI MAH.","zip":"74410"},{"name":"FAZLIOĞLU MAH.","zip":"74410"},{"name":"FURUNCUOĞLU MAH.","zip":"74410"},{"name":"GALLEŞOĞLU MAH.","zip":"74410"},{"name":"GERİŞ MAH.","zip":"74410"},{"name":"GÖKDERE MAH.","zip":"74410"},{"name":"GÖKMENOĞLU MAH.","zip":"74410"},{"name":"GÜVENDİK MAH.","zip":"74410"},{"name":"HACIKADIOĞLU MAH.","zip":"74410"},{"name":"HAPLIOĞLU MAH.","zip":"74410"},{"name":"HIZARCIOĞLU MAH.","zip":"74410"},{"name":"HİSAR MAH.","zip":"74410"},{"name":"HİSARKÖY KÖYÜ","zip":"74410"},{"name":"HOCAOĞLU MAH.","zip":"74410"},{"name":"İMAMLAR MAH.","zip":"74410"},{"name":"İNCİRLER MAH.","zip":"74410"},{"name":"İNEBEY MAH.","zip":"74410"},{"name":"KABASAKALOĞLU MAH.","zip":"74410"},{"name":"KADIOĞLU MAH.","zip":"74410"},{"name":"KAHYAOĞLU MAH.","zip":"74410"},{"name":"KANATOĞLU MAH.","zip":"74410"},{"name":"KARABACAK MAH.","zip":"74410"},{"name":"KARAKAŞOĞLU MAH.","zip":"74410"},{"name":"KARAVELİOĞLU MAH.","zip":"74410"},{"name":"KAVAKLIKALDIRIM MAH.","zip":"74410"},{"name":"KAZASKEROĞLU MAH.","zip":"74410"},{"name":"KEÇİDERESİ KÖYÜ","zip":"74410"},{"name":"KELOĞLU MAH.","zip":"74410"},{"name":"KIYIKLAR KÖYÜ","zip":"74410"},{"name":"KIZILLAR KÖYÜ","zip":"74410"},{"name":"KIZILOVAZ MAH.","zip":"74410"},{"name":"KİRSİNLER KÖYÜ","zip":"74410"},{"name":"KOCAKAHYA MAH.","zip":"74410"},{"name":"KONAK KÖYÜ","zip":"74410"},{"name":"KONUKLU KÖYÜ","zip":"74410"},{"name":"KONUTEVLER MAH.","zip":"74410"},{"name":"KÖHÜNLER MAH.","zip":"74410"},{"name":"KÖSE MAH.","zip":"74410"},{"name":"KÖSEOĞLU MAH.","zip":"74410"},{"name":"KULAKLAR MAH.","zip":"74410"},{"name":"KULAKSIZOĞLU MAH.","zip":"74410"},{"name":"KUMLUCA KÖYÜ","zip":"74410"},{"name":"KÜTÜKOĞLU MAH.","zip":"74410"},{"name":"MAKSADOĞLU MAH.","zip":"74410"},{"name":"MARAZOĞLU MAH.","zip":"74410"},{"name":"MERKEZ MAH.","zip":"74410"},{"name":"MİLNE MAH.","zip":"74410"},{"name":"MÜYESSEROĞLU MAH.","zip":"74410"},{"name":"ORTA MAH.","zip":"74410"},{"name":"ÖMERAĞA MAH.","zip":"74410"},{"name":"ÖNCÜLER KÖYÜ","zip":"74410"},{"name":"ÖREN MAH.","zip":"74410"},{"name":"SEFEROĞLU MAH.","zip":"74410"},{"name":"SERDAROĞLU MAH.","zip":"74410"},{"name":"SOFUOĞLU MAH.","zip":"74410"},{"name":"SÖKÜLER MAH.","zip":"74410"},{"name":"ŞAHABETTİN MAH.","zip":"74410"},{"name":"TABAKLAR MAH.","zip":"74410"},{"name":"ULU MAH.","zip":"74410"},{"name":"ULUKÖY KÖYÜ","zip":"74410"},{"name":"ÜÇPINAR MAH.","zip":"74410"},{"name":"ÜÇSARAY KÖYÜ","zip":"74410"},{"name":"YAMAKLAR MAH.","zip":"74410"},{"name":"YENİ MAH.","zip":"74410"},{"name":"YENİKIŞLA KÖYÜ","zip":"74410"},{"name":"YILANLAR KÖYÜ","zip":"74410"},{"name":"YİRMİBEŞOĞLU MAH.","zip":"74410"},{"name":"YUKARI MAH.","zip":"74410"},{"name":"ZAFER KÖYÜ","zip":"74410"},{"name":"ZAROĞLU MAH.","zip":"74410"}]},{"name":"MERKEZKÖYLER","cityName":null,"quarters":[{"name":"ABDURRAHMAN KÖYÜ","zip":"74602"},{"name":"AĞAKÖY KÖYÜ","zip":"74602"},{"name":"AHLA DERESİ MAH.","zip":"74602"},{"name":"AHMET MAH.","zip":"74602"},{"name":"AHMETÇELEBİ MAH.","zip":"74602"},{"name":"AKMEŞEYANI MAH.","zip":"74602"},{"name":"AKTAŞ KÖYÜ","zip":"74602"},{"name":"AKTAŞ MAH.","zip":"74602"},{"name":"AKTOPRAK MAH.","zip":"74602"},{"name":"ALAOĞLU MAH.","zip":"74602"},{"name":"ALIÇLI KÖYÜ","zip":"74602"},{"name":"ALİ MAH.","zip":"74602"},{"name":"ALİÇELEBİ MAH.","zip":"74602"},{"name":"ALNEK MAH.","zip":"74602"},{"name":"ALPI KÖYÜ","zip":"74602"},{"name":"ANDIZ MAH.","zip":"74602"},{"name":"ARAÇLAR MAH.","zip":"74602"},{"name":"ARPACIK KÖYÜ","zip":"74602"},{"name":"ASLANCI MAH.","zip":"74602"},{"name":"AŞAĞI MAH.","zip":"74602"},{"name":"AŞAĞIAVLU MAH.","zip":"74602"},{"name":"AŞAĞIÇAMLI KÖYÜ","zip":"74602"},{"name":"AŞAĞIÇERÇİ KÖYÜ","zip":"74602"},{"name":"AŞAĞIDERE KÖYÜ","zip":"74602"},{"name":"AŞAĞIDERE MAH.","zip":"74602"},{"name":"AŞAĞIDORUCA MAH.","zip":"74602"},{"name":"AŞAĞIEMİRCE KÖYÜ","zip":"74602"},{"name":"AŞAĞIKÖY KÖYÜ","zip":"74602"},{"name":"AYAKLI MAH.","zip":"74602"},{"name":"BAHÇECİK KÖYÜ","zip":"74602"},{"name":"BAKIŞOĞLU MAH.","zip":"74602"},{"name":"BALDERESİ MAH.","zip":"74602"},{"name":"BALICAK KÖYÜ","zip":"74602"},{"name":"BARAKA MAH.","zip":"74602"},{"name":"BAYRAMBAŞOĞLU MAH.","zip":"74602"},{"name":"BEKİR MAH.","zip":"74602"},{"name":"BELENSARNIÇ MAH.","zip":"74602"},{"name":"BIYIKLI MAH.","zip":"74602"},{"name":"BÖREKÇİLER MAH.","zip":"74602"},{"name":"BUDAMIŞ MAH.","zip":"74602"},{"name":"BUĞURLAR KÖYÜ","zip":"74602"},{"name":"CAMİYANI MERKEZ MAH.","zip":"74602"},{"name":"CEBECİ MAH.","zip":"74602"},{"name":"CÜCEOĞLU MAH.","zip":"74602"},{"name":"ÇAMÇI MAH.","zip":"74602"},{"name":"ÇAMDİBİ MAH.","zip":"74602"},{"name":"ÇAVUŞKÖY KÖYÜ","zip":"74602"},{"name":"ÇAVUŞOĞLU MAH.","zip":"74602"},{"name":"ÇAYIRLIOĞLU MAH.","zip":"74602"},{"name":"ÇERDE KÖYÜ","zip":"74602"},{"name":"ÇIRAKLAR MAH.","zip":"74602"},{"name":"ÇİTOĞLU MAH.","zip":"74602"},{"name":"ÇUBUKBELİ KÖYÜ","zip":"74602"},{"name":"DANAGÖLÜ MAH.","zip":"74602"},{"name":"DAVUTLAR MAH.","zip":"74602"},{"name":"DEĞİRMENCİK MAH.","zip":"74602"},{"name":"DEĞİRMENÖNÜ MAH.","zip":"74602"},{"name":"DEĞİRMENYANI MAH.","zip":"74602"},{"name":"DEMİRCİ MAH.","zip":"74602"},{"name":"DEMİRCİLER MAH.","zip":"74602"},{"name":"DEMİREN MAH.","zip":"74602"},{"name":"DERE MAH.","zip":"74602"},{"name":"DERECİK MAH.","zip":"74602"},{"name":"DERELİ KÖYÜ","zip":"74602"},{"name":"DERELİ MAH.","zip":"74602"},{"name":"DODURGA KÖYÜ","zip":"74602"},{"name":"DORUCAŞAHİNCİ KÖYÜ","zip":"74602"},{"name":"DORUK MAH.","zip":"74602"},{"name":"DÖREKLER KÖYÜ","zip":"74602"},{"name":"DUTLU MAH.","zip":"74602"},{"name":"DÜZ MAH.","zip":"74602"},{"name":"DÜZKÖY KÖYÜ","zip":"74602"},{"name":"EDİLER MAH.","zip":"74602"},{"name":"ELDEŞ KÖYÜ","zip":"74602"},{"name":"ELMACIK KÖYÜ","zip":"74602"},{"name":"ELMALIK MAH.","zip":"74602"},{"name":"EMİR MAH.","zip":"74602"},{"name":"EMİRTAŞ MAH.","zip":"74602"},{"name":"ESE MAH.","zip":"74602"},{"name":"ESELER KÖYÜ","zip":"74602"},{"name":"ESKİOĞLU MAH.","zip":"74602"},{"name":"ESKÖY MAH.","zip":"74602"},{"name":"FIŞKIN MAH.","zip":"74602"},{"name":"GEDİKLER MAH.","zip":"74602"},{"name":"GEGEN MAH.","zip":"74602"},{"name":"GÖKPINAR KÖYÜ","zip":"74602"},{"name":"GÖKSU MAH.","zip":"74602"},{"name":"GÜNEYÖREN KÖYÜ","zip":"74602"},{"name":"GÜRGENCAMİ MAH.","zip":"74602"},{"name":"HACI MAH.","zip":"74602"},{"name":"HASANÖREN KÖYÜ","zip":"74602"},{"name":"HATİPLER MAH.","zip":"74602"},{"name":"HENDEK MAH.","zip":"74602"},{"name":"HIRADÜZÜ MAH.","zip":"74602"},{"name":"HİMMETOĞLU MAH.","zip":"74602"},{"name":"HOCA MAH.","zip":"74602"},{"name":"HOCAKÖY KÖYÜ","zip":"74602"},{"name":"HÜSEYİN MAH.","zip":"74602"},{"name":"ILAVIÇ MAH.","zip":"74602"},{"name":"ISIRGANLI KÖYÜ","zip":"74602"},{"name":"İBRAHİMDERESİ KÖYÜ","zip":"74602"},{"name":"İĞNECİLER KÖYÜ","zip":"74602"},{"name":"İMAMOĞLU MAH.","zip":"74602"},{"name":"İNCEÇAM KÖYÜ","zip":"74602"},{"name":"İNCİLLER MAH.","zip":"74602"},{"name":"İSLAMLAR MAH.","zip":"74602"},{"name":"İSMAİLAĞA MAH.","zip":"74602"},{"name":"KABAOĞLU MAH.","zip":"74602"},{"name":"KADI MAH.","zip":"74602"},{"name":"KADIKÖY KÖYÜ","zip":"74602"},{"name":"KADIOĞLU MAH.","zip":"74602"},{"name":"KADİRAĞA MAH.","zip":"74602"},{"name":"KALECİK KÖYÜ","zip":"74602"},{"name":"KALFALAR MAH.","zip":"74602"},{"name":"KANAVAKA MAH.","zip":"74602"},{"name":"KANBUROĞLU MAH.","zip":"74602"},{"name":"KARABOYUNOĞLU MAH.","zip":"74602"},{"name":"KARADAYILAR MAH.","zip":"74602"},{"name":"KARADİKEN KÖYÜ","zip":"74602"},{"name":"KARAGÖL MAH.","zip":"74602"},{"name":"KARAHASAN KÖYÜ","zip":"74602"},{"name":"KARAKAÇOĞLU MAH.","zip":"74602"},{"name":"KARAKIŞLA KÖYÜ","zip":"74602"},{"name":"KARAKUZ MAH.","zip":"74602"},{"name":"KARAMADANOĞLU MAH.","zip":"74602"},{"name":"KARAMANOĞLU MAH.","zip":"74602"},{"name":"KARASA MAH.","zip":"74602"},{"name":"KARGACAK MAH.","zip":"74602"},{"name":"KAŞALTI MAH.","zip":"74602"},{"name":"KAVLAKDİBİ MAH.","zip":"74602"},{"name":"KAYABAŞI KÖYÜ","zip":"74602"},{"name":"KAYACILAR MAH.","zip":"74602"},{"name":"KAYICILAR MAH.","zip":"74602"},{"name":"KAYRALTI MAH.","zip":"74602"},{"name":"KAYRANÇI MAH.","zip":"74602"},{"name":"KEMERLİ MAH.","zip":"74602"},{"name":"KERPİÇLİ MAH.","zip":"74602"},{"name":"KESTANE MAH.","zip":"74602"},{"name":"KINAKAYASI MAH.","zip":"74602"},{"name":"KIRAHARMANI MAH.","zip":"74602"},{"name":"KIRANÜZERİ MAH.","zip":"74602"},{"name":"KIZILELMA MAH.","zip":"74602"},{"name":"KİRAZCIK KÖYÜ","zip":"74602"},{"name":"KOÇAK MAH.","zip":"74602"},{"name":"KOÇALİ MAH.","zip":"74602"},{"name":"KOZANLI KÖYÜ","zip":"74602"},{"name":"KÖKLÜ KÖYÜ","zip":"74602"},{"name":"KURUOĞLU MAH.","zip":"74602"},{"name":"KUZ MAH.","zip":"74602"},{"name":"KUZÖREN MAH.","zip":"74602"},{"name":"KÜLLÜ KÖYÜ","zip":"74602"},{"name":"KÜRTOĞLU MAH.","zip":"74602"},{"name":"LAFAZANLAR MAH.","zip":"74602"},{"name":"MADENOĞLU MAH.","zip":"74602"},{"name":"MERKEZ MAH.","zip":"74602"},{"name":"MOLLA MAH.","zip":"74602"},{"name":"OCAKLI MAH.","zip":"74602"},{"name":"ONAÇ MAH.","zip":"74602"},{"name":"ORTA MAH.","zip":"74602"},{"name":"OYRAK MAH.","zip":"74602"},{"name":"OZAN MAH.","zip":"74602"},{"name":"ÖMEROĞLU MAH.","zip":"74602"},{"name":"ÖREN MAH.","zip":"74602"},{"name":"PAŞALI MAH.","zip":"74602"},{"name":"PAZAR MAH.","zip":"74602"},{"name":"PINARÖNÜ MAH.","zip":"74602"},{"name":"RUMLUOĞLU MAH.","zip":"74602"},{"name":"SAMATLI MAH.","zip":"74602"},{"name":"SAP MAH.","zip":"74602"},{"name":"SARICAAĞAÇ MAH.","zip":"74602"},{"name":"SARIFASIL KÖYÜ","zip":"74602"},{"name":"SARNIÇ KÖYÜ","zip":"74602"},{"name":"SEFERLER MAH.","zip":"74602"},{"name":"SOFULAR MAH.","zip":"74602"},{"name":"SOMULLU MAH.","zip":"74602"},{"name":"SORGUNCUK MAH.","zip":"74602"},{"name":"SÜTYEMEZ MAH.","zip":"74602"},{"name":"ŞAHİNOĞLU MAH.","zip":"74602"},{"name":"ŞİRİNLER KÖYÜ","zip":"74602"},{"name":"ŞÜKRÜOĞLU MAH.","zip":"74602"},{"name":"TAHTABAŞOĞLU MAH.","zip":"74602"},{"name":"TANIŞMAN MAH.","zip":"74602"},{"name":"TAŞÇIOĞLU MAH.","zip":"74602"},{"name":"TEKMENOĞLU MAH.","zip":"74602"},{"name":"TOMBOOĞLU MAH.","zip":"74602"},{"name":"ULUKAYA KÖYÜ","zip":"74602"},{"name":"ULUPINAR MAH.","zip":"74602"},{"name":"ÜÇPINAR MAH.","zip":"74602"},{"name":"VİLDANLAR MAH.","zip":"74602"},{"name":"YALVAÇ MAH.","zip":"74602"},{"name":"YENİ MAH.","zip":"74602"},{"name":"YENİCE MAH.","zip":"74602"},{"name":"YENİKÖY KÖYÜ","zip":"74602"},{"name":"YEŞİLPAZAR MAH.","zip":"74602"},{"name":"YUKARI MAH.","zip":"74602"},{"name":"YUKARIAVLU MAH.","zip":"74602"},{"name":"YUKARIDERE KÖYÜ","zip":"74602"},{"name":"YUKARIDORUCA MAH.","zip":"74602"},{"name":"ZOPUNOĞLU MAH.","zip":"74602"}]},{"name":"ULUS","cityName":null,"quarters":[{"name":"KASIMLAR MAH.","zip":"74600"},{"name":"MEZGELLER MAH.","zip":"74600"},{"name":"SAMAT MAH.","zip":"74600"},{"name":"SAZ MAH.","zip":"74600"}]}]}]}