{"id":75,"name":"ARDAHAN","cities":[{"name":"city","districts":[{"name":"ÇILDIR","cityName":null,"quarters":[{"name":"DEDEKORKUT MAH.","zip":"75400"},{"name":"SUHARA MAH.","zip":"75400"},{"name":"UFUKTEPE MAH.","zip":"75400"},{"name":"YAKINSU MAH.","zip":"75400"},{"name":"YENİ MAH.","zip":"75400"},{"name":"YILDIRIMTEPE MAH.","zip":"75400"}]},{"name":"MERKEZKÖYLER","cityName":null,"quarters":[{"name":"AKÇAKALE KÖYÜ","zip":"75402"},{"name":"AKÇIL KÖYÜ","zip":"75402"},{"name":"AKDARI KÖYÜ","zip":"75402"},{"name":"AKKİRAZ KÖYÜ","zip":"75402"},{"name":"AŞAĞICAMBAZ KÖYÜ","zip":"75402"},{"name":"BALTALI KÖYÜ","zip":"75402"},{"name":"BAŞKÖY KÖYÜ","zip":"75402"},{"name":"DAMLICA KÖYÜ","zip":"75402"},{"name":"DİRSEKKAYA KÖYÜ","zip":"75402"},{"name":"DOĞANKAYA KÖYÜ","zip":"75402"},{"name":"ESKİBEYREHATUN KÖYÜ","zip":"75402"},{"name":"EŞMEPINAR KÖYÜ","zip":"75402"},{"name":"GÖLBELEN KÖYÜ","zip":"75402"},{"name":"GÖLEBAKAN KÖYÜ","zip":"75402"},{"name":"GÜVENOCAK KÖYÜ","zip":"75402"},{"name":"HOROZÖTTÜ MAH.","zip":"75402"},{"name":"KARAKALE KÖYÜ","zip":"75402"},{"name":"KAŞLIKAYA KÖYÜ","zip":"75402"},{"name":"KAYABEYİ KÖYÜ","zip":"75402"},{"name":"KENARBEL KÖYÜ","zip":"75402"},{"name":"KENARDERE KÖYÜ","zip":"75402"},{"name":"KOTANLI KÖYÜ","zip":"75402"},{"name":"KOTANLI YAYLA EVLERİ MAH.","zip":"75402"},{"name":"KURTKALE KÖYÜ","zip":"75402"},{"name":"KUZUKAYA KÖYÜ","zip":"75402"},{"name":"MERKEZ MAH.","zip":"75402"},{"name":"MERYEMKÖY KÖYÜ","zip":"75402"},{"name":"ÖNCÜL KÖYÜ","zip":"75402"},{"name":"ÖVÜNDÜ KÖYÜ","zip":"75402"},{"name":"SABAHOLDU KÖYÜ","zip":"75402"},{"name":"SAYMALI KÖYÜ","zip":"75402"},{"name":"SAZLISU KÖYÜ","zip":"75402"},{"name":"SEMİHAŞAKİR KÖYÜ","zip":"75402"},{"name":"TAŞDEĞİRMEN KÖYÜ","zip":"75402"},{"name":"YENİBEYREHATUN KÖYÜ","zip":"75402"},{"name":"YUKARICAMBAZ KÖYÜ","zip":"75402"}]},{"name":"DAMAL","cityName":null,"quarters":[{"name":"CUMHURİYET MAH.","zip":"75600"},{"name":"ÇAYBAŞI MAH.","zip":"75600"},{"name":"İNÖNÜ MAH.","zip":"75600"},{"name":"KALENDER MAH.","zip":"75600"},{"name":"KONUK SEVER MAH.","zip":"75600"},{"name":"MUSTAFA KEMAL MAH.","zip":"75600"},{"name":"SERHAT MAH.","zip":"75600"}]},{"name":"MERKEZKÖYLER","cityName":null,"quarters":[{"name":"DEREKÖY KÖYÜ","zip":"75602"},{"name":"DEREKÖY KÖYÜ YAYLA EVLERİ MAH.","zip":"75602"},{"name":"ESKİKILIÇ KÖYÜ","zip":"75602"},{"name":"ESKİKILIÇ KÖYÜ YAYLA EVLERİ MAH.","zip":"75602"},{"name":"İKİZDERE KÖYÜ","zip":"75602"},{"name":"İKİZDERE KÖYÜ YAYLA EVLERİ MAH.","zip":"75602"},{"name":"MERKEZ MAH.","zip":"75602"},{"name":"OTAĞLI KÖYÜ","zip":"75602"},{"name":"SEYİTÖREN KÖYÜ","zip":"75602"},{"name":"TEPEKÖY KÖYÜ","zip":"75602"},{"name":"TEPEKÖY KÖYÜ MERKEZ MAH.","zip":"75602"},{"name":"TEPEKÖY YAYLA EVLERİ MAH.","zip":"75602"},{"name":"YAYLA EVI MAH.","zip":"75602"}]},{"name":"GÖLE","cityName":null,"quarters":[{"name":"KAZIM KARABEKİR MAH.","zip":"75700"},{"name":"KUBİLAY BEY MAH.","zip":"75700"},{"name":"SALİM BEY MAH.","zip":"75700"}]},{"name":"MERKEZKÖYLER","cityName":null,"quarters":[{"name":"BALÇEŞME KÖYÜ","zip":"75702"},{"name":"BELLİTEPE KÖYÜ","zip":"75702"},{"name":"BUDAKLI KÖYÜ","zip":"75702"},{"name":"BÜYÜKALTINBULAK KÖYÜ","zip":"75702"},{"name":"ÇAKILDERE KÖYÜ","zip":"75702"},{"name":"ÇAKIRÜZÜM KÖYÜ","zip":"75702"},{"name":"ÇALIDERE KÖYÜ","zip":"75702"},{"name":"ÇARDAKLI KÖYÜ","zip":"75702"},{"name":"ÇAYIRBAŞI KÖYÜ","zip":"75702"},{"name":"ÇOBANKÖY KÖYÜ","zip":"75702"},{"name":"ÇULLU KÖYÜ","zip":"75702"},{"name":"DAMLASU KÖYÜ","zip":"75702"},{"name":"DEDEKILICI KÖYÜ","zip":"75702"},{"name":"DEDEŞEN MAH.","zip":"75702"},{"name":"DENGELİ KÖYÜ","zip":"75702"},{"name":"DEREYOLU KÖYÜ","zip":"75702"},{"name":"DÖLEKÇAYIR KÖYÜ","zip":"75702"},{"name":"DURANÇAM MAH.","zip":"75702"},{"name":"DURUCASU KÖYÜ","zip":"75702"},{"name":"ESENBOĞAZ KÖYÜ","zip":"75702"},{"name":"ESENYAYLA KÖYÜ","zip":"75702"},{"name":"ESKİDEMİRKAPI KÖYÜ","zip":"75702"},{"name":"FİLİZLİ KÖYÜ","zip":"75702"},{"name":"GEDİK KÖYÜ","zip":"75702"},{"name":"GEVRİK MAH.","zip":"75702"},{"name":"GÜLÇEŞME MAH.","zip":"75702"},{"name":"GÜLDERE MAH.","zip":"75702"},{"name":"GÜLİSTAN KÖYÜ","zip":"75702"},{"name":"GÜNORTA KÖYÜ","zip":"75702"},{"name":"HOŞDÜLBENT KÖYÜ","zip":"75702"},{"name":"KALECİK KÖYÜ","zip":"75702"},{"name":"KARLIYAZI KÖYÜ","zip":"75702"},{"name":"KAYAALTI KÖYÜ","zip":"75702"},{"name":"KORE MAH.","zip":"75702"},{"name":"KOYUNLU KÖYÜ","zip":"75702"},{"name":"KÖPRÜBAŞI MAH.","zip":"75702"},{"name":"KÖPRÜLÜ KÖYÜ","zip":"75702"},{"name":"KÖPRÜLÜ MERKEZ MAH.","zip":"75702"},{"name":"KUYTUCA KÖYÜ","zip":"75702"},{"name":"KUZUPINARI MAH.","zip":"75702"},{"name":"KÜÇÜKALTINBULAK KÖYÜ","zip":"75702"},{"name":"MOLLAHASAN KÖYÜ","zip":"75702"},{"name":"OKÇU KÖYÜ","zip":"75702"},{"name":"SAMANDÖKEN KÖYÜ","zip":"75702"},{"name":"SENEMOĞLU KÖYÜ","zip":"75702"},{"name":"SERİNÇAYIR KÖYÜ","zip":"75702"},{"name":"SÜRÜGÜDEN KÖYÜ","zip":"75702"},{"name":"TAHTAKIRAN KÖYÜ","zip":"75702"},{"name":"TELLİOĞLU KÖYÜ","zip":"75702"},{"name":"TOPTAŞ KÖYÜ","zip":"75702"},{"name":"UĞURTAŞI KÖYÜ","zip":"75702"},{"name":"YAĞMUROĞLU KÖYÜ","zip":"75702"},{"name":"YANATLI KÖYÜ","zip":"75702"},{"name":"YAVUZLAR KÖYÜ","zip":"75702"},{"name":"YELEÇLİ KÖYÜ","zip":"75702"},{"name":"YENİDEMİRKAPI KÖYÜ","zip":"75702"},{"name":"YENİKÖY KÖYÜ","zip":"75702"},{"name":"YİĞİTKONAĞI KÖYÜ","zip":"75702"}]},{"name":"HANAK","cityName":null,"quarters":[{"name":"ATALAR MAH.","zip":"75900"},{"name":"AVCILAR MAH.","zip":"75900"},{"name":"HÜRRİYET MAH.","zip":"75900"},{"name":"ORTAKENT MERKEZ MAH.","zip":"75900"},{"name":"SELAM VERDİ MAH.","zip":"75900"}]},{"name":"MERKEZKÖYLER","cityName":null,"quarters":[{"name":"ARIKONAK KÖYÜ","zip":"75902"},{"name":"AŞAĞI ÇAT MAH.","zip":"75902"},{"name":"AŞAĞIAYDERE KÖYÜ","zip":"75902"},{"name":"BAŞTOKLU KÖYÜ","zip":"75902"},{"name":"BİNBAŞAK KÖYÜ","zip":"75902"},{"name":"BÖRK KÖYÜ","zip":"75902"},{"name":"ÇATKÖY KÖYÜ","zip":"75902"},{"name":"ÇAVDARLI KÖYÜ","zip":"75902"},{"name":"ÇAYAĞZI KÖYÜ","zip":"75902"},{"name":"ÇİÇEKLİDAĞ KÖYÜ","zip":"75902"},{"name":"ÇİMLİÇAYIR KÖYÜ","zip":"75902"},{"name":"DİLEKDERE KÖYÜ","zip":"75902"},{"name":"GEÇ KÖYÜ","zip":"75902"},{"name":"GÜNEŞGÖREN KÖYÜ","zip":"75902"},{"name":"İNCEDERE KÖYÜ","zip":"75902"},{"name":"KARAKALE KÖYÜ","zip":"75902"},{"name":"KARŞI MAH.","zip":"75902"},{"name":"KIRKPINAR MAH.","zip":"75902"},{"name":"KİREÇHANE MAH.","zip":"75902"},{"name":"KOYUNPINARI KÖYÜ","zip":"75902"},{"name":"OĞUZYOLU KÖYÜ","zip":"75902"},{"name":"SAZLIÇAYIR KÖYÜ","zip":"75902"},{"name":"SERİNKUYU KÖYÜ","zip":"75902"},{"name":"SERİNKUYU YAYLASI MAH.","zip":"75902"},{"name":"SEVİMLİ KÖYÜ","zip":"75902"},{"name":"SEVİMLİ YAYLA EVLERİ MAH.","zip":"75902"},{"name":"SULAKÇAYIR KÖYÜ","zip":"75902"},{"name":"YAMAÇYOLU KÖYÜ","zip":"75902"},{"name":"YAMÇILI KÖYÜ","zip":"75902"},{"name":"YAYLA EVLERİ MAH.","zip":"75902"},{"name":"YAYLA MAH.","zip":"75902"},{"name":"YUKARI ÇAT MAH.","zip":"75902"},{"name":"YUKARIAYDERE KÖYÜ","zip":"75902"},{"name":"YÜNBÜKEN KÖYÜ","zip":"75902"}]},{"name":"ARDAHAN","cityName":null,"quarters":[{"name":"GÜRÇAYIR MAH.","zip":"75100"},{"name":"HALİLEFENDİ MAH.","zip":"75100"},{"name":"İNÖNÜ MAH.","zip":"75100"},{"name":"KAPTANPAŞA MAH.","zip":"75100"},{"name":"KARAGÖL MAH.","zip":"75100"},{"name":"YENİ MAH.","zip":"75100"}]},{"name":"HASKÖY","cityName":null,"quarters":[{"name":"AŞAĞI MAH.","zip":"75110"},{"name":"AŞAĞIKURTOĞLU KÖYÜ","zip":"75110"},{"name":"BAYRAMOĞLU KÖYÜ","zip":"75110"},{"name":"BEŞİKTAŞ KÖYÜ","zip":"75110"},{"name":"BİNBAŞAR KÖYÜ","zip":"75110"},{"name":"ÇAĞLAYIK KÖYÜ","zip":"75110"},{"name":"ÇALABAŞ KÖYÜ","zip":"75110"},{"name":"DAĞCI KÖYÜ","zip":"75110"},{"name":"DEĞİRMEN MAH.","zip":"75110"},{"name":"ESKİ MAH.","zip":"75110"},{"name":"GİRİŞ MAH.","zip":"75110"},{"name":"HACIALİ KÖYÜ","zip":"75110"},{"name":"HÖÇVAN BUCAĞI HASKÖY KÖYÜ","zip":"75110"},{"name":"KÖPRÜBAŞI MAH.","zip":"75110"},{"name":"KÖPRÜCÜK KÖYÜ","zip":"75110"},{"name":"LEHİMLİ KÖYÜ","zip":"75110"},{"name":"MERKEZ MAH.","zip":"75110"},{"name":"MEZRA MAH.","zip":"75110"},{"name":"NEBİOĞLU KÖYÜ","zip":"75110"},{"name":"ORTA MAH.","zip":"75110"},{"name":"OTBİÇEN KÖYÜ","zip":"75110"},{"name":"ÖMERAĞA KÖYÜ","zip":"75110"},{"name":"SAMANBEYLİ KÖYÜ","zip":"75110"},{"name":"TAŞLIDERE KÖYÜ","zip":"75110"},{"name":"TAZEKÖY KÖYÜ","zip":"75110"},{"name":"TUNÇOLUK KÖYÜ","zip":"75110"},{"name":"YENİ MAH.","zip":"75110"},{"name":"YUKARI MAH.","zip":"75110"},{"name":"YUKARIKURTOĞLU KÖYÜ","zip":"75110"}]},{"name":"MERKEZKÖYLER","cityName":null,"quarters":[{"name":"AĞZIPEK KÖYÜ","zip":"75002"},{"name":"ALAGÖZ KÖYÜ","zip":"75002"},{"name":"ALTAŞ KÖYÜ","zip":"75002"},{"name":"AŞAĞI MAH.","zip":"75002"},{"name":"BALIKÇILAR KÖYÜ","zip":"75002"},{"name":"BÜYÜKSÜTLÜCE KÖYÜ","zip":"75002"},{"name":"ÇAMLIÇATAK KÖYÜ","zip":"75002"},{"name":"ÇAMLIÇATAK MÜCAVİR MAH.","zip":"75002"},{"name":"ÇATALDERE KÖYÜ","zip":"75002"},{"name":"ÇERME MAH.","zip":"75002"},{"name":"ÇİFTLİK MAH.","zip":"75002"},{"name":"DEĞİRMENLİ KÖYÜ","zip":"75002"},{"name":"DERE MAH.","zip":"75002"},{"name":"GÖLGELİ KÖYÜ","zip":"75002"},{"name":"GÜZÇİMENİ KÖYÜ","zip":"75002"},{"name":"GÜZELYURT KÖYÜ","zip":"75002"},{"name":"KARTALPINAR KÖYÜ","zip":"75002"},{"name":"KARTALPINAROSB MAH.","zip":"75002"},{"name":"KAZLIKÖY KÖYÜ","zip":"75002"},{"name":"KIZILKİLİSE MAH.","zip":"75002"},{"name":"KOCAKÖY KÖYÜ","zip":"75002"},{"name":"KÜÇÜKSÜTLÜCE KÖYÜ","zip":"75002"},{"name":"MEŞEDİBİ KÖYÜ","zip":"75002"},{"name":"ORTAGEÇİT KÖYÜ","zip":"75002"},{"name":"ORTAGEÇİT MÜCAVİR MAH.","zip":"75002"},{"name":"OVAPINAR KÖYÜ","zip":"75002"},{"name":"ÖLÇEK KÖYÜ","zip":"75002"},{"name":"SARIYAMAÇ KÖYÜ","zip":"75002"},{"name":"SUGÖZE KÖYÜ","zip":"75002"},{"name":"SUGÖZE MÜCAVİR DIŞI MAH.","zip":"75002"},{"name":"SULAKYURT KÖYÜ","zip":"75002"},{"name":"SULAKYURT MÜCAVİR DIŞI MAH.","zip":"75002"},{"name":"ŞEHİRYOLU MAH.","zip":"75002"},{"name":"TEPESUYU KÖYÜ","zip":"75002"},{"name":"TULUMBA MAH.","zip":"75002"},{"name":"YAYLACIK KÖYÜ","zip":"75002"},{"name":"YAYLACIK MAH.","zip":"75002"},{"name":"YAYLACIK MÜCAVİR DIŞI MAH.","zip":"75002"},{"name":"YOKUŞDİBİ KÖYÜ","zip":"75002"},{"name":"YUKARI MAH.","zip":"75002"}]},{"name":"YANLIZÇAM","cityName":null,"quarters":[{"name":"ARDIÇDERE KÖYÜ","zip":"75210"},{"name":"BAĞDAŞEN KÖYÜ","zip":"75210"},{"name":"ÇATALKÖPRÜ KÖYÜ","zip":"75210"},{"name":"ÇEĞİLLİ KÖYÜ","zip":"75210"},{"name":"ÇETİNSU KÖYÜ","zip":"75210"},{"name":"ÇİMENKAYA KÖYÜ","zip":"75210"},{"name":"DAĞEVİ KÖYÜ","zip":"75210"},{"name":"DEDEGÜL KÖYÜ","zip":"75210"},{"name":"DERİNDERE KÖYÜ","zip":"75210"},{"name":"EDEGÜL KÖYÜ","zip":"75210"},{"name":"HASKÖY KÖYÜ","zip":"75210"},{"name":"KIRAÇ KÖYÜ","zip":"75210"},{"name":"TEPELER KÖYÜ","zip":"75210"},{"name":"UZUNOVA KÖYÜ","zip":"75210"},{"name":"YANLIZÇAM KÖYÜ","zip":"75210"}]},{"name":"MERKEZKÖYLER","cityName":null,"quarters":[{"name":"ALABALIK KÖYÜ","zip":"75802"},{"name":"ALKÖY KÖYÜ","zip":"75802"},{"name":"ARILI KÖYÜ","zip":"75802"},{"name":"ARMUTVEREN KÖY YAYLASI MAH.","zip":"75802"},{"name":"ARMUTVEREN KÖYÜ","zip":"75802"},{"name":"ASMAKONAK KÖYÜ","zip":"75802"},{"name":"ASMAKONAK YAYLASI MAH.","zip":"75802"},{"name":"AŞAĞI MAH.","zip":"75802"},{"name":"AŞIKÜZEYİR KÖY YAYLALARI MAH.","zip":"75802"},{"name":"AŞIKÜZEYİR KÖYÜ","zip":"75802"},{"name":"AŞIKZÜLALİ KÖYÜ","zip":"75802"},{"name":"BALGÖZÜ KÖYÜ","zip":"75802"},{"name":"BAYKENT KÖYÜ","zip":"75802"},{"name":"BİNBAŞIEMİNBEY KÖYÜ","zip":"75802"},{"name":"BİNBAŞIEMİNBEY KÖYÜ YAYLA EVLERİ MAH.","zip":"75802"},{"name":"CADEZE MAH.","zip":"75802"},{"name":"CAMİ MAH.","zip":"75802"},{"name":"CUMATEL MAH.","zip":"75802"},{"name":"ÇAKIRKOÇ KÖYÜ","zip":"75802"},{"name":"ÇAMBELİ KÖYÜ","zip":"75802"},{"name":"ÇAMYAZI KÖYÜ","zip":"75802"},{"name":"ÇAYIRÇİMEN KÖYÜ","zip":"75802"},{"name":"DAMALA MAH.","zip":"75802"},{"name":"DEMİRDÖVER KÖYÜ","zip":"75802"},{"name":"DERİNDERE KÖYÜ","zip":"75802"},{"name":"DERİNDERE YAYLASI MAH.","zip":"75802"},{"name":"DERİNSU MAH.","zip":"75802"},{"name":"DOĞRULAR KÖYÜ","zip":"75802"},{"name":"ERİM KÖYÜ","zip":"75802"},{"name":"GÖNÜLAÇAN KÖYÜ","zip":"75802"},{"name":"GÖNÜLAÇAN KÖYÜ YAYLASI MAH.","zip":"75802"},{"name":"GÜMÜŞKAVAK KÖYÜ","zip":"75802"},{"name":"GÜNBATAN KÖYÜ","zip":"75802"},{"name":"GÜNBATAN ÜZERİ-UREMA MAH.","zip":"75802"},{"name":"GÜNLÜCE KÖYÜ","zip":"75802"},{"name":"GÜRARMUT KÖYÜ","zip":"75802"},{"name":"HURGEŞEN MAH.","zip":"75802"},{"name":"İNCEDERE KÖYÜ","zip":"75802"},{"name":"KALEÖNÜ KÖYÜ","zip":"75802"},{"name":"KALEÖNÜ KÖYÜ YAYLALARI MAH.","zip":"75802"},{"name":"KALKANKAYA KÖYÜ","zip":"75802"},{"name":"KAPAN MAH.","zip":"75802"},{"name":"KAYADİBİ MAH.","zip":"75802"},{"name":"KAYINLI KÖYÜ","zip":"75802"},{"name":"KIR MAH.","zip":"75802"},{"name":"KIRKÖY KÖYÜ","zip":"75802"},{"name":"KISA MAH.","zip":"75802"},{"name":"KIŞLA YAYLASI MAH.","zip":"75802"},{"name":"KOLKÖY KÖYÜ","zip":"75802"},{"name":"KOPUZLU KÖYÜ","zip":"75802"},{"name":"KUMLUKOZ KÖYÜ","zip":"75802"},{"name":"KUMLUKOZ MAH.","zip":"75802"},{"name":"KURŞUNÇAVUŞ KÖYÜ","zip":"75802"},{"name":"MARZOLAT MAH.","zip":"75802"},{"name":"MERKEZ MAH.","zip":"75802"},{"name":"ORTA MAH.","zip":"75802"},{"name":"ÖZBAŞI KÖYÜ","zip":"75802"},{"name":"SARIÇİÇEK KÖYÜ","zip":"75802"},{"name":"SARIDARI KÖYÜ","zip":"75802"},{"name":"SAVAŞIR KÖYÜ","zip":"75802"},{"name":"SEKENE MAH.","zip":"75802"},{"name":"SÖĞÜTLÜKAYA KÖYÜ","zip":"75802"},{"name":"SÖĞÜTLÜKAYA KÖYÜ YAYLALARI MAH.","zip":"75802"},{"name":"SÜNGÜLÜ KÖYÜ","zip":"75802"},{"name":"SÜTOLUK KÖYÜ","zip":"75802"},{"name":"SÜTOLUK YAYLA EVLERİ MAH.","zip":"75802"},{"name":"TAŞKIRAN KÖYÜ","zip":"75802"},{"name":"TİKAS MAH.","zip":"75802"},{"name":"TÜRGÖZÜ KÖYÜ","zip":"75802"},{"name":"TÜRKGÖZÜ MAH.","zip":"75802"},{"name":"UĞURCA KÖY YAYLALARI MAH.","zip":"75802"},{"name":"UĞURCA KÖYÜ","zip":"75802"},{"name":"ULUÇAM KÖYÜ","zip":"75802"},{"name":"YAYLA EVİ MAH.","zip":"75802"},{"name":"YAYLA EVLERİ MAH.","zip":"75802"},{"name":"YAYLA MAH.","zip":"75802"},{"name":"YAYLAALTI KÖYÜ","zip":"75802"},{"name":"YENİKÖY KÖYÜ","zip":"75802"},{"name":"YOLAĞZI KÖYÜ","zip":"75802"},{"name":"YUKARI MAH.","zip":"75802"},{"name":"YURTBAŞI KÖYÜ","zip":"75802"},{"name":"YURTBEKLER KÖYÜ","zip":"75802"}]},{"name":"POSOF","cityName":null,"quarters":null}]}]}