{"id":76,"name":"IĞDIR","cities":[{"name":"city","districts":[{"name":"ARALIK","cityName":null,"quarters":[{"name":"KÖPRÜLER MAH.","zip":"76500"},{"name":"ORTAKÖY MAH.","zip":"76500"}]},{"name":"MERKEZKÖYLER","cityName":null,"quarters":[{"name":"AŞAĞIARATAN KÖYÜ","zip":"76502"},{"name":"AŞAĞIÇAMURLU KÖYÜ","zip":"76502"},{"name":"AŞAĞIÇİFTLİK KÖYÜ","zip":"76502"},{"name":"AŞAĞITOPRAKLI KÖYÜ","zip":"76502"},{"name":"BABACAN KÖYÜ","zip":"76502"},{"name":"BİLİCAN MAH.","zip":"76502"},{"name":"EMİNCE KÖYÜ","zip":"76502"},{"name":"ESENKAYA MAH.","zip":"76502"},{"name":"GÖDEKLİ KÖYÜ","zip":"76502"},{"name":"GÖMÜK MAH.","zip":"76502"},{"name":"HACIAĞA KÖYÜ","zip":"76502"},{"name":"HASANHAN KÖYÜ","zip":"76502"},{"name":"HIDIRLI MAH.","zip":"76502"},{"name":"KARAHACILI KÖYÜ","zip":"76502"},{"name":"KIRÇİÇEĞİ KÖYÜ","zip":"76502"},{"name":"KOLİKENT KÖYÜ","zip":"76502"},{"name":"ORTALAR MAH.","zip":"76502"},{"name":"RAMAZANKENT KÖYÜ","zip":"76502"},{"name":"SARAÇLI KÖYÜ","zip":"76502"},{"name":"TARLABAŞI KÖYÜ","zip":"76502"},{"name":"TAZEKÖY KÖYÜ","zip":"76502"},{"name":"TİGEM MAH.","zip":"76502"},{"name":"YENİDOĞAN KÖYÜ","zip":"76502"},{"name":"YUKARIARATAN KÖYÜ","zip":"76502"},{"name":"YUKARIÇAMURLU KÖYÜ","zip":"76502"},{"name":"YUKARIÇİFTLİK KÖYÜ","zip":"76502"},{"name":"YUKARITOPRAKLI KÖYÜ","zip":"76502"}]},{"name":"KARAKOYUNLU","cityName":null,"quarters":[{"name":"FATİH MAH.","zip":"76700"}]},{"name":"MERKEZKÖYLER","cityName":null,"quarters":[{"name":"AŞAĞIALİCAN KÖYÜ","zip":"76702"},{"name":"BAYATDOĞANŞALI KÖYÜ","zip":"76702"},{"name":"BEKİRHANLI KÖYÜ","zip":"76702"},{"name":"BULAKBAŞI KÖYÜ","zip":"76702"},{"name":"CENNETABAT KÖYÜ","zip":"76702"},{"name":"GÖKÇELİ KÖYÜ","zip":"76702"},{"name":"GÖL MAH.","zip":"76702"},{"name":"İSLAMKÖY KÖYÜ","zip":"76702"},{"name":"KACARDOĞANŞALI KÖYÜ","zip":"76702"},{"name":"KERİMBEYLİ KÖYÜ","zip":"76702"},{"name":"KOÇKIRAN KÖYÜ","zip":"76702"},{"name":"MERKEZ MAH.","zip":"76702"},{"name":"MÜRŞİTALİ KÖYÜ","zip":"76702"},{"name":"ORTA ALİCAN KÖYÜ","zip":"76702"},{"name":"SEFERKULU MAH.","zip":"76702"},{"name":"ŞIRACI KÖYÜ","zip":"76702"},{"name":"TAŞBURUN KÖYÜ","zip":"76702"},{"name":"YAZLIK KÖYÜ","zip":"76702"},{"name":"YUKARIALİCAN KÖYÜ","zip":"76702"},{"name":"ZÜLFİKARKÖY KÖYÜ","zip":"76702"}]},{"name":"IĞDIR","cityName":null,"quarters":[{"name":"ALİ KAMERLİ MAH.","zip":"76103"},{"name":"ATATÜRK MAH.","zip":"76103"},{"name":"BAĞLAR MAH.","zip":"76103"},{"name":"CUMHURİYET MAH.","zip":"76103"},{"name":"EMEK MAH.","zip":"76103"},{"name":"HAKVEYİS MAH.","zip":"76103"},{"name":"KARAAĞAÇ MAH.","zip":"76103"},{"name":"KONAKLI MAH.","zip":"76103"},{"name":"ÖZGÜR MAH.","zip":"76103"},{"name":"PİR SULTAN ABDAL MAH.","zip":"76103"},{"name":"SÖĞÜTLÜ MAH.","zip":"76103"},{"name":"TOPÇULAR MAH.","zip":"76103"},{"name":"YENİ MAH.","zip":"76103"}]},{"name":"MERKEZKÖYLER","cityName":null,"quarters":[{"name":"AĞAVER KÖYÜ","zip":"76002"},{"name":"AKYUMAK KÖYÜ","zip":"76002"},{"name":"ALİ KÖÇEK MAH.","zip":"76002"},{"name":"ALİBEYKÖY KÖYÜ","zip":"76002"},{"name":"ARALIK YOLU ÜZERİ EVLERİ MAH.","zip":"76002"},{"name":"ASMA KÖYÜ","zip":"76002"},{"name":"AŞAĞIÇARIKÇI KÖYÜ","zip":"76002"},{"name":"AŞAĞIERHACI KÖYÜ","zip":"76002"},{"name":"BAHÇELİEVLER MAH.","zip":"76002"},{"name":"BAYRAKTUTAN KÖYÜ","zip":"76002"},{"name":"BELALAK MAH.","zip":"76002"},{"name":"BENDEMURAT KÖYÜ","zip":"76002"},{"name":"BEZİRHANE MAH.","zip":"76002"},{"name":"ÇAKIRTAŞ KÖYÜ","zip":"76002"},{"name":"ÇALPALA KÖYÜ","zip":"76002"},{"name":"ÇALPALAOSB MAH.","zip":"76002"},{"name":"ÇİKO MAH.","zip":"76002"},{"name":"ÇİLLİ KÖYÜ","zip":"76002"},{"name":"ELMAGÖL KÖYÜ","zip":"76002"},{"name":"ENGİNALAN KÖYÜ","zip":"76002"},{"name":"EVCİ KÖYÜ","zip":"76002"},{"name":"FARUKTOKA MAH.","zip":"76002"},{"name":"GÜLPINAR KÖYÜ","zip":"76002"},{"name":"GÜNEŞLİ MAH.","zip":"76002"},{"name":"GÜNGÖRMEZ KÖYÜ","zip":"76002"},{"name":"HAKMEHMET KÖYÜ","zip":"76002"},{"name":"HALFELİ KÖYÜ","zip":"76002"},{"name":"HARMANDÖVEN KÖYÜ","zip":"76002"},{"name":"HOŞHABER KÖYÜ","zip":"76002"},{"name":"KADIKIŞLAK KÖYÜ","zip":"76002"},{"name":"KALEİÇİ MAH.","zip":"76002"},{"name":"KANAL YOLU MAH.","zip":"76002"},{"name":"KARAGÜNEY KÖYÜ","zip":"76002"},{"name":"KARAHİSAR MAH.","zip":"76002"},{"name":"KARAKUYU KÖYÜ","zip":"76002"},{"name":"KASIMCAN KÖYÜ","zip":"76002"},{"name":"KAVAKTEPE KÖYÜ","zip":"76002"},{"name":"KAZANCI KÖYÜ","zip":"76002"},{"name":"KERVANSARAY MAH.","zip":"76002"},{"name":"KIZILKULE MAH.","zip":"76002"},{"name":"KORHAN MAH.","zip":"76002"},{"name":"KÖPRÜKÖY MAH.","zip":"76002"},{"name":"KUÇ MAH.","zip":"76002"},{"name":"KUZUGÜDEN KÖYÜ","zip":"76002"},{"name":"KÜLLÜK KÖYÜ","zip":"76002"},{"name":"MEHMET AKİF ERSOY MAH.","zip":"76002"},{"name":"MELEKLİ KÖYÜ","zip":"76002"},{"name":"MEZRAA KÖYÜ","zip":"76002"},{"name":"MİRZA MAH.","zip":"76002"},{"name":"NAMIK KEMAL MAH.","zip":"76002"},{"name":"NECEFALİ KÖYÜ","zip":"76002"},{"name":"NİŞANKAYA KÖYÜ","zip":"76002"},{"name":"OBAKÖY KÖYÜ","zip":"76002"},{"name":"ÖRÜŞMÜŞ KÖYÜ","zip":"76002"},{"name":"ÖZVATAN MAH.","zip":"76002"},{"name":"PANİK KÖYÜ","zip":"76002"},{"name":"PINARBAŞI KÖYÜ","zip":"76002"},{"name":"SAİD NURSİ MAH.","zip":"76002"},{"name":"SARIÇOBAN KÖYÜ","zip":"76002"},{"name":"SUVEREN KÖYÜ","zip":"76002"},{"name":"ŞANLIMIRZA MAH.","zip":"76002"},{"name":"TACİRLİ KÖYÜ","zip":"76002"},{"name":"TAŞLICA KÖYÜ","zip":"76002"},{"name":"TURGUT ÖZAL MAH.","zip":"76002"},{"name":"YAYCI KÖYÜ","zip":"76002"},{"name":"YENİ MAH.","zip":"76002"},{"name":"YUKARIÇARIKCI KÖYÜ","zip":"76002"},{"name":"YUKARIERHACI MAH.","zip":"76002"},{"name":"YUNUS EMRE MAH.","zip":"76002"},{"name":"YÜZBAŞILAR KÖYÜ","zip":"76002"},{"name":"ZOR KÖYÜ","zip":"76002"},{"name":"ABBASGÖL KÖYÜ","zip":"76902"},{"name":"ADALET MAH.","zip":"76902"},{"name":"AFET KONUTLARI MAH.","zip":"76902"},{"name":"AĞABEY KÖYÜ","zip":"76902"},{"name":"AKDEĞİRMEN KÖYÜ","zip":"76902"},{"name":"AKDİZ KÖYÜ","zip":"76902"},{"name":"AKOLUK KÖYÜ","zip":"76902"},{"name":"ALÇALI MAH.","zip":"76902"},{"name":"ALHANLI KÖYÜ","zip":"76902"},{"name":"ALİKÖSE KÖYÜ","zip":"76902"},{"name":"ARSLANLI KÖYÜ","zip":"76902"},{"name":"ASTAFLI MAH.","zip":"76902"},{"name":"AŞAĞI ÇIYRIKLI KÖYÜ","zip":"76902"},{"name":"AŞAĞIAKTAŞ KÖYÜ","zip":"76902"},{"name":"AŞAĞICİVANLI KÖYÜ","zip":"76902"},{"name":"AŞAĞIKATIRLI KÖYÜ","zip":"76902"},{"name":"AŞAĞISUTAŞI KÖYÜ","zip":"76902"},{"name":"AŞIK HÜSEYİN MAH.","zip":"76902"},{"name":"BADİLLİ KÖYÜ","zip":"76902"},{"name":"BAĞLAN KÖYÜ","zip":"76902"},{"name":"BAHÇECİK KÖYÜ","zip":"76902"},{"name":"BAHÇELİMEYDAN KÖYÜ","zip":"76902"},{"name":"BAŞSİNEK MAH.","zip":"76902"},{"name":"BEYOĞLU KÖYÜ","zip":"76902"},{"name":"BOSTANLI KÖYÜ","zip":"76902"},{"name":"BOYLUCA MAH.","zip":"76902"},{"name":"BURUKSU KÖYÜ","zip":"76902"},{"name":"CANDERVİŞ KÖYÜ","zip":"76902"},{"name":"ÇIRAKLI KÖYÜ","zip":"76902"},{"name":"ÇİÇEKLİ KÖYÜ","zip":"76902"},{"name":"DEĞİRMEN MAH.","zip":"76902"},{"name":"DİPSİZ MAH.","zip":"76902"},{"name":"DOĞANYURT KÖYÜ","zip":"76902"},{"name":"EĞREKDERE KÖYÜ","zip":"76902"},{"name":"ELMALIK KÖYÜ","zip":"76902"},{"name":"GAZİLER KÖYÜ","zip":"76902"},{"name":"GEDİKLİ KÖYÜ","zip":"76902"},{"name":"GÖKTAŞ KÖYÜ","zip":"76902"},{"name":"GÜLAHMET MAH.","zip":"76902"},{"name":"GÜLLÜCE KÖYÜ","zip":"76902"},{"name":"GÜLTEPE MAH.","zip":"76902"},{"name":"GÜZELDERE KÖYÜ","zip":"76902"},{"name":"HADIMLI KÖYÜ","zip":"76902"},{"name":"HAMURKESEN KÖYÜ","zip":"76902"},{"name":"HASANKENT KÖYÜ","zip":"76902"},{"name":"İNCE KÖYÜ","zip":"76902"},{"name":"İNCESU KÖYÜ","zip":"76902"},{"name":"KALAÇA KÖYÜ","zip":"76902"},{"name":"KAMIŞLI KÖYÜ","zip":"76902"},{"name":"KANDİLLİ KÖYÜ","zip":"76902"},{"name":"KARABULAK KÖYÜ","zip":"76902"},{"name":"KARACÖREN KÖYÜ","zip":"76902"},{"name":"KARAGÜNEY MAH.","zip":"76902"},{"name":"KARAKOYUN KÖYÜ","zip":"76902"},{"name":"KARANLIK KÖYÜ","zip":"76902"},{"name":"KARATAŞ KÖYÜ","zip":"76902"},{"name":"KAYAKIŞLAK KÖYÜ","zip":"76902"},{"name":"KAYAÖREN KÖYÜ","zip":"76902"},{"name":"KAZKOPARAN KÖYÜ","zip":"76902"},{"name":"KELEKLİ KÖYÜ","zip":"76902"},{"name":"KILIÇLI KÖYÜ","zip":"76902"},{"name":"KIRKBULAK KÖYÜ","zip":"76902"},{"name":"KIZILKELEFE MAH.","zip":"76902"},{"name":"KIZNEFER KÖYÜ","zip":"76902"},{"name":"KOÇBAŞI MAH.","zip":"76902"},{"name":"KONAKLI MAH.","zip":"76902"},{"name":"KÖPRÜBAŞI KÖYÜ","zip":"76902"},{"name":"KÖPRÜKÖY MAH.","zip":"76902"},{"name":"KULA KÖYÜ","zip":"76902"},{"name":"KUMBULAK KÖYÜ","zip":"76902"},{"name":"KURUAĞAÇ KÖYÜ","zip":"76902"},{"name":"KÜÇÜKOVA KÖYÜ","zip":"76902"},{"name":"LALELİ KÖYÜ","zip":"76902"},{"name":"LEBİ MAH.","zip":"76902"},{"name":"MOLLAKAMER KÖYÜ","zip":"76902"},{"name":"NAHIRKIRAN KÖYÜ","zip":"76902"},{"name":"OMBULAK KÖYÜ","zip":"76902"},{"name":"ORTABUCAK KÖYÜ","zip":"76902"},{"name":"OSMANKÖY KÖYÜ","zip":"76902"},{"name":"PINAR MAH.","zip":"76902"},{"name":"PİRDEMİR KÖYÜ","zip":"76902"},{"name":"PİRLİ MAH.","zip":"76902"},{"name":"RAĞBET MAH.","zip":"76902"},{"name":"SARIABDAL KÖYÜ","zip":"76902"},{"name":"SARIBULAK KÖYÜ","zip":"76902"},{"name":"SOĞUKBULAK KÖYÜ","zip":"76902"},{"name":"SÖĞÜTLÜ KÖYÜ","zip":"76902"},{"name":"SÜRMELİ KÖYÜ","zip":"76902"},{"name":"TAŞKÖPRÜ MAH.","zip":"76902"},{"name":"TAŞUÇAN KÖYÜ","zip":"76902"},{"name":"TEZEKÇİ KÖYÜ","zip":"76902"},{"name":"TURABİ KÖYÜ","zip":"76902"},{"name":"TUTAK KÖYÜ","zip":"76902"},{"name":"UĞRUCA KÖYÜ","zip":"76902"},{"name":"ÜÇKAYA KÖYÜ","zip":"76902"},{"name":"ÜNLENDİ KÖYÜ","zip":"76902"},{"name":"YAĞLI KÖYÜ","zip":"76902"},{"name":"YASSIBULAK KÖYÜ","zip":"76902"},{"name":"YAYLACIK KÖYÜ","zip":"76902"},{"name":"YENİKÖY MAH.","zip":"76902"},{"name":"YUKARI KATIRLI MAH.","zip":"76902"},{"name":"YUKARI SUTAŞI MAH.","zip":"76902"},{"name":"YUKARIAKTAŞ KÖYÜ","zip":"76902"},{"name":"YUKARICİVANLI KÖYÜ","zip":"76902"},{"name":"YUKARIÇIYRIKLI MAH.","zip":"76902"},{"name":"YÜCEOTAK KÖYÜ","zip":"76902"},{"name":"ZARİFHANE MAH.","zip":"76902"}]},{"name":"TUZLUCA","cityName":null,"quarters":[{"name":"CUMHURİYET MAH.","zip":"76900"},{"name":"ORTA MAH.","zip":"76900"},{"name":"YENİ MAH.","zip":"76900"},{"name":"YUKARI MAH.","zip":"76900"}]}]}]}