{"id":78,"name":"KARABÜK","cities":[{"name":"city","districts":[{"name":"EFLANİ","cityName":null,"quarters":[{"name":"KAYADİBİ MAH.","zip":"78300"},{"name":"TABAKLAR MAH.","zip":"78300"},{"name":"YALACIK MAH.","zip":"78300"}]},{"name":"MERKEZKÖYLER","cityName":null,"quarters":[{"name":"ACIAĞAÇ KÖYÜ","zip":"78302"},{"name":"ADAY KÖYÜ","zip":"78302"},{"name":"AFŞAR KÖYÜ","zip":"78302"},{"name":"AHATLAR MAH.","zip":"78302"},{"name":"AHMETCİ MAH.","zip":"78302"},{"name":"AKBAŞ MAH.","zip":"78302"},{"name":"AKÇAKESE KÖYÜ","zip":"78302"},{"name":"AKÖREN KÖYÜ","zip":"78302"},{"name":"ALAÇAT KÖYÜ","zip":"78302"},{"name":"ALHANLAR MAH.","zip":"78302"},{"name":"ALİFAKOĞLU MAH.","zip":"78302"},{"name":"ALOĞLU MAH.","zip":"78302"},{"name":"ALPAGUT KÖYÜ","zip":"78302"},{"name":"ALT MAH.","zip":"78302"},{"name":"ASLANLAR MAH.","zip":"78302"},{"name":"AŞAĞI MAH.","zip":"78302"},{"name":"AŞAĞI MÜLAYİM MAH.","zip":"78302"},{"name":"AŞAĞIKONAK MAH.","zip":"78302"},{"name":"AVDAL MAH.","zip":"78302"},{"name":"BAĞLICA KÖYÜ","zip":"78302"},{"name":"BAHÇELİ MAH.","zip":"78302"},{"name":"BAKACAK MAH.","zip":"78302"},{"name":"BAKIRCILAR KÖYÜ","zip":"78302"},{"name":"BARAJ YANI MAH.","zip":"78302"},{"name":"BAŞİĞDİR KÖYÜ","zip":"78302"},{"name":"BAŞÖREN MAH.","zip":"78302"},{"name":"BEDİL KÖYÜ","zip":"78302"},{"name":"BERBEROĞLU MAH.","zip":"78302"},{"name":"BEYAZITOĞLU MAH.","zip":"78302"},{"name":"BEZİKLER MAH.","zip":"78302"},{"name":"BİCCO MAH.","zip":"78302"},{"name":"BODUROĞLU MAH.","zip":"78302"},{"name":"BOSTANCI KÖYÜ","zip":"78302"},{"name":"BOSTANCI MAH.","zip":"78302"},{"name":"BOSTANCILAR KÖYÜ","zip":"78302"},{"name":"BOZARMUT MAH.","zip":"78302"},{"name":"BÜRÜNCEK MAH.","zip":"78302"},{"name":"CELEPOĞLU MAH.","zip":"78302"},{"name":"CEVİZLİ MAH.","zip":"78302"},{"name":"CİLVER MAH.","zip":"78302"},{"name":"CİNGÖZ MAH.","zip":"78302"},{"name":"CORTLAR MAH.","zip":"78302"},{"name":"CÜCEY MAH.","zip":"78302"},{"name":"ÇAKIROSMANLAR MAH.","zip":"78302"},{"name":"ÇAL KÖYÜ","zip":"78302"},{"name":"ÇALIKAHVESİ MAH.","zip":"78302"},{"name":"ÇALIKOĞLU MAH.","zip":"78302"},{"name":"ÇALIŞ MAH.","zip":"78302"},{"name":"ÇALOĞLU MAH.","zip":"78302"},{"name":"ÇAMYURT KÖYÜ","zip":"78302"},{"name":"ÇAVUŞLU KÖYÜ","zip":"78302"},{"name":"ÇAY MAH.","zip":"78302"},{"name":"ÇELEBİOĞLU MAH.","zip":"78302"},{"name":"ÇELTEKLER MAH.","zip":"78302"},{"name":"ÇEMÇİ KÖYÜ","zip":"78302"},{"name":"ÇENGELLER KÖYÜ","zip":"78302"},{"name":"ÇEŞMELİ MAH.","zip":"78302"},{"name":"ÇIRAKLAR MAH.","zip":"78302"},{"name":"ÇIRAKLI MAH.","zip":"78302"},{"name":"ÇİFTÇİLER MAH.","zip":"78302"},{"name":"ÇİFTLİK MAH.","zip":"78302"},{"name":"ÇİLEKOĞLU MAH.","zip":"78302"},{"name":"ÇİRİŞLER MAH.","zip":"78302"},{"name":"ÇÖMEÇ MAH.","zip":"78302"},{"name":"ÇÖMLEKLER MAH.","zip":"78302"},{"name":"ÇÖREKLİ KÖYÜ","zip":"78302"},{"name":"ÇÖREKLİ MAH.","zip":"78302"},{"name":"ÇUKURCA MAH.","zip":"78302"},{"name":"ÇUKURGELİK KÖYÜ","zip":"78302"},{"name":"ÇUKURÖREN KÖYÜ","zip":"78302"},{"name":"ÇUKURÖREN MAH.","zip":"78302"},{"name":"DAĞCIOĞLU MAH.","zip":"78302"},{"name":"DANAŞOĞLU MAH.","zip":"78302"},{"name":"DAYILAR MAH.","zip":"78302"},{"name":"DECCALLER MAH.","zip":"78302"},{"name":"DELE MAH.","zip":"78302"},{"name":"DEMİRCİOĞLU MAH.","zip":"78302"},{"name":"DEMİRLİ KÖYÜ","zip":"78302"},{"name":"DERE MAH.","zip":"78302"},{"name":"DEREKÖY MAH.","zip":"78302"},{"name":"DERLER MAH.","zip":"78302"},{"name":"DURALLAR MAH.","zip":"78302"},{"name":"EKMEKÇİOĞLU MAH.","zip":"78302"},{"name":"EKŞİOĞLU MAH.","zip":"78302"},{"name":"EMİRLER KÖYÜ","zip":"78302"},{"name":"ESENCİK KÖYÜ","zip":"78302"},{"name":"ESENOĞLU MAH.","zip":"78302"},{"name":"EYÜPOĞLU MAH.","zip":"78302"},{"name":"FİDİKLER MAH.","zip":"78302"},{"name":"GELİCEK KÖYÜ","zip":"78302"},{"name":"GEMİCİOĞLU MAH.","zip":"78302"},{"name":"GENCOĞLU MAH.","zip":"78302"},{"name":"GOCAOĞLU MAH.","zip":"78302"},{"name":"GÖKCEOĞLU MAH.","zip":"78302"},{"name":"GÖKGÖZ KÖYÜ","zip":"78302"},{"name":"GÖLLER KÖYÜ","zip":"78302"},{"name":"GÜLABİ MAH.","zip":"78302"},{"name":"GÜNGÖREN KÖYÜ","zip":"78302"},{"name":"GÜNLÜCE KÖYÜ","zip":"78302"},{"name":"HACIOĞLU MAH.","zip":"78302"},{"name":"HACIOSMAN MAH.","zip":"78302"},{"name":"HACIŞABAN KÖYÜ","zip":"78302"},{"name":"HACİZ OĞLU MAH.","zip":"78302"},{"name":"HALAŞLAR MAH.","zip":"78302"},{"name":"HALİLOĞLU MAH.","zip":"78302"},{"name":"HALKEVLİ KÖYÜ","zip":"78302"},{"name":"HASANLAR MAH.","zip":"78302"},{"name":"HEKİMLİ MAH.","zip":"78302"},{"name":"HEREŞABANLAR MAH.","zip":"78302"},{"name":"HESLEMOĞLU MAH.","zip":"78302"},{"name":"HIDIRLI MAH.","zip":"78302"},{"name":"HÜNKERLER MAH.","zip":"78302"},{"name":"İMAMOĞLU MAH.","zip":"78302"},{"name":"İNALLAR MAH.","zip":"78302"},{"name":"İNCİĞEZ MAH.","zip":"78302"},{"name":"KABALAR MAH.","zip":"78302"},{"name":"KABAOĞLU MAH.","zip":"78302"},{"name":"KADI MAH.","zip":"78302"},{"name":"KADIOĞLU MAH.","zip":"78302"},{"name":"KAHYAOĞLU MAH.","zip":"78302"},{"name":"KAPSO MAH.","zip":"78302"},{"name":"KARABACAK MAH.","zip":"78302"},{"name":"KARACABEY MAH.","zip":"78302"},{"name":"KARACAOĞLU MAH.","zip":"78302"},{"name":"KARACAPINAR KÖYÜ","zip":"78302"},{"name":"KARAGÖZ MAH.","zip":"78302"},{"name":"KARAMEHMETOĞLU MAH.","zip":"78302"},{"name":"KARANİ MAH.","zip":"78302"},{"name":"KARAPINAR MAH.","zip":"78302"},{"name":"KARASADIK MAH.","zip":"78302"},{"name":"KARATAŞ KÖYÜ","zip":"78302"},{"name":"KARLI KÖYÜ","zip":"78302"},{"name":"KARTALLAR MAH.","zip":"78302"},{"name":"KARYAĞDILAR MAH.","zip":"78302"},{"name":"KAVAK KÖYÜ","zip":"78302"},{"name":"KAVALOĞLU MAH.","zip":"78302"},{"name":"KAVUTOĞLU MAH.","zip":"78302"},{"name":"KAYA MAH.","zip":"78302"},{"name":"KAYABAŞI MAH.","zip":"78302"},{"name":"KAYALAR MAH.","zip":"78302"},{"name":"KAYKIOĞLU MAH.","zip":"78302"},{"name":"KAYMAKCI MAH.","zip":"78302"},{"name":"KEÇO MAH.","zip":"78302"},{"name":"KELEKOĞLU MAH.","zip":"78302"},{"name":"KEMERLER MAH.","zip":"78302"},{"name":"KENANLAR MAH.","zip":"78302"},{"name":"KIRAN KÖYÜ","zip":"78302"},{"name":"KIZILCALAR MAH.","zip":"78302"},{"name":"KIZILGELİK MAH.","zip":"78302"},{"name":"KOCACIK KÖYÜ","zip":"78302"},{"name":"KOLTUCAK KÖYÜ","zip":"78302"},{"name":"KONAK MAH.","zip":"78302"},{"name":"KÖÇEK MAH.","zip":"78302"},{"name":"KÖLE MAH.","zip":"78302"},{"name":"KULOĞLU MAH.","zip":"78302"},{"name":"KURTÇULAR MAH.","zip":"78302"},{"name":"KUTLUÖREN KÖYÜ","zip":"78302"},{"name":"KÜRE MAH.","zip":"78302"},{"name":"KÜRT MAH.","zip":"78302"},{"name":"MAHMUTLAR MAH.","zip":"78302"},{"name":"MAKMARA MAH.","zip":"78302"},{"name":"MALAKCIOĞLU MAH.","zip":"78302"},{"name":"MAYLAT MAH.","zip":"78302"},{"name":"MAZLUMLAR MAH.","zip":"78302"},{"name":"MERKEZ MAH.","zip":"78302"},{"name":"MOLLA HALİL MAH.","zip":"78302"},{"name":"MOLLAOĞLU MAH.","zip":"78302"},{"name":"MURAT MAH.","zip":"78302"},{"name":"MUSLUOĞLU MAH.","zip":"78302"},{"name":"MÜFTÜLER KÖYÜ","zip":"78302"},{"name":"MÜLAYİM KÖYÜ","zip":"78302"},{"name":"MÜSEKOĞLU MAH.","zip":"78302"},{"name":"NAMAZCIOĞLU MAH.","zip":"78302"},{"name":"NUHOĞLU MAH.","zip":"78302"},{"name":"NUMANOĞLU MAH.","zip":"78302"},{"name":"ORTAKCI MAH.","zip":"78302"},{"name":"ORUÇLAR MAH.","zip":"78302"},{"name":"OSMANLAR KÖYÜ","zip":"78302"},{"name":"OVACIK MAH.","zip":"78302"},{"name":"OVAÇALIŞ KÖYÜ","zip":"78302"},{"name":"OVAŞEYHLER KÖYÜ","zip":"78302"},{"name":"ÖMEROĞLU MAH.","zip":"78302"},{"name":"ÖMÜROĞLU MAH.","zip":"78302"},{"name":"ÖRENCİK MAH.","zip":"78302"},{"name":"PARMAKSIZLAR MAH.","zip":"78302"},{"name":"PAŞA MAH.","zip":"78302"},{"name":"PAŞABEY KÖYÜ","zip":"78302"},{"name":"PINARLAR MAH.","zip":"78302"},{"name":"PINARÖZÜ KÖYÜ","zip":"78302"},{"name":"PONOOĞLU MAH.","zip":"78302"},{"name":"RAHMANLAR MAH.","zip":"78302"},{"name":"RAHMANOĞLU MAH.","zip":"78302"},{"name":"RARMAKSIZ MAH.","zip":"78302"},{"name":"SAÇAK KÖYÜ","zip":"78302"},{"name":"SAĞIROĞLU MAH.","zip":"78302"},{"name":"SAKALAR MAH.","zip":"78302"},{"name":"SARAYCIK KÖYÜ","zip":"78302"},{"name":"SARIKAYAALTI MAH.","zip":"78302"},{"name":"SARIOĞLU MAH.","zip":"78302"},{"name":"SEFERBEYOĞLU MAH.","zip":"78302"},{"name":"SEFERLER KÖYÜ","zip":"78302"},{"name":"SITLIKOĞLU MAH.","zip":"78302"},{"name":"SİNİTLER MAH.","zip":"78302"},{"name":"SİYAMOĞLU MAH.","zip":"78302"},{"name":"SOFUOĞLU MAH.","zip":"78302"},{"name":"SOĞUCAK KÖYÜ","zip":"78302"},{"name":"ŞENYURT KÖYÜ","zip":"78302"},{"name":"ŞEYHOĞLU MAH.","zip":"78302"},{"name":"ŞÜKÜRŞÜK MAH.","zip":"78302"},{"name":"TAMİŞ MAH.","zip":"78302"},{"name":"TEPE MAH.","zip":"78302"},{"name":"TERKE MAH.","zip":"78302"},{"name":"TERZİOĞLU MAH.","zip":"78302"},{"name":"TOPUZ MAH.","zip":"78302"},{"name":"TOPUZLU MAH.","zip":"78302"},{"name":"TÜRBELİOĞLU MAH.","zip":"78302"},{"name":"ULUGEÇİT KÖYÜ","zip":"78302"},{"name":"ÜST MAH.","zip":"78302"},{"name":"VELİFAKİR MAH.","zip":"78302"},{"name":"VELİŞIHLAR MAH.","zip":"78302"},{"name":"YAĞLICA KÖYÜ","zip":"78302"},{"name":"YANTİRİ MAH.","zip":"78302"},{"name":"YAYALAR MAH.","zip":"78302"},{"name":"YAZICIOĞLU MAH.","zip":"78302"},{"name":"YENİ MAH.","zip":"78302"},{"name":"YENİKÖPRÜ MAH.","zip":"78302"},{"name":"YUKARI KARLI MAH.","zip":"78302"},{"name":"YUKARI MAH.","zip":"78302"}]},{"name":"ESKİPAZAR","cityName":null,"quarters":[{"name":"İSTASYON MAH.","zip":"78400"},{"name":"KIRANKÖY MAH.","zip":"78400"},{"name":"MERKEZ MAH.","zip":"78400"},{"name":"MERMER MAH.","zip":"78400"},{"name":"YAMANLAR MAH.","zip":"78400"},{"name":"YENİ MAH.","zip":"78400"}]},{"name":"MERKEZKÖYLER","cityName":null,"quarters":[{"name":"ADİLLER KÖYÜ","zip":"78402"},{"name":"ADİLLER YAYLA EVLERİ MAH.","zip":"78402"},{"name":"AĞIRTAŞ MAH.","zip":"78402"},{"name":"AKPINAR MAH.","zip":"78402"},{"name":"AKSU MAH.","zip":"78402"},{"name":"ALAN YAYLASI MAH.","zip":"78402"},{"name":"ARSLANLAR KÖYÜ","zip":"78402"},{"name":"AŞAĞI BULDUK MAH.","zip":"78402"},{"name":"AŞAĞI KARAHASANLAR MAH.","zip":"78402"},{"name":"AŞAĞI KAZLAR MAH.","zip":"78402"},{"name":"AŞAĞI KEÇELER MAH.","zip":"78402"},{"name":"AŞAĞI SARAY MAH.","zip":"78402"},{"name":"BABALAR KÖYÜ","zip":"78402"},{"name":"BALDANLAR MAH.","zip":"78402"},{"name":"BAŞPINAR KÖYÜ","zip":"78402"},{"name":"BAYINDIR KÖYÜ","zip":"78402"},{"name":"BEKİR MAH.","zip":"78402"},{"name":"BELEN KÖYÜ","zip":"78402"},{"name":"BEYE MAH.","zip":"78402"},{"name":"BEYTARLA KÖYÜ","zip":"78402"},{"name":"BEYTARLA YAYLASI MAH.","zip":"78402"},{"name":"BONCUKLAR KÖYÜ","zip":"78402"},{"name":"BÖLME MAH.","zip":"78402"},{"name":"BÖLME YAYLA EVLERİ MAH.","zip":"78402"},{"name":"BÖLÜKÖREN KÖYÜ","zip":"78402"},{"name":"BUDAKLAR KÖYÜ","zip":"78402"},{"name":"BULDUK KÖYÜ","zip":"78402"},{"name":"BÜRNÜK MAH.","zip":"78402"},{"name":"BÜYÜKTARLA MAH.","zip":"78402"},{"name":"BÜYÜKYAYALAR KÖYÜ","zip":"78402"},{"name":"CUMADERESİ MAH.","zip":"78402"},{"name":"ÇAKMAKKAYA YAYLASI MAH.","zip":"78402"},{"name":"ÇANDIRLAR KÖYÜ","zip":"78402"},{"name":"ÇATACIK MAH.","zip":"78402"},{"name":"ÇAVUŞLAR MAH.","zip":"78402"},{"name":"ÇAY MAH.","zip":"78402"},{"name":"ÇAYLI KÖYÜ","zip":"78402"},{"name":"ÇEKİÇLER MAH.","zip":"78402"},{"name":"ÇETİÖREN MAH.","zip":"78402"},{"name":"ÇÖTLER MAH.","zip":"78402"},{"name":"DAĞCIOĞLU MAH.","zip":"78402"},{"name":"DEĞİRMENBAŞI MAH.","zip":"78402"},{"name":"DEMİRCİ MAH.","zip":"78402"},{"name":"DEMİRCİLER MAH.","zip":"78402"},{"name":"DERE MAH.","zip":"78402"},{"name":"DEREAĞIL MAH.","zip":"78402"},{"name":"DEREKÖY MAH.","zip":"78402"},{"name":"DERESEMAİL KÖYÜ","zip":"78402"},{"name":"DERESOBLAN KÖYÜ","zip":"78402"},{"name":"DOĞANCILAR KÖYÜ","zip":"78402"},{"name":"DOĞANLAR MAH.","zip":"78402"},{"name":"DOĞLACIK KÖYÜ","zip":"78402"},{"name":"DOĞUCULAR MAH.","zip":"78402"},{"name":"DOMİ MAH.","zip":"78402"},{"name":"DORUKLAR MAH.","zip":"78402"},{"name":"DURALLAR MAH.","zip":"78402"},{"name":"DURMUŞLAR MAH.","zip":"78402"},{"name":"ELELER MAH.","zip":"78402"},{"name":"EMİRLER MAH.","zip":"78402"},{"name":"EMİROĞLU MAH.","zip":"78402"},{"name":"ERİCEK MAH.","zip":"78402"},{"name":"ESERLER MAH.","zip":"78402"},{"name":"GEVREKLER MAH.","zip":"78402"},{"name":"GÖLET MAH.","zip":"78402"},{"name":"GÖMLEKÇİLER KÖYÜ","zip":"78402"},{"name":"GÖVEZ MAH.","zip":"78402"},{"name":"GÖZLÜ KÖYÜ","zip":"78402"},{"name":"GÖZYERİ MAH.","zip":"78402"},{"name":"GÜNEY MAH.","zip":"78402"},{"name":"HACI AHMETLER MAH.","zip":"78402"},{"name":"HACILAR MAH.","zip":"78402"},{"name":"HAMAMLI KÖYÜ","zip":"78402"},{"name":"HAMZALAR KÖYÜ","zip":"78402"},{"name":"HANKÖY KÖYÜ","zip":"78402"},{"name":"HASANLAR KÖYÜ","zip":"78402"},{"name":"HASLI KÖYÜ","zip":"78402"},{"name":"HATİPLER MAH.","zip":"78402"},{"name":"HAYDARLAR MAH.","zip":"78402"},{"name":"İMAMLAR MAH.","zip":"78402"},{"name":"İMANLAR KÖYÜ","zip":"78402"},{"name":"İMANLAR MÜCAVİR MAH.","zip":"78402"},{"name":"İMCİLER MAH.","zip":"78402"},{"name":"İNCEBOĞAZ KÖYÜ","zip":"78402"},{"name":"İSMETPAŞA MAH.","zip":"78402"},{"name":"İSTASYON MAH.","zip":"78402"},{"name":"KABAARMUT KÖYÜ","zip":"78402"},{"name":"KABACA MAH.","zip":"78402"},{"name":"KADILLAR MAH.","zip":"78402"},{"name":"KAPAKLI KÖYÜ","zip":"78402"},{"name":"KAPUCULAR KÖYÜ","zip":"78402"},{"name":"KARAHASANLAR KÖYÜ","zip":"78402"},{"name":"KARAKÖY MAH.","zip":"78402"},{"name":"KARAÖREN KÖYÜ","zip":"78402"},{"name":"KARAPINAR MAH.","zip":"78402"},{"name":"KARASU MAH.","zip":"78402"},{"name":"KARGIN MAH.","zip":"78402"},{"name":"KARŞI MAH.","zip":"78402"},{"name":"KARTAK MAH.","zip":"78402"},{"name":"KISAÇ MAH.","zip":"78402"},{"name":"KIZILCAÖREN MAH.","zip":"78402"},{"name":"KIZILCAPINAR MAH.","zip":"78402"},{"name":"KİRAZGİL MAH.","zip":"78402"},{"name":"KİRAZLAR MAH.","zip":"78402"},{"name":"KÖYCEĞİZ KÖYÜ","zip":"78402"},{"name":"KULAT KÖYÜ","zip":"78402"},{"name":"KURUDERE YAYLASI MAH.","zip":"78402"},{"name":"KURUKAVAK MAH.","zip":"78402"},{"name":"KURUÖZÜ MAH.","zip":"78402"},{"name":"KUZDERE MAH.","zip":"78402"},{"name":"KUZÖREN KÖYÜ","zip":"78402"},{"name":"KUZYAKA MAH.","zip":"78402"},{"name":"KÜPLÜ MAH.","zip":"78402"},{"name":"MAHMUTLAR MAH.","zip":"78402"},{"name":"MERKEZ MAH.","zip":"78402"},{"name":"MEŞECİK MAH.","zip":"78402"},{"name":"MUSABAŞOĞLU MAH.","zip":"78402"},{"name":"MUSALLAR MAH.","zip":"78402"},{"name":"MUTAFLAR MAH.","zip":"78402"},{"name":"OMURLAR MAH.","zip":"78402"},{"name":"ORTA MAH.","zip":"78402"},{"name":"ORTAKÖY KÖYÜ","zip":"78402"},{"name":"ORUÇLAR MAH.","zip":"78402"},{"name":"OVA KÖYÜ","zip":"78402"},{"name":"OZANKÖY KÖYÜ","zip":"78402"},{"name":"ÖREN MAH.","zip":"78402"},{"name":"ÖRENCİK MAH.","zip":"78402"},{"name":"PELİTCİK MAH.","zip":"78402"},{"name":"PİLAVCILAR MAH.","zip":"78402"},{"name":"SADEYAKA KÖYÜ","zip":"78402"},{"name":"SALLAR KÖYÜ","zip":"78402"},{"name":"SALMANLAR MAH.","zip":"78402"},{"name":"SARAYCIK MAH.","zip":"78402"},{"name":"SARIAHMETLER MAH.","zip":"78402"},{"name":"SEMERCİLER MAH.","zip":"78402"},{"name":"SEVİLLER MAH.","zip":"78402"},{"name":"SİNANGİL MAH.","zip":"78402"},{"name":"SOBLAN MAH.","zip":"78402"},{"name":"SOFTALAR MAH.","zip":"78402"},{"name":"SOFULAR KÖYÜ","zip":"78402"},{"name":"SÖBÜÇİMEN KÖYÜ","zip":"78402"},{"name":"SÖĞÜTLÜÇEŞME MAH.","zip":"78402"},{"name":"ŞEKERLER YAYLASI MAH.","zip":"78402"},{"name":"ŞEVKİLER KÖYÜ","zip":"78402"},{"name":"ŞIHLAR MAH.","zip":"78402"},{"name":"TAMIŞLAR KÖYÜ","zip":"78402"},{"name":"TAŞLIK MAH.","zip":"78402"},{"name":"TAŞMANLAR MAH.","zip":"78402"},{"name":"TEFEN MAH.","zip":"78402"},{"name":"TEPEKÖY MAH.","zip":"78402"},{"name":"TERZİ MAH.","zip":"78402"},{"name":"TETİKLER MAH.","zip":"78402"},{"name":"TİRYAKİOĞLU MAH.","zip":"78402"},{"name":"TOKMAKOĞLU MAH.","zip":"78402"},{"name":"TOPÇALI KÖYÜ","zip":"78402"},{"name":"TÜRKMENLER MAH.","zip":"78402"},{"name":"ÜÇEVLER KÖYÜ","zip":"78402"},{"name":"YAHYALAR MAH.","zip":"78402"},{"name":"YAKA MAH.","zip":"78402"},{"name":"YAPLAN MAH.","zip":"78402"},{"name":"YAYALAR MAH.","zip":"78402"},{"name":"YAZIBOY KÖYÜ","zip":"78402"},{"name":"YAZIKAVAK KÖYÜ","zip":"78402"},{"name":"YEMİŞLER MAH.","zip":"78402"},{"name":"YENİ MAH.","zip":"78402"},{"name":"YENİCE MAH.","zip":"78402"},{"name":"YEŞİLLER KÖYÜ","zip":"78402"},{"name":"YUKARI BULDUK MAH.","zip":"78402"},{"name":"YUKARI GÖNE MAH.","zip":"78402"},{"name":"YUKARI KARAHASANLAR MAH.","zip":"78402"},{"name":"YUKARI KAZLAR MAH.","zip":"78402"},{"name":"YUKARI KEÇELER MAH.","zip":"78402"},{"name":"YUKARI SARAY MAH.","zip":"78402"},{"name":"YUNİSLER MAH.","zip":"78402"},{"name":"YÜRECİK KÖYÜ","zip":"78402"}]},{"name":"100.YIL","cityName":null,"quarters":[{"name":"ÜNİVERSİTE MAH.","zip":"78050"}]},{"name":"BAYIR","cityName":null,"quarters":[{"name":"BAYIR MAH.","zip":"78030"},{"name":"FATİH MAH.","zip":"78030"},{"name":"KARTALTEPE MAH.","zip":"78030"},{"name":"NAMIK KEMAL MAH.","zip":"78030"},{"name":"SOĞUKSU MAH.","zip":"78030"},{"name":"YENİ MAH.","zip":"78030"}]},{"name":"BEŞBİNEVLER","cityName":null,"quarters":[{"name":"5000 EVLER BAHÇELİEVLER MAH.","zip":"78020"},{"name":"5000 EVLER CUMHURİYET MAH.","zip":"78020"}]},{"name":"KAYABAŞI","cityName":null,"quarters":[{"name":"BELENKÖY MAH.","zip":"78100"},{"name":"ÇERÇİLER MAH.","zip":"78100"},{"name":"FEVZİ ÇAKMAK MAH.","zip":"78100"},{"name":"HÜRRİYET MAH.","zip":"78100"},{"name":"KAPULLU MAH.","zip":"78100"},{"name":"KARABÜK MAH.","zip":"78100"},{"name":"KAYABAŞI MAH.","zip":"78100"},{"name":"ÖĞLEBELİ MAH.","zip":"78100"}]},{"name":"MERKEZKÖYLER","cityName":null,"quarters":[{"name":"ACIÖZ KÖYÜ","zip":"78010"},{"name":"AFET EVLERİ MAH.","zip":"78010"},{"name":"AKÇABÜK MAH.","zip":"78010"},{"name":"AKYOL MAH.","zip":"78010"},{"name":"ARICAK KÖYÜ","zip":"78010"},{"name":"ARMAĞAN MAH.","zip":"78010"},{"name":"AŞAĞI AKTAŞ MAH.","zip":"78010"},{"name":"AŞAĞI KIZILCAÖREN KÖYÜ","zip":"78010"},{"name":"AŞAĞI MAH.","zip":"78010"},{"name":"AŞAĞI YAKA MAH.","zip":"78010"},{"name":"AŞAĞIKÖY MAH.","zip":"78010"},{"name":"AYVAZ MAH.","zip":"78010"},{"name":"BAŞKÖY KÖYÜ","zip":"78010"},{"name":"BEDİRLER MAH.","zip":"78010"},{"name":"BELEN MAH.","zip":"78010"},{"name":"BENZİNLİK KÜME MAH.","zip":"78010"},{"name":"BEŞİRAĞA MAH.","zip":"78010"},{"name":"BOLKUŞ KÖYÜ","zip":"78010"},{"name":"BULAK KÖYÜ","zip":"78010"},{"name":"BULAK MÜCAVİR MAH.","zip":"78010"},{"name":"BURUNSUZ KÖYÜ","zip":"78010"},{"name":"BÜRNÜK KÖYÜ","zip":"78010"},{"name":"CAMİ SOKAK MAH.","zip":"78010"},{"name":"CAMİÖNÜ MAH.","zip":"78010"},{"name":"CEMALLER KÖYÜ","zip":"78010"},{"name":"CEMALLER MEVKİİ MAH.","zip":"78010"},{"name":"CEMELOVASI MAH.","zip":"78010"},{"name":"CİLDEKISIK MAH.","zip":"78010"},{"name":"COBU MAH.","zip":"78010"},{"name":"CUMAYANI KÖYÜ","zip":"78010"},{"name":"ÇAKILLAR MAH.","zip":"78010"},{"name":"ÇAMLIK MAH.","zip":"78010"},{"name":"ÇANDIRLAR MAH.","zip":"78010"},{"name":"ÇAY MAH.","zip":"78010"},{"name":"ÇİĞDEMLER MAH.","zip":"78010"},{"name":"ÇUKURCA KÖYÜ","zip":"78010"},{"name":"DAVUTLAR KÖYÜ","zip":"78010"},{"name":"DEĞİRMEN MAH.","zip":"78010"},{"name":"DEĞİRMENÖNÜ MAH.","zip":"78010"},{"name":"DEMİRCİLER KÖYÜ","zip":"78010"},{"name":"DEMİRCİLER MAH.","zip":"78010"},{"name":"DERE MAH.","zip":"78010"},{"name":"DEREBOYU MAH.","zip":"78010"},{"name":"DİBEK MAH.","zip":"78010"},{"name":"DURHANLAR MAH.","zip":"78010"},{"name":"DÜZÇAM KÖYÜ","zip":"78010"},{"name":"DÜZKÖY MAH.","zip":"78010"},{"name":"ELEZLER MAH.","zip":"78010"},{"name":"ERİKLER MAH.","zip":"78010"},{"name":"ESKİKÖY MAH.","zip":"78010"},{"name":"GÖKLEN (MÜCAVİR) MAH.","zip":"78010"},{"name":"GÖKLEN MAH.","zip":"78010"},{"name":"GÖLÖREN KÖYÜ","zip":"78010"},{"name":"GÖZÜR MAH.","zip":"78010"},{"name":"GÜLLÜCE MAH.","zip":"78010"},{"name":"GÜLVEREN MAH.","zip":"78010"},{"name":"GÜNEŞLİ KÖYÜ","zip":"78010"},{"name":"GÜNEY MAH.","zip":"78010"},{"name":"HACILAR MAH.","zip":"78010"},{"name":"HAMZALAR MAH.","zip":"78010"},{"name":"HARMANLAR MAH.","zip":"78010"},{"name":"HASANKÖY MAH.","zip":"78010"},{"name":"HATİPOĞLU MAH.","zip":"78010"},{"name":"HEREDAĞ MAH.","zip":"78010"},{"name":"HOROZLAR MAH.","zip":"78010"},{"name":"KABAOĞLU MAH.","zip":"78010"},{"name":"KADI KÖYÜ","zip":"78010"},{"name":"KADIOĞLU MAH.","zip":"78010"},{"name":"KADO MAH.","zip":"78010"},{"name":"KAHYALAR KÖYÜ","zip":"78010"},{"name":"KALAFATLAR MAH.","zip":"78010"},{"name":"KALAYCILAR MAH.","zip":"78010"},{"name":"KALE KÖYÜ","zip":"78010"},{"name":"KAMIŞ KÖYÜ","zip":"78010"},{"name":"KAPAKLI KÖYÜ","zip":"78010"},{"name":"KARAAĞAÇ KÖYÜ","zip":"78010"},{"name":"KARAAĞAÇ MAH.","zip":"78010"},{"name":"KARADAŞ MAH.","zip":"78010"},{"name":"KARASEYİTLER MAH.","zip":"78010"},{"name":"KARAŞAR KÖYÜ","zip":"78010"},{"name":"KARŞI MAH.","zip":"78010"},{"name":"KASTAMONU YOLU ALTI MAH.","zip":"78010"},{"name":"KAYADİBİ MAH.","zip":"78010"},{"name":"KAYI KÖYÜ","zip":"78010"},{"name":"KEMALOYMAN BÜYÜK SANAYİ SİTESİ MAH.","zip":"78010"},{"name":"KEMALOYMAN MAH.","zip":"78010"},{"name":"KEMİKLER MAH.","zip":"78010"},{"name":"KILAVUZLAR KÖYÜ","zip":"78010"},{"name":"KIRAN MAH.","zip":"78010"},{"name":"KIŞBURUNCUK MAH.","zip":"78010"},{"name":"KIŞLA MAH.","zip":"78010"},{"name":"KÖSELER MAH.","zip":"78010"},{"name":"KUMLUK MAH.","zip":"78010"},{"name":"KUZEY MAH.","zip":"78010"},{"name":"MEHTERLER KÖYÜ","zip":"78010"},{"name":"MERKEZ (MÜCAVİR) MAH.","zip":"78010"},{"name":"MERKEZ MAH.","zip":"78010"},{"name":"MEŞELİK MAH.","zip":"78010"},{"name":"MUSALLA MAH.","zip":"78010"},{"name":"MÜSELLİMA MAH.","zip":"78010"},{"name":"NİZAMYESİR MAH.","zip":"78010"},{"name":"OCASAK MAH.","zip":"78010"},{"name":"OKÇULAR MAH.","zip":"78010"},{"name":"OKUL SOKAK MAH.","zip":"78010"},{"name":"ORGANİZE SANAYİ BÖLGESİ MAH.","zip":"78010"},{"name":"ORMAN MAH.","zip":"78010"},{"name":"ORTA MAH.","zip":"78010"},{"name":"ORTACA KÖYÜ","zip":"78010"},{"name":"ORTAKÖY MAH.","zip":"78010"},{"name":"ÖDEMİŞ KÖYÜ","zip":"78010"},{"name":"ÖRENKÖY MAH.","zip":"78010"},{"name":"ÖTE KARŞI (KREDİ YURTLAR KURUMU) MAH.","zip":"78010"},{"name":"ÖTE KARŞI (ÜNİVERSİTE KAMPÜSÜ) MAH.","zip":"78010"},{"name":"ÖTE KARŞI(DERE KARŞISI) MAH.","zip":"78010"},{"name":"PAŞA MAH.","zip":"78010"},{"name":"PİRİNÇLİK MAH.","zip":"78010"},{"name":"SAİTLER KÖYÜ","zip":"78010"},{"name":"SALMANLAR KÖYÜ","zip":"78010"},{"name":"SARAY MAH.","zip":"78010"},{"name":"SARIKONAK MAH.","zip":"78010"},{"name":"SELİMA MAH.","zip":"78010"},{"name":"SEYİTLER MAH.","zip":"78010"},{"name":"SİPAHİLER KÖYÜ","zip":"78010"},{"name":"SOFULAR MAH.","zip":"78010"},{"name":"SOĞUKSU MAH.","zip":"78010"},{"name":"SÖKÜ MAH.","zip":"78010"},{"name":"SÜNDELLER MAH.","zip":"78010"},{"name":"ŞENLER KÖYÜ","zip":"78010"},{"name":"ŞIHLAR MAH.","zip":"78010"},{"name":"TANDIR KÖYÜ","zip":"78010"},{"name":"TEPE MAH.","zip":"78010"},{"name":"ÜÇBAŞ KÖYÜ","zip":"78010"},{"name":"YALNIZCA MAH.","zip":"78010"},{"name":"YAVAŞLAR MAH.","zip":"78010"},{"name":"YAYLA EVLERİ MAH.","zip":"78010"},{"name":"YAZICILAR MAH.","zip":"78010"},{"name":"YEDİ EVLER MAH.","zip":"78010"},{"name":"YENİ MAH.","zip":"78010"},{"name":"YEŞİLKÖY KÖYÜ","zip":"78010"},{"name":"YEŞİLKÖY MÜCAVİR MAH.","zip":"78010"},{"name":"YEŞİLTEPE KÖYÜ","zip":"78010"},{"name":"YILMAZLAR MAH.","zip":"78010"},{"name":"YOLBOYU MAH.","zip":"78010"},{"name":"YUKARI AKTAŞ MAH.","zip":"78010"},{"name":"YUKARI KIZILCAÖREN KÖYÜ","zip":"78010"},{"name":"YUKARI MAH.","zip":"78010"},{"name":"YUKARI TANDIR MAH.","zip":"78010"},{"name":"ZOPRAN KÖYÜ","zip":"78010"}]},{"name":"YENİŞEHİR","cityName":null,"quarters":[{"name":"ERGENEKON MAH.","zip":"78200"},{"name":"KURTULUŞ MAH.","zip":"78200"},{"name":"ŞİRİNEVLER MAH.","zip":"78200"},{"name":"YENİŞEHİR MAH.","zip":"78200"},{"name":"YEŞİL MAH.","zip":"78200"}]},{"name":"MERKEZKÖYLER","cityName":null,"quarters":[{"name":"AHMETLER KÖYÜ","zip":"78502"},{"name":"AKBIYIK MAH.","zip":"78502"},{"name":"AKCAPINAR MAH.","zip":"78502"},{"name":"AKHİSAR MAH.","zip":"78502"},{"name":"ALINCA KÖYÜ","zip":"78502"},{"name":"ALİ BEY MAH.","zip":"78502"},{"name":"ALİZAYİM MAH.","zip":"78502"},{"name":"ALKISIRAK MAH.","zip":"78502"},{"name":"AMBARÖZÜ KÖYÜ","zip":"78502"},{"name":"ASARCIK MAH.","zip":"78502"},{"name":"AŞAĞI ASARCIK MAH.","zip":"78502"},{"name":"AŞAĞI MAH.","zip":"78502"},{"name":"AVLAĞIKAYA KÖYÜ","zip":"78502"},{"name":"AYDINLAR MAH.","zip":"78502"},{"name":"BAKIRCILAR MAH.","zip":"78502"},{"name":"BAKIRCIOĞLU MAH.","zip":"78502"},{"name":"BAŞBOYUNDURUK KÖYÜ","zip":"78502"},{"name":"BEDİLLER MAH.","zip":"78502"},{"name":"BELEN KÖYÜ","zip":"78502"},{"name":"BEŞİRAĞA MAH.","zip":"78502"},{"name":"BEYDİLİ KÖYÜ","zip":"78502"},{"name":"BEYDİNİ KÖYÜ","zip":"78502"},{"name":"BİCİKLER MAH.","zip":"78502"},{"name":"BODUROĞLU KÖYÜ","zip":"78502"},{"name":"BOYALI KÖYÜ","zip":"78502"},{"name":"BÖLÜKÖREN KÖYÜ","zip":"78502"},{"name":"CEVRE MAH.","zip":"78502"},{"name":"CİNGİLLER MAH.","zip":"78502"},{"name":"ÇATAK KÖYÜ","zip":"78502"},{"name":"ÇATAKLIOĞLU MAH.","zip":"78502"},{"name":"ÇAY MAH.","zip":"78502"},{"name":"ÇOLAKOĞLU MAH.","zip":"78502"},{"name":"ÇUKUR KÖYÜ","zip":"78502"},{"name":"DABAZ ALİ MAH.","zip":"78502"},{"name":"DAĞDİBİ MAH.","zip":"78502"},{"name":"DERE MAH.","zip":"78502"},{"name":"DEVECİ MAH.","zip":"78502"},{"name":"DODAN MAH.","zip":"78502"},{"name":"DOĞANLAR KÖYÜ","zip":"78502"},{"name":"DORUK MAH.","zip":"78502"},{"name":"DÖKECEK KÖYÜ","zip":"78502"},{"name":"DÖKÜK MAH.","zip":"78502"},{"name":"DUDAŞ KÖYÜ","zip":"78502"},{"name":"EĞERCİLER MAH.","zip":"78502"},{"name":"EKİNCİK KÖYÜ","zip":"78502"},{"name":"EMİRLER MAH.","zip":"78502"},{"name":"ERDEGÖL MAH.","zip":"78502"},{"name":"ERKEÇ KÖYÜ","zip":"78502"},{"name":"ESENLER MAH.","zip":"78502"},{"name":"ESKÖY MAH.","zip":"78502"},{"name":"EYBERLER MAH.","zip":"78502"},{"name":"GANİBEYLER KÖYÜ","zip":"78502"},{"name":"GANİOĞLU MAH.","zip":"78502"},{"name":"GÖCEK MAH.","zip":"78502"},{"name":"GÖKÇEDÜZ KÖYÜ","zip":"78502"},{"name":"GÖVEZ MAH.","zip":"78502"},{"name":"GÜLEFLER MAH.","zip":"78502"},{"name":"GÜMELİK KÖYÜ","zip":"78502"},{"name":"GÜNEŞLER MAH.","zip":"78502"},{"name":"GÜNEY MAH.","zip":"78502"},{"name":"GÜNEYSAZ KÖYÜ","zip":"78502"},{"name":"HATİP MAH.","zip":"78502"},{"name":"HATİPOĞLU KÖYÜ","zip":"78502"},{"name":"HATİPOĞLU MAH.","zip":"78502"},{"name":"HATLAR MAH.","zip":"78502"},{"name":"HOCA MAH.","zip":"78502"},{"name":"HOCAOĞLU KÖPRÜSÜ MAH.","zip":"78502"},{"name":"İLYASLAR MAH.","zip":"78502"},{"name":"İMANLAR KÖYÜ","zip":"78502"},{"name":"İNCEOĞLU MAH.","zip":"78502"},{"name":"KADI MAH.","zip":"78502"},{"name":"KAHVECİ MAH.","zip":"78502"},{"name":"KARAAĞAÇ MAH.","zip":"78502"},{"name":"KARAGÖL MAH.","zip":"78502"},{"name":"KARAKOYUNLU MAH.","zip":"78502"},{"name":"KARGALI MAH.","zip":"78502"},{"name":"KARŞI MAH.","zip":"78502"},{"name":"KAVAKLAR KÖYÜ","zip":"78502"},{"name":"KAYALAR MAH.","zip":"78502"},{"name":"KEÇİLER MAH.","zip":"78502"},{"name":"KIŞLA KÖYÜ","zip":"78502"},{"name":"KIZIK MAH.","zip":"78502"},{"name":"KIZILELMA MAH.","zip":"78502"},{"name":"KOLTUK KÖYÜ","zip":"78502"},{"name":"KÖSELER MAH.","zip":"78502"},{"name":"KUZGUN MAH.","zip":"78502"},{"name":"KÜÇÜKSU KÖYÜ","zip":"78502"},{"name":"MEHMETOĞLU MAH.","zip":"78502"},{"name":"MERKEZ MAH.","zip":"78502"},{"name":"MICIK MAH.","zip":"78502"},{"name":"MURADOĞLU MAH.","zip":"78502"},{"name":"MUSALLAR MAH.","zip":"78502"},{"name":"MUSATLAR MAH.","zip":"78502"},{"name":"MUSTAFA AĞA MAH.","zip":"78502"},{"name":"ORTA MAH.","zip":"78502"},{"name":"ORTACA MAH.","zip":"78502"},{"name":"OSMANCIK MAH.","zip":"78502"},{"name":"ÖMERLER MAH.","zip":"78502"},{"name":"ÖTE GÖVEZ MAH.","zip":"78502"},{"name":"PAZARYERİ MAH.","zip":"78502"},{"name":"PEHLİVANOĞLU MAH.","zip":"78502"},{"name":"PELİTÇİK KÖYÜ","zip":"78502"},{"name":"PÜRÇÜKÖREN KÖYÜ","zip":"78502"},{"name":"SAĞIROĞLU MAH.","zip":"78502"},{"name":"SAİTLER MAH.","zip":"78502"},{"name":"SARILAR KÖYÜ","zip":"78502"},{"name":"SARIOĞLU MAH.","zip":"78502"},{"name":"SAZ MAH.","zip":"78502"},{"name":"SİNDİRE MAH.","zip":"78502"},{"name":"SOFULAR MAH.","zip":"78502"},{"name":"SOFUOĞLU KÖYÜ","zip":"78502"},{"name":"SOĞANLI KÖYÜ","zip":"78502"},{"name":"SONYA MAH.","zip":"78502"},{"name":"SÖĞÜTÇÜ MAH.","zip":"78502"},{"name":"SÜLLER MAH.","zip":"78502"},{"name":"SÜLÜK KÖYÜ","zip":"78502"},{"name":"SÜTCÜ MAH.","zip":"78502"},{"name":"SÜTÇÜLER MAH.","zip":"78502"},{"name":"ŞAMLAR KÖYÜ","zip":"78502"},{"name":"ŞAMLI MAH.","zip":"78502"},{"name":"ŞAYLAR MAH.","zip":"78502"},{"name":"TAŞOĞLU KÖYÜ","zip":"78502"},{"name":"TEPE MAH.","zip":"78502"},{"name":"TERZİ MAH.","zip":"78502"},{"name":"TOKLAR MAH.","zip":"78502"},{"name":"ÜZÜMCÜK MAH.","zip":"78502"},{"name":"YAHYALAR MAH.","zip":"78502"},{"name":"YAKA KÖYÜ","zip":"78502"},{"name":"YAYALAR MAH.","zip":"78502"},{"name":"YAYAOĞLU MAH.","zip":"78502"},{"name":"YAYLACILAR KÖYÜ","zip":"78502"},{"name":"YENİÖREN KÖYÜ","zip":"78502"},{"name":"YIĞINOT KÖYÜ","zip":"78502"},{"name":"YİĞİTLER MAH.","zip":"78502"},{"name":"YUKARI ASARCIK MAH.","zip":"78502"},{"name":"YUKARI KAYALAR MAH.","zip":"78502"},{"name":"YUKARI MAH.","zip":"78502"},{"name":"YUNUSLAR MAH.","zip":"78502"},{"name":"YUVALAR MAH.","zip":"78502"},{"name":"YÜREKÖREN KÖYÜ","zip":"78502"}]},{"name":"OVACIK","cityName":null,"quarters":null},{"name":"MERKEZKÖYLER","cityName":null,"quarters":[{"name":"ADALAR MAH.","zip":"78602"},{"name":"AĞABEY MAH.","zip":"78602"},{"name":"AĞAÇKESE KÖYÜ","zip":"78602"},{"name":"AHMET USTA MAH.","zip":"78602"},{"name":"AKKIŞLA KÖYÜ","zip":"78602"},{"name":"AKÖREN KÖYÜ","zip":"78602"},{"name":"ALABAŞ MAH.","zip":"78602"},{"name":"ALABAŞOĞLU MAH.","zip":"78602"},{"name":"ALİBEYOĞLU MAH.","zip":"78602"},{"name":"ALİFAKİ MAH.","zip":"78602"},{"name":"ALÖREN KÖYÜ","zip":"78602"},{"name":"AŞAĞI MAH.","zip":"78602"},{"name":"AŞAĞIÇİFTLİK KÖYÜ","zip":"78602"},{"name":"AŞAĞIDANA KÖYÜ","zip":"78602"},{"name":"AŞAĞIGÜNEY KÖYÜ","zip":"78602"},{"name":"AŞAĞIKUZ MAH.","zip":"78602"},{"name":"AŞCIOĞLU MAH.","zip":"78602"},{"name":"AYNUZ MAH.","zip":"78602"},{"name":"BAĞCIĞAZ KÖYÜ","zip":"78602"},{"name":"BAĞCILAR MAH.","zip":"78602"},{"name":"BAĞLICA MAH.","zip":"78602"},{"name":"BAHÇELİEVLER MAH.","zip":"78602"},{"name":"BELDERLER MAH.","zip":"78602"},{"name":"BELENGUR MAH.","zip":"78602"},{"name":"BOSTANBÜKÜ KÖYÜ","zip":"78602"},{"name":"BULAMAÇ MAH.","zip":"78602"},{"name":"CABBAR KÖYÜ","zip":"78602"},{"name":"CABBAROĞLU MAH.","zip":"78602"},{"name":"CAMCIOĞLU MAH.","zip":"78602"},{"name":"CEBECİ MAH.","zip":"78602"},{"name":"CEMALLER MAH.","zip":"78602"},{"name":"CÜCAHLI KÖYÜ","zip":"78602"},{"name":"ÇAKIL MAH.","zip":"78602"},{"name":"ÇATACIK MAH.","zip":"78602"},{"name":"ÇATAK KÖYÜ","zip":"78602"},{"name":"ÇAVUŞLAR KÖYÜ","zip":"78602"},{"name":"ÇAY MAH.","zip":"78602"},{"name":"ÇAYDÜZÜ MAH.","zip":"78602"},{"name":"ÇENGELOĞLU MAH.","zip":"78602"},{"name":"ÇERÇEN KÖYÜ","zip":"78602"},{"name":"ÇEVRİK KÖPRÜ MAH.","zip":"78602"},{"name":"ÇIRAKLAR KÖYÜ","zip":"78602"},{"name":"ÇİFTLİK MAH.","zip":"78602"},{"name":"ÇİLEKLİ MAH.","zip":"78602"},{"name":"ÇOBAN MAH.","zip":"78602"},{"name":"ÇOMAKÖREN MAH.","zip":"78602"},{"name":"DANİŞMENT KÖYÜ","zip":"78602"},{"name":"DAVUTOBASI KÖYÜ","zip":"78602"},{"name":"DEĞİRMENCİK KÖYÜ","zip":"78602"},{"name":"DEĞİRMENCİOĞLU MAH.","zip":"78602"},{"name":"DEMİRCİLER MAH.","zip":"78602"},{"name":"DERE KÖYÜ","zip":"78602"},{"name":"DERE MAH.","zip":"78602"},{"name":"DERLER MAH.","zip":"78602"},{"name":"DÜZ MAH.","zip":"78602"},{"name":"DÜZCE KÖYÜ","zip":"78602"},{"name":"EMİLLAHLI MAH.","zip":"78602"},{"name":"EMİRLER MAH.","zip":"78602"},{"name":"ESENLER MAH.","zip":"78602"},{"name":"EYCİLER MAH.","zip":"78602"},{"name":"FAZLIOĞLU MAH.","zip":"78602"},{"name":"FERHATLAR MAH.","zip":"78602"},{"name":"GEREN KÖYÜ","zip":"78602"},{"name":"GİRİŞ MAH.","zip":"78602"},{"name":"GÖKPINAR KÖYÜ","zip":"78602"},{"name":"GÖLYANI MAH.","zip":"78602"},{"name":"GÖVEREN MAH.","zip":"78602"},{"name":"GÜLÜSTANOĞLU MAH.","zip":"78602"},{"name":"GÜNDOĞAN KÖYÜ","zip":"78602"},{"name":"HABİLLER MAH.","zip":"78602"},{"name":"HACIHASAN KÖYÜ","zip":"78602"},{"name":"HACILAROBASI KÖYÜ","zip":"78602"},{"name":"HANLAR MAH.","zip":"78602"},{"name":"HARMANCIK KÖYÜ","zip":"78602"},{"name":"HARMANLAR MAH.","zip":"78602"},{"name":"HATIRLIK KÖY TARLASI MAH.","zip":"78602"},{"name":"HİSAR MAH.","zip":"78602"},{"name":"HOŞAFCIOĞLU MAH.","zip":"78602"},{"name":"İNCEÇAY KÖYÜ","zip":"78602"},{"name":"İNCEKAYA KÖYÜ","zip":"78602"},{"name":"İNÖNÜ MAH.","zip":"78602"},{"name":"İREZLİ MAH.","zip":"78602"},{"name":"KABAKÇIOĞLU MAH.","zip":"78602"},{"name":"KADIBÜKÜ KÖYÜ","zip":"78602"},{"name":"KADIOĞLU MAH.","zip":"78602"},{"name":"KARACATEPE KÖYÜ","zip":"78602"},{"name":"KARAEVLİ MAH.","zip":"78602"},{"name":"KARAPINAR KÖYÜ","zip":"78602"},{"name":"KARAŞER MAH.","zip":"78602"},{"name":"KARATAŞ MAH.","zip":"78602"},{"name":"KARAVELİOĞLU MAH.","zip":"78602"},{"name":"KARIT KÖYÜ","zip":"78602"},{"name":"KARIT MÜCAVİR MAH.","zip":"78602"},{"name":"KARŞI MAH.","zip":"78602"},{"name":"KARŞIYAKA MAH.","zip":"78602"},{"name":"KASAPOĞLU MAH.","zip":"78602"},{"name":"KAVACIK MAH.","zip":"78602"},{"name":"KEHLER KÖYÜ","zip":"78602"},{"name":"KELLER MAH.","zip":"78602"},{"name":"KETEN MAH.","zip":"78602"},{"name":"KILIÇLAR MAH.","zip":"78602"},{"name":"KIRIKLAR KÖYÜ","zip":"78602"},{"name":"KIRIKOĞLU MAH.","zip":"78602"},{"name":"KONARI KÖYÜ","zip":"78602"},{"name":"KOOPARATİF EVLERİ MAH.","zip":"78602"},{"name":"KOZCAĞIZ MAH.","zip":"78602"},{"name":"KÖPRÜBAŞI MAH.","zip":"78602"},{"name":"KÖPRÜYANI MAH.","zip":"78602"},{"name":"KURTTEPESİ MAH.","zip":"78602"},{"name":"KUŞBAŞ MAH.","zip":"78602"},{"name":"KUZYAKAHACILAR KÖYÜ","zip":"78602"},{"name":"KUZYAKAKÖSELER KÖYÜ","zip":"78602"},{"name":"KUZYAKAÖTE KÖYÜ","zip":"78602"},{"name":"MAHMUTOĞLU MAH.","zip":"78602"},{"name":"MERKEZ MAH.","zip":"78602"},{"name":"MÜSTEKLER MAH.","zip":"78602"},{"name":"NAVSAKLAR KÖYÜ","zip":"78602"},{"name":"NEBİOĞLU KÖYÜ","zip":"78602"},{"name":"OĞULÖREN KÖYÜ","zip":"78602"},{"name":"OKUYUCULAR MAH.","zip":"78602"},{"name":"ORTA MAH.","zip":"78602"},{"name":"ORTAKÖY MAH.","zip":"78602"},{"name":"OSMANSÖKÜ MAH.","zip":"78602"},{"name":"OVACUMA KÖYÜ","zip":"78602"},{"name":"OVAKÖSELER KÖYÜ","zip":"78602"},{"name":"ÖMERSOFU MAH.","zip":"78602"},{"name":"ÖRENCİK KÖYÜ","zip":"78602"},{"name":"ÖRENCİK MAH.","zip":"78602"},{"name":"ÖTE MAH.","zip":"78602"},{"name":"PAZARKESE MAH.","zip":"78602"},{"name":"PELİTÖREN KÖYÜ","zip":"78602"},{"name":"PİRCE MAH.","zip":"78602"},{"name":"RAHMANOĞLU MAH.","zip":"78602"},{"name":"SABUNCULAR MAH.","zip":"78602"},{"name":"SAĞIROĞLU MAH.","zip":"78602"},{"name":"SAKALAR MAH.","zip":"78602"},{"name":"SAKARALAN KÖYÜ","zip":"78602"},{"name":"SALLAR MAH.","zip":"78602"},{"name":"SANDALCIOĞLU MAH.","zip":"78602"},{"name":"SARIAHMETLİ KÖYÜ","zip":"78602"},{"name":"SARIOĞLU MAH.","zip":"78602"},{"name":"SARPIN MAH.","zip":"78602"},{"name":"SAT KÖYÜ","zip":"78602"},{"name":"SEYİTLER MAH.","zip":"78602"},{"name":"SIRÇALI KÖYÜ","zip":"78602"},{"name":"SİNE KÖYÜ","zip":"78602"},{"name":"SOFUOĞLU MAH.","zip":"78602"},{"name":"SORGUNCUK MAH.","zip":"78602"},{"name":"SUSUNDUK MAH.","zip":"78602"},{"name":"SÜFEYLİ MAH.","zip":"78602"},{"name":"SÜLÜKGÖLÜ MAH.","zip":"78602"},{"name":"ŞABANLAR MAH.","zip":"78602"},{"name":"ŞAMLAR MAH.","zip":"78602"},{"name":"ŞARMANLI MAH.","zip":"78602"},{"name":"TAYYİP ALTI MAH.","zip":"78602"},{"name":"TAYYİP KÖYÜ","zip":"78602"},{"name":"TİNTİN KÖYÜ","zip":"78602"},{"name":"TOKATLI KÖYÜ","zip":"78602"},{"name":"TOPRAKCUMA KÖYÜ","zip":"78602"},{"name":"TUZAKLI MAH.","zip":"78602"},{"name":"ÜÇBÖLÜK KÖYÜ","zip":"78602"},{"name":"YAĞCI MAH.","zip":"78602"},{"name":"YAĞMURLU MAH.","zip":"78602"},{"name":"YANIK MAH.","zip":"78602"},{"name":"YAYALAR MAH.","zip":"78602"},{"name":"YAYLA MAH.","zip":"78602"},{"name":"YAZIKÖY KÖYÜ","zip":"78602"},{"name":"YOLBAŞI KÖYÜ","zip":"78602"},{"name":"YÖRÜK KÖYÜ","zip":"78602"},{"name":"YUKARI ÇAVUŞLAR MAH.","zip":"78602"},{"name":"YUKARI MAH.","zip":"78602"},{"name":"YUKARIÇİFTLİK KÖYÜ","zip":"78602"},{"name":"YUKARIDANA KÖYÜ","zip":"78602"},{"name":"YUNUS EMRE MAH.","zip":"78602"},{"name":"YUSUFBAŞOĞLU MAH.","zip":"78602"}]},{"name":"SAFRANBOLU","cityName":null,"quarters":[{"name":"AŞAĞITOKATLIBAĞLARI MAH.","zip":"78600"},{"name":"ATATÜRK MAH.","zip":"78600"},{"name":"BABASULTAN MAH.","zip":"78600"},{"name":"BAĞLARBAŞI MAH.","zip":"78600"},{"name":"BARIŞ MAH.","zip":"78600"},{"name":"CAMİKEBİR MAH.","zip":"78600"},{"name":"CEMALCAYMAZ MAH.","zip":"78600"},{"name":"ÇAVUŞ MAH.","zip":"78600"},{"name":"ÇEŞME MAH.","zip":"78600"},{"name":"EMEK MAH.","zip":"78600"},{"name":"ESENTEPE MAH.","zip":"78600"},{"name":"HACIHALİL MAH.","zip":"78600"},{"name":"HÜSEYİNÇELEBİ MAH.","zip":"78600"},{"name":"İSMETPAŞA MAH.","zip":"78600"},{"name":"İZZETPAŞA MAH.","zip":"78600"},{"name":"KARAALİ MAH.","zip":"78600"},{"name":"KİRKİLLE MAH.","zip":"78600"},{"name":"MUSALLA MAH.","zip":"78600"},{"name":"YENİMAHALLE MAH.","zip":"78600"}]},{"name":"MERKEZKÖYLER","cityName":null,"quarters":[{"name":"ADA MAH.","zip":"78702"},{"name":"AHATLAR DÜZÜ MAH.","zip":"78702"},{"name":"AHATLAR MAH.","zip":"78702"},{"name":"AHÇILAR MAH.","zip":"78702"},{"name":"AKBIYIKLAR MAH.","zip":"78702"},{"name":"AKGÜLOĞLU MAH.","zip":"78702"},{"name":"AKMANLAR KÖYÜ","zip":"78702"},{"name":"AKMANLAR-1 MAH.","zip":"78702"},{"name":"ALAGÖZLER MAH.","zip":"78702"},{"name":"ALTIPARMAKLAR MAH.","zip":"78702"},{"name":"ARSLANLAR MAH.","zip":"78702"},{"name":"AŞAĞI MAH.","zip":"78702"},{"name":"ATATÜRK MAH.","zip":"78702"},{"name":"ATEŞLER MAH.","zip":"78702"},{"name":"AYANLAR -1 MAH.","zip":"78702"},{"name":"AYANLAR MAH.","zip":"78702"},{"name":"BADIRAN MAH.","zip":"78702"},{"name":"BAĞBAŞI KÖYÜ","zip":"78702"},{"name":"BAKİBEYOĞLU MAH.","zip":"78702"},{"name":"BALIKISIK MAH.","zip":"78702"},{"name":"BEKTAŞLAR MAH.","zip":"78702"},{"name":"BELEN MAH.","zip":"78702"},{"name":"BEZİRCİLER MAH.","zip":"78702"},{"name":"BOSTANCILAR MAH.","zip":"78702"},{"name":"BOŞNAKLAR MAH.","zip":"78702"},{"name":"BÖLÜKLER MAH.","zip":"78702"},{"name":"CAMİYANI MAH.","zip":"78702"},{"name":"CEMBERK MAH.","zip":"78702"},{"name":"CIBIRLAR MAH.","zip":"78702"},{"name":"CİHANBEY KÖYÜ","zip":"78702"},{"name":"CİNKAVUKLAR MAH.","zip":"78702"},{"name":"ÇAKILLAR KÖYÜ","zip":"78702"},{"name":"ÇAKILLI MAH.","zip":"78702"},{"name":"ÇAKIRLAR MAH.","zip":"78702"},{"name":"ÇAKIROĞLU MAH.","zip":"78702"},{"name":"ÇALIKLAR MAH.","zip":"78702"},{"name":"ÇAMLAR ALTI MAH.","zip":"78702"},{"name":"ÇAMLI KÖYÜ","zip":"78702"},{"name":"ÇATALLAR MAH.","zip":"78702"},{"name":"ÇAY MAH.","zip":"78702"},{"name":"ÇAYIROĞLU MAH.","zip":"78702"},{"name":"ÇELTİK KÖYÜ","zip":"78702"},{"name":"ÇENESİZLER MAH.","zip":"78702"},{"name":"ÇENGELLER MAH.","zip":"78702"},{"name":"ÇOBANLAR MAH.","zip":"78702"},{"name":"ÇOLAKLAR MAH.","zip":"78702"},{"name":"ÇÖTÜROĞLU MAH.","zip":"78702"},{"name":"ÇÖZLER MAH.","zip":"78702"},{"name":"ÇUMURYANI MAH.","zip":"78702"},{"name":"DABAZLAR MAH.","zip":"78702"},{"name":"DEĞİRMENYANI KÖYÜ","zip":"78702"},{"name":"DEMİRCİLER MAH.","zip":"78702"},{"name":"DERE MAH.","zip":"78702"},{"name":"DEREBAŞI KÖYÜ","zip":"78702"},{"name":"DOĞANCILAR MAH.","zip":"78702"},{"name":"DÖNGELLER MAH.","zip":"78702"},{"name":"DÜZYER MAH.","zip":"78702"},{"name":"EKMEKÇİLER MAH.","zip":"78702"},{"name":"ELBİYİ MAH.","zip":"78702"},{"name":"ERFEYLİ MAH.","zip":"78702"},{"name":"ERİKCİLER MAH.","zip":"78702"},{"name":"ESENKÖY KÖYÜ","zip":"78702"},{"name":"GÖKBEL KÖYÜ","zip":"78702"},{"name":"GÜNEY KÖYÜ","zip":"78702"},{"name":"HACI İSMAİLOĞLU MAH.","zip":"78702"},{"name":"HACI ÖMERLER MAH.","zip":"78702"},{"name":"HACIBEYLER MAH.","zip":"78702"},{"name":"HALAMANOĞLU MAH.","zip":"78702"},{"name":"HAMİTOĞLU MAH.","zip":"78702"},{"name":"HASANBEYLER MAH.","zip":"78702"},{"name":"HATIPLAR MAH.","zip":"78702"},{"name":"HATİPLER MAH.","zip":"78702"},{"name":"HATİPOĞLU MAH.","zip":"78702"},{"name":"HAVSALAR MAH.","zip":"78702"},{"name":"HİSAR KÖYÜ","zip":"78702"},{"name":"HÜSEYİNBEYOĞLU KÖYÜ","zip":"78702"},{"name":"IBRICAK KÖYÜ","zip":"78702"},{"name":"İBRAHİMBEYLER MAH.","zip":"78702"},{"name":"İNCEBACAKLAR MAH.","zip":"78702"},{"name":"İSTASYON MAH.","zip":"78702"},{"name":"İYİOĞLU MAH.","zip":"78702"},{"name":"KADI DEĞİRMENDÜZÜ MAH.","zip":"78702"},{"name":"KADI MEZARLIĞI MAH.","zip":"78702"},{"name":"KADIKÖY KÖYÜ","zip":"78702"},{"name":"KADIOĞLU MAH.","zip":"78702"},{"name":"KAHYALAR MAH.","zip":"78702"},{"name":"KALE KÖYÜ","zip":"78702"},{"name":"KAPAN ÇUKURU MAH.","zip":"78702"},{"name":"KAPTANLAR MAH.","zip":"78702"},{"name":"KARAGÖZLER MAH.","zip":"78702"},{"name":"KARAGÜLLER MAH.","zip":"78702"},{"name":"KARAHASANLAR KÖYÜ","zip":"78702"},{"name":"KARAKAVUZ MAH.","zip":"78702"},{"name":"KARAMAN GÜNEYİ MAH.","zip":"78702"},{"name":"KARAÖMERLER MAH.","zip":"78702"},{"name":"KARAPINAR MAH.","zip":"78702"},{"name":"KARAŞLAR MAH.","zip":"78702"},{"name":"KARŞI KADIKÖYÜ MAH.","zip":"78702"},{"name":"KAYAARKASI KÖYÜ","zip":"78702"},{"name":"KAYADİBİ KÖYÜ","zip":"78702"},{"name":"KAZANCILAR MAH.","zip":"78702"},{"name":"KESTANE MAH.","zip":"78702"},{"name":"KEYFALLAR KÖYÜ","zip":"78702"},{"name":"KIRAÇLAR MAH.","zip":"78702"},{"name":"KIRAN MAH.","zip":"78702"},{"name":"KIRIŞLAR MAH.","zip":"78702"},{"name":"KIŞLA MAH.","zip":"78702"},{"name":"KIZILTOPRAK MAH.","zip":"78702"},{"name":"KİRAZLAR MAH.","zip":"78702"},{"name":"KOCAMURATLAR MAH.","zip":"78702"},{"name":"KOCAOĞLU MAH.","zip":"78702"},{"name":"KOYMATLAR MAH.","zip":"78702"},{"name":"KÖLEMEN MAH.","zip":"78702"},{"name":"KÖROĞLU MAH.","zip":"78702"},{"name":"KÖSEOĞLU MAH.","zip":"78702"},{"name":"KÖYİÇİ MAH.","zip":"78702"},{"name":"KURTLAR MAH.","zip":"78702"},{"name":"KURU OSMANLAR MAH.","zip":"78702"},{"name":"KUZDAĞ KÖYÜ","zip":"78702"},{"name":"KÜRTOĞLU MAH.","zip":"78702"},{"name":"MANAVLAR MAH.","zip":"78702"},{"name":"MERKEZ MAH.","zip":"78702"},{"name":"MURATLAR MAH.","zip":"78702"},{"name":"NODULLAR KÖYÜ","zip":"78702"},{"name":"ONANLAR MAH.","zip":"78702"},{"name":"ORTA MAH.","zip":"78702"},{"name":"OSMANUSTAOĞLU MAH.","zip":"78702"},{"name":"ÖMERBAŞI MAH.","zip":"78702"},{"name":"ÖMEROĞLU MAH.","zip":"78702"},{"name":"ÖREN KÖYÜ","zip":"78702"},{"name":"ÖZGÜNLER MAH.","zip":"78702"},{"name":"RECEPBEYOĞLU MAH.","zip":"78702"},{"name":"SARAY KÖYÜ","zip":"78702"},{"name":"SARAYDÜZÜ MAH.","zip":"78702"},{"name":"SARIOĞLU MAH.","zip":"78702"},{"name":"SATUK KÖYÜ","zip":"78702"},{"name":"SATUK MAH.","zip":"78702"},{"name":"SERDENGEÇTİLER MAH.","zip":"78702"},{"name":"SEYİSOĞLU MAH.","zip":"78702"},{"name":"SİPAHİLER MAH.","zip":"78702"},{"name":"SOFTALAR MAH.","zip":"78702"},{"name":"SOFUOĞLU MAH.","zip":"78702"},{"name":"SOĞUK SU MAH.","zip":"78702"},{"name":"ŞEKER MAH.","zip":"78702"},{"name":"ŞENKÖY KÖYÜ","zip":"78702"},{"name":"ŞİRİNKÖY KÖYÜ","zip":"78702"},{"name":"TABAKLAR MAH.","zip":"78702"},{"name":"TACİLLER MAH.","zip":"78702"},{"name":"TAŞLI MAH.","zip":"78702"},{"name":"TAŞLIOĞLU MAH.","zip":"78702"},{"name":"TEFENLİOĞLU MAH.","zip":"78702"},{"name":"TIRPOLU MAH.","zip":"78702"},{"name":"TİR KÖYÜ","zip":"78702"},{"name":"TORHUN MAH.","zip":"78702"},{"name":"TUNUSLAR MAH.","zip":"78702"},{"name":"TÜKENMEZLER MAH.","zip":"78702"},{"name":"USTAOĞLU MAH.","zip":"78702"},{"name":"UZUNÇAM MAH.","zip":"78702"},{"name":"UZUNKUM MAH.","zip":"78702"},{"name":"UZUNLAR MAH.","zip":"78702"},{"name":"YAĞBASAN MAH.","zip":"78702"},{"name":"YAHYALAR MAH.","zip":"78702"},{"name":"YAMAÇKÖY KÖYÜ","zip":"78702"},{"name":"YARDİBİ MAH.","zip":"78702"},{"name":"YASSIÖREN MAH.","zip":"78702"},{"name":"YAZIKÖY KÖYÜ","zip":"78702"},{"name":"YENİ KOCAOĞLU MAH.","zip":"78702"},{"name":"YENİ MAH.","zip":"78702"},{"name":"YENİKÖY KÖYÜ","zip":"78702"},{"name":"YEŞİLKÖY KÖYÜ","zip":"78702"},{"name":"YILANLAR MAH.","zip":"78702"},{"name":"YİRMİBEŞOĞLU KÖYÜ","zip":"78702"},{"name":"YORTAN KÖYÜ","zip":"78702"},{"name":"YUKARI MAH.","zip":"78702"},{"name":"YUSUFBEYOĞLU MAH.","zip":"78702"},{"name":"ZAİMİNDORUK MAH.","zip":"78702"}]},{"name":"YENİCE","cityName":null,"quarters":[{"name":"FATİH MAH.","zip":"78700"},{"name":"İSMETPAŞA MAH.","zip":"78700"},{"name":"KALAYCILAR MAH.","zip":"78700"},{"name":"KARAKIRIKLAR MAH.","zip":"78700"},{"name":"KARŞIYAKA MAH.","zip":"78700"},{"name":"MENDERES MAH.","zip":"78700"},{"name":"MERKEZ MAH.","zip":"78700"},{"name":"ÖZAL MAH.","zip":"78700"},{"name":"YİRMİBEŞLER MAH.","zip":"78700"}]}]}]}