{"id":79,"name":"KİLİS","cities":[{"name":"city","districts":[{"name":"ELBEYLİ","cityName":null,"quarters":[{"name":"YALÇIN NANE MAH.","zip":"79500"}]},{"name":"MERKEZKÖYLER","cityName":null,"quarters":[{"name":"ALAHAN KÖYÜ","zip":"79502"},{"name":"AŞAĞIBEYLERBEYİ KÖYÜ","zip":"79502"},{"name":"AYNAFAR MAH.","zip":"79502"},{"name":"BEŞİRİYE KÖYÜ","zip":"79502"},{"name":"BULDUM MAH.","zip":"79502"},{"name":"CİRİS MAH.","zip":"79502"},{"name":"ÇANGALLI KÖYÜ","zip":"79502"},{"name":"ÇARDAK MAH.","zip":"79502"},{"name":"ÇILDIROBA KÖYÜ","zip":"79502"},{"name":"ÇİFTLİK MAH.","zip":"79502"},{"name":"DELHEMİ MAH.","zip":"79502"},{"name":"ERİKLİYAYLA KÖYÜ","zip":"79502"},{"name":"GEÇERLİ KÖYÜ","zip":"79502"},{"name":"GÖKTEPE MAH.","zip":"79502"},{"name":"GÜNECE KÖYÜ","zip":"79502"},{"name":"GÜVENDİK KÖYÜ","zip":"79502"},{"name":"HACI ŞAKİR ÇİFTLİĞİ MAH.","zip":"79502"},{"name":"HAVUZLUÇAM KÖYÜ","zip":"79502"},{"name":"İKİZKAYA MAH.","zip":"79502"},{"name":"KALBURSAİT KÖYÜ","zip":"79502"},{"name":"KAPLANLAR MAH.","zip":"79502"},{"name":"KARACURUN KÖYÜ","zip":"79502"},{"name":"KARAÇAĞIL KÖYÜ","zip":"79502"},{"name":"KESMELİK MAH.","zip":"79502"},{"name":"KILCAN KÖYÜ","zip":"79502"},{"name":"KUMSURUN MAH.","zip":"79502"},{"name":"KÜÇÜKBIYKIR MAH.","zip":"79502"},{"name":"MAHLİÖREN MAH.","zip":"79502"},{"name":"MERCANLI KÖYÜ","zip":"79502"},{"name":"ÖZKANLAR MAH.","zip":"79502"},{"name":"SAĞLICAK KÖYÜ","zip":"79502"},{"name":"SALHAN MAH.","zip":"79502"},{"name":"SARIEVLER MAH.","zip":"79502"},{"name":"SEKİZLER MAH.","zip":"79502"},{"name":"SELMİNCİK KÖYÜ","zip":"79502"},{"name":"SOLAK MAH.","zip":"79502"},{"name":"TAŞLIBAKAR KÖYÜ","zip":"79502"},{"name":"TİLKİP MAH.","zip":"79502"},{"name":"TURANLI KÖYÜ","zip":"79502"},{"name":"UÇARLAR MAH.","zip":"79502"},{"name":"UĞURLAR KÖYÜ","zip":"79502"},{"name":"UZUNALİ MAH.","zip":"79502"},{"name":"YAĞIZKÖY KÖYÜ","zip":"79502"},{"name":"YAZILIBAHAR MAH.","zip":"79502"},{"name":"YENİDEĞİRMEN KÖYÜ","zip":"79502"},{"name":"YEŞİLYURT MAH.","zip":"79502"},{"name":"YILANLI MAH.","zip":"79502"}]},{"name":"KİLİS","cityName":null,"quarters":[{"name":"AKPINAR MAH.","zip":"79090"},{"name":"ALBAY İBRAHİM KARAOĞLANOĞLU MAH.","zip":"79090"},{"name":"ALTINÜZÜM MAH.","zip":"79090"},{"name":"ASLAN MAH.","zip":"79090"},{"name":"AŞIT MAH.","zip":"79090"},{"name":"ATATÜRK MAH.","zip":"79090"},{"name":"BARIŞ MAH.","zip":"79090"},{"name":"BİLALİ HABEŞ MAH.","zip":"79090"},{"name":"BÖLÜK MAH.","zip":"79090"},{"name":"BÜYÜKKÜTAH MAH.","zip":"79090"},{"name":"CANPOLAT PAŞA MAH.","zip":"79090"},{"name":"CUMHURİYET MAH.","zip":"79090"},{"name":"ÇAYLAK MAH.","zip":"79090"},{"name":"DEMİRCİLER MAH.","zip":"79090"},{"name":"DEVECİLER MAH.","zip":"79090"},{"name":"DOĞAN GÜREŞ PAŞA MAH.","zip":"79090"},{"name":"EBULÜLE MAH.","zip":"79090"},{"name":"EKREM ÇETİN MAH.","zip":"79090"},{"name":"FATİH SULTAN MEHMET MAH.","zip":"79090"},{"name":"GAZİLER MAH.","zip":"79090"},{"name":"HACI GÜMÜŞ MAH.","zip":"79090"},{"name":"HACI İLYAS MAH.","zip":"79090"},{"name":"HAKVERDİ MAH.","zip":"79090"},{"name":"HASAN KAMİL DEMİRBAŞ MAH.","zip":"79090"},{"name":"HELVACIOĞLU MAH.","zip":"79090"},{"name":"HİNDİOĞLU MAH.","zip":"79090"},{"name":"HÜRRİYET MAH.","zip":"79090"},{"name":"İNNAPLI KÜTAH MAH.","zip":"79090"},{"name":"İSLAMBEY MAH.","zip":"79090"},{"name":"İSMET PAŞA MAH.","zip":"79090"},{"name":"İZZETTİN İYİGÜN PAŞA MAH.","zip":"79090"},{"name":"KANUNİ SULTAN SÜLEYMAN MAH.","zip":"79090"},{"name":"KARAALİ MAH.","zip":"79090"},{"name":"KARTALBEY MAH.","zip":"79090"},{"name":"KAZIM KARABEKİR MAH.","zip":"79090"},{"name":"KETENCİLER MAH.","zip":"79090"},{"name":"MARAŞAL FEVZİ ÇAKMAK MAH.","zip":"79090"},{"name":"MEHMET RIFAT KAZANCIOĞLU MAH.","zip":"79090"},{"name":"MEHMET SANLI MAH.","zip":"79090"},{"name":"MERCİDABIK MAH.","zip":"79090"},{"name":"MEŞETLİK MAH.","zip":"79090"},{"name":"MIHALİ MAH.","zip":"79090"},{"name":"MUALLİM RIFAT BİLGE MAH.","zip":"79090"},{"name":"MULLAHAMİT MAH.","zip":"79090"},{"name":"MÜCAHİTLER MAH.","zip":"79090"},{"name":"MÜSLÜMANBEY MAH.","zip":"79090"},{"name":"NACAROĞLU MAH.","zip":"79090"},{"name":"NAMIK KEMAL MAH.","zip":"79090"},{"name":"NAMIK ÜNLER PAŞA MAH.","zip":"79090"},{"name":"NECMETTİN ERBAKAN MAH.","zip":"79090"},{"name":"NEDİM ÖKMEN MAH.","zip":"79090"},{"name":"NURETTİN MAH.","zip":"79090"},{"name":"OKÇULAR MAH.","zip":"79090"},{"name":"ORGANİZE SANAYİ BÖLGESİ MAH.","zip":"79090"},{"name":"OSMAN GAZİ MAH.","zip":"79090"},{"name":"OYLUM MAH.","zip":"79090"},{"name":"ÖNCÜ PINAR MAH.","zip":"79090"},{"name":"POLAT PAŞA MAH.","zip":"79090"},{"name":"SARAÇ MEHMET ÇAVUŞ MAH.","zip":"79090"},{"name":"ŞEHİT SAKIP MAH.","zip":"79090"},{"name":"ŞEHİTLER MAH.","zip":"79090"},{"name":"ŞIH ABDULLAH MAH.","zip":"79090"},{"name":"ŞIH AHMET MAH.","zip":"79090"},{"name":"ŞIH MEHMET MAH.","zip":"79090"},{"name":"ŞIHLAR MAH.","zip":"79090"},{"name":"ŞÖRHABİL MAH.","zip":"79090"},{"name":"TABAKHANE MAH.","zip":"79090"},{"name":"TEKYE MAH.","zip":"79090"},{"name":"TIRIKLI MAH.","zip":"79090"},{"name":"VAİZ MAH.","zip":"79090"},{"name":"YAŞAR AKTÜRK MAH.","zip":"79090"},{"name":"YAVUZ SULTAN SELİM MAH.","zip":"79090"},{"name":"YEDİ ARALIK MAH.","zip":"79090"},{"name":"YENİ MAH.","zip":"79090"},{"name":"ZEYTİNLİ MAH.","zip":"79090"}]},{"name":"MERKEZKÖYLER","cityName":null,"quarters":[{"name":"ACAR MÜCAVİR MAH.","zip":"79002"},{"name":"AKÇABAĞLAR KÖYÜ","zip":"79002"},{"name":"AKDİLEK MAH.","zip":"79002"},{"name":"AKINCI KÖYÜ","zip":"79002"},{"name":"ALATEPE KÖYÜ","zip":"79002"},{"name":"ALİ GÜN MAH.","zip":"79002"},{"name":"ARPAKESMEZ KÖYÜ","zip":"79002"},{"name":"AYBASTI MAH.","zip":"79002"},{"name":"BAŞMAĞARA KÖYÜ","zip":"79002"},{"name":"BAYRAMLI MAH.","zip":"79002"},{"name":"BEŞENLİ KÖYÜ","zip":"79002"},{"name":"BEŞİKKAYA KÖYÜ","zip":"79002"},{"name":"BEŞİKKAYA MÜCAVİR MAH.","zip":"79002"},{"name":"BİLAL HABEŞİ MAH.","zip":"79002"},{"name":"BOZCAYAZI KÖYÜ","zip":"79002"},{"name":"BUĞDAYLI MAH.","zip":"79002"},{"name":"BULAMAÇLI KÖYÜ","zip":"79002"},{"name":"BÜYÜKKONAK KÖYÜ","zip":"79002"},{"name":"CERİTLER KÖYÜ","zip":"79002"},{"name":"ÇAKKALLIPINAR KÖYÜ","zip":"79002"},{"name":"ÇALKAYA KÖYÜ","zip":"79002"},{"name":"ÇERÇİLİ KÖYÜ","zip":"79002"},{"name":"ÇİLORLAR MAH.","zip":"79002"},{"name":"ÇÖRTEN KÖYÜ","zip":"79002"},{"name":"ÇUKUROBA KÖYÜ","zip":"79002"},{"name":"DELİÇAY KÖYÜ","zip":"79002"},{"name":"DELİOSMAN KÖYÜ","zip":"79002"},{"name":"DEMİRCİLER KÖYÜ","zip":"79002"},{"name":"DEMİRIŞIK KÖYÜ","zip":"79002"},{"name":"DOĞANÇAY KÖYÜ","zip":"79002"},{"name":"DOĞANLI MAH.","zip":"79002"},{"name":"DÖLEK KÖYÜ","zip":"79002"},{"name":"DURUCA KÖYÜ","zip":"79002"},{"name":"ELBEREN MAH.","zip":"79002"},{"name":"GENÇTEPE MAH.","zip":"79002"},{"name":"GÖKTAŞ KÖYÜ","zip":"79002"},{"name":"GÖZKAYA KÖYÜ","zip":"79002"},{"name":"GÜLBABA KÖYÜ","zip":"79002"},{"name":"GÜMÜŞSUYU KÖYÜ","zip":"79002"},{"name":"GÜNEŞLİ KÖYÜ","zip":"79002"},{"name":"GÜVENLİ KÖYÜ","zip":"79002"},{"name":"HAPSE MAH.","zip":"79002"},{"name":"HICIPOĞLU KÖYÜ","zip":"79002"},{"name":"HİSAR KÖYÜ","zip":"79002"},{"name":"HİZOLAR MAH.","zip":"79002"},{"name":"HÜYÜKLÜ MAH.","zip":"79002"},{"name":"İNANLI KÖYÜ","zip":"79002"},{"name":"KAPDEĞİRMENİ KÖYÜ","zip":"79002"},{"name":"KARACAÖREN KÖYÜ","zip":"79002"},{"name":"KARAÇAVUŞ KÖYÜ","zip":"79002"},{"name":"KARAKOYUNLU MAH.","zip":"79002"},{"name":"KARAMELİK KÖYÜ","zip":"79002"},{"name":"KİLOLAR MAH.","zip":"79002"},{"name":"KOCABEYLİ KÖYÜ","zip":"79002"},{"name":"KUSKUNKIRAN KÖYÜ","zip":"79002"},{"name":"KUZUİNİ KÖYÜ","zip":"79002"},{"name":"KÜÇÜK MISIRCIK MAH.","zip":"79002"},{"name":"KÜÇÜKKONAK KÖYÜ","zip":"79002"},{"name":"KÜÇÜKMAYA MAH.","zip":"79002"},{"name":"KÜPLÜCE KÖYÜ","zip":"79002"},{"name":"KÜRTÜNCÜ MAH.","zip":"79002"},{"name":"MAĞARACIK KÖYÜ","zip":"79002"},{"name":"MEMETALİ MAH.","zip":"79002"},{"name":"MISIRCIK KÖYÜ","zip":"79002"},{"name":"NARLICA KÖYÜ","zip":"79002"},{"name":"ORUÇLU MAH.","zip":"79002"},{"name":"OTLUCA MAH.","zip":"79002"},{"name":"SAATLİ KÖYÜ","zip":"79002"},{"name":"SAPKANLI MAH.","zip":"79002"},{"name":"SİNAN PAŞA MAH.","zip":"79002"},{"name":"SÜNGÜTEPE KÖYÜ","zip":"79002"},{"name":"TAHTALI KÖYÜ","zip":"79002"},{"name":"TANBIRALI KÖYÜ","zip":"79002"},{"name":"TAŞPINAR MAH.","zip":"79002"},{"name":"TOPDAĞI KÖYÜ","zip":"79002"},{"name":"UZUNLU KÖYÜ","zip":"79002"},{"name":"YAMAÇ BEŞENLİ MAH.","zip":"79002"},{"name":"YAVUZ MAH.","zip":"79002"},{"name":"YAVUZLU KÖYÜ","zip":"79002"},{"name":"YUKARI BEŞENLİ MAH.","zip":"79002"},{"name":"AĞCAKENT KÖYÜ","zip":"79602"},{"name":"AŞAĞIBADEMLİ KÖYÜ","zip":"79602"},{"name":"AŞAĞIKALECİK KÖYÜ","zip":"79602"},{"name":"BALIKLI KÖYÜ","zip":"79602"},{"name":"BELENTEPE KÖYÜ","zip":"79602"},{"name":"BOGAZKİRİM MAH.","zip":"79602"},{"name":"BOZKAYA KÖYÜ","zip":"79602"},{"name":"ÇAKMAK MAH.","zip":"79602"},{"name":"ÇAYIRALTI KÖYÜ","zip":"79602"},{"name":"ÇINARKÖY KÖYÜ","zip":"79602"},{"name":"DORUCAK KÖYÜ","zip":"79602"},{"name":"DUTLUCA KÖYÜ","zip":"79602"},{"name":"FERİCEK KÖYÜ","zip":"79602"},{"name":"FIRLAKLI KÖYÜ","zip":"79602"},{"name":"GEÇİTBOYU KÖYÜ","zip":"79602"},{"name":"GÖKMUSA KÖYÜ","zip":"79602"},{"name":"GÖVCELİ MAH.","zip":"79602"},{"name":"GÖZLÜCE KÖYÜ","zip":"79602"},{"name":"GÜNDEĞER KÖYÜ","zip":"79602"},{"name":"HACILAR KÖYÜ","zip":"79602"},{"name":"HASANCALI KÖYÜ","zip":"79602"},{"name":"HAYDARLAR KÖYÜ","zip":"79602"},{"name":"HÜSEYİNOĞLU KÖYÜ","zip":"79602"},{"name":"KARADUT KÖYÜ","zip":"79602"},{"name":"KARBEYAZ KÖYÜ","zip":"79602"},{"name":"KAYAPINAR KÖYÜ","zip":"79602"},{"name":"KAYNAKLI KÖYÜ","zip":"79602"},{"name":"KIZILKENT KÖYÜ","zip":"79602"},{"name":"KOCALAR MAH.","zip":"79602"},{"name":"KOÇCAĞIZ KÖYÜ","zip":"79602"},{"name":"KOLPINAR KÖYÜ","zip":"79602"},{"name":"KOZLUBAĞ KÖYÜ","zip":"79602"},{"name":"KÖRAHMETHÜYÜĞÜ KÖYÜ","zip":"79602"},{"name":"KURTARAN KÖYÜ","zip":"79602"},{"name":"KÜRTÜNCÜ KÖYÜ","zip":"79602"},{"name":"MADENYOLU KÖYÜ","zip":"79602"},{"name":"ORTAOBA MAH.","zip":"79602"},{"name":"ÖTEKİOBA MAH.","zip":"79602"},{"name":"SABANLI KÖYÜ","zip":"79602"},{"name":"SEYDOLAR MAH.","zip":"79602"},{"name":"ŞENLİKÇE KÖYÜ","zip":"79602"},{"name":"TAHTALIKARADUT KÖYÜ","zip":"79602"},{"name":"TAT GEMRİGİ MAH.","zip":"79602"},{"name":"TOKAÇGEMRİĞİ KÖYÜ","zip":"79602"},{"name":"TOPALLAR KÖYÜ","zip":"79602"},{"name":"UGURCA MAH.","zip":"79602"},{"name":"UĞURTEPE KÖYÜ","zip":"79602"},{"name":"ÜÇEVLER MAH.","zip":"79602"},{"name":"ÜÇPINAR KÖYÜ","zip":"79602"},{"name":"YASTICA KÖYÜ","zip":"79602"},{"name":"YATAĞAN MAH.","zip":"79602"},{"name":"YEDİGÖZ KÖYÜ","zip":"79602"},{"name":"YEŞİLOBA KÖYÜ","zip":"79602"},{"name":"YUKARI MADENYOLU MAH.","zip":"79602"},{"name":"YUKARIBADEMLİ KÖYÜ","zip":"79602"},{"name":"YUKARIKALECİK KÖYÜ","zip":"79602"},{"name":"YUVABAŞI KÖYÜ","zip":"79602"},{"name":"ZEYTİNBAĞI KÖYÜ","zip":"79602"}]},{"name":"MUSABEYLİ","cityName":null,"quarters":[{"name":"MURATHÜYÜĞÜ MAH.","zip":"79600"},{"name":"PINAR MAH.","zip":"79600"}]},{"name":"MERKEZKÖYLER","cityName":null,"quarters":[{"name":"BEKTAŞOĞLU KÖYÜ","zip":"79702"},{"name":"BELENÖZÜ KÖYÜ","zip":"79702"},{"name":"BOZKAYA MAH.","zip":"79702"},{"name":"ÇELİK MAH.","zip":"79702"},{"name":"DÜMBÜLLÜ KÖYÜ","zip":"79702"},{"name":"EĞLEN KÖYÜ","zip":"79702"},{"name":"EVRENTEPE MAH.","zip":"79702"},{"name":"EVRENTEPE YOLU MAH.","zip":"79702"},{"name":"KARACURUN MAH.","zip":"79702"},{"name":"KARAPINAR MAH.","zip":"79702"},{"name":"KIZILGÖL KÖYÜ","zip":"79702"},{"name":"KOÇLAR MAH.","zip":"79702"},{"name":"ÖMERCİK KÖYÜ","zip":"79702"},{"name":"ÖMEROĞLU KÖYÜ","zip":"79702"},{"name":"POLATBEY KÖYÜ","zip":"79702"},{"name":"SÖĞÜTLÜ KÖYÜ","zip":"79702"},{"name":"TAŞLIALAN KÖYÜ","zip":"79702"},{"name":"TEKDAM MAH.","zip":"79702"},{"name":"ÜRÜNLÜ KÖYÜ","zip":"79702"},{"name":"YENİKÖY MAH.","zip":"79702"},{"name":"YENİYAPAN KÖYÜ","zip":"79702"},{"name":"YENİYAPAN MAH.","zip":"79702"},{"name":"YENİYURT KÖYÜ","zip":"79702"},{"name":"YEŞİLPINAR KÖYÜ","zip":"79702"},{"name":"YILANCA KÖYÜ","zip":"79702"}]},{"name":"POLATELİ","cityName":null,"quarters":[{"name":"CUMHURİYET MAH.","zip":"79700"},{"name":"EKREM ÇETİN MAH.","zip":"79700"},{"name":"KAYMAKAM KÜRŞAT AĞCA MAH.","zip":"79700"},{"name":"SOSYAL KONUTLAR MAH.","zip":"79700"},{"name":"ŞEHİT ALİ MAH.","zip":"79700"}]}]}]}