{"id":8,"name":"ARTVİN","cities":[{"name":"city","districts":[{"name":"MERKEZKÖYLER","cityName":null,"quarters":[{"name":"AĞAGİLİN MAH.","zip":"08390"},{"name":"AHALT MAH.","zip":"08390"},{"name":"AHMET KAYAGİL MAH.","zip":"08390"},{"name":"AKARSU KÖYÜ","zip":"08390"},{"name":"ALİAĞAGİL MAH.","zip":"08390"},{"name":"ALİGİL MAH.","zip":"08390"},{"name":"ANAÇLI KÖYÜ","zip":"08390"},{"name":"ARKİM MAH.","zip":"08390"},{"name":"AŞAĞI CAMİ MAH.","zip":"08390"},{"name":"AŞAĞI MAĞNAR MAH.","zip":"08390"},{"name":"AŞAĞI MAH.","zip":"08390"},{"name":"AŞAĞI ŞUVAT MAH.","zip":"08390"},{"name":"AŞAĞI YAYLA MEVKİİ MAH.","zip":"08390"},{"name":"AŞAĞIIRMAKLAR KÖYÜ","zip":"08390"},{"name":"AŞIKLAR KÖYÜ","zip":"08390"},{"name":"AVCILAR KÖYÜ","zip":"08390"},{"name":"AYDINKÖY KÖYÜ","zip":"08390"},{"name":"AYVAZLAR MAH.","zip":"08390"},{"name":"BADEMLİ MAH.","zip":"08390"},{"name":"BAĞLAR MAH.","zip":"08390"},{"name":"BAĞLICA KÖYÜ","zip":"08390"},{"name":"BAĞLIK MAH.","zip":"08390"},{"name":"BAHÇELİEVLER MAH.","zip":"08390"},{"name":"BALLI KÖYÜ","zip":"08390"},{"name":"BANTALUĞ MAH.","zip":"08390"},{"name":"BAŞAKLAR MAH.","zip":"08390"},{"name":"BAŞYİĞİTGİL MAH.","zip":"08390"},{"name":"BATAK MAH.","zip":"08390"},{"name":"BAYRAMGİL MAH.","zip":"08390"},{"name":"BEKİRGİL MAH.","zip":"08390"},{"name":"BERATLI KÖYÜ","zip":"08390"},{"name":"BEREKET KÖYÜ","zip":"08390"},{"name":"BEYİN DÜZÜ MAH.","zip":"08390"},{"name":"BORGAMA MAH.","zip":"08390"},{"name":"BOYALI KÖYÜ","zip":"08390"},{"name":"BULANIK KÖYÜ","zip":"08390"},{"name":"BÜYÜK DÜZ MAH.","zip":"08390"},{"name":"BÜYÜK YAYLA MAH.","zip":"08390"},{"name":"CAMANDAR MAH.","zip":"08390"},{"name":"CAMANGELET MAH.","zip":"08390"},{"name":"CAMİ MAH.","zip":"08390"},{"name":"CAMİLİ MAH.","zip":"08390"},{"name":"CEVİZLİK KÖYÜ","zip":"08390"},{"name":"CUĞO MAH.","zip":"08390"},{"name":"CUMHURİYET MAH.","zip":"08390"},{"name":"ÇAKILLAR KÖYÜ","zip":"08390"},{"name":"ÇAKIZAR MAH.","zip":"08390"},{"name":"ÇATMALIK YAYLASI MAH.","zip":"08390"},{"name":"ÇAVUŞ ALİGİL MAH.","zip":"08390"},{"name":"ÇAYAĞZI MAH.","zip":"08390"},{"name":"ÇEVRELİK MAH.","zip":"08390"},{"name":"ÇINARDİBİ MAH.","zip":"08390"},{"name":"ÇIRALAR KÖYÜ","zip":"08390"},{"name":"DALAHET YAYLASI MAH.","zip":"08390"},{"name":"DEMİRCİ MAH.","zip":"08390"},{"name":"DERE MAH.","zip":"08390"},{"name":"DEREBAĞLAR MAH.","zip":"08390"},{"name":"DİKMEN YAYLASI MAH.","zip":"08390"},{"name":"DORİK MAH.","zip":"08390"},{"name":"DÜZ MAH.","zip":"08390"},{"name":"EFEKÖY MAH.","zip":"08390"},{"name":"EKŞİNAR KÖYÜ","zip":"08390"},{"name":"EMİN AĞAGİL MAH.","zip":"08390"},{"name":"FERHATLI KÖYÜ","zip":"08390"},{"name":"GARABAN MAH.","zip":"08390"},{"name":"GARBELET MAH.","zip":"08390"},{"name":"GEÇİTLİ KÖYÜ","zip":"08390"},{"name":"GİZELT MAH.","zip":"08390"},{"name":"GOMOZOR YAYLASI MAH.","zip":"08390"},{"name":"GONARA MAH.","zip":"08390"},{"name":"GORPOTA MAH.","zip":"08390"},{"name":"GOZİROT MAH.","zip":"08390"},{"name":"GÖKÇE KÖYÜ","zip":"08390"},{"name":"GÖLBAŞI MAH.","zip":"08390"},{"name":"GÜLÇAYIR MAH.","zip":"08390"},{"name":"GÜLEŞ KÖYÜ","zip":"08390"},{"name":"GÜLÜGÜRT MAH.","zip":"08390"},{"name":"GÜMÜŞHANE KÖYÜ","zip":"08390"},{"name":"HACİGİL MAH.","zip":"08390"},{"name":"HAMİTGİL MAH.","zip":"08390"},{"name":"HAMURLU KÖYÜ","zip":"08390"},{"name":"HARKBAŞI MAH.","zip":"08390"},{"name":"HARMANLI KÖYÜ","zip":"08390"},{"name":"HAS MAH.","zip":"08390"},{"name":"HASBAHÇE MAH.","zip":"08390"},{"name":"HASMENLAT MAH.","zip":"08390"},{"name":"HİSARLI KÖYÜ","zip":"08390"},{"name":"HORHOT MAH.","zip":"08390"},{"name":"HOŞATGİL MAH.","zip":"08390"},{"name":"HÜRRİYET MAH.","zip":"08390"},{"name":"İMEDEGİL MAH.","zip":"08390"},{"name":"İNCİLLİ KÖYÜ","zip":"08390"},{"name":"İSOT MAH.","zip":"08390"},{"name":"KADIGİL MAH.","zip":"08390"},{"name":"KADİRAĞAGİL MAH.","zip":"08390"},{"name":"KALTDESE MAH.","zip":"08390"},{"name":"KANALT MEZRASI MAH.","zip":"08390"},{"name":"KANSALİYA MAH.","zip":"08390"},{"name":"KAPIKÖY KÖYÜ","zip":"08390"},{"name":"KARAGÖL YAYLASI MAH.","zip":"08390"},{"name":"KARLI KÖYÜ","zip":"08390"},{"name":"KAŞIKÇI KÖYÜ","zip":"08390"},{"name":"KAVLAKLI MAH.","zip":"08390"},{"name":"KAYADIBI MAH.","zip":"08390"},{"name":"KAYAGİL MAH.","zip":"08390"},{"name":"KIŞLA MAH.","zip":"08390"},{"name":"KIZILCIK KÖYÜ","zip":"08390"},{"name":"KİLLİT MEZRASI MAH.","zip":"08390"},{"name":"KİRAZLI MAH.","zip":"08390"},{"name":"KOCAGET MAH.","zip":"08390"},{"name":"KOLBAŞI MAH.","zip":"08390"},{"name":"KONAKLI KÖYÜ","zip":"08390"},{"name":"KONAKLI YAYLASI MAH.","zip":"08390"},{"name":"KÖPRÜBAŞI MAH.","zip":"08390"},{"name":"KURUDAT MAH.","zip":"08390"},{"name":"KUTLU KÖYÜ","zip":"08390"},{"name":"KUTUL MAH.","zip":"08390"},{"name":"KUZEY MAH.","zip":"08390"},{"name":"KÜNYE MAH.","zip":"08390"},{"name":"KÜRDEVAN YAYLASI MAH.","zip":"08390"},{"name":"KÜRDEVEN İNCİLLİ MAH.","zip":"08390"},{"name":"LANPUVAR MAH.","zip":"08390"},{"name":"LOMAT MAH.","zip":"08390"},{"name":"LORİ MAH.","zip":"08390"},{"name":"MAĞNAR MAH.","zip":"08390"},{"name":"MAHMUTLAR MAH.","zip":"08390"},{"name":"MAZMAN MAH.","zip":"08390"},{"name":"MERKEZ MAH.","zip":"08390"},{"name":"MEŞEKÖY KÖYÜ","zip":"08390"},{"name":"MEZRA EVLERİ MAH.","zip":"08390"},{"name":"MEZRA MAH.","zip":"08390"},{"name":"MÜEZZİNLER KÖYÜ","zip":"08390"},{"name":"NALDÖKEN KÖYÜ","zip":"08390"},{"name":"NANKAR MAH.","zip":"08390"},{"name":"OGEÇE MAH.","zip":"08390"},{"name":"ORTA MAH.","zip":"08390"},{"name":"OVACIK KÖYÜ","zip":"08390"},{"name":"OZANLI MAH.","zip":"08390"},{"name":"ÖRTÜLÜ KÖYÜ","zip":"08390"},{"name":"PAŞAAĞAGİLİN MAH.","zip":"08390"},{"name":"PAŞALIK YAYLASI MAH.","zip":"08390"},{"name":"PEYNİRLİ KÖYÜ","zip":"08390"},{"name":"PİNTİGİL MAH.","zip":"08390"},{"name":"SAKARYA KÖYÜ","zip":"08390"},{"name":"SAKATGİL MAH.","zip":"08390"},{"name":"SALİHAĞA MAH.","zip":"08390"},{"name":"SANABET MAH.","zip":"08390"},{"name":"SARSOLOT MAH.","zip":"08390"},{"name":"SEDESTPİLİN MAH.","zip":"08390"},{"name":"SIK MAH.","zip":"08390"},{"name":"SIKA MAH.","zip":"08390"},{"name":"SOĞANLI KÖYÜ","zip":"08390"},{"name":"SÖĞÜTLÜK MAH.","zip":"08390"},{"name":"ŞATIRGİL MAH.","zip":"08390"},{"name":"TABZOR MAH.","zip":"08390"},{"name":"TAŞPINAR YAYLASI MAH.","zip":"08390"},{"name":"TATLISU MAH.","zip":"08390"},{"name":"TATURGİL MAH.","zip":"08390"},{"name":"TAYÇALA MAH.","zip":"08390"},{"name":"TEKNOVET İNŞAAT MAH.","zip":"08390"},{"name":"TEPEDÜZÜ KÖYÜ","zip":"08390"},{"name":"TİKMANET MAH.","zip":"08390"},{"name":"TOPÇULAR MAH.","zip":"08390"},{"name":"TORBALI KÖYÜ","zip":"08390"},{"name":"TOSUNLU KÖYÜ","zip":"08390"},{"name":"TUZLUCA MAH.","zip":"08390"},{"name":"TÜTÜNLÜ KÖYÜ","zip":"08390"},{"name":"USTALAR KÖYÜ","zip":"08390"},{"name":"UZUN ÇAYIR YAYLASI MAH.","zip":"08390"},{"name":"ÜZÜMLÜ MAH.","zip":"08390"},{"name":"VARKENET MAH.","zip":"08390"},{"name":"VARZELİ MAH.","zip":"08390"},{"name":"YANIK MAH.","zip":"08390"},{"name":"YANIKLAR MAH.","zip":"08390"},{"name":"YAPRAKLI MAH.","zip":"08390"},{"name":"YAYLA MAH.","zip":"08390"},{"name":"YAYLACIK KÖYÜ","zip":"08390"},{"name":"YAYLALAR MAH.","zip":"08390"},{"name":"YILDIZELİ MAH.","zip":"08390"},{"name":"YOBAT MAH.","zip":"08390"},{"name":"YOLAĞZI KÖYÜ","zip":"08390"},{"name":"YOLÜSTÜ KÖYÜ","zip":"08390"},{"name":"YUKARI CAMİ MAH.","zip":"08390"},{"name":"YUKARI MAĞNAR MAH.","zip":"08390"},{"name":"YUKARI MAH.","zip":"08390"},{"name":"YUKARI ŞUVAT MAH.","zip":"08390"},{"name":"YUKARIIRMAKLAR KÖYÜ","zip":"08390"},{"name":"ZEKERİYAKÖY KÖYÜ","zip":"08390"}]},{"name":"ARHAVİ","cityName":null,"quarters":[{"name":"BOĞAZİÇİ MAH.","zip":"08200"},{"name":"CUMHURİYET MAH.","zip":"08200"},{"name":"KALE MAH.","zip":"08200"},{"name":"MUSAZADE MAH.","zip":"08200"},{"name":"YEMİŞLİK MAH.","zip":"08200"},{"name":"YUKARI HACILAR MAH.","zip":"08200"}]},{"name":"MERKEZKÖYLER","cityName":null,"quarters":[{"name":"ALTILAR MAH.","zip":"08290"},{"name":"ARILI KÖYÜ","zip":"08290"},{"name":"ASLANLAR MAH.","zip":"08290"},{"name":"AŞAĞI MAH.","zip":"08290"},{"name":"AŞAĞI MERKEZ MAH.","zip":"08290"},{"name":"AŞAĞI ÜÇLER MAH.","zip":"08290"},{"name":"AŞAĞIŞAHİNLER KÖYÜ","zip":"08290"},{"name":"AYDOĞDU MAH.","zip":"08290"},{"name":"BALIKLI KÖYÜ","zip":"08290"},{"name":"BAŞKÖY KÖYÜ","zip":"08290"},{"name":"BERZENE MAH.","zip":"08290"},{"name":"BIYIKLIOĞLU MAH.","zip":"08290"},{"name":"BOYUNCUK KÖYÜ","zip":"08290"},{"name":"BÜYÜK MAH.","zip":"08290"},{"name":"CENEVİZLER MAH.","zip":"08290"},{"name":"ÇAMLICA MAH.","zip":"08290"},{"name":"DEĞİRMENDERE MAH.","zip":"08290"},{"name":"DEMİRCİLER MAH.","zip":"08290"},{"name":"DERE İÇİ MAH.","zip":"08290"},{"name":"DERECİK KÖYÜ","zip":"08290"},{"name":"DEREİÇİ 1 MAH.","zip":"08290"},{"name":"DEREİÇİ 2 MAH.","zip":"08290"},{"name":"DEREÜSTÜ KÖYÜ","zip":"08290"},{"name":"DİKYAMAÇ KÖYÜ","zip":"08290"},{"name":"DÜLGERLİ KÖYÜ","zip":"08290"},{"name":"ESKUAT MAH.","zip":"08290"},{"name":"ESKUVAT MAH.","zip":"08290"},{"name":"GÜLLAVAT MAH.","zip":"08290"},{"name":"GÜLTEPE MAH.","zip":"08290"},{"name":"GÜNAYDIN MAH.","zip":"08290"},{"name":"GÜNDOĞDU MAH.","zip":"08290"},{"name":"GÜNEŞLİ KÖYÜ","zip":"08290"},{"name":"GÜNEYCE MAH.","zip":"08290"},{"name":"GÜNGÖREN KÖYÜ","zip":"08290"},{"name":"GÜRGENCİK KÖYÜ","zip":"08290"},{"name":"HACILAR MAH.","zip":"08290"},{"name":"HATİNOĞLU MAH.","zip":"08290"},{"name":"HÜRRİYET MAH.","zip":"08290"},{"name":"ISINALİ MAH.","zip":"08290"},{"name":"İMPARA MAH.","zip":"08290"},{"name":"İSMAİL ÇAĞ MAH.","zip":"08290"},{"name":"KAMİLET MAH.","zip":"08290"},{"name":"KAVAK KÖYÜ","zip":"08290"},{"name":"KEMERKÖPRÜ KÖYÜ","zip":"08290"},{"name":"KESTANEALAN KÖYÜ","zip":"08290"},{"name":"KİREÇLİK KÖYÜ","zip":"08290"},{"name":"KONAKLI KÖYÜ","zip":"08290"},{"name":"KOZLUCA MAH.","zip":"08290"},{"name":"KÖROĞLU BÜYÜKLÜ MAH.","zip":"08290"},{"name":"KÖSEOĞLU MAH.","zip":"08290"},{"name":"KÖYİÇİ MAH.","zip":"08290"},{"name":"KURTULUŞ MAH.","zip":"08290"},{"name":"KUSLETA MAH.","zip":"08290"},{"name":"KUZEY MAH.","zip":"08290"},{"name":"KÜÇÜK MAH.","zip":"08290"},{"name":"KÜÇÜKKÖY KÖYÜ","zip":"08290"},{"name":"MASTAKA MAH.","zip":"08290"},{"name":"MERKEZ MAH.","zip":"08290"},{"name":"MEZRA MAH.","zip":"08290"},{"name":"NAPLAT MAH.","zip":"08290"},{"name":"NOPİNARE MAH.","zip":"08290"},{"name":"OMJORE MAH.","zip":"08290"},{"name":"ORTA MAH.","zip":"08290"},{"name":"ORTACALAR KÖYÜ","zip":"08290"},{"name":"OYMALI MAH.","zip":"08290"},{"name":"ÖRNEK MAH.","zip":"08290"},{"name":"PEPERDİHA MAH.","zip":"08290"},{"name":"SARIBAŞ MAH.","zip":"08290"},{"name":"SIRTOBA KÖYÜ","zip":"08290"},{"name":"SOĞUCAK KÖYÜ","zip":"08290"},{"name":"SOĞUKSU MAH.","zip":"08290"},{"name":"SUCUNA MAH.","zip":"08290"},{"name":"ŞAHİNLER MAH.","zip":"08290"},{"name":"ŞENKÖY KÖYÜ","zip":"08290"},{"name":"TAŞLIK MAH.","zip":"08290"},{"name":"TAŞPINAR MAH.","zip":"08290"},{"name":"TEPEYURT KÖYÜ","zip":"08290"},{"name":"TÜRKMENE MAH.","zip":"08290"},{"name":"ULAŞ KÖYÜ","zip":"08290"},{"name":"ULUKENT KÖYÜ","zip":"08290"},{"name":"ÜÇIRMAK KÖYÜ","zip":"08290"},{"name":"ÜÇLER KÖYÜ","zip":"08290"},{"name":"YENİ MAH.","zip":"08290"},{"name":"YENİYOL MAH.","zip":"08290"},{"name":"YEŞİLLİK MAH.","zip":"08290"},{"name":"YILDIZLI KÖYÜ","zip":"08290"},{"name":"YILMAZLAR MAH.","zip":"08290"},{"name":"YOLGEÇEN KÖYÜ","zip":"08290"},{"name":"YUKARI MAH.","zip":"08290"},{"name":"YUKARI MERKEZ MAH.","zip":"08290"},{"name":"YUKARI ULUKENT MAH.","zip":"08290"},{"name":"YUKARIŞAHİNLER KÖYÜ","zip":"08290"}]},{"name":"BORÇKA","cityName":null,"quarters":[{"name":"GÜNDOĞDU MAH.","zip":"08400"},{"name":"KÜÇÜK KÖY MAH.","zip":"08400"},{"name":"MERKEZ MAH.","zip":"08400"},{"name":"YENİYOL MAH.","zip":"08400"}]},{"name":"MERKEZKÖYLER","cityName":null,"quarters":[{"name":"ADAGÜL MAH.","zip":"08490"},{"name":"AKDİLEK MAH.","zip":"08490"},{"name":"AKPINAR KÖYÜ","zip":"08490"},{"name":"ALACA KÖYÜ","zip":"08490"},{"name":"AMBARLI KÖYÜ","zip":"08490"},{"name":"ARALIK KÖYÜ","zip":"08490"},{"name":"ARALIK MAH.","zip":"08490"},{"name":"ARALIK MEZRA MAH.","zip":"08490"},{"name":"ARKAKÖY KÖYÜ","zip":"08490"},{"name":"ARKAKÖY MAH.","zip":"08490"},{"name":"ATANOĞLU KÖYÜ","zip":"08490"},{"name":"ATANOĞLU KÖYÜ MAH.","zip":"08490"},{"name":"ATANOĞLU MAH.","zip":"08490"},{"name":"AVCILAR KÖYÜ","zip":"08490"},{"name":"BALCI KÖYÜ","zip":"08490"},{"name":"BALCI KÖYÜ MAH.","zip":"08490"},{"name":"BALCI MAH.","zip":"08490"},{"name":"BAŞKÖY MAH.","zip":"08490"},{"name":"BOĞAZKÖY KÖYÜ","zip":"08490"},{"name":"CAMİLİ KÖYÜ","zip":"08490"},{"name":"CAMİLİ KÖYÜ MAH.","zip":"08490"},{"name":"CAMİLİ MAH.","zip":"08490"},{"name":"CİVAN KÖYÜ","zip":"08490"},{"name":"CİVAN MAH.","zip":"08490"},{"name":"ÇARMAKİT MAH.","zip":"08490"},{"name":"ÇAVUŞLU KÖYÜ","zip":"08490"},{"name":"ÇAYLIKÖY KÖYÜ","zip":"08490"},{"name":"ÇİFTEKÖPRÜ KÖYÜ","zip":"08490"},{"name":"DEMİRCİLER KÖYÜ","zip":"08490"},{"name":"DÜZENLİ KÖYÜ","zip":"08490"},{"name":"DÜZENLİ KÖYÜ MAH.","zip":"08490"},{"name":"DÜZENLİ MAH.","zip":"08490"},{"name":"DÜZHANLAR MAH.","zip":"08490"},{"name":"DÜZKÖY KÖYÜ","zip":"08490"},{"name":"EFELER KÖYÜ","zip":"08490"},{"name":"ESENTEPE MAH.","zip":"08490"},{"name":"FINDIKLI KÖYÜ","zip":"08490"},{"name":"GÜNEŞLİ KÖYÜ","zip":"08490"},{"name":"GÜREŞEN KÖYÜ","zip":"08490"},{"name":"GÜZELYURT KÖYÜ","zip":"08490"},{"name":"IŞIKLI MAH.","zip":"08490"},{"name":"İBRİKLİ KÖYÜ","zip":"08490"},{"name":"İBRİKLİ MAH.","zip":"08490"},{"name":"KALE KÖYÜ","zip":"08490"},{"name":"KARŞIKÖY KÖYÜ","zip":"08490"},{"name":"KAYADİBİ KÖYÜ","zip":"08490"},{"name":"KAYALAR KÖYÜ","zip":"08490"},{"name":"KAYALAR KÖYÜ MAH.","zip":"08490"},{"name":"KAYALAR MAH.","zip":"08490"},{"name":"KAYNARCA KÖYÜ","zip":"08490"},{"name":"KAYNARCA MAH.","zip":"08490"},{"name":"KAZANAKAPI MAH.","zip":"08490"},{"name":"LONGANA MAH.","zip":"08490"},{"name":"MARAL KÖY MAH.","zip":"08490"},{"name":"MARAL MAH.","zip":"08490"},{"name":"MARALKÖY KÖYÜ","zip":"08490"},{"name":"MERKEZ MAH.","zip":"08490"},{"name":"MEZRA MAH.","zip":"08490"},{"name":"MURATLI KÖYÜ","zip":"08490"},{"name":"ORHAN MAH.","zip":"08490"},{"name":"ORTADERE MAH.","zip":"08490"},{"name":"ÖRÜCÜLER KÖYÜ","zip":"08490"},{"name":"ÖRÜCÜLER MAH.","zip":"08490"},{"name":"PETROL MAH.","zip":"08490"},{"name":"ŞEREFİYE KÖYÜ","zip":"08490"},{"name":"TARAKLI KÖYÜ","zip":"08490"},{"name":"TOPÇULAR MAH.","zip":"08490"},{"name":"UĞUR MAH.","zip":"08490"},{"name":"UĞURKÖY KÖYÜ","zip":"08490"},{"name":"UZUNLAR MAH.","zip":"08490"},{"name":"YANGIN MAH.","zip":"08490"},{"name":"YAYLA MAH.","zip":"08490"},{"name":"YEŞİLKÖY KÖYÜ","zip":"08490"},{"name":"ZORLU KÖYÜ","zip":"08490"},{"name":"ZORLU MAH.","zip":"08490"}]},{"name":"HOPA","cityName":null,"quarters":[{"name":"CUMHURİYET MAH.","zip":"08600"},{"name":"MERKEZ KULEDİBİ MAH.","zip":"08600"},{"name":"ORTAHOPA MAH.","zip":"08600"},{"name":"SUNDURA MAH.","zip":"08600"},{"name":"YUKARI KULEDİBİ MAH.","zip":"08600"}]},{"name":"KEMALPAŞA","cityName":null,"quarters":[{"name":"CUMHURİYET MAH.","zip":"08610"},{"name":"ÇAMURLU KÖYÜ","zip":"08610"},{"name":"DEREİÇİ KÖYÜ","zip":"08610"},{"name":"GÜMÜŞDERE KÖYÜ","zip":"08610"},{"name":"KARAOSMANİYE KÖYÜ","zip":"08610"},{"name":"KARŞI MAH.","zip":"08610"},{"name":"KAYA KÖYÜ","zip":"08610"},{"name":"KAZİMİYE KÖYÜ","zip":"08610"},{"name":"KEMALPAŞA KÖYÜ","zip":"08610"},{"name":"KÖPRÜCÜ KÖYÜ","zip":"08610"},{"name":"LİMAN KÖYÜ","zip":"08610"},{"name":"MERKEZ MAH.","zip":"08610"},{"name":"OSMANİYE KÖYÜ","zip":"08610"},{"name":"SARP KÖYÜ","zip":"08610"},{"name":"SELİMİYE MAH.","zip":"08610"},{"name":"UZUNYALI MAH.","zip":"08610"},{"name":"ÜÇKARDEŞ KÖYÜ","zip":"08610"}]},{"name":"MERKEZKÖYLER","cityName":null,"quarters":[{"name":"BALIK KÖYÜ","zip":"08690"},{"name":"BAŞKÖY KÖYÜ","zip":"08690"},{"name":"BAŞOBA KÖYÜ","zip":"08690"},{"name":"ÇAMLI KÖYÜ","zip":"08690"},{"name":"ÇARŞI MAH.","zip":"08690"},{"name":"ÇAVUŞLU KÖYÜ","zip":"08690"},{"name":"ÇİMENLİ KÖYÜ","zip":"08690"},{"name":"ESENKIYI KÖYÜ","zip":"08690"},{"name":"EŞMEKAYA KÖYÜ","zip":"08690"},{"name":"GÜNEŞLİ KÖYÜ","zip":"08690"},{"name":"GÜVERCİNLİ KÖYÜ","zip":"08690"},{"name":"HACILAR MAH.","zip":"08690"},{"name":"HENDEK KÖYÜ","zip":"08690"},{"name":"KARŞI MAH.","zip":"08690"},{"name":"KOPMUŞ MAH.","zip":"08690"},{"name":"KOYUNCULAR KÖYÜ","zip":"08690"},{"name":"MADENLİ MAH.","zip":"08690"},{"name":"MERKEZ MAH.","zip":"08690"},{"name":"MISILLET MAH.","zip":"08690"},{"name":"ORTA MAH.","zip":"08690"},{"name":"PABİLAT MAH.","zip":"08690"},{"name":"PINARLI KÖYÜ","zip":"08690"},{"name":"SUBAŞI KÖYÜ","zip":"08690"},{"name":"SUGÖREN KÖYÜ","zip":"08690"},{"name":"YEŞİLKÖY KÖYÜ","zip":"08690"},{"name":"YOLDERE KÖYÜ","zip":"08690"},{"name":"YUKARI SUGÖREN MAH.","zip":"08690"},{"name":"YUKARI YOLDERE MAH.","zip":"08690"},{"name":"ZENNAT MAH.","zip":"08690"}]},{"name":"ARTVİN","cityName":null,"quarters":[{"name":"ÇAMLIK MAH.","zip":"08010"},{"name":"ÇARŞI MAH.","zip":"08010"},{"name":"ÇAYAĞZI MAH.","zip":"08010"},{"name":"DERE MAH.","zip":"08010"},{"name":"ORTA MAH.","zip":"08010"},{"name":"YENİ MAH.","zip":"08010"}]},{"name":"MERKEZKÖYLER","cityName":null,"quarters":[{"name":"AGORA MAH.","zip":"08100"},{"name":"AGUSET MAH.","zip":"08100"},{"name":"AĞILLAR KÖYÜ","zip":"08100"},{"name":"AHARŞEN MAH.","zip":"08100"},{"name":"AHLAT KÖYÜ","zip":"08100"},{"name":"AHLAT MAH.","zip":"08100"},{"name":"AKBUDAK MAH.","zip":"08100"},{"name":"AKTAŞ MAH.","zip":"08100"},{"name":"ALABALIK KÖYÜ","zip":"08100"},{"name":"ALABALIK MAH.","zip":"08100"},{"name":"ALİAĞAGİL MAH.","zip":"08100"},{"name":"ALTUNBAĞ MAH.","zip":"08100"},{"name":"ANÇELOĞLU MAH.","zip":"08100"},{"name":"ARIPINAR MAH.","zip":"08100"},{"name":"ARİF ÇAVUŞ MAH.","zip":"08100"},{"name":"AŞAĞI BAĞLAR MAH.","zip":"08100"},{"name":"AŞAĞI MADEN MAH.","zip":"08100"},{"name":"AŞAĞI MAH.","zip":"08100"},{"name":"AŞAĞI TOLGUM MAH.","zip":"08100"},{"name":"AŞAĞIBAĞLIK MAH.","zip":"08100"},{"name":"AŞAĞIMADEN KÖYÜ","zip":"08100"},{"name":"ATABEYLAR MAH.","zip":"08100"},{"name":"ATANASUR MAH.","zip":"08100"},{"name":"AVAZA MAH.","zip":"08100"},{"name":"AVAZAN MAH.","zip":"08100"},{"name":"AVAZON MAH.","zip":"08100"},{"name":"AYDINLAR MAH.","zip":"08100"},{"name":"AYDOĞAN MAH.","zip":"08100"},{"name":"AZİZAĞAOĞLU MAH.","zip":"08100"},{"name":"BABANOĞLU MAH.","zip":"08100"},{"name":"BADEMLİK MAH.","zip":"08100"},{"name":"BAĞCILAR KÖYÜ","zip":"08100"},{"name":"BAĞLAR MAH.","zip":"08100"},{"name":"BAĞLIK MAH.","zip":"08100"},{"name":"BAHÇELİ MAH.","zip":"08100"},{"name":"BAKIRKÖY KÖYÜ","zip":"08100"},{"name":"BAKIRKÖY MAH.","zip":"08100"},{"name":"BALLI MAH.","zip":"08100"},{"name":"BALLI ÜZÜM MAH.","zip":"08100"},{"name":"BALLIÜZÜM KÖYÜ","zip":"08100"},{"name":"BARDAKLI MAH.","zip":"08100"},{"name":"BASILAVUR MAH.","zip":"08100"},{"name":"BASOT MAH.","zip":"08100"},{"name":"BAYRAMLI MAH.","zip":"08100"},{"name":"BEBERET MAH.","zip":"08100"},{"name":"BERZELER MAH.","zip":"08100"},{"name":"BEŞAĞAÇ MAH.","zip":"08100"},{"name":"BEŞAĞIL KÖYÜ","zip":"08100"},{"name":"BEŞAĞIL MAH.","zip":"08100"},{"name":"BEYCUR MAH.","zip":"08100"},{"name":"BİKİLİLER MAH.","zip":"08100"},{"name":"BOLORGÜM MAH.","zip":"08100"},{"name":"BOLUKLU MAH.","zip":"08100"},{"name":"BÖREKET MAH.","zip":"08100"},{"name":"BÜYÜK YAYLA MAH.","zip":"08100"},{"name":"CAMİ MAH.","zip":"08100"},{"name":"CANCAĞ MAH.","zip":"08100"},{"name":"CANOĞLU MAH.","zip":"08100"},{"name":"CARTİYET MAH.","zip":"08100"},{"name":"CARTİYET YAYLASI MAH.","zip":"08100"},{"name":"CENNET MAH.","zip":"08100"},{"name":"CEVİZLİ MAH.","zip":"08100"},{"name":"CİCOTHEV MAH.","zip":"08100"},{"name":"CİMAK MAH.","zip":"08100"},{"name":"CİNEGARA MAH.","zip":"08100"},{"name":"ÇAĞDAZOR MAH.","zip":"08100"},{"name":"ÇAĞRAKAN MAH.","zip":"08100"},{"name":"ÇAKMAKLI MAH.","zip":"08100"},{"name":"ÇALANT MAH.","zip":"08100"},{"name":"ÇALIKEU MAH.","zip":"08100"},{"name":"ÇALIŞKANLAR MAH.","zip":"08100"},{"name":"ÇAM MAH.","zip":"08100"},{"name":"ÇAMLIK MAH.","zip":"08100"},{"name":"ÇAMLIKAYA MAH.","zip":"08100"},{"name":"ÇARBİYET MAH.","zip":"08100"},{"name":"ÇATALCA MAH.","zip":"08100"},{"name":"ÇAVUŞLAR MAH.","zip":"08100"},{"name":"ÇAYAĞZI MAH.","zip":"08100"},{"name":"ÇAYIRLI(HOZABİR) MAH.","zip":"08100"},{"name":"ÇELİKLER MAH.","zip":"08100"},{"name":"ÇERMİK MAH.","zip":"08100"},{"name":"ÇEŞMELİ MAH.","zip":"08100"},{"name":"ÇISĞILIEV MAH.","zip":"08100"},{"name":"ÇİĞİYET MAH.","zip":"08100"},{"name":"ÇİMENLİ KÖYÜ","zip":"08100"},{"name":"ÇİMENLİ MAH.","zip":"08100"},{"name":"ÇİTLİK MAH.","zip":"08100"},{"name":"ÇORASA MAH.","zip":"08100"},{"name":"ÇOYAĞZI MAH.","zip":"08100"},{"name":"ÇÖMLEKÇİ MAH.","zip":"08100"},{"name":"DAGRAK MAH.","zip":"08100"},{"name":"DALAVUT MAH.","zip":"08100"},{"name":"DALİZELER MAH.","zip":"08100"},{"name":"DANAYAYIMI MAH.","zip":"08100"},{"name":"DANZOTLU MAH.","zip":"08100"},{"name":"DAVTAVUR MAH.","zip":"08100"},{"name":"DEMİRCİ MAH.","zip":"08100"},{"name":"DERE MAH.","zip":"08100"},{"name":"DERELER MAH.","zip":"08100"},{"name":"DERİNKÖY KÖYÜ","zip":"08100"},{"name":"DİDVAKE MAH.","zip":"08100"},{"name":"DİDVANAK MAH.","zip":"08100"},{"name":"DİKMENLİ KÖYÜ","zip":"08100"},{"name":"DİNDAROĞLU MAH.","zip":"08100"},{"name":"DOĞANLI MAH.","zip":"08100"},{"name":"DOKUZOĞUL KÖYÜ","zip":"08100"},{"name":"DOLİŞGİL MAH.","zip":"08100"},{"name":"DUBE MAH.","zip":"08100"},{"name":"DUGANALA MAH.","zip":"08100"},{"name":"DÜZ MAH.","zip":"08100"},{"name":"DÜZENLİ MAH.","zip":"08100"},{"name":"ELİKLER MAH.","zip":"08100"},{"name":"ELMALI MAH.","zip":"08100"},{"name":"ERDEMLİ MAH.","zip":"08100"},{"name":"ERENLER KÖYÜ","zip":"08100"},{"name":"ERENLER MAH.","zip":"08100"},{"name":"ERİCEK MAH.","zip":"08100"},{"name":"ERİKLİ MAH.","zip":"08100"},{"name":"ESENBİGİL MAH.","zip":"08100"},{"name":"ESENTEPE MAH.","zip":"08100"},{"name":"FELENGAUR MAH.","zip":"08100"},{"name":"FISTIKLI KÖYÜ","zip":"08100"},{"name":"FİDANLIK MAH.","zip":"08100"},{"name":"GORAZUL MAH.","zip":"08100"},{"name":"GORGANET MAH.","zip":"08100"},{"name":"GORGOT MAH.","zip":"08100"},{"name":"GORĞON MAH.","zip":"08100"},{"name":"GÖKÇEYURT MAH.","zip":"08100"},{"name":"GÖLEHURA MAH.","zip":"08100"},{"name":"GÖZELER MAH.","zip":"08100"},{"name":"GURDAZE MAH.","zip":"08100"},{"name":"GURGANET MAH.","zip":"08100"},{"name":"GUVERTA BAĞLIĞI MAH.","zip":"08100"},{"name":"GÜLDİBİ MAH.","zip":"08100"},{"name":"GÜLTEPE MAH.","zip":"08100"},{"name":"GÜNDOĞDU MAH.","zip":"08100"},{"name":"GÜNEYCE MAH.","zip":"08100"},{"name":"GÜZELKÖY MAH.","zip":"08100"},{"name":"ĞOYNAR MAH.","zip":"08100"},{"name":"HACİGİL MAH.","zip":"08100"},{"name":"HAFIZAĞAOĞLU MAH.","zip":"08100"},{"name":"HAMAMLI KÖYÜ","zip":"08100"},{"name":"HAMAMLI MAH.","zip":"08100"},{"name":"HANS MAH.","zip":"08100"},{"name":"HARKALTI MAH.","zip":"08100"},{"name":"HAROT MAH.","zip":"08100"},{"name":"HAŞUT MAH.","zip":"08100"},{"name":"HAVNAGARA MAH.","zip":"08100"},{"name":"HEKİMOĞULLARI MAH.","zip":"08100"},{"name":"HIRHAN MAH.","zip":"08100"},{"name":"HIZARLI KÖYÜ","zip":"08100"},{"name":"HOÇİBET MAH.","zip":"08100"},{"name":"HOKMELA MAH.","zip":"08100"},{"name":"HOZEGARA MAH.","zip":"08100"},{"name":"İHTİYAROĞLU MAH.","zip":"08100"},{"name":"İMAMGİL MAH.","zip":"08100"},{"name":"İMNİYET MAH.","zip":"08100"},{"name":"İNEK YAYLASI MAH.","zip":"08100"},{"name":"İRGUT MAH.","zip":"08100"},{"name":"KAKACAVUR MAH.","zip":"08100"},{"name":"KAKIABAR MAH.","zip":"08100"},{"name":"KALBURLU KÖYÜ","zip":"08100"},{"name":"KALKANLI MAH.","zip":"08100"},{"name":"KANATLI MAH.","zip":"08100"},{"name":"KARACA MAH.","zip":"08100"},{"name":"KARAKOL MAH.","zip":"08100"},{"name":"KASIKAPI MAH.","zip":"08100"},{"name":"KAŞIKLİ MAH.","zip":"08100"},{"name":"KATNAGARA MAH.","zip":"08100"},{"name":"KAVAKLI MAH.","zip":"08100"},{"name":"KAYMAKLI MAH.","zip":"08100"},{"name":"KEÇENET MAH.","zip":"08100"},{"name":"KENAHT MAH.","zip":"08100"},{"name":"KEŞOĞULLARI MAH.","zip":"08100"},{"name":"KILIÇLI MAH.","zip":"08100"},{"name":"KOÇOĞLU MAH.","zip":"08100"},{"name":"KOLBET MAH.","zip":"08100"},{"name":"KOMASAGORA MAH.","zip":"08100"},{"name":"KOYTARLAR MAH.","zip":"08100"},{"name":"KÖPRÜ BAŞI MAH.","zip":"08100"},{"name":"KÖPRÜBAŞI MAH.","zip":"08100"},{"name":"KÖSELER KÖYÜ","zip":"08100"},{"name":"KÖSELER MAH.","zip":"08100"},{"name":"KÖY İÇİ MAH.","zip":"08100"},{"name":"KÖYİÇİ MAH.","zip":"08100"},{"name":"KURDİGET MAH.","zip":"08100"},{"name":"KUSLU MAH.","zip":"08100"},{"name":"KUŞLUCA MAH.","zip":"08100"},{"name":"KUVAP MAH.","zip":"08100"},{"name":"LOT MAH.","zip":"08100"},{"name":"MAMARNE MAH.","zip":"08100"},{"name":"MEDRESAKO MAH.","zip":"08100"},{"name":"MERKEZ MAH.","zip":"08100"},{"name":"MEYDAN MAH.","zip":"08100"},{"name":"MEZRA MAH.","zip":"08100"},{"name":"MIMLIKET MAH.","zip":"08100"},{"name":"MIMLIKOT MAH.","zip":"08100"},{"name":"MISIRLI MAH.","zip":"08100"},{"name":"MİNYATÜR MAH.","zip":"08100"},{"name":"MİRZİGİL MAH.","zip":"08100"},{"name":"MOLAS MAH.","zip":"08100"},{"name":"MUĞA MAH.","zip":"08100"},{"name":"MUSKOLU MAH.","zip":"08100"},{"name":"NAĞMUR MAH.","zip":"08100"},{"name":"NAKOREV MAH.","zip":"08100"},{"name":"NAPETUR MAH.","zip":"08100"},{"name":"NATENGELAV MAH.","zip":"08100"},{"name":"NAZİGİL MAH.","zip":"08100"},{"name":"NIPALA MAH.","zip":"08100"},{"name":"NUHSAĞARA MAH.","zip":"08100"},{"name":"OCAKBAŞI MAH.","zip":"08100"},{"name":"OKUMUŞLAR KÖYÜ","zip":"08100"},{"name":"ORMANLI KÖYÜ","zip":"08100"},{"name":"ORMANLI MAH.","zip":"08100"},{"name":"ORTA MAH.","zip":"08100"},{"name":"ORTABAĞLAR MAH.","zip":"08100"},{"name":"ORTAKÖY KÖYÜ","zip":"08100"},{"name":"ORUÇLU KÖYÜ","zip":"08100"},{"name":"OSUT MAH.","zip":"08100"},{"name":"ÖKÜZ MAH.","zip":"08100"},{"name":"ÖRENLİ MAH.","zip":"08100"},{"name":"PARMAKLI MAH.","zip":"08100"},{"name":"PETRİGİL MAH.","zip":"08100"},{"name":"PIRNALLI KÖYÜ","zip":"08100"},{"name":"PIRNALLI YAYLA EVLERİ MAH.","zip":"08100"},{"name":"PIRNALLI YAYLASI MAH.","zip":"08100"},{"name":"RAHTEVANOĞLU MAH.","zip":"08100"},{"name":"REM MAH.","zip":"08100"},{"name":"REŞİTOĞLU MAH.","zip":"08100"},{"name":"RUHİGİL MAH.","zip":"08100"},{"name":"SABUR MAH.","zip":"08100"},{"name":"SAÇINKA MAH.","zip":"08100"},{"name":"SAĞLAZE MAH.","zip":"08100"},{"name":"SAĞRİYETUL MAH.","zip":"08100"},{"name":"SAKALAR KÖYÜ","zip":"08100"},{"name":"SAKALAR YAYLASI MAH.","zip":"08100"},{"name":"SALAT MAH.","zip":"08100"},{"name":"SALİCOR MAH.","zip":"08100"},{"name":"SALİHOĞLU MAH.","zip":"08100"},{"name":"SALKIMLI KÖYÜ","zip":"08100"},{"name":"SARIBUDAK KÖYÜ","zip":"08100"},{"name":"SARIDANA MAH.","zip":"08100"},{"name":"SARSIHEV MAH.","zip":"08100"},{"name":"SATİBO MAH.","zip":"08100"},{"name":"SAYGILI MAH.","zip":"08100"},{"name":"SELVAGET MAH.","zip":"08100"},{"name":"SEVAİL MAH.","zip":"08100"},{"name":"SEYİTLER KÖYÜ","zip":"08100"},{"name":"SIRALAN MAH.","zip":"08100"},{"name":"SIRT MAH.","zip":"08100"},{"name":"SİKAŞAR MAH.","zip":"08100"},{"name":"SOBAR MAH.","zip":"08100"},{"name":"SOĞUKPINAR MAH.","zip":"08100"},{"name":"SOLMAZ MAH.","zip":"08100"},{"name":"SOTİBAR MAH.","zip":"08100"},{"name":"SOYLU MAH.","zip":"08100"},{"name":"SUMBATUR MAH.","zip":"08100"},{"name":"SÜMETAĞARA MAH.","zip":"08100"},{"name":"SÜNBÜLLÜ KÖYÜ","zip":"08100"},{"name":"ŞANLİYET MAH.","zip":"08100"},{"name":"ŞAVKAF MAH.","zip":"08100"},{"name":"ŞEHİTLİK KÖYÜ","zip":"08100"},{"name":"TALGUM MAH.","zip":"08100"},{"name":"TANRIVERDİ MAH.","zip":"08100"},{"name":"TANZEK MAH.","zip":"08100"},{"name":"TAŞLICA KÖYÜ","zip":"08100"},{"name":"TEPEBAŞI MAH.","zip":"08100"},{"name":"TEPECİK MAH.","zip":"08100"},{"name":"TEPECİK(YESİRGİL) MAH.","zip":"08100"},{"name":"TIHNARA MAH.","zip":"08100"},{"name":"TIRAŞGİL MAH.","zip":"08100"},{"name":"TOPLUCA MAH.","zip":"08100"},{"name":"TOSUNLU MAH.","zip":"08100"},{"name":"TUSAKLAR MAH.","zip":"08100"},{"name":"TÜTÜNCÜLER KÖYÜ","zip":"08100"},{"name":"TÜTÜNCÜLERYAYLASI MAH.","zip":"08100"},{"name":"UĞUR(AŞAĞIMAH) MAH.","zip":"08100"},{"name":"UĞUR(HEKİMOĞLUMAH) MAH.","zip":"08100"},{"name":"UĞUR(MİJNABARA) MAH.","zip":"08100"},{"name":"UĞUR(YUKARIMAH) MAH.","zip":"08100"},{"name":"USKUP MAH.","zip":"08100"},{"name":"USLUFENT MAH.","zip":"08100"},{"name":"UYANIK MAH.","zip":"08100"},{"name":"UZUNDERE MAH.","zip":"08100"},{"name":"ÜÇDUT MAH.","zip":"08100"},{"name":"ÜÇPINAR MAH.","zip":"08100"},{"name":"VAKE MAH.","zip":"08100"},{"name":"VANAT MAH.","zip":"08100"},{"name":"VARLIK KÖYÜ","zip":"08100"},{"name":"VEHNAT MAH.","zip":"08100"},{"name":"VEZİRKÖY KÖYÜ","zip":"08100"},{"name":"VEZİRKÖYYAYLASI MAH.","zip":"08100"},{"name":"VEZİROĞLU MAH.","zip":"08100"},{"name":"YAMAÇLI MAH.","zip":"08100"},{"name":"YAMAÇLI YAYLASI MAH.","zip":"08100"},{"name":"YANIKLI KÖYÜ","zip":"08100"},{"name":"YANIKLI MAH.","zip":"08100"},{"name":"YAYLALAR MAH.","zip":"08100"},{"name":"YENİCE MAH.","zip":"08100"},{"name":"YENİGÜN MAH.","zip":"08100"},{"name":"YENİŞLİ MAH.","zip":"08100"},{"name":"YUKARI MAH.","zip":"08100"},{"name":"YUKARI SADRO MAH.","zip":"08100"},{"name":"YUKARI ŞEHİTLİK MAH.","zip":"08100"},{"name":"YUKARI TOLGUM MAH.","zip":"08100"},{"name":"YUKARIMADEN KÖYÜ","zip":"08100"},{"name":"ZEGONİ MAH.","zip":"08100"},{"name":"ZEYTİNLİK KÖYÜ","zip":"08100"},{"name":"ZOM MAH.","zip":"08100"},{"name":"ZORLU MAH.","zip":"08100"},{"name":"ZUVAR MAH.","zip":"08100"}]},{"name":"GÖKTAŞ","cityName":null,"quarters":null},{"name":"MERKEZKÖYLER","cityName":null,"quarters":[{"name":"AKANTAŞ KÖYÜ","zip":"08590"},{"name":"ARDIÇLI KÖYÜ","zip":"08590"},{"name":"ARSLANLI MAH.","zip":"08590"},{"name":"BAŞKÖY KÖYÜ","zip":"08590"},{"name":"BUDİYET MAH.","zip":"08590"},{"name":"ÇİMENLİ KÖYÜ","zip":"08590"},{"name":"DAMAR ÇARŞI MAH.","zip":"08590"},{"name":"DAMAR KÖYÜ","zip":"08590"},{"name":"EĞRİ SU YAYLASI MAH.","zip":"08590"},{"name":"ERENKÖY KÖYÜ","zip":"08590"},{"name":"GÖNÜLLÜ MAH.","zip":"08590"},{"name":"KABACA KÖYÜ","zip":"08590"},{"name":"KARŞIYAKA MAH.","zip":"08590"},{"name":"KORUCULAR KÖYÜ","zip":"08590"},{"name":"KURUÇAY MAH.","zip":"08590"},{"name":"KÜRE KÖYÜ","zip":"08590"},{"name":"MERKEZ MAH.","zip":"08590"},{"name":"ÖZMAL KÖYÜ","zip":"08590"},{"name":"PETEK KÖYÜ","zip":"08590"},{"name":"SALKAYA MAH.","zip":"08590"},{"name":"Y.BALABAN MAH.","zip":"08590"},{"name":"A.ŞİNDOBAN MAH.","zip":"08790"},{"name":"ABDULGİL MAH.","zip":"08790"},{"name":"ABDULOĞLU MAH.","zip":"08790"},{"name":"AGAGİL MAH.","zip":"08790"},{"name":"AGARA MAH.","zip":"08790"},{"name":"AGARA MEZRASI MAH.","zip":"08790"},{"name":"AĞAGİL MAH.","zip":"08790"},{"name":"AHALDABALILAR MAH.","zip":"08790"},{"name":"AHALGASGİL MAH.","zip":"08790"},{"name":"AHAŞEN MAH.","zip":"08790"},{"name":"AKDAMLA KÖYÜ","zip":"08790"},{"name":"AKGÖL MAH.","zip":"08790"},{"name":"AKKIRAÇ MAH.","zip":"08790"},{"name":"AKSAKALLAR MAH.","zip":"08790"},{"name":"AKSU MAH.","zip":"08790"},{"name":"ALAGÖZ MAH.","zip":"08790"},{"name":"ALİGİL MAH.","zip":"08790"},{"name":"ALTINOLUK MAH.","zip":"08790"},{"name":"ARÇİLER MAH.","zip":"08790"},{"name":"ARDIÇLI MAH.","zip":"08790"},{"name":"ARDIYASMINDA MAH.","zip":"08790"},{"name":"ARILAR MAH.","zip":"08790"},{"name":"ARIŞET MAH.","zip":"08790"},{"name":"ARKİYET MAH.","zip":"08790"},{"name":"ARPALI KÖYÜ","zip":"08790"},{"name":"ARSİYAN MAH.","zip":"08790"},{"name":"ARSİYAN YAYLASI MAH.","zip":"08790"},{"name":"ASNİGİL MAH.","zip":"08790"},{"name":"AŞAĞI BAĞLI MAH.","zip":"08790"},{"name":"AŞAĞI CAMİ MAH.","zip":"08790"},{"name":"AŞAĞI MAH.","zip":"08790"},{"name":"AŞAĞI TETRAKET MAH.","zip":"08790"},{"name":"AŞAĞIKOYUNLU KÖYÜ","zip":"08790"},{"name":"ATALAR KÖYÜ","zip":"08790"},{"name":"AVAZANAT MAH.","zip":"08790"},{"name":"AVCALA MAH.","zip":"08790"},{"name":"AVCILAR MAH.","zip":"08790"},{"name":"AYVAZGİL MAH.","zip":"08790"},{"name":"BAĞBAŞI MAH.","zip":"08790"},{"name":"BAĞCECİ MAH.","zip":"08790"},{"name":"BAĞCILAR MAH.","zip":"08790"},{"name":"BAĞÇUKUR MAH.","zip":"08790"},{"name":"BAĞLICA MAH.","zip":"08790"},{"name":"BAHÇECİK MAH.","zip":"08790"},{"name":"BAHÇEKAPI MAH.","zip":"08790"},{"name":"BAHÇELİ MAH.","zip":"08790"},{"name":"BALCILAR MAH.","zip":"08790"},{"name":"BALIKLI KÖYÜ","zip":"08790"},{"name":"BANA1 MAH.","zip":"08790"},{"name":"BANA2 MAH.","zip":"08790"},{"name":"BASAVRA MAH.","zip":"08790"},{"name":"BASKALLAR MAH.","zip":"08790"},{"name":"BAŞAĞAGİL MAH.","zip":"08790"},{"name":"BAŞKALE MAH.","zip":"08790"},{"name":"BAŞPINAR MAH.","zip":"08790"},{"name":"BAYIRCA MAH.","zip":"08790"},{"name":"BAYRAKTARLAR MAH.","zip":"08790"},{"name":"BECİTGİL MAH.","zip":"08790"},{"name":"BELTİYET MAH.","zip":"08790"},{"name":"BEREKGİL MAH.","zip":"08790"},{"name":"BERİYET MAH.","zip":"08790"},{"name":"BEŞEVLER MAH.","zip":"08790"},{"name":"BEYLER MAH.","zip":"08790"},{"name":"BEYLİK MAH.","zip":"08790"},{"name":"BİZİNGİL MAH.","zip":"08790"},{"name":"BORAĞAL MAH.","zip":"08790"},{"name":"BOZTOPRAK MAH.","zip":"08790"},{"name":"BUCAT MAH.","zip":"08790"},{"name":"BUÇİGİL MAH.","zip":"08790"},{"name":"BUDAKLI MAH.","zip":"08790"},{"name":"BUHAR MAH.","zip":"08790"},{"name":"BULUNTUGİL MAH.","zip":"08790"},{"name":"BÜYÜK KIŞLA MAH.","zip":"08790"},{"name":"BÜYÜK KKIŞLA MAH.","zip":"08790"},{"name":"CALACALAT MAH.","zip":"08790"},{"name":"CAMİ MAH.","zip":"08790"},{"name":"CANOĞLU MAH.","zip":"08790"},{"name":"CARAT MAH.","zip":"08790"},{"name":"CEDLİGİL MAH.","zip":"08790"},{"name":"CENGELEK MAH.","zip":"08790"},{"name":"CEVİZLİ KÖYÜ","zip":"08790"},{"name":"CEYLANLI MAH.","zip":"08790"},{"name":"CİMUHLAR MAH.","zip":"08790"},{"name":"CİNDAĞI MAH.","zip":"08790"},{"name":"CİNOLAR MAH.","zip":"08790"},{"name":"CİNŞARLAR MAH.","zip":"08790"},{"name":"CİRİGİL MAH.","zip":"08790"},{"name":"CİRİTDÜZÜ KÖYÜ","zip":"08790"},{"name":"COLA MAH.","zip":"08790"},{"name":"CUDES MAH.","zip":"08790"},{"name":"CURDA MAH.","zip":"08790"},{"name":"ÇAÇAT MAH.","zip":"08790"},{"name":"ÇAĞLAYAN YAYLASI MAH.","zip":"08790"},{"name":"ÇAĞLIPINAR KÖYÜ","zip":"08790"},{"name":"ÇAĞLIPINAR MAH.","zip":"08790"},{"name":"ÇAĞLIPINAR-2 MAH.","zip":"08790"},{"name":"ÇAĞLIYAN KÖYÜ","zip":"08790"},{"name":"ÇAKIRLI MAH.","zip":"08790"},{"name":"ÇAKVRİZELER MAH.","zip":"08790"},{"name":"ÇAMİ MAH.","zip":"08790"},{"name":"ÇAMLICA KÖYÜ","zip":"08790"},{"name":"ÇAMLITEPE MAH.","zip":"08790"},{"name":"ÇARBAŞI MAH.","zip":"08790"},{"name":"ÇATALKAYA MAH.","zip":"08790"},{"name":"ÇAVDARLI KÖYÜ","zip":"08790"},{"name":"ÇAVDARLI YAYLASI MAH.","zip":"08790"},{"name":"ÇAYAĞZI KÖYÜ","zip":"08790"},{"name":"ÇAYAĞZI MAH.","zip":"08790"},{"name":"ÇAYIRLAR MAH.","zip":"08790"},{"name":"ÇAYSALİZE MAH.","zip":"08790"},{"name":"ÇERMİK KÖYÜ","zip":"08790"},{"name":"ÇERMİK MAH.","zip":"08790"},{"name":"ÇİÇEKLİ MAH.","zip":"08790"},{"name":"ÇİÇEKLİ(KÜTAV) MAH.","zip":"08790"},{"name":"ÇİFTEHANLAR MAH.","zip":"08790"},{"name":"ÇİFTLİK KÖYÜ","zip":"08790"},{"name":"ÇİMENLİ MAH.","zip":"08790"},{"name":"ÇİVİZELER MAH.","zip":"08790"},{"name":"ÇİVLİK MAH.","zip":"08790"},{"name":"ÇİVO MAH.","zip":"08790"},{"name":"ÇORAKLI 2 MAH.","zip":"08790"},{"name":"ÇORAKLI KÖYÜ","zip":"08790"},{"name":"ÇORAKLI MAH.","zip":"08790"},{"name":"ÇUKUR 2 MAH.","zip":"08790"},{"name":"ÇUKUR KÖYÜ","zip":"08790"},{"name":"ÇUKUR MAH.","zip":"08790"},{"name":"ÇUKUR YAYLASI MAH.","zip":"08790"},{"name":"DADAŞGİL MAH.","zip":"08790"},{"name":"DALKIRMAZ KÖYÜ","zip":"08790"},{"name":"DAVLAUR MAH.","zip":"08790"},{"name":"DAVUTLAR MAH.","zip":"08790"},{"name":"DEDE MAH.","zip":"08790"},{"name":"DEDEAĞA MAH.","zip":"08790"},{"name":"DEMİRCİ KÖYÜ","zip":"08790"},{"name":"DEMİRCİGİL MAH.","zip":"08790"},{"name":"DEMİRCİLER MAH.","zip":"08790"},{"name":"DEMİRCİOĞLU MAH.","zip":"08790"},{"name":"DEMİRKAPI KÖYÜ","zip":"08790"},{"name":"DEMİRKAPI MAH.","zip":"08790"},{"name":"DERE MAH.","zip":"08790"},{"name":"DERECİK MAH.","zip":"08790"},{"name":"DEREİÇİ KÖYÜ","zip":"08790"},{"name":"DEREİÇİ MAH.","zip":"08790"},{"name":"DEVRİŞLER MAH.","zip":"08790"},{"name":"DICALA MAH.","zip":"08790"},{"name":"DİDMERE MAH.","zip":"08790"},{"name":"DODOKANA MAH.","zip":"08790"},{"name":"DOĞANDÜZÜ MAH.","zip":"08790"},{"name":"DOĞANLAR MAH.","zip":"08790"},{"name":"DRANKOĞLU MAH.","zip":"08790"},{"name":"DUĞABİZE MAH.","zip":"08790"},{"name":"DURSUNLAR MAH.","zip":"08790"},{"name":"DUTLU KÖYÜ","zip":"08790"},{"name":"DUTLU MAH.","zip":"08790"},{"name":"DÜKKANLAR MAH.","zip":"08790"},{"name":"DÜZ MAH.","zip":"08790"},{"name":"DÜZEBAKAN MAH.","zip":"08790"},{"name":"DÜZENLİ KÖYÜ","zip":"08790"},{"name":"DÜZENLİ YAYLASI MAH.","zip":"08790"},{"name":"EHERLİ MAH.","zip":"08790"},{"name":"EKİNCİLER MAH.","zip":"08790"},{"name":"ELMALI KÖYÜ","zip":"08790"},{"name":"ERİKLİ KÖYÜ","zip":"08790"},{"name":"ERİKLİ MAH.","zip":"08790"},{"name":"ESKİ CAMİ MAH.","zip":"08790"},{"name":"ESKİKALE KÖYÜ","zip":"08790"},{"name":"ESKİKALE MAH.","zip":"08790"},{"name":"ESKİYAYLA MAH.","zip":"08790"},{"name":"EYİPGİL MAH.","zip":"08790"},{"name":"GAGUNAVUR MAH.","zip":"08790"},{"name":"GENÇAĞAGİL MAH.","zip":"08790"},{"name":"GIGAZELER MAH.","zip":"08790"},{"name":"GOGELET MAH.","zip":"08790"},{"name":"GORGAZE MAH.","zip":"08790"},{"name":"GÖÇOĞULLARI MAH.","zip":"08790"},{"name":"GÖKNİZELER MAH.","zip":"08790"},{"name":"GÖKOVA MAH.","zip":"08790"},{"name":"GÖKYUVA MAH.","zip":"08790"},{"name":"GÜNDOĞDU MAH.","zip":"08790"},{"name":"GÜNKAYA (TOSU) MAH.","zip":"08790"},{"name":"GÜRSOY MAH.","zip":"08790"},{"name":"GÜRZELLAR MAH.","zip":"08790"},{"name":"GÜVEN MAH.","zip":"08790"},{"name":"GÜZELCE MAH.","zip":"08790"},{"name":"HABERLER MAH.","zip":"08790"},{"name":"HACILAR MAH.","zip":"08790"},{"name":"HACİGİL MAH.","zip":"08790"},{"name":"HAFİZOĞLU MAH.","zip":"08790"},{"name":"HALAZELER MAH.","zip":"08790"},{"name":"HALİFGİL MAH.","zip":"08790"},{"name":"HALOGİL MAH.","zip":"08790"},{"name":"HANLI KÖYÜ","zip":"08790"},{"name":"HAVACIOĞLU MAH.","zip":"08790"},{"name":"HAYTAGİL MAH.","zip":"08790"},{"name":"HAZNADAR MAH.","zip":"08790"},{"name":"HAZNEDAROĞULLARI MAH.","zip":"08790"},{"name":"HOCAGİL MAH.","zip":"08790"},{"name":"HOZANÇAYIR MAH.","zip":"08790"},{"name":"ILICA KÖYÜ","zip":"08790"},{"name":"İBRAHİMOĞLU MAH.","zip":"08790"},{"name":"İKİ SU ARASI MAH.","zip":"08790"},{"name":"İNKAVAR MAH.","zip":"08790"},{"name":"İSPİROĞLU MAH.","zip":"08790"},{"name":"KADİRGİL MAH.","zip":"08790"},{"name":"KAHVECİOĞLU MAH.","zip":"08790"},{"name":"KAMBATLAR MAH.","zip":"08790"},{"name":"KARAAĞAÇ KÖYÜ","zip":"08790"},{"name":"KARABİBER MAH.","zip":"08790"},{"name":"KARAGÖL MAH.","zip":"08790"},{"name":"KARAKÖY KÖYÜ","zip":"08790"},{"name":"KARİSAT MAH.","zip":"08790"},{"name":"KARŞI MAH.","zip":"08790"},{"name":"KARŞIYAKA MAH.","zip":"08790"},{"name":"KARTALLAR MAH.","zip":"08790"},{"name":"KAVACIK MAH.","zip":"08790"},{"name":"KAVAKLIK MAH.","zip":"08790"},{"name":"KAVUZOĞLU MAH.","zip":"08790"},{"name":"KAYABAŞI KÖYÜ","zip":"08790"},{"name":"KAYABAŞI MAH.","zip":"08790"},{"name":"KAYABEGLAR MAH.","zip":"08790"},{"name":"KAYADİBİ KÖYÜ","zip":"08790"},{"name":"KAYAOĞULLARI MAH.","zip":"08790"},{"name":"KILDIZİRET MAH.","zip":"08790"},{"name":"KIRIK MAH.","zip":"08790"},{"name":"KIŞLA MAH.","zip":"08790"},{"name":"KIŞLALAR MAH.","zip":"08790"},{"name":"KİRAZLI KÖYÜ","zip":"08790"},{"name":"KİREÇLİ KÖYÜ","zip":"08790"},{"name":"KOCABEY KÖYÜ","zip":"08790"},{"name":"KOCABEY MAH.","zip":"08790"},{"name":"KODANA MAH.","zip":"08790"},{"name":"KORTAHAZE MAH.","zip":"08790"},{"name":"KORUNGA MAH.","zip":"08790"},{"name":"KÖKLER MAH.","zip":"08790"},{"name":"KÖPRÜBAŞI MAH.","zip":"08790"},{"name":"KÖPRÜLÜ KÖYÜ","zip":"08790"},{"name":"KÖPRÜYAKA KÖYÜ","zip":"08790"},{"name":"KUMAŞLAR MAH.","zip":"08790"},{"name":"KUNELAR MAH.","zip":"08790"},{"name":"KURUDERE KÖYÜ","zip":"08790"},{"name":"KURUNDERE MAH.","zip":"08790"},{"name":"KÜPLÜCE KÖYÜ","zip":"08790"},{"name":"LİBAN MAH.","zip":"08790"},{"name":"MAÇKADET MAH.","zip":"08790"},{"name":"MADEN KÖYÜ","zip":"08790"},{"name":"MAHİGİL MAH.","zip":"08790"},{"name":"MAMOGİL MAH.","zip":"08790"},{"name":"MANASGİL MAH.","zip":"08790"},{"name":"MARİASMİNDA MAH.","zip":"08790"},{"name":"MEGRELOĞULLAR MAH.","zip":"08790"},{"name":"MELEKGİL MAH.","zip":"08790"},{"name":"MENEMŞE MAH.","zip":"08790"},{"name":"MERKEZ MAH.","zip":"08790"},{"name":"MEŞELİ KÖYÜ","zip":"08790"},{"name":"MEYDANCIK KÖYÜ","zip":"08790"},{"name":"MEYDANLAR MAH.","zip":"08790"},{"name":"MEZRA MAH.","zip":"08790"},{"name":"MISIRLI KÖYÜ","zip":"08790"},{"name":"MİKAZELER MAH.","zip":"08790"},{"name":"MOLLAGİL MAH.","zip":"08790"},{"name":"MOLLAOĞLU MAH.","zip":"08790"},{"name":"MORTLAZELAR MAH.","zip":"08790"},{"name":"MURATOĞLU MAH.","zip":"08790"},{"name":"MUTLUCA MAH.","zip":"08790"},{"name":"NADIROĞULLARI MAH.","zip":"08790"},{"name":"NAKUŞNEV MAH.","zip":"08790"},{"name":"NAPARNEV YAYLASI MAH.","zip":"08790"},{"name":"OBA KÖYÜ","zip":"08790"},{"name":"OBA MAH.","zip":"08790"},{"name":"ODABAŞLAR MAH.","zip":"08790"},{"name":"OGEÇE MAH.","zip":"08790"},{"name":"OKÇULAR MAH.","zip":"08790"},{"name":"OKUL MAH.","zip":"08790"},{"name":"OKURLAR MAH.","zip":"08790"},{"name":"OLUKLAR MAH.","zip":"08790"},{"name":"ORTA MAH.","zip":"08790"},{"name":"ORTA SAVAYİL MAH.","zip":"08790"},{"name":"ORUÇLU MAH.","zip":"08790"},{"name":"OTLUCA KÖYÜ","zip":"08790"},{"name":"OVACIK MAH.","zip":"08790"},{"name":"ÖRENCİK MAH.","zip":"08790"},{"name":"ÖZTÜRKLER MAH.","zip":"08790"},{"name":"PANCARLIK MAH.","zip":"08790"},{"name":"PANCARLIK2 MAH.","zip":"08790"},{"name":"PAPİYET MAH.","zip":"08790"},{"name":"PARUET MAH.","zip":"08790"},{"name":"PINARLI KÖYÜ","zip":"08790"},{"name":"PINARTARLA MAH.","zip":"08790"},{"name":"PİRPİZELER MAH.","zip":"08790"},{"name":"PUKŞALAR MAH.","zip":"08790"},{"name":"RABAT MAH.","zip":"08790"},{"name":"RAMADANGİL MAH.","zip":"08790"},{"name":"RECEPHANE MAH.","zip":"08790"},{"name":"SAHARA MAH.","zip":"08790"},{"name":"SAKDAR MAH.","zip":"08790"},{"name":"SAKİOĞLU MAH.","zip":"08790"},{"name":"SAKİRİYET MAH.","zip":"08790"},{"name":"SAKORNİYET MAH.","zip":"08790"},{"name":"SARAÇOĞLU MAH.","zip":"08790"},{"name":"SARIÇAYIR MAH.","zip":"08790"},{"name":"SARIÇİÇEK MAH.","zip":"08790"},{"name":"SARIKAVAK MAH.","zip":"08790"},{"name":"SARİKEVLA MAH.","zip":"08790"},{"name":"SARKİSEUL MAH.","zip":"08790"},{"name":"SASONGİL MAH.","zip":"08790"},{"name":"SATARBAŞI MAH.","zip":"08790"},{"name":"SAVAHİL MAH.","zip":"08790"},{"name":"SAVAŞ KÖYÜ","zip":"08790"},{"name":"SAVAYİL MAH.","zip":"08790"},{"name":"SAYLICA KÖYÜ","zip":"08790"},{"name":"SEBZELİ KÖYÜ","zip":"08790"},{"name":"SEBZELİ MAH.","zip":"08790"},{"name":"SEBZELİ. MAH.","zip":"08790"},{"name":"SERDALLAR MAH.","zip":"08790"},{"name":"SERGİCİ MAH.","zip":"08790"},{"name":"SIRT MAH.","zip":"08790"},{"name":"SOÇLİNDOR MAH.","zip":"08790"},{"name":"SUBAŞGİL MAH.","zip":"08790"},{"name":"SUSUZ KIŞLA MAH.","zip":"08790"},{"name":"SUSUZ KÖYÜ","zip":"08790"},{"name":"SUSUZ KÖYÜ MAH.","zip":"08790"},{"name":"SUSUZ MAH.","zip":"08790"},{"name":"ŞALCI KÖYÜ","zip":"08790"},{"name":"ŞALİKOĞLU MAH.","zip":"08790"},{"name":"ŞARTUL MAH.","zip":"08790"},{"name":"ŞATURLAR MAH.","zip":"08790"},{"name":"ŞENKÖY KÖYÜ","zip":"08790"},{"name":"ŞENOCAK KÖYÜ","zip":"08790"},{"name":"ŞENOCAK MAH.","zip":"08790"},{"name":"ŞEYHOĞLU MAH.","zip":"08790"},{"name":"ŞİRİNAĞAGİL MAH.","zip":"08790"},{"name":"ŞOBELALAR MAH.","zip":"08790"},{"name":"TABANOĞULLARI MAH.","zip":"08790"},{"name":"TARLABAŞI MAH.","zip":"08790"},{"name":"TAŞBAŞI MAH.","zip":"08790"},{"name":"TAŞKÖPRÜ KÖYÜ","zip":"08790"},{"name":"TAŞLI YAYLA MAH.","zip":"08790"},{"name":"TAVGOLA MAH.","zip":"08790"},{"name":"TEKDİLDE MAH.","zip":"08790"},{"name":"TEPEBAŞI KÖYÜ","zip":"08790"},{"name":"TEPEKÖY KÖYÜ","zip":"08790"},{"name":"TOKAZELER MAH.","zip":"08790"},{"name":"TOPCULAR MAH.","zip":"08790"},{"name":"TOPÇULAR MAH.","zip":"08790"},{"name":"TOPTAŞ MAH.","zip":"08790"},{"name":"TULAZELAR MAH.","zip":"08790"},{"name":"TURANGİL MAH.","zip":"08790"},{"name":"TURUTLAR MAH.","zip":"08790"},{"name":"ULUKENT MAH.","zip":"08790"},{"name":"ÜÇYOL MAH.","zip":"08790"},{"name":"ÜNYALLAR MAH.","zip":"08790"},{"name":"ÜZÜMLÜ KÖYÜ","zip":"08790"},{"name":"VAKET MAH.","zip":"08790"},{"name":"VELAT MAH.","zip":"08790"},{"name":"VELİKÖY KÖYÜ","zip":"08790"},{"name":"VELTA MAH.","zip":"08790"},{"name":"Y.KOYUNLU MAH.","zip":"08790"},{"name":"Y.ŞİNDOBAN MAH.","zip":"08790"},{"name":"YAĞLI KÖYÜ","zip":"08790"},{"name":"YAĞLI MAH.","zip":"08790"},{"name":"YAĞMURLU MAH.","zip":"08790"},{"name":"YAMAÇLI KÖYÜ","zip":"08790"},{"name":"YAŞAR KÖYÜ","zip":"08790"},{"name":"YAVUZKÖY KÖYÜ","zip":"08790"},{"name":"YAVUZKÖY MAH.","zip":"08790"},{"name":"YAYALAR MAH.","zip":"08790"},{"name":"YAYIKLI MAH.","zip":"08790"},{"name":"YENİ KIŞLA MAH.","zip":"08790"},{"name":"YENİ MAH.","zip":"08790"},{"name":"YENKAHOR MAH.","zip":"08790"},{"name":"YEŞİLCE KÖYÜ","zip":"08790"},{"name":"YEŞİLCE MAH.","zip":"08790"},{"name":"YEŞİLVADİ MAH.","zip":"08790"},{"name":"YILDIRIM MAH.","zip":"08790"},{"name":"YONCALI KÖYÜ","zip":"08790"},{"name":"YUKARI BAĞLI MAH.","zip":"08790"},{"name":"YUKARI CAMİ MAH.","zip":"08790"},{"name":"YUKARI MAH.","zip":"08790"},{"name":"YUKARI TETRAKET MAH.","zip":"08790"},{"name":"YUKARI YAYLA MAH.","zip":"08790"},{"name":"YUKARIKOYUNLU KÖYÜ","zip":"08790"},{"name":"ZAMİGİL MAH.","zip":"08790"},{"name":"ZANTA MAH.","zip":"08790"},{"name":"ZİYADOĞLU MAH.","zip":"08790"},{"name":"ZİYARET KÖYÜ","zip":"08790"},{"name":"ZİYARET MAH.","zip":"08790"}]},{"name":"ŞAVŞAT","cityName":null,"quarters":[{"name":"SÖĞÜTLÜ MAH.","zip":"08700"},{"name":"YENİKÖY MAH.","zip":"08700"}]},{"name":"MERKEZKÖYLER","cityName":null,"quarters":[{"name":"ABRAMET  -KAKRAZEVL MAH.","zip":"08890"},{"name":"ADA MAH.","zip":"08890"},{"name":"ADATEPE MAH.","zip":"08890"},{"name":"AĞAÇ DİBİ MAH.","zip":"08890"},{"name":"AĞAGİL MAH.","zip":"08890"},{"name":"AĞARA MAH.","zip":"08890"},{"name":"AHALT MAH.","zip":"08890"},{"name":"AHANGİL MAH.","zip":"08890"},{"name":"AHARŞEN MAH.","zip":"08890"},{"name":"AHARŞİN MAH.","zip":"08890"},{"name":"AHET MAH.","zip":"08890"},{"name":"AHMETOĞULLARI MAH.","zip":"08890"},{"name":"AHUT MAH.","zip":"08890"},{"name":"AKAKET MAH.","zip":"08890"},{"name":"AKARŞEN MAH.","zip":"08890"},{"name":"AKÇAY MAH.","zip":"08890"},{"name":"AKÇİÇEK MAH.","zip":"08890"},{"name":"AKMEŞE  MEZRASI MAH.","zip":"08890"},{"name":"AKMEŞE MAH.","zip":"08890"},{"name":"AKNEZOR MAH.","zip":"08890"},{"name":"ALANBAŞI KÖYÜ","zip":"08890"},{"name":"ALİGİL MAH.","zip":"08890"},{"name":"ALİKOLAT MAH.","zip":"08890"},{"name":"ALLOS MAH.","zip":"08890"},{"name":"ALTIPARMAK KÖYÜ","zip":"08890"},{"name":"AMENESKET MAH.","zip":"08890"},{"name":"ARAPGİL MAH.","zip":"08890"},{"name":"ARDIÇLI MAH.","zip":"08890"},{"name":"AREKE MAH.","zip":"08890"},{"name":"ARNUTGE MAH.","zip":"08890"},{"name":"ARPACIK KÖYÜ","zip":"08890"},{"name":"ARUNZE MAH.","zip":"08890"},{"name":"ASKENT MAH.","zip":"08890"},{"name":"ASLANLI MAH.","zip":"08890"},{"name":"ASLANOBA(GETHANE) MAH.","zip":"08890"},{"name":"AŞAĞI ÇAMLIK MAH.","zip":"08890"},{"name":"AŞAĞI GÜNEY MAH.","zip":"08890"},{"name":"AŞAĞI GÜP MAH.","zip":"08890"},{"name":"AŞAĞI MAH.","zip":"08890"},{"name":"AŞAĞI MİSUR MAH.","zip":"08890"},{"name":"AŞAĞI UBAN MAH.","zip":"08890"},{"name":"AŞAĞI VARMET (AŞAĞI ÇAĞLAR) MAH.","zip":"08890"},{"name":"AŞAĞI VARMET( AŞAĞI ÇAĞLAR) MAH.","zip":"08890"},{"name":"AŞIK MUHİBBİ MAH.","zip":"08890"},{"name":"ATAMAN MAH.","zip":"08890"},{"name":"ATAN(COGARA) MAH.","zip":"08890"},{"name":"ATBAŞI MAH.","zip":"08890"},{"name":"ATMİK MAH.","zip":"08890"},{"name":"AVAREK MAH.","zip":"08890"},{"name":"AVCILAR KÖYÜ","zip":"08890"},{"name":"AVREK MAH.","zip":"08890"},{"name":"AVRES MAH.","zip":"08890"},{"name":"AYAZGİL MAH.","zip":"08890"},{"name":"AYVALI MAH.","zip":"08890"},{"name":"BAÇUT MAH.","zip":"08890"},{"name":"BADEMKAYA KÖYÜ","zip":"08890"},{"name":"BADEMKAYA YAYLASI MAH.","zip":"08890"},{"name":"BAĞCI CAMİ MAH.","zip":"08890"},{"name":"BAĞCI MAH.","zip":"08890"},{"name":"BAĞLAR MAH.","zip":"08890"},{"name":"BAĞLIK (SAĞ) MAH.","zip":"08890"},{"name":"BAĞLIK MAH.","zip":"08890"},{"name":"BAHÇELİ KÖYÜ","zip":"08890"},{"name":"BAHTEV(DERECİK) MAH.","zip":"08890"},{"name":"BAKIRTEPE  YAYLASI MAH.","zip":"08890"},{"name":"BAKIRTEPE KÖYÜ","zip":"08890"},{"name":"BALALAN KÖYÜ","zip":"08890"},{"name":"BALCIGİL MAH.","zip":"08890"},{"name":"BALCILI KÖYÜ","zip":"08890"},{"name":"BALEZE MAH.","zip":"08890"},{"name":"BALHIBAR MAH.","zip":"08890"},{"name":"BALİYET MAH.","zip":"08890"},{"name":"BALLIDUT(GİVNAR) MAH.","zip":"08890"},{"name":"BAMBACIGİL MAH.","zip":"08890"},{"name":"BARIŞ  (ÇUMAT) MAH.","zip":"08890"},{"name":"BASELET-ZUVARE MAH.","zip":"08890"},{"name":"BASİLET MAH.","zip":"08890"},{"name":"BAŞ MAH.","zip":"08890"},{"name":"BAŞAKLI MAH.","zip":"08890"},{"name":"BAŞKERET MAH.","zip":"08890"},{"name":"BATHEV (DERECİK) MAH.","zip":"08890"},{"name":"BAUT MAH.","zip":"08890"},{"name":"BAYRAKTARGİL - VEYİSOĞLU MAH.","zip":"08890"},{"name":"BAYRAKTAROĞLU MAH.","zip":"08890"},{"name":"BEKSLER (DAMLATAŞ) MAH.","zip":"08890"},{"name":"BELENCİK MAH.","zip":"08890"},{"name":"BENARA MAH.","zip":"08890"},{"name":"BEŞKAVAK MAH.","zip":"08890"},{"name":"BEZ MAH.","zip":"08890"},{"name":"BIÇAKÇILAR KÖYÜ","zip":"08890"},{"name":"BİRADİYET MAH.","zip":"08890"},{"name":"BODURLAR MAH.","zip":"08890"},{"name":"BOĞAZ BAĞLIK MAH.","zip":"08890"},{"name":"BOROVAN MAH.","zip":"08890"},{"name":"BOROVANLAR MAH.","zip":"08890"},{"name":"BOSMİNDA MAH.","zip":"08890"},{"name":"BOSTANCI KÖYÜ","zip":"08890"},{"name":"BOYALI KÖYÜ","zip":"08890"},{"name":"BOZKUŞ MAH.","zip":"08890"},{"name":"BÖLÜKBAŞI MAH.","zip":"08890"},{"name":"BÖLÜKBAŞI MEZRASI MAH.","zip":"08890"},{"name":"BÖREKLİ (KÖSEOĞULLAR) MAH.","zip":"08890"},{"name":"BULT MAH.","zip":"08890"},{"name":"BURAT(VERİMLİ) MAH.","zip":"08890"},{"name":"BUSAKET MAH.","zip":"08890"},{"name":"BÜYÜK DÜZ MAH.","zip":"08890"},{"name":"CALA MAH.","zip":"08890"},{"name":"CALADİBİ MAH.","zip":"08890"},{"name":"CALAT (GÖKCELER) MAH.","zip":"08890"},{"name":"CAMEKAR( CAMİ) MAH.","zip":"08890"},{"name":"CAMİ  VE İHTİYAROĞLU MAH.","zip":"08890"},{"name":"CAMİ KAPISI MAH.","zip":"08890"},{"name":"CAMİ MAH.","zip":"08890"},{"name":"CAMİİ MAH.","zip":"08890"},{"name":"CAMİLİ MAH.","zip":"08890"},{"name":"CANCAK MAH.","zip":"08890"},{"name":"CANISKALA MAH.","zip":"08890"},{"name":"CANOL MAH.","zip":"08890"},{"name":"CARET MAH.","zip":"08890"},{"name":"CARKANA MAH.","zip":"08890"},{"name":"CATELLER MAH.","zip":"08890"},{"name":"CATELLER MEZRA MAH.","zip":"08890"},{"name":"CELİCVAR MAH.","zip":"08890"},{"name":"CENSAGARA MAH.","zip":"08890"},{"name":"CEVİZLİ MAH.","zip":"08890"},{"name":"CEVİZLİK KÖYÜ","zip":"08890"},{"name":"CİHALOR VE SİVANZOR MAH.","zip":"08890"},{"name":"CİNAGARA MAH.","zip":"08890"},{"name":"CİNNAR MAH.","zip":"08890"},{"name":"CİRES MAH.","zip":"08890"},{"name":"CİSELET MAH.","zip":"08890"},{"name":"CONZARET MAH.","zip":"08890"},{"name":"CORNAK MAH.","zip":"08890"},{"name":"CURET MAH.","zip":"08890"},{"name":"ÇAĞLAYAN MAH.","zip":"08890"},{"name":"ÇAĞLIYAN KÖYÜ","zip":"08890"},{"name":"ÇAKMAK MAH.","zip":"08890"},{"name":"ÇALILIK MAH.","zip":"08890"},{"name":"ÇALIŞKANLAR MAH.","zip":"08890"},{"name":"ÇAM YUVA MAH.","zip":"08890"},{"name":"ÇAMDİBİ MAH.","zip":"08890"},{"name":"ÇAMLIBEL MAH.","zip":"08890"},{"name":"ÇAMLICA KÖYÜ","zip":"08890"},{"name":"ÇAMLICA MAH.","zip":"08890"},{"name":"ÇAMLIK MAH.","zip":"08890"},{"name":"ÇAMOLUK MAH.","zip":"08890"},{"name":"ÇARMANET MAH.","zip":"08890"},{"name":"ÇARŞI MAH.","zip":"08890"},{"name":"ÇATALELMA MAH.","zip":"08890"},{"name":"ÇAVUŞGİL MAH.","zip":"08890"},{"name":"ÇAYAĞZI MAH.","zip":"08890"},{"name":"ÇAYIRİÇİ MAH.","zip":"08890"},{"name":"ÇAYIRLI (KAHLAR) MAH.","zip":"08890"},{"name":"ÇAYIRLI MAH.","zip":"08890"},{"name":"ÇELİK MAH.","zip":"08890"},{"name":"ÇELTİKDÜZÜ KÖYÜ","zip":"08890"},{"name":"ÇEVRELİ KÖYÜ","zip":"08890"},{"name":"ÇINAGARA MAH.","zip":"08890"},{"name":"ÇINARLI MAH.","zip":"08890"},{"name":"ÇIRALI KÖYÜ","zip":"08890"},{"name":"ÇİÇALA MAH.","zip":"08890"},{"name":"ÇİLKOSET MAH.","zip":"08890"},{"name":"ÇİLLİKET MAH.","zip":"08890"},{"name":"ÇİNSEGARA MAH.","zip":"08890"},{"name":"ÇİNTAT MAH.","zip":"08890"},{"name":"ÇİTOĞULLARI MAH.","zip":"08890"},{"name":"ÇOBANSUYU MAH.","zip":"08890"},{"name":"ÇOLAKOĞLU MAH.","zip":"08890"},{"name":"ÇONCUR MAH.","zip":"08890"},{"name":"ÇORAHLAKET MAH.","zip":"08890"},{"name":"ÇÖRGENS MAH.","zip":"08890"},{"name":"ÇUBUKLU MAH.","zip":"08890"},{"name":"ÇUKUR MAH.","zip":"08890"},{"name":"ÇUVAR MAH.","zip":"08890"},{"name":"DAGİR MAH.","zip":"08890"},{"name":"DAĞETEĞİ KÖYÜ","zip":"08890"},{"name":"DAĞEZE MAH.","zip":"08890"},{"name":"DAMLACIK MAH.","zip":"08890"},{"name":"DARICA KÖYÜ","zip":"08890"},{"name":"DARNUÇ MAH.","zip":"08890"},{"name":"DART MAH.","zip":"08890"},{"name":"DARTAV MAH.","zip":"08890"},{"name":"DEDEHAL MAH.","zip":"08890"},{"name":"DEĞİRMENCİK MAH.","zip":"08890"},{"name":"DELİGİL MAH.","zip":"08890"},{"name":"DELİGİL( CİLVANA) MAH.","zip":"08890"},{"name":"DEMİRCİGİL MAH.","zip":"08890"},{"name":"DEMİRDÖVEN KÖYÜ","zip":"08890"},{"name":"DEMİRKALEM  MEZRA MAH.","zip":"08890"},{"name":"DEMİRKALEM MAH.","zip":"08890"},{"name":"DEMİRKENT KÖYÜ","zip":"08890"},{"name":"DEMİRKÖY KÖYÜ","zip":"08890"},{"name":"DERE MAH.","zip":"08890"},{"name":"DEREBAŞI MAH.","zip":"08890"},{"name":"DEREİÇİ KÖYÜ","zip":"08890"},{"name":"DEREİÇİ MAH.","zip":"08890"},{"name":"DEREKAPI MAH.","zip":"08890"},{"name":"DEVTİSE MAH.","zip":"08890"},{"name":"DİB MAH.","zip":"08890"},{"name":"DİBE MAH.","zip":"08890"},{"name":"DİDMUĞA MAH.","zip":"08890"},{"name":"DİDVAKE MAH.","zip":"08890"},{"name":"DİKMELER MAH.","zip":"08890"},{"name":"DİYAKEN (GÖKÇALA) MAH.","zip":"08890"},{"name":"DİZANOT MAH.","zip":"08890"},{"name":"DOĞANKARA MAH.","zip":"08890"},{"name":"DOKUMACILAR KÖYÜ","zip":"08890"},{"name":"DOLEYS MAH.","zip":"08890"},{"name":"DOLUPINAR MAH.","zip":"08890"},{"name":"DURUÇAY MAH.","zip":"08890"},{"name":"DUTDERE MAH.","zip":"08890"},{"name":"DUTLUPINAR MAH.","zip":"08890"},{"name":"DÜĞÜNLÜ MAH.","zip":"08890"},{"name":"DÜZCE MAH.","zip":"08890"},{"name":"DÜZLER MAH.","zip":"08890"},{"name":"DÜZYOL(KACOL) MAH.","zip":"08890"},{"name":"EĞRİTAŞ MAH.","zip":"08890"},{"name":"EHERLİ (HAĞ) MAH.","zip":"08890"},{"name":"EKUTER MAH.","zip":"08890"},{"name":"EMETOĞLU MAH.","zip":"08890"},{"name":"ENGÜLLÜ MAH.","zip":"08890"},{"name":"ERENKÖY KÖYÜ","zip":"08890"},{"name":"ERİSMAN MAH.","zip":"08890"},{"name":"ESENDAL KÖYÜ","zip":"08890"},{"name":"ESENTEPE MAH.","zip":"08890"},{"name":"ESENYAKA KÖYÜ","zip":"08890"},{"name":"ESKİ CAMİ MAH.","zip":"08890"},{"name":"ESKİYAYLA MAH.","zip":"08890"},{"name":"ESPEK MAH.","zip":"08890"},{"name":"EYGAR MAH.","zip":"08890"},{"name":"GABANDİBİ MAH.","zip":"08890"},{"name":"GAÇAVRE MAH.","zip":"08890"},{"name":"GALDAMAK MAH.","zip":"08890"},{"name":"GASMALİKET MAH.","zip":"08890"},{"name":"GAVNAR MAH.","zip":"08890"},{"name":"GAVRANZOR MAH.","zip":"08890"},{"name":"GEDİKLİ TAŞ MAH.","zip":"08890"},{"name":"GEVLET MAH.","zip":"08890"},{"name":"GEVRAKE MAH.","zip":"08890"},{"name":"GEZLOR MAH.","zip":"08890"},{"name":"GOCOĞET MAH.","zip":"08890"},{"name":"GOMELT MAH.","zip":"08890"},{"name":"GORİYET MAH.","zip":"08890"},{"name":"GOSTAGARA MAH.","zip":"08890"},{"name":"GÖÇYET MAH.","zip":"08890"},{"name":"GÖKÇESU MAH.","zip":"08890"},{"name":"GÖLDERE MAH.","zip":"08890"},{"name":"GÖRGÜLÜ MAH.","zip":"08890"},{"name":"GÖTEYARA MAH.","zip":"08890"},{"name":"GÖZECİK MAH.","zip":"08890"},{"name":"GURGUNZE MAH.","zip":"08890"},{"name":"GUYRET MAH.","zip":"08890"},{"name":"GÜDASHEV MAH.","zip":"08890"},{"name":"GÜLOĞLU MAH.","zip":"08890"},{"name":"GÜMÜŞÖZÜ KÖYÜ","zip":"08890"},{"name":"GÜMÜŞÖZÜYAYLASI MAH.","zip":"08890"},{"name":"GÜNAYDIN MAH.","zip":"08890"},{"name":"GÜNDOĞDU MAH.","zip":"08890"},{"name":"GÜNDÜZ MAH.","zip":"08890"},{"name":"GÜNEY MAH.","zip":"08890"},{"name":"GÜNGÖRMEZ MAH.","zip":"08890"},{"name":"GÜNYAYLA KÖYÜ","zip":"08890"},{"name":"GÜRMAŞIN MAH.","zip":"08890"},{"name":"GÜVALA MAH.","zip":"08890"},{"name":"GÜVEN  (GASİBET) MAH.","zip":"08890"},{"name":"GÜZELYURT (SİNAVET) MAH.","zip":"08890"},{"name":"HACERET MAH.","zip":"08890"},{"name":"HACIGİL MAH.","zip":"08890"},{"name":"HACIOĞLAR MAH.","zip":"08890"},{"name":"HACIOĞLU MAH.","zip":"08890"},{"name":"HACIOĞULLARI MAH.","zip":"08890"},{"name":"HACIOSMANGİL MAH.","zip":"08890"},{"name":"HACOĞLAR MAH.","zip":"08890"},{"name":"HAKALI MAH.","zip":"08890"},{"name":"HAKVERDİ MAH.","zip":"08890"},{"name":"HANTAL MAH.","zip":"08890"},{"name":"HANZARAT MAH.","zip":"08890"},{"name":"HARAN MAH.","zip":"08890"},{"name":"HARAT MAH.","zip":"08890"},{"name":"HARŞİGİL MAH.","zip":"08890"},{"name":"HASET MAH.","zip":"08890"},{"name":"HATAGARA MAH.","zip":"08890"},{"name":"HAV BAĞLARI MAH.","zip":"08890"},{"name":"HAVUZBAŞI MAH.","zip":"08890"},{"name":"HAVUZLU KÖYÜ","zip":"08890"},{"name":"HIDIROĞLU MAH.","zip":"08890"},{"name":"HINZIHOV MAH.","zip":"08890"},{"name":"HIRCİK MAH.","zip":"08890"},{"name":"HİLDİSHAV MAH.","zip":"08890"},{"name":"HİNZASOR MAH.","zip":"08890"},{"name":"HİŞNET MAH.","zip":"08890"},{"name":"HOCAGİL MAH.","zip":"08890"},{"name":"HOCAGİLLER MAH.","zip":"08890"},{"name":"HORK MAH.","zip":"08890"},{"name":"HOSİLET MAH.","zip":"08890"},{"name":"HOSTAGARA MAH.","zip":"08890"},{"name":"HOTMARA MAH.","zip":"08890"},{"name":"HUMETGİL MAH.","zip":"08890"},{"name":"HUNAHATKAR MAH.","zip":"08890"},{"name":"HURŞİTGİL MAH.","zip":"08890"},{"name":"HUSİLLAR MAH.","zip":"08890"},{"name":"HUSURET MAH.","zip":"08890"},{"name":"HÜSEYİN HÜSNÜ PAŞA MAH.","zip":"08890"},{"name":"IRMAKYANI KÖYÜ","zip":"08890"},{"name":"IRMAKYANI MAH.","zip":"08890"},{"name":"İKİZKAYA MAH.","zip":"08890"},{"name":"İMAMGİL MAH.","zip":"08890"},{"name":"İMEN ÇİMEN MAH.","zip":"08890"},{"name":"İNANLI KÖYÜ","zip":"08890"},{"name":"İNCETEPE MAH.","zip":"08890"},{"name":"İNTGOR MAH.","zip":"08890"},{"name":"İPİNT MAH.","zip":"08890"},{"name":"İSPANDİK MAH.","zip":"08890"},{"name":"İSRET(BAYINDIR) MAH.","zip":"08890"},{"name":"İŞHAN KÖYÜ","zip":"08890"},{"name":"KADI KIŞLA MAH.","zip":"08890"},{"name":"KADIOĞLU MAH.","zip":"08890"},{"name":"KAĞLIK MAH.","zip":"08890"},{"name":"KAHRAMANGİL MAH.","zip":"08890"},{"name":"KAHRAMANLAR MAH.","zip":"08890"},{"name":"KALE SABIR MAH.","zip":"08890"},{"name":"KALEDİBİ (KARŞI) MAH.","zip":"08890"},{"name":"KALEDİBİ MAH.","zip":"08890"},{"name":"KALMAĞOT MAH.","zip":"08890"},{"name":"KAMNEGARA MAH.","zip":"08890"},{"name":"KANATLI MAH.","zip":"08890"},{"name":"KANET MAH.","zip":"08890"},{"name":"KANNET MAH.","zip":"08890"},{"name":"KANSAS MAH.","zip":"08890"},{"name":"KARACAOĞLAN ( POLİSTAV) MAH.","zip":"08890"},{"name":"KARAGÖZOĞULLARI MAH.","zip":"08890"},{"name":"KARAGÖZOĞULLARI MEZRA MAH.","zip":"08890"},{"name":"KARAHANLAR MAH.","zip":"08890"},{"name":"KARAMANLAR MAH.","zip":"08890"},{"name":"KARAMEŞE MAH.","zip":"08890"},{"name":"KARAMEZRA MAH.","zip":"08890"},{"name":"KARAYİĞİT MAH.","zip":"08890"},{"name":"KARBASAN MAH.","zip":"08890"},{"name":"KARMUSÖR MAH.","zip":"08890"},{"name":"KARŞI MAH.","zip":"08890"},{"name":"KARŞIKÖY (CAMİ) MAH.","zip":"08890"},{"name":"KARTUTAN MAH.","zip":"08890"},{"name":"KARVANA MAH.","zip":"08890"},{"name":"KARZEL MAH.","zip":"08890"},{"name":"KAŞIKÇIGİL MAH.","zip":"08890"},{"name":"KATOLİK MAH.","zip":"08890"},{"name":"KATVANA MAH.","zip":"08890"},{"name":"KAVAKLIDERE MAH.","zip":"08890"},{"name":"KAYABAŞI MAH.","zip":"08890"},{"name":"KAYAGİL MAH.","zip":"08890"},{"name":"KAYMAKLI MAH.","zip":"08890"},{"name":"KAYMAZ MAH.","zip":"08890"},{"name":"KAYNARCA MAH.","zip":"08890"},{"name":"KEDA MAH.","zip":"08890"},{"name":"KEDAS MAH.","zip":"08890"},{"name":"KELAZOR MAH.","zip":"08890"},{"name":"KELENSEV MAH.","zip":"08890"},{"name":"KELEŞ MAH.","zip":"08890"},{"name":"KERAT (YAPICI) MAH.","zip":"08890"},{"name":"KEREMOĞLU MAH.","zip":"08890"},{"name":"KERTİCİLER MAH.","zip":"08890"},{"name":"KERVAN TEPE MAH.","zip":"08890"},{"name":"KESBERLER MAH.","zip":"08890"},{"name":"KEŞOĞLU YAYLA MAH.","zip":"08890"},{"name":"KETKET (AKALAN) MAH.","zip":"08890"},{"name":"KETKET MAH.","zip":"08890"},{"name":"KILIÇKAYA KÖYÜ","zip":"08890"},{"name":"KINALIÇAM KÖYÜ","zip":"08890"},{"name":"KIR MAH.","zip":"08890"},{"name":"KIRAVET MAH.","zip":"08890"},{"name":"KIRMA MAH.","zip":"08890"},{"name":"KIŞLA MAH.","zip":"08890"},{"name":"KITAVET MAH.","zip":"08890"},{"name":"KIVRAK MAH.","zip":"08890"},{"name":"KİDAZOR MAH.","zip":"08890"},{"name":"KİLETKAR MAH.","zip":"08890"},{"name":"KİRAVAT MAH.","zip":"08890"},{"name":"KİRAZALAN KÖYÜ","zip":"08890"},{"name":"KİRAZLI (AŞAĞI IRGUT) MAH.","zip":"08890"},{"name":"KİRAZLI (CELDİYET) MAH.","zip":"08890"},{"name":"KİRAZLI (YUKARI IRGUT) MAH.","zip":"08890"},{"name":"KİRAZLI MAH.","zip":"08890"},{"name":"KİRTİYİT MAH.","zip":"08890"},{"name":"KOBALET MAH.","zip":"08890"},{"name":"KOCA AĞA (ŞİRİN) MAH.","zip":"08890"},{"name":"KOÇAKLAR MAH.","zip":"08890"},{"name":"KOÇALİGİL MAH.","zip":"08890"},{"name":"KOÇAT MAH.","zip":"08890"},{"name":"KOÇKET MAH.","zip":"08890"},{"name":"KOLETET MAH.","zip":"08890"},{"name":"KOLOGİL MAH.","zip":"08890"},{"name":"KOLORTA MAH.","zip":"08890"},{"name":"KONNİYET MAH.","zip":"08890"},{"name":"KORNET MAH.","zip":"08890"},{"name":"KORYET MAH.","zip":"08890"},{"name":"KOŞNAHAL MAH.","zip":"08890"},{"name":"KOŞUYOLU(KOZANET) MAH.","zip":"08890"},{"name":"KÖMÜRLÜ KÖYÜ","zip":"08890"},{"name":"KÖPRÜBAŞI MAH.","zip":"08890"},{"name":"KÖPRÜGÖREN KÖYÜ","zip":"08890"},{"name":"KÖRAHMET MAH.","zip":"08890"},{"name":"KÖŞEBAŞI MAH.","zip":"08890"},{"name":"KÖY YANI MAH.","zip":"08890"},{"name":"KÖYBAŞI MAH.","zip":"08890"},{"name":"KRAYEKAR (CAMİİ) MAH.","zip":"08890"},{"name":"KUMLU  MEZRASI MAH.","zip":"08890"},{"name":"KUMLU MAH.","zip":"08890"},{"name":"KUPRAT MAH.","zip":"08890"},{"name":"KUPRİYET MAH.","zip":"08890"},{"name":"KURTGİL MAH.","zip":"08890"},{"name":"KUZEY  (BABUTOĞLU) MAH.","zip":"08890"},{"name":"KUZEY MAH.","zip":"08890"},{"name":"KUZLUCA MAH.","zip":"08890"},{"name":"KÜÇÜK ÇATALELMA MAH.","zip":"08890"},{"name":"KÜÇÜK KAVAKLIDERE MAH.","zip":"08890"},{"name":"KÜÇÜK MAH.","zip":"08890"},{"name":"KÜPLÜCE KÖYÜ","zip":"08890"},{"name":"LAÇİNOĞLU MAH.","zip":"08890"},{"name":"LAVAŞEN MAH.","zip":"08890"},{"name":"LAZGİL MAH.","zip":"08890"},{"name":"LAZLAR MAH.","zip":"08890"},{"name":"LAZOĞLU MAH.","zip":"08890"},{"name":"LEKNAR MAH.","zip":"08890"},{"name":"LELVAR MAH.","zip":"08890"},{"name":"LİTREV MAH.","zip":"08890"},{"name":"LUKASET MAH.","zip":"08890"},{"name":"M.CAMİ MAH.","zip":"08890"},{"name":"MAÇHETLER MAH.","zip":"08890"},{"name":"MAĞARA MAH.","zip":"08890"},{"name":"MAHİK MAH.","zip":"08890"},{"name":"MAHMİYOĞLAR MAH.","zip":"08890"},{"name":"MARAŞ MAH.","zip":"08890"},{"name":"MEREKLER MAH.","zip":"08890"},{"name":"MERKEZ  YARBAŞI MAH.","zip":"08890"},{"name":"MERKEZ  YUKARI MAH.","zip":"08890"},{"name":"MERKEZ MAH.","zip":"08890"},{"name":"MERKEZ OGEÇE MAH.","zip":"08890"},{"name":"MERKEZ OSANBAŞI MAH.","zip":"08890"},{"name":"MEŞECİK KÖYÜ","zip":"08890"},{"name":"MEVLA MAH.","zip":"08890"},{"name":"MEYDAN MAH.","zip":"08890"},{"name":"MEZARLIK MAH.","zip":"08890"},{"name":"MEZRA MAH.","zip":"08890"},{"name":"MISIROĞULLARI MAH.","zip":"08890"},{"name":"MISTAFAGİL MAH.","zip":"08890"},{"name":"MİÇİNGİL MAH.","zip":"08890"},{"name":"MİYLES MAH.","zip":"08890"},{"name":"MODUT MAH.","zip":"08890"},{"name":"MOLLA ÖMER MAH.","zip":"08890"},{"name":"MORKAYA KÖYÜ","zip":"08890"},{"name":"MOŞNAR-GİMNAR MAH.","zip":"08890"},{"name":"MURHAÇGİL (DUTLUK) MAH.","zip":"08890"},{"name":"MUSAGİL MAH.","zip":"08890"},{"name":"MUŞABES MAH.","zip":"08890"},{"name":"MUTLUGÜN KÖYÜ","zip":"08890"},{"name":"NAHSİT MAH.","zip":"08890"},{"name":"NAKERAV MAH.","zip":"08890"},{"name":"NAKORT-SAKISDELA MAH.","zip":"08890"},{"name":"NARCİVEL MAH.","zip":"08890"},{"name":"NARLIK KÖYÜ","zip":"08890"},{"name":"NAVANEV -DALAVAR MAH.","zip":"08890"},{"name":"NAZNARA MAH.","zip":"08890"},{"name":"NESLİGARA MAH.","zip":"08890"},{"name":"NİYART MAH.","zip":"08890"},{"name":"NÖBETKET MAH.","zip":"08890"},{"name":"NUSRET -KURDAT YAYLA MAH.","zip":"08890"},{"name":"ODUN DEPOSU MAH.","zip":"08890"},{"name":"OGEÇA MAH.","zip":"08890"},{"name":"OKURDAĞI MAH.","zip":"08890"},{"name":"OLGUNLAR MAH.","zip":"08890"},{"name":"ORMAN AĞZI MAH.","zip":"08890"},{"name":"ORMANDİBİ KÖYÜ","zip":"08890"},{"name":"ORMANDİBİ MAH.","zip":"08890"},{"name":"ORTA  CAMİ MAH.","zip":"08890"},{"name":"ORTA  ORTA MAH.","zip":"08890"},{"name":"ORTA MAH.","zip":"08890"},{"name":"ORTA VARMET (ORTA ÇAĞLAR) MAH.","zip":"08890"},{"name":"ORTA VARMET(ORTA ÇAĞLAR) MAH.","zip":"08890"},{"name":"ORTAGÜL MAH.","zip":"08890"},{"name":"ORTAKLAR MAH.","zip":"08890"},{"name":"ÖĞDEM KÖYÜ","zip":"08890"},{"name":"ÖMERGİL MAH.","zip":"08890"},{"name":"ÖZENLİ(ŞAĞVALET) MAH.","zip":"08890"},{"name":"ÖZGÜVEN KÖYÜ","zip":"08890"},{"name":"PALSUYU MAH.","zip":"08890"},{"name":"PAMUKÇULAR KÖYÜ","zip":"08890"},{"name":"PAMUKLUK MAH.","zip":"08890"},{"name":"PANÇET MAH.","zip":"08890"},{"name":"PARHAT MAH.","zip":"08890"},{"name":"PAŞA MAH.","zip":"08890"},{"name":"PAŞALAR MAH.","zip":"08890"},{"name":"PATRİKARA MAH.","zip":"08890"},{"name":"PERSET MAH.","zip":"08890"},{"name":"PEVZALAR MAH.","zip":"08890"},{"name":"PINARBAŞI MAH.","zip":"08890"},{"name":"PINARLI (KADIYET) MAH.","zip":"08890"},{"name":"PINARLI MAH.","zip":"08890"},{"name":"PİÇHET MAH.","zip":"08890"},{"name":"PİKALTAY MAH.","zip":"08890"},{"name":"PİRİNÇLİK(BAĞLIK) MAH.","zip":"08890"},{"name":"PİSİGARA MAH.","zip":"08890"},{"name":"PİŞAR YAYLASI MAH.","zip":"08890"},{"name":"PİŞHANKARA MAH.","zip":"08890"},{"name":"PİŞNAR MAH.","zip":"08890"},{"name":"PİŞNARHEV MAH.","zip":"08890"},{"name":"POSO MAH.","zip":"08890"},{"name":"POSOVAT MAH.","zip":"08890"},{"name":"POTHANE  -CECED MAH.","zip":"08890"},{"name":"PUÇ MAH.","zip":"08890"},{"name":"PUSAGARA MAH.","zip":"08890"},{"name":"RECEPGİL MAH.","zip":"08890"},{"name":"SAATOL MAH.","zip":"08890"},{"name":"SABAHTE MAH.","zip":"08890"},{"name":"SABANET MAH.","zip":"08890"},{"name":"SABZUVAN MAH.","zip":"08890"},{"name":"SADIKHANE MAH.","zip":"08890"},{"name":"SAKAT MAH.","zip":"08890"},{"name":"SAKAVİ MAH.","zip":"08890"},{"name":"SAKURA MAH.","zip":"08890"},{"name":"SAKUT - NATO MAH.","zip":"08890"},{"name":"SAKUT MAH.","zip":"08890"},{"name":"SALBET MAH.","zip":"08890"},{"name":"SALKANA MAH.","zip":"08890"},{"name":"SAMCELİYAT MAH.","zip":"08890"},{"name":"SAMİSAGARA MAH.","zip":"08890"},{"name":"SANDIKLI MAH.","zip":"08890"},{"name":"SANİKOR MAH.","zip":"08890"},{"name":"SARGÜLE MAH.","zip":"08890"},{"name":"SARIERİK MAH.","zip":"08890"},{"name":"SARIGÖL MAH.","zip":"08890"},{"name":"SARIKOÇ MAH.","zip":"08890"},{"name":"SASEPEL (YENİCE) MAH.","zip":"08890"},{"name":"SATBİGÖR MAH.","zip":"08890"},{"name":"SATIHE MAH.","zip":"08890"},{"name":"SATİBE MAH.","zip":"08890"},{"name":"SAVRİYAT MAH.","zip":"08890"},{"name":"SEBZECİLER KÖYÜ","zip":"08890"},{"name":"SEKU(TAŞLICA) MAH.","zip":"08890"},{"name":"SEPEGAR MAH.","zip":"08890"},{"name":"SEPEGARA MAH.","zip":"08890"},{"name":"SERGAT MAH.","zip":"08890"},{"name":"SERİNSU KÖYÜ","zip":"08890"},{"name":"SERİNTEPE MAH.","zip":"08890"},{"name":"SETHET MAH.","zip":"08890"},{"name":"SIHİYAT MAH.","zip":"08890"},{"name":"SIRT MAH.","zip":"08890"},{"name":"SIRTÜSTÜ MAH.","zip":"08890"},{"name":"SİCEK MAH.","zip":"08890"},{"name":"SİLEMİNTA MAH.","zip":"08890"},{"name":"SİMAĞET MAH.","zip":"08890"},{"name":"SİPRİYET MAH.","zip":"08890"},{"name":"SOFUOĞLU MAH.","zip":"08890"},{"name":"SOĞUK OLUK MAH.","zip":"08890"},{"name":"SOĞUKSU MAH.","zip":"08890"},{"name":"SOŞT MAH.","zip":"08890"},{"name":"SÖĞÜTLÜ MAH.","zip":"08890"},{"name":"SÖĞÜTÖNÜ MAH.","zip":"08890"},{"name":"SUBABARA MAH.","zip":"08890"},{"name":"SUHPEÇ MAH.","zip":"08890"},{"name":"SUKAVUŞUMU MAH.","zip":"08890"},{"name":"SULTANGİL MAH.","zip":"08890"},{"name":"SULTANGİL YAYLASI MAH.","zip":"08890"},{"name":"SULUOVA MAH.","zip":"08890"},{"name":"SURA MAH.","zip":"08890"},{"name":"SURHAN-TEREK  OĞULLARI MAH.","zip":"08890"},{"name":"SURNAT MAH.","zip":"08890"},{"name":"SUSUZAGARA MAH.","zip":"08890"},{"name":"SUVAK MAH.","zip":"08890"},{"name":"SÜTLÜCE (KÖY MERKEZİ) MAH.","zip":"08890"},{"name":"SÜTLÜCE KÖYÜ","zip":"08890"},{"name":"SÜTLÜPINAR(CANİYET) MAH.","zip":"08890"},{"name":"ŞABANGİL  - ZEKARATLAR MAH.","zip":"08890"},{"name":"ŞAPET MAH.","zip":"08890"},{"name":"ŞATIROĞLU MAH.","zip":"08890"},{"name":"ŞAVLAK MAH.","zip":"08890"},{"name":"ŞAVŞAT MAH.","zip":"08890"},{"name":"ŞEHİTLİK MAH.","zip":"08890"},{"name":"ŞÖTGET MAH.","zip":"08890"},{"name":"TAHNAGARA MAH.","zip":"08890"},{"name":"TANDIRKAYA MAH.","zip":"08890"},{"name":"TARAKÇILAR KÖYÜ","zip":"08890"},{"name":"TARPOGİL MAH.","zip":"08890"},{"name":"TAŞBAŞI MAH.","zip":"08890"},{"name":"TAŞDELEN MAH.","zip":"08890"},{"name":"TAŞDİBİ MAH.","zip":"08890"},{"name":"TAŞKENT MAH.","zip":"08890"},{"name":"TAŞKIRAN KÖYÜ","zip":"08890"},{"name":"TAŞKÖPRÜ(CONET) MAH.","zip":"08890"},{"name":"TAŞLI (AŞAĞI) MAH.","zip":"08890"},{"name":"TATLIÇAY MAH.","zip":"08890"},{"name":"TEKKALE KÖYÜ","zip":"08890"},{"name":"TEPE MAH.","zip":"08890"},{"name":"TİBET MAH.","zip":"08890"},{"name":"TİLKİ MAH.","zip":"08890"},{"name":"TOKAT(TALIÇAYIR) MAH.","zip":"08890"},{"name":"TOPALOĞLU MAH.","zip":"08890"},{"name":"TORNİYAT MAH.","zip":"08890"},{"name":"TURNALAR MAH.","zip":"08890"},{"name":"TUSPİR MAH.","zip":"08890"},{"name":"UCAR MAH.","zip":"08890"},{"name":"URUMGİL MAH.","zip":"08890"},{"name":"USUPGİL MAH.","zip":"08890"},{"name":"UTLETLER MAH.","zip":"08890"},{"name":"UYSALLAR MAH.","zip":"08890"},{"name":"UZUN MAH.","zip":"08890"},{"name":"ÜZÜMLÜ MAH.","zip":"08890"},{"name":"VAÇEKAR MAH.","zip":"08890"},{"name":"VAÇGET MAH.","zip":"08890"},{"name":"VAKE MAH.","zip":"08890"},{"name":"VAKET MAH.","zip":"08890"},{"name":"VAN(GÜRSU) MAH.","zip":"08890"},{"name":"VANAT-GEDEVNET-LAŞET MAH.","zip":"08890"},{"name":"VARLIK MAH.","zip":"08890"},{"name":"VARTKEN MAH.","zip":"08890"},{"name":"VEHLAN MAH.","zip":"08890"},{"name":"VEHNAL MAH.","zip":"08890"},{"name":"VELİGİL MAH.","zip":"08890"},{"name":"VERNEŞ MAH.","zip":"08890"},{"name":"VİNK BAĞLIĞI MAH.","zip":"08890"},{"name":"YAĞCILAR KÖYÜ","zip":"08890"},{"name":"YAĞMURÇAY MAH.","zip":"08890"},{"name":"YAKALI MAH.","zip":"08890"},{"name":"YAKARI ÇAMLIK MAH.","zip":"08890"},{"name":"YAMAÇÜSTÜ KÖYÜ","zip":"08890"},{"name":"YANIK ALUZAR HAKANET MAH.","zip":"08890"},{"name":"YANIK MAH.","zip":"08890"},{"name":"YARBAŞI KÖYÜ","zip":"08890"},{"name":"YARBAŞI MAH.","zip":"08890"},{"name":"YASSIKAYA MAH.","zip":"08890"},{"name":"YAYIGİL MAH.","zip":"08890"},{"name":"YAYLA MAH.","zip":"08890"},{"name":"YAYLALAR KÖYÜ","zip":"08890"},{"name":"YENİ  MAH     -TAŞBAŞI MAH.","zip":"08890"},{"name":"YENİ MAH.","zip":"08890"},{"name":"YENİKÖY KÖYÜ","zip":"08890"},{"name":"YEŞİLÖZ MAH.","zip":"08890"},{"name":"YEŞİLYURT (KURTİKET) MAH.","zip":"08890"},{"name":"YEŞİLYURT MAH.","zip":"08890"},{"name":"YEŞİLYURT(AĞAGİL) MAH.","zip":"08890"},{"name":"YOKUŞBAŞI  (NAHNEP) MAH.","zip":"08890"},{"name":"YOKUŞLU KÖYÜ","zip":"08890"},{"name":"YOLBAŞI MAH.","zip":"08890"},{"name":"YONCALIK (KOT- NATELT) MAH.","zip":"08890"},{"name":"YONCALIK MAH.","zip":"08890"},{"name":"YUKARI BÖLÜKBAŞI MAH.","zip":"08890"},{"name":"YUKARI ÇAMLIK MAH.","zip":"08890"},{"name":"YUKARI GÜP MAH.","zip":"08890"},{"name":"YUKARI KAYAGİL MAH.","zip":"08890"},{"name":"YUKARI KAYMAZ MAH.","zip":"08890"},{"name":"YUKARI LEKNAR MAH.","zip":"08890"},{"name":"YUKARI MAH.","zip":"08890"},{"name":"YUKARI MISUR MAH.","zip":"08890"},{"name":"YUKARI SAKURA MAH.","zip":"08890"},{"name":"YUKARI UBAN MAH.","zip":"08890"},{"name":"YUKARI VARMET (YUKARI ÇAĞLAR) MAH.","zip":"08890"},{"name":"YUKARI VARMET(YUKARI CAĞLAR) MAH.","zip":"08890"},{"name":"YUMURTALI MAH.","zip":"08890"},{"name":"YUVACIK  ( MANTAGARA) MAH.","zip":"08890"},{"name":"YUVARLI MAH.","zip":"08890"},{"name":"YÜKSEKOBA KÖYÜ","zip":"08890"},{"name":"YÜNCÜLER KÖYÜ","zip":"08890"},{"name":"ZANGELLER MAH.","zip":"08890"},{"name":"ZARKAT MAH.","zip":"08890"},{"name":"ZEKARAT MAH.","zip":"08890"},{"name":"ZELİYET MAH.","zip":"08890"},{"name":"ZEYTİNCİK KÖYÜ","zip":"08890"},{"name":"ZEYTİNLİK MAH.","zip":"08890"},{"name":"ZİYARET MAH.","zip":"08890"},{"name":"ZOLAĞARA MAH.","zip":"08890"},{"name":"ZOYBAR MAH.","zip":"08890"},{"name":"ZUVARE MAH.","zip":"08890"}]},{"name":"YUSUFELİ","cityName":null,"quarters":[{"name":"ERDEMLER MAH.","zip":"08800"},{"name":"HASANAĞA MAH.","zip":"08800"},{"name":"KAZIM KARABEKİR MAH.","zip":"08800"},{"name":"MERKEZ MAH.","zip":"08800"}]}]}]}