{"id":80,"name":"OSMANİYE","cities":[{"name":"city","districts":[{"name":"BAHÇE","cityName":null,"quarters":[{"name":"ÇAMLICA MAH.","zip":"80500"},{"name":"ESENTEPE MAH.","zip":"80500"},{"name":"İSLAM MAH.","zip":"80500"},{"name":"İSTİKLAL MAH.","zip":"80500"},{"name":"KALE MAH.","zip":"80500"},{"name":"KARŞIYAKA MAH.","zip":"80500"},{"name":"YENI MAH.","zip":"80500"},{"name":"YEŞİL YURT MAH.","zip":"80500"}]},{"name":"MERKEZKÖYLER","cityName":null,"quarters":[{"name":"ARICAKLI KÖYÜ","zip":"80502"},{"name":"ARIKLIKAŞ KÖYÜ","zip":"80502"},{"name":"AŞAĞIARICAKLI KÖYÜ","zip":"80502"},{"name":"AŞAĞIKARADERE KÖYÜ","zip":"80502"},{"name":"AYGIR MAH.","zip":"80502"},{"name":"AYRAN KÜMESİ MAH.","zip":"80502"},{"name":"BALİNKAŞI KÜMESİ MAH.","zip":"80502"},{"name":"BASAMAKLI MAH.","zip":"80502"},{"name":"BEKDEMİR KÖYÜ","zip":"80502"},{"name":"BUĞDAYCIK MAH.","zip":"80502"},{"name":"BURGAÇLI KÖYÜ","zip":"80502"},{"name":"ÇELİKLER MAH.","zip":"80502"},{"name":"ÇİÇEKLİ KÜMESİ MAH.","zip":"80502"},{"name":"DEMİRLİK KÜMESİ MAH.","zip":"80502"},{"name":"DUTLU MAH.","zip":"80502"},{"name":"GAZİ KÜMESİ MAH.","zip":"80502"},{"name":"GÖKMUSTAFALI KÖYÜ","zip":"80502"},{"name":"HAMİSLER KÜMESİ MAH.","zip":"80502"},{"name":"HAYVALIK KÜMESİ MAH.","zip":"80502"},{"name":"İBİŞLER MAH.","zip":"80502"},{"name":"İNDERESİ KÖYÜ","zip":"80502"},{"name":"KAMAN KÖYÜ","zip":"80502"},{"name":"KARŞIYAKA KÜMESİ MAH.","zip":"80502"},{"name":"KAVCILAR MAH.","zip":"80502"},{"name":"KELLER MAH.","zip":"80502"},{"name":"KELOSMANLAR MAH.","zip":"80502"},{"name":"KIRAÇLI MAH.","zip":"80502"},{"name":"KIZLAÇ KÖYÜ","zip":"80502"},{"name":"KİRAZLI MAH.","zip":"80502"},{"name":"KÖLELER MAH.","zip":"80502"},{"name":"KÖYBAŞI MAH.","zip":"80502"},{"name":"KUZGEÇE KÜMESİ MAH.","zip":"80502"},{"name":"MANDAL KÜMESİ MAH.","zip":"80502"},{"name":"MERCANLAR MAH.","zip":"80502"},{"name":"MERCANLI MAH.","zip":"80502"},{"name":"MERKEZ KÜMESİ MAH.","zip":"80502"},{"name":"MERKEZ MAH.","zip":"80502"},{"name":"NOHUT KÖYÜ","zip":"80502"},{"name":"ÖRENCİK KÖYÜ","zip":"80502"},{"name":"SAVRANLI KÖYÜ","zip":"80502"},{"name":"SELAMLAR MAH.","zip":"80502"},{"name":"SOĞUKPINAR MAH.","zip":"80502"},{"name":"TAŞOLUK MAH.","zip":"80502"},{"name":"YAYLALIK KÖYÜ","zip":"80502"},{"name":"YENİ KÜMESİ MAH.","zip":"80502"},{"name":"YUKARI KÜMESİ MAH.","zip":"80502"},{"name":"YUKARIKARDERE KÖYÜ","zip":"80502"},{"name":"YUKARIOBA MAH.","zip":"80502"}]},{"name":"DÜZİÇİ","cityName":null,"quarters":[{"name":"CUMHURİYET MAH.","zip":"80600"},{"name":"ÇİFTLİK MAH.","zip":"80600"},{"name":"HÜRRİYET MAH.","zip":"80600"},{"name":"İRFANLI MAH.","zip":"80600"},{"name":"İSTİKLAL MAH.","zip":"80600"},{"name":"KARACAOĞLAN MAH.","zip":"80600"},{"name":"KARKIN MAH.","zip":"80600"},{"name":"KARLICA MAH.","zip":"80600"},{"name":"KARŞIYAKA MAH.","zip":"80600"},{"name":"KURTBEYOĞLU MAH.","zip":"80600"},{"name":"KURTULUŞ MAH.","zip":"80600"},{"name":"MERKEZ MAH.","zip":"80600"},{"name":"ŞEHİT ASKER KEMAL KESKİN MAH.","zip":"80600"},{"name":"UZUN BANI MAH.","zip":"80600"},{"name":"ÜZÜMLÜ MAH.","zip":"80600"},{"name":"YENİCE HARUNİYE MAH.","zip":"80600"},{"name":"YEŞİLOVA MAH.","zip":"80600"},{"name":"YUKARI HACILAR MAH.","zip":"80600"}]},{"name":"MERKEZKÖYLER","cityName":null,"quarters":[{"name":"ADACA MAH.","zip":"80602"},{"name":"AĞALAR MAH.","zip":"80602"},{"name":"AHRAZLAR MAH.","zip":"80602"},{"name":"AKÇAKOYUNLU KÖYÜ","zip":"80602"},{"name":"AKSAYLAR MAH.","zip":"80602"},{"name":"ALİBOZLU KÖYÜ","zip":"80602"},{"name":"ARPAÇUKURU MAH.","zip":"80602"},{"name":"ATALAN KÖYÜ","zip":"80602"},{"name":"AYDINLAR MAH.","zip":"80602"},{"name":"AYDINLI MAH.","zip":"80602"},{"name":"AYŞELER MAH.","zip":"80602"},{"name":"BAYINDIRLI KÖYÜ","zip":"80602"},{"name":"BOSTANLAR KÖYÜ","zip":"80602"},{"name":"BOŞNAK MAH.","zip":"80602"},{"name":"BOYALI MAH.","zip":"80602"},{"name":"BÖCEKLİ KÖYÜ","zip":"80602"},{"name":"CELİLLER MAH.","zip":"80602"},{"name":"ÇAMİÇİ KÖYÜ","zip":"80602"},{"name":"ÇAMKONUŞU MAH.","zip":"80602"},{"name":"ÇATAK KÖYÜ","zip":"80602"},{"name":"ÇATAL MAH.","zip":"80602"},{"name":"ÇERÇİOĞLU KÖYÜ","zip":"80602"},{"name":"ÇEVLİK MAH.","zip":"80602"},{"name":"ÇİRAZ MAH.","zip":"80602"},{"name":"ÇİRİŞLİKAŞ MAH.","zip":"80602"},{"name":"ÇİTLİ KÖYÜ","zip":"80602"},{"name":"ÇOTLU KÖYÜ","zip":"80602"},{"name":"ÇÖMEZLER MAH.","zip":"80602"},{"name":"ÇUKUROBA MAH.","zip":"80602"},{"name":"DAĞLIOĞLU MAH.","zip":"80602"},{"name":"DELİHALİLLER MAH.","zip":"80602"},{"name":"DEMİRCİLER MAH.","zip":"80602"},{"name":"DEREALİBOZLUSU MAH.","zip":"80602"},{"name":"DORUKLAR MAH.","zip":"80602"},{"name":"DÜMBÜRDEK MAH.","zip":"80602"},{"name":"E.U.A.Ş. MAH.","zip":"80602"},{"name":"EĞRELTİ MAH.","zip":"80602"},{"name":"EKİZLER MAH.","zip":"80602"},{"name":"ELBEYLİ KÖYÜ","zip":"80602"},{"name":"ELLEK KÖYÜ","zip":"80602"},{"name":"ELLEK MAH.","zip":"80602"},{"name":"ELLEZLİ MAH.","zip":"80602"},{"name":"EMİRKARA MAH.","zip":"80602"},{"name":"EMİRLER MAH.","zip":"80602"},{"name":"ERİCEK MAH.","zip":"80602"},{"name":"FARSAK KÖYÜ","zip":"80602"},{"name":"FINDIK MAH.","zip":"80602"},{"name":"GÖKÇAYIR KÖYÜ","zip":"80602"},{"name":"GÖKYILDIZ MAH.","zip":"80602"},{"name":"GÖLLÜLER MAH.","zip":"80602"},{"name":"GÜMÜŞ KÖYÜ","zip":"80602"},{"name":"GÜZELYURT KÖYÜ","zip":"80602"},{"name":"HACIİBİŞLER MAH.","zip":"80602"},{"name":"HARTLAP MAH.","zip":"80602"},{"name":"HEMENLER MAH.","zip":"80602"},{"name":"HIDIRLI MAH.","zip":"80602"},{"name":"HODU MAH.","zip":"80602"},{"name":"HOROZLAR MAH.","zip":"80602"},{"name":"HÖBÜR MAH.","zip":"80602"},{"name":"HÖKELEKLER MAH.","zip":"80602"},{"name":"İBİŞLER MAH.","zip":"80602"},{"name":"İKİZLER MAH.","zip":"80602"},{"name":"KADİRLER MAH.","zip":"80602"},{"name":"KARACAÖREN MAH.","zip":"80602"},{"name":"KARAÇARLI MAH.","zip":"80602"},{"name":"KARAGEDİK KÖYÜ","zip":"80602"},{"name":"KARAGÖL MAH.","zip":"80602"},{"name":"KARAGUZ KÖYÜ","zip":"80602"},{"name":"KARAİSA MAH.","zip":"80602"},{"name":"KARAKUYU MAH.","zip":"80602"},{"name":"KARANIDERE MAH.","zip":"80602"},{"name":"KARANLIKDERE MAH.","zip":"80602"},{"name":"KARAYUSUFLAR MAH.","zip":"80602"},{"name":"KAŞ MAH.","zip":"80602"},{"name":"KATOBASI MAH.","zip":"80602"},{"name":"KAZIKLI MAH.","zip":"80602"},{"name":"KELLER MAH.","zip":"80602"},{"name":"KIŞLA MAH.","zip":"80602"},{"name":"KIZILALİ MAH.","zip":"80602"},{"name":"KOYUNTAŞ MAH.","zip":"80602"},{"name":"KÖŞKERLER MAH.","zip":"80602"},{"name":"KÖŞKERLİ MAH.","zip":"80602"},{"name":"KUŞCU KÖYÜ","zip":"80602"},{"name":"KÜRT MAHMUTLAR MAH.","zip":"80602"},{"name":"MAĞARAÖNÜ MAH.","zip":"80602"},{"name":"MANLAR MAH.","zip":"80602"},{"name":"MEHMETOĞLUYERİ MAH.","zip":"80602"},{"name":"MERKEZ MAH.","zip":"80602"},{"name":"MEZDAĞ MAH.","zip":"80602"},{"name":"NACARFARSAĞI MAH.","zip":"80602"},{"name":"NASIFLI MAH.","zip":"80602"},{"name":"OLUKLU KÖYÜ","zip":"80602"},{"name":"PEÇENEK MAH.","zip":"80602"},{"name":"PİRSULTANLI KÖYÜ","zip":"80602"},{"name":"SELVERLER KÖYÜ","zip":"80602"},{"name":"SOYLAR MAH.","zip":"80602"},{"name":"SÖĞÜTLÜGÖL KÖYÜ","zip":"80602"},{"name":"ŞAMLAR MAH.","zip":"80602"},{"name":"ŞEHİT ALİ GÖKÇE MAH.","zip":"80602"},{"name":"ŞEHİT HÜSEYİN SARI MAH.","zip":"80602"},{"name":"TABAKLAR MAH.","zip":"80602"},{"name":"TELLİLER MAH.","zip":"80602"},{"name":"TOZLUYURT MAH.","zip":"80602"},{"name":"TRAŞLAR MAH.","zip":"80602"},{"name":"UZUNDERE MAH.","zip":"80602"},{"name":"YARBAŞI KÖYÜ","zip":"80602"},{"name":"YAVUZ SULTAN SELİM MAH.","zip":"80602"},{"name":"YAZLAMAZLI KÖYÜ","zip":"80602"},{"name":"YENİFARSAK KÖYÜ","zip":"80602"},{"name":"YEŞİL MAH.","zip":"80602"},{"name":"YEŞİL YURT MAH.","zip":"80602"},{"name":"YEŞİLDERE KÖYÜ","zip":"80602"},{"name":"YEŞİLKÖY KÖYÜ","zip":"80602"},{"name":"YEŞİLYURT KÖYÜ","zip":"80602"},{"name":"YOLATI MAH.","zip":"80602"}]},{"name":"HASANBEYLİ","cityName":null,"quarters":[{"name":"HÜRRİYET MAH.","zip":"80850"},{"name":"MERKEZ MAH.","zip":"80850"},{"name":"YEŞİLYURT MAH.","zip":"80850"}]},{"name":"MERKEZKÖYLER","cityName":null,"quarters":[{"name":"ÇULHALI KÖYÜ","zip":"80852"},{"name":"HEYİK MAH.","zip":"80852"},{"name":"KALECİK KÖYÜ","zip":"80852"},{"name":"KANLIGEÇİT MAH.","zip":"80852"},{"name":"KARAYİĞİT KÖYÜ","zip":"80852"},{"name":"SARAYOVA KÖYÜ","zip":"80852"},{"name":"YANIKKIŞLA KÖYÜ","zip":"80852"}]},{"name":"CEMALPAŞA","cityName":null,"quarters":[{"name":"ŞEHİT HALİS ŞİŞMAN MAH.","zip":"80760"},{"name":"ŞEHİT KANSU KÜÇÜKATEŞ MAH.","zip":"80760"}]},{"name":"KADİRLİ","cityName":null,"quarters":[{"name":"BAĞ MAH.","zip":"80750"},{"name":"CENGİZ TOPEL MAH.","zip":"80750"},{"name":"DERE MAH.","zip":"80750"},{"name":"DERVİŞPAŞA MAH.","zip":"80750"},{"name":"KURTULUŞ MAH.","zip":"80750"},{"name":"PAZAR MAH.","zip":"80750"},{"name":"SAVRUN MAH.","zip":"80750"},{"name":"ŞEHİT İBRAHİM KUNDAKÇI MAH.","zip":"80750"},{"name":"ŞEHİT MEHMET DELİKUŞ MAH.","zip":"80750"},{"name":"ŞEHİT MEHMET HALLAÇ MAH.","zip":"80750"},{"name":"ŞEHİT MUSTAFA YAĞIZ MAH.","zip":"80750"},{"name":"ŞEHİT ORHAN GÖK MAH.","zip":"80750"},{"name":"ŞEHİT VEDAT  KOCADALLI MAH.","zip":"80750"},{"name":"TUFANPAŞA MAH.","zip":"80750"},{"name":"YENİ MAH.","zip":"80750"},{"name":"YEŞİLTEPE MAH.","zip":"80750"}]},{"name":"MERKEZKÖYLER","cityName":null,"quarters":[{"name":"ACAROBA MAH.","zip":"80752"},{"name":"AĞILKAYA MAH.","zip":"80752"},{"name":"AĞLICA MAH.","zip":"80752"},{"name":"AHMET MAH.","zip":"80752"},{"name":"AHMETFAKILAR MAH.","zip":"80752"},{"name":"AHMETSAVRUN MAH.","zip":"80752"},{"name":"AKARCA MAH.","zip":"80752"},{"name":"AKGEDİK MAH.","zip":"80752"},{"name":"AKKIZLAR MAH.","zip":"80752"},{"name":"AKKÖPRÜ KÖYÜ","zip":"80752"},{"name":"AKOVA KÖYÜ","zip":"80752"},{"name":"AKPINAR MAH.","zip":"80752"},{"name":"ALABEYLİ MAH.","zip":"80752"},{"name":"ALİORTAKLI MAH.","zip":"80752"},{"name":"ALİSAYİT ÇİFTLİĞİ MAH.","zip":"80752"},{"name":"ALİVELİLER MAH.","zip":"80752"},{"name":"ALTUNERLER MAH.","zip":"80752"},{"name":"ANBERİNARKI KÖYÜ","zip":"80752"},{"name":"ARAS MAH.","zip":"80752"},{"name":"ARSLANTAŞ MAH.","zip":"80752"},{"name":"AŞAĞI KÖŞKERLİ TÜYSÜZLER MAH.","zip":"80752"},{"name":"AŞAĞIBOZKUYU KÖYÜ","zip":"80752"},{"name":"AŞAĞIÇİYANLI KÖYÜ","zip":"80752"},{"name":"ATASANLI MAH.","zip":"80752"},{"name":"AYDINLAR KÖYÜ","zip":"80752"},{"name":"AYVACIK MAH.","zip":"80752"},{"name":"AZAPLI KÖYÜ","zip":"80752"},{"name":"BAHADIRLI KÖYÜ","zip":"80752"},{"name":"BAHÇECİLER MAH.","zip":"80752"},{"name":"BAYSUN KARAMÜFTÜOĞLU ÇİFTLİĞİ MAH.","zip":"80752"},{"name":"BEKERECİ KÖYÜ","zip":"80752"},{"name":"BOZERLER MAH.","zip":"80752"},{"name":"CENNETLER MAH.","zip":"80752"},{"name":"COŞKUNLAR KÖYÜ","zip":"80752"},{"name":"ÇANAKLI MAH.","zip":"80752"},{"name":"ÇATALLAR MAH.","zip":"80752"},{"name":"ÇAYGEÇİT KÖYÜ","zip":"80752"},{"name":"ÇEVLİK MAH.","zip":"80752"},{"name":"ÇINAR DERESİ MAH.","zip":"80752"},{"name":"ÇINAR KÖYÜ","zip":"80752"},{"name":"ÇINARLI MAH.","zip":"80752"},{"name":"ÇIPLAKLAR MAH.","zip":"80752"},{"name":"ÇİĞCİK KÖYÜ","zip":"80752"},{"name":"ÇİĞDEMLİ KÖYÜ","zip":"80752"},{"name":"ÇİĞİLLİ MAH.","zip":"80752"},{"name":"ÇİLDİRLER MAH.","zip":"80752"},{"name":"ÇİNÇİKLER SOLAKLAR MAH.","zip":"80752"},{"name":"ÇİZMELİLER MAH.","zip":"80752"},{"name":"ÇOLAKEROLLAR MAH.","zip":"80752"},{"name":"ÇONTARLAR MAH.","zip":"80752"},{"name":"ÇÖPLÜLER MAH.","zip":"80752"},{"name":"ÇUKURKÖPRÜ KÖYÜ","zip":"80752"},{"name":"ÇUKURÖREN MAH.","zip":"80752"},{"name":"DEĞİRMENDERE KÖYÜ","zip":"80752"},{"name":"DELİAYŞELER MAH.","zip":"80752"},{"name":"DEMİRCİLER MAH.","zip":"80752"},{"name":"DERE MAH.","zip":"80752"},{"name":"DERTİLİLER MAH.","zip":"80752"},{"name":"DEVRİŞLİ MAH.","zip":"80752"},{"name":"DİKENLİ MAH.","zip":"80752"},{"name":"DÖĞÜŞ GEDİĞİ MAH.","zip":"80752"},{"name":"DURMUŞSOFULAR KÖYÜ","zip":"80752"},{"name":"ELMALIKAYSERİ MAH.","zip":"80752"},{"name":"ERDOĞDU KÖYÜ","zip":"80752"},{"name":"ERİCEK MAH.","zip":"80752"},{"name":"FAKILAR MAH.","zip":"80752"},{"name":"GANİAĞALAR MAH.","zip":"80752"},{"name":"GEDİK MAH.","zip":"80752"},{"name":"GIRAÇOBASI MAH.","zip":"80752"},{"name":"GÖÇMENLER MAH.","zip":"80752"},{"name":"GÖKALAN MAH.","zip":"80752"},{"name":"GÖKBÜĞET MAH.","zip":"80752"},{"name":"GÖZTAŞI KÖYÜ","zip":"80752"},{"name":"GÖZÜBÖYÜKLÜ MAH.","zip":"80752"},{"name":"GÜNECE MAH.","zip":"80752"},{"name":"GÜZELLER MAH.","zip":"80752"},{"name":"HACIABDİLER MAH.","zip":"80752"},{"name":"HACIAHMETLER MAH.","zip":"80752"},{"name":"HACIHALİLOĞLU KÖYÜ","zip":"80752"},{"name":"HALİTAĞALAR KÖYÜ","zip":"80752"},{"name":"HAMAM MAH.","zip":"80752"},{"name":"HARDALLIK KÖYÜ","zip":"80752"},{"name":"HARKAŞTIĞI KÖYÜ","zip":"80752"},{"name":"HASARKAYA MAH.","zip":"80752"},{"name":"HAYVALI MAH.","zip":"80752"},{"name":"HOCALAR MAH.","zip":"80752"},{"name":"HÜSEYİNLER MAH.","zip":"80752"},{"name":"İLBİSTANLI KÖYÜ","zip":"80752"},{"name":"İMİRZELER MAH.","zip":"80752"},{"name":"İNCİ MAH.","zip":"80752"},{"name":"İNCİKLER MAH.","zip":"80752"},{"name":"İSALAR MAH.","zip":"80752"},{"name":"İSPİRLER MAH.","zip":"80752"},{"name":"İSTANBULCIK MAH.","zip":"80752"},{"name":"KABAYAR KÖYÜ","zip":"80752"},{"name":"KADİRLİOSB MAH.","zip":"80752"},{"name":"KALE MAH.","zip":"80752"},{"name":"KALEALTI MAH.","zip":"80752"},{"name":"KARABACAK KÖYÜ","zip":"80752"},{"name":"KARACAALİLER MAH.","zip":"80752"},{"name":"KARACELİLER MAH.","zip":"80752"},{"name":"KARAFAKILLAR MAH.","zip":"80752"},{"name":"KARAKÜTÜK KÖYÜ","zip":"80752"},{"name":"KARAPINAR MAH.","zip":"80752"},{"name":"KARATAYLAR MAH.","zip":"80752"},{"name":"KARATEPE KÖYÜ","zip":"80752"},{"name":"KARATOPAKLI MAH.","zip":"80752"},{"name":"KARAYILANLI MAH.","zip":"80752"},{"name":"KARTIN MAH.","zip":"80752"},{"name":"KASTAL MAH.","zip":"80752"},{"name":"KAŞ MAH.","zip":"80752"},{"name":"KAYASUYU KÖYÜ","zip":"80752"},{"name":"KEPİRLER MAH.","zip":"80752"},{"name":"KERİMLİ KÖYÜ","zip":"80752"},{"name":"KESİKKELİ KÖYÜ","zip":"80752"},{"name":"KESİM KÖYÜ","zip":"80752"},{"name":"KESMELİ TEPE MAH.","zip":"80752"},{"name":"KISTILAR MAH.","zip":"80752"},{"name":"KIZYUSUFLU KÖYÜ","zip":"80752"},{"name":"KİREMİTLİ KÖYÜ","zip":"80752"},{"name":"KOCAALİLER MAH.","zip":"80752"},{"name":"KOCABOĞALAR MAH.","zip":"80752"},{"name":"KOÇLU KÖYÜ","zip":"80752"},{"name":"KONAKLI MAH.","zip":"80752"},{"name":"KÖRALİUŞAĞI MAH.","zip":"80752"},{"name":"KÖSEPINARI KÖYÜ","zip":"80752"},{"name":"KÖŞKERLİ MAH.","zip":"80752"},{"name":"KÜMBET KÖYÜ","zip":"80752"},{"name":"MAKSUTOLUĞU MAH.","zip":"80752"},{"name":"MECİDİYE KÖYÜ","zip":"80752"},{"name":"MEHEDİNLİ KÖYÜ","zip":"80752"},{"name":"MERKEZ MAH.","zip":"80752"},{"name":"MEZİLİLER MAH.","zip":"80752"},{"name":"MEZRETLİ KÖYÜ","zip":"80752"},{"name":"MEZRETLİ MAH.","zip":"80752"},{"name":"MURTLUTARLA MAH.","zip":"80752"},{"name":"NARLIKIŞLA KÖYÜ","zip":"80752"},{"name":"NURCULAR MAH.","zip":"80752"},{"name":"OLUCAKGEDİĞİ MAH.","zip":"80752"},{"name":"ORTA MAHALLE MAH.","zip":"80752"},{"name":"ORUÇBEY KÖYÜ","zip":"80752"},{"name":"ÖKSÜZLER MAH.","zip":"80752"},{"name":"ÖKSÜZLÜ KÖYÜ","zip":"80752"},{"name":"ÖREN MAH.","zip":"80752"},{"name":"ÖZDEMİRLER MAH.","zip":"80752"},{"name":"PAMPALLI MAH.","zip":"80752"},{"name":"PÜRÇEK MAH.","zip":"80752"},{"name":"RİFAT MAH.","zip":"80752"},{"name":"SALTALILAR MAH.","zip":"80752"},{"name":"SARIBÖĞSEK MAH.","zip":"80752"},{"name":"SARICAFERLİ MAH.","zip":"80752"},{"name":"SARIDÜZ MAH.","zip":"80752"},{"name":"SARIKIZLAR MAH.","zip":"80752"},{"name":"SARITANIŞMANLI KÖYÜ","zip":"80752"},{"name":"SEMERCİLER MAH.","zip":"80752"},{"name":"SIYRINGAÇ MAH.","zip":"80752"},{"name":"SİTELER MAH.","zip":"80752"},{"name":"SİTELER SU SPORLARI MERKEZİ MAH.","zip":"80752"},{"name":"SOFULAR KÖYÜ","zip":"80752"},{"name":"SOĞANCILAR MAH.","zip":"80752"},{"name":"SOYSALLI MAH.","zip":"80752"},{"name":"SÖĞÜTLÜDERE KÖYÜ","zip":"80752"},{"name":"SÖĞÜTOLUĞU MAH.","zip":"80752"},{"name":"SÜLEYMANLI MAH.","zip":"80752"},{"name":"ŞABAPLI KÖYÜ","zip":"80752"},{"name":"TAHTA KÖYÜ","zip":"80752"},{"name":"TAPSIZLAR MAH.","zip":"80752"},{"name":"TATARLI KÖYÜ","zip":"80752"},{"name":"TEBERİK MAH.","zip":"80752"},{"name":"TEKELİ KÖYÜ","zip":"80752"},{"name":"TEKEREKLİ MAH.","zip":"80752"},{"name":"TESLİMELER MAH.","zip":"80752"},{"name":"TIBILILAR MAH.","zip":"80752"},{"name":"TOPALAHMETLER MAH.","zip":"80752"},{"name":"TOPRAKTEPE KÖYÜ","zip":"80752"},{"name":"TORUNLAR MAH.","zip":"80752"},{"name":"TOSBAĞLI MAH.","zip":"80752"},{"name":"TOZLU KÖYÜ","zip":"80752"},{"name":"TURNA MAH.","zip":"80752"},{"name":"TÜCAR MAH.","zip":"80752"},{"name":"TÜCCAR MAH.","zip":"80752"},{"name":"ÜÇTEPE MAH.","zip":"80752"},{"name":"ÜDÜRÜKLER MAH.","zip":"80752"},{"name":"ÜZÜMLÜ MAH.","zip":"80752"},{"name":"VAHAPOĞLU MAH.","zip":"80752"},{"name":"VAYVAYLI KÖYÜ","zip":"80752"},{"name":"VELİLER ÇOLAKLAR MAH.","zip":"80752"},{"name":"YALNIZDUT KÖYÜ","zip":"80752"},{"name":"YANIKLAR MAH.","zip":"80752"},{"name":"YAPALAK MAH.","zip":"80752"},{"name":"YARMADİBİ MAH.","zip":"80752"},{"name":"YAYLAPINARI MAH.","zip":"80752"},{"name":"YAZDAMI MAH.","zip":"80752"},{"name":"YENİGÜN KÖYÜ","zip":"80752"},{"name":"YENİKÖY KÖYÜ","zip":"80752"},{"name":"YENİYER MAH.","zip":"80752"},{"name":"YEŞİLYURT MAH.","zip":"80752"},{"name":"YOĞUNOLUK KÖYÜ","zip":"80752"},{"name":"YOZCULAR MAH.","zip":"80752"},{"name":"YUKARIBOZKUYU KÖYÜ","zip":"80752"},{"name":"YUKARIÇİYANLI KÖYÜ","zip":"80752"},{"name":"YUSUFİZZETTİN KÖYÜ","zip":"80752"},{"name":"ZEYNEPLİ MAH.","zip":"80752"},{"name":"ZİNDEĞEN MAH.","zip":"80752"},{"name":"ZİYANLI MAH.","zip":"80752"}]},{"name":"ATATÜRK","cityName":null,"quarters":[{"name":"AHMET YESEVİ MAH.","zip":"80010"},{"name":"ALİ BEKİRLİ MAH.","zip":"80010"},{"name":"ALİBEYLİ MAH.","zip":"80010"},{"name":"BAŞ MAH.","zip":"80010"},{"name":"CUMHURİYET MAH.","zip":"80010"},{"name":"DR.İHSAN GÖKNAL MAH.","zip":"80010"},{"name":"DUMLUPINAR MAH.","zip":"80010"},{"name":"ESENEVLER MAH.","zip":"80010"},{"name":"EYÜP SULTAN MAH.","zip":"80010"},{"name":"FAKIUŞAĞI MAH.","zip":"80010"},{"name":"FATİH MAH.","zip":"80010"},{"name":"GEBELİ MAH.","zip":"80010"},{"name":"HACI OSMANLI MAH.","zip":"80010"},{"name":"HARAZ MAH.","zip":"80010"},{"name":"İSTİKLAL MAH.","zip":"80010"},{"name":"KARACAY MAH.","zip":"80010"},{"name":"KAZIM KARABEKİR MAH.","zip":"80010"},{"name":"KURTULUŞ MAH.","zip":"80010"},{"name":"M.AKİF ERSOY MAH.","zip":"80010"},{"name":"M.FEVZİ ÇAKMAK MAH.","zip":"80010"},{"name":"MEVLANA MAH.","zip":"80010"},{"name":"MİMAR SİNAN MAH.","zip":"80010"},{"name":"RAHİME HATUN MAH.","zip":"80010"},{"name":"RAUFBEY MAH.","zip":"80010"},{"name":"RIZAİYE MAH.","zip":"80010"},{"name":"SELİMİYE MAH.","zip":"80010"},{"name":"ŞİRİNEVLER MAH.","zip":"80010"},{"name":"ULAŞLI MAH.","zip":"80010"},{"name":"VATAN MAH.","zip":"80010"},{"name":"YAVERPAŞA MAH.","zip":"80010"},{"name":"YEDİ OCAK MAH.","zip":"80010"},{"name":"YENİ MAH.","zip":"80010"},{"name":"YEŞİL YURT MAH.","zip":"80010"},{"name":"YILDIRIM BEYAZIT MAH.","zip":"80010"},{"name":"YUNUS EMRE MAH.","zip":"80010"}]},{"name":"MERKEZKÖYLER","cityName":null,"quarters":[{"name":"AKARCA MAH.","zip":"80080"},{"name":"AKTAŞ MAH.","zip":"80080"},{"name":"AKYAR KÖYÜ","zip":"80080"},{"name":"ALİ ÇAVUŞLAR MAH.","zip":"80080"},{"name":"ARSLANLI KÖYÜ","zip":"80080"},{"name":"AYDINLAR MAH.","zip":"80080"},{"name":"BABAOĞLU MAH.","zip":"80080"},{"name":"BAĞKUR MAH.","zip":"80080"},{"name":"BAHÇE KÖYÜ","zip":"80080"},{"name":"BIÇAKÇI MAH.","zip":"80080"},{"name":"CEVDETİYE KÖYÜ","zip":"80080"},{"name":"CUMHURİYET MAH.","zip":"80080"},{"name":"ÇAĞŞAK KÖYÜ","zip":"80080"},{"name":"ÇAMLIBEL MAH.","zip":"80080"},{"name":"ÇANAKCI MAH.","zip":"80080"},{"name":"ÇARDAK KÖYÜ","zip":"80080"},{"name":"ÇATALMAZI MAH.","zip":"80080"},{"name":"ÇONA KÖYÜ","zip":"80080"},{"name":"ÇÜRÜK ARMUT MAH.","zip":"80080"},{"name":"D400 ALTI MAH.","zip":"80080"},{"name":"D400 ÜSTÜ MAH.","zip":"80080"},{"name":"DAVULBAZLAR MAH.","zip":"80080"},{"name":"DAVUTLAR MAH.","zip":"80080"},{"name":"DEĞİRMEN OCAĞI KÖYÜ","zip":"80080"},{"name":"DERELİ KÖYÜ","zip":"80080"},{"name":"DEREOBASI KÖYÜ","zip":"80080"},{"name":"DEREOBASI MAH.","zip":"80080"},{"name":"DERVİŞLİ KÖYÜ","zip":"80080"},{"name":"ESENTEPE MAH.","zip":"80080"},{"name":"GAZİ SİNAN MAH.","zip":"80080"},{"name":"GÖKBEKİRLİ MAH.","zip":"80080"},{"name":"GÖKÇEDAM KÖYÜ","zip":"80080"},{"name":"GÜLTEPE MAH.","zip":"80080"},{"name":"HAMUS MAH.","zip":"80080"},{"name":"HARAZ MAH.","zip":"80080"},{"name":"HASTENE MAH.","zip":"80080"},{"name":"ISSIZCA KÖYÜ","zip":"80080"},{"name":"İBİŞ AĞALAR E-24 KARAYOLU ÜZERİ MAH.","zip":"80080"},{"name":"KAHYALAR MAH.","zip":"80080"},{"name":"KANLI KOZ MAH.","zip":"80080"},{"name":"KANLIGEÇİT MAH.","zip":"80080"},{"name":"KARABAHADIR MAH.","zip":"80080"},{"name":"KARACAKIŞLA MAH.","zip":"80080"},{"name":"KARACALAR KÖYÜ","zip":"80080"},{"name":"KARATAŞ KÖYÜ","zip":"80080"},{"name":"KARATAŞ MAH.","zip":"80080"},{"name":"KAYALI KÖYÜ","zip":"80080"},{"name":"KAZMACA KÖYÜ","zip":"80080"},{"name":"KESMEBURUN KÖYÜ","zip":"80080"},{"name":"KIRIKLI KÖYÜ","zip":"80080"},{"name":"KIRMACILI KÖYÜ","zip":"80080"},{"name":"KIRMITLI KÖYÜ","zip":"80080"},{"name":"KOCATEPE MAH.","zip":"80080"},{"name":"KOÇYURDU KÖYÜ","zip":"80080"},{"name":"KÖYYERİ KÖYÜ","zip":"80080"},{"name":"KUMARLI KÖYÜ","zip":"80080"},{"name":"KUMLUCA MAH.","zip":"80080"},{"name":"KÜLLÜ KÖYÜ","zip":"80080"},{"name":"KÜŞNE MAH.","zip":"80080"},{"name":"MAĞRAÖNÜ MAH.","zip":"80080"},{"name":"MERKEZ MAH.","zip":"80080"},{"name":"MERKEZ MAMURE İSTASYONU MAH.","zip":"80080"},{"name":"MEYDAN MAH.","zip":"80080"},{"name":"NERGİZLİK MAH.","zip":"80080"},{"name":"NOHUTTEPE KÖYÜ","zip":"80080"},{"name":"ORHANİYE KÖYÜ","zip":"80080"},{"name":"ORUÇGAZİ KÖYÜ","zip":"80080"},{"name":"SAKARCALIK KÖYÜ","zip":"80080"},{"name":"SAKIZGEDİĞİ KÖYÜ","zip":"80080"},{"name":"SARPINAĞZI KÖYÜ","zip":"80080"},{"name":"SELİMİYE KÖYÜ","zip":"80080"},{"name":"SERDAR KÖYÜ","zip":"80080"},{"name":"SERİNOVA KÖYÜ","zip":"80080"},{"name":"SEYRANTEPE MAH.","zip":"80080"},{"name":"ŞEKERDERE KÖYÜ","zip":"80080"},{"name":"TEHÇİ KÖYÜ","zip":"80080"},{"name":"TÜLÜCÜLER MAH.","zip":"80080"},{"name":"YARPUZ KÖYÜ","zip":"80080"},{"name":"YENİKÖY KÖYÜ","zip":"80080"},{"name":"YEŞİLTEPE MAH.","zip":"80080"},{"name":"YUKARIÇONA MAH.","zip":"80080"},{"name":"AGEDİK MAH.","zip":"80902"},{"name":"AKÇALIUŞAĞI MAH.","zip":"80902"},{"name":"AKÇATAŞ KÖYÜ","zip":"80902"},{"name":"AKDAM KÖYÜ","zip":"80902"},{"name":"AKYAR MAH.","zip":"80902"},{"name":"ALASIRT MAH.","zip":"80902"},{"name":"ALİBEYLİ KÖYÜ","zip":"80902"},{"name":"ALİŞANLI MAH.","zip":"80902"},{"name":"ARMAĞANLI MAH.","zip":"80902"},{"name":"AYDINLAR MAH.","zip":"80902"},{"name":"BAĞDAŞ MAH.","zip":"80902"},{"name":"BAĞYERİ MAH.","zip":"80902"},{"name":"CEMİLLER MAH.","zip":"80902"},{"name":"CUMHURİYET MAH.","zip":"80902"},{"name":"ÇIKIKALAN MAH.","zip":"80902"},{"name":"ÇİÇEKLİDERE KÖYÜ","zip":"80902"},{"name":"ÇİNTİZLİ MAH.","zip":"80902"},{"name":"ÇUKURFENK MAH.","zip":"80902"},{"name":"DAVUTLU MAH.","zip":"80902"},{"name":"DELİALİLER MAH.","zip":"80902"},{"name":"DEMİRCİLER MAH.","zip":"80902"},{"name":"DİNEKER MAH.","zip":"80902"},{"name":"DİNİKER MAH.","zip":"80902"},{"name":"ELLEZLİ MAH.","zip":"80902"},{"name":"ESENLİ KÖYÜ","zip":"80902"},{"name":"EVCİLER MAH.","zip":"80902"},{"name":"FINDIKLAR MAH.","zip":"80902"},{"name":"GAFARLI KÖYÜ","zip":"80902"},{"name":"GALİPLİ MAH.","zip":"80902"},{"name":"GAZELLER MAH.","zip":"80902"},{"name":"GECELİ MAH.","zip":"80902"},{"name":"GENÇALİLER MAH.","zip":"80902"},{"name":"GEYİKAĞILI MAH.","zip":"80902"},{"name":"GÖKÇEBEL MAH.","zip":"80902"},{"name":"GÖKGEDİK MAH.","zip":"80902"},{"name":"GÖZ MAH.","zip":"80902"},{"name":"GÜVELLER MAH.","zip":"80902"},{"name":"HARMANCIK MAH.","zip":"80902"},{"name":"HÜYÜK KÖYÜ","zip":"80902"},{"name":"IŞIKLI MAH.","zip":"80902"},{"name":"İNCİRLİBURUN MAH.","zip":"80902"},{"name":"KALFA MAH.","zip":"80902"},{"name":"KALKAN MAH.","zip":"80902"},{"name":"KARAGEDİK MAH.","zip":"80902"},{"name":"KARAKEÇİLİ MAH.","zip":"80902"},{"name":"KARŞIYAKA MAH.","zip":"80902"},{"name":"KAYSERİ MAH.","zip":"80902"},{"name":"KESMESUR MAH.","zip":"80902"},{"name":"KIRIKKÖPRÜ MAH.","zip":"80902"},{"name":"KIZILÖMERLİ KÖYÜ","zip":"80902"},{"name":"KÖSELİ KÖYÜ","zip":"80902"},{"name":"KÜÇÜKÇINAR KÖYÜ","zip":"80902"},{"name":"KÜRTLER MAH.","zip":"80902"},{"name":"MEHMETLİ KÖYÜ","zip":"80902"},{"name":"MERKEZ MAH.","zip":"80902"},{"name":"MÜSTENLER MAH.","zip":"80902"},{"name":"REŞADİYE KÖYÜ","zip":"80902"},{"name":"SAFİYELER MAH.","zip":"80902"},{"name":"TAHTALI MAH.","zip":"80902"},{"name":"TAŞKÖPRÜ MAH.","zip":"80902"},{"name":"TAŞOCAĞI MAH.","zip":"80902"},{"name":"TERELİK MAH.","zip":"80902"},{"name":"YAZIBOYU KÖYÜ","zip":"80902"},{"name":"YENİ CENNETLİ MAH.","zip":"80902"},{"name":"YENİ MAH.","zip":"80902"},{"name":"YEŞİLYAYLA KÖYÜ","zip":"80902"},{"name":"YİRCE MAH.","zip":"80902"},{"name":"ZİNCARCIK MAH.","zip":"80902"}]},{"name":"SUMBAS","cityName":null,"quarters":[{"name":"KARAÖMERLİ MAH.","zip":"80900"}]},{"name":"MERKEZKÖYLER","cityName":null,"quarters":[{"name":"İNCELER MAH.","zip":"80952"},{"name":"LALEGÖLÜ KÖYÜ","zip":"80952"},{"name":"SAYHÜYÜK KÖYÜ","zip":"80952"}]},{"name":"TOPRAKKALE","cityName":null,"quarters":[{"name":"CUMHURİYET MAH.","zip":"80950"},{"name":"ÇAMLIKEVLER MAH.","zip":"80950"},{"name":"DAGISTAN MAH.","zip":"80950"},{"name":"FATIH SULTAN MEHMET MAH.","zip":"80950"},{"name":"FATİH MAH.","zip":"80950"},{"name":"GÖÇMENLER MAH.","zip":"80950"},{"name":"KARATAŞ MAH.","zip":"80950"},{"name":"KIŞLA MAH.","zip":"80950"},{"name":"KUMARLI MAH.","zip":"80950"},{"name":"SAZLIK MAH.","zip":"80950"},{"name":"TEPE MAH.","zip":"80950"},{"name":"TÜYSÜZ KÖYÜ","zip":"80950"}]}]}]}