{"id":81,"name":"DÜZCE","cities":[{"name":"city","districts":[{"name":"AKÇAKOCA","cityName":null,"quarters":[{"name":"ORHANGAZİ MAH.","zip":"81650"},{"name":"OSMANİYE MAH.","zip":"81650"},{"name":"YALI MAH.","zip":"81650"},{"name":"YENİ MAH.","zip":"81650"},{"name":"YUKARI MAH.","zip":"81650"}]},{"name":"MERKEZKÖYLER","cityName":null,"quarters":[{"name":"AKKAYA KÖYÜ","zip":"81652"},{"name":"AKTAŞ KÖYÜ","zip":"81652"},{"name":"ALTUNÇAY KÖYÜ","zip":"81652"},{"name":"ARABACI KÖYÜ","zip":"81652"},{"name":"BALATLI KÖYÜ","zip":"81652"},{"name":"BATTALLAR MAH.","zip":"81652"},{"name":"BEYHANLI KÖYÜ","zip":"81652"},{"name":"BEYLİK AĞACI MAH.","zip":"81652"},{"name":"BEYÖREN KÖYÜ","zip":"81652"},{"name":"ÇAYAĞZI KÖYÜ","zip":"81652"},{"name":"ÇİÇEKPINAR KÖYÜ","zip":"81652"},{"name":"DADALI KÖYÜ","zip":"81652"},{"name":"DAVUTAĞA KÖYÜ","zip":"81652"},{"name":"DEREDİBİ KÖYÜ","zip":"81652"},{"name":"DEREKÖY KÖYÜ","zip":"81652"},{"name":"DİLAVER KÖYÜ","zip":"81652"},{"name":"DOĞANCILAR KÖYÜ","zip":"81652"},{"name":"DOĞANCILAR MAH.","zip":"81652"},{"name":"DÖNGELLİ KÖYÜ","zip":"81652"},{"name":"EDİLLİ AĞZI MAH.","zip":"81652"},{"name":"EDİLLİ KÖYÜ","zip":"81652"},{"name":"ESMAHANIM KÖYÜ","zip":"81652"},{"name":"FAKILLI KÖYÜ","zip":"81652"},{"name":"GİRESUNLULAR MAH.","zip":"81652"},{"name":"GÖKTEPE KÖYÜ","zip":"81652"},{"name":"HASANÇAVUŞ KÖYÜ","zip":"81652"},{"name":"HEMŞİN KÖYÜ","zip":"81652"},{"name":"KALKIN KÖYÜ","zip":"81652"},{"name":"KARABURUN 2 MAH.","zip":"81652"},{"name":"KARABURUN MAH.","zip":"81652"},{"name":"KARATAVUK KÖYÜ","zip":"81652"},{"name":"KAYADİBİ MAH.","zip":"81652"},{"name":"KEÇİKAYA MAH.","zip":"81652"},{"name":"KEPENÇ KÖYÜ","zip":"81652"},{"name":"KINIK KÖYÜ","zip":"81652"},{"name":"KİRAZLI KÖYÜ","zip":"81652"},{"name":"KİRAZYANI MAH.","zip":"81652"},{"name":"KOÇAR KÖYÜ","zip":"81652"},{"name":"KOÇULLU KÖYÜ","zip":"81652"},{"name":"KÖYİÇİ MAH.","zip":"81652"},{"name":"KUMPINAR MAH.","zip":"81652"},{"name":"KURUGÖL KÖYÜ","zip":"81652"},{"name":"KURUKAVAK KÖYÜ","zip":"81652"},{"name":"KURUKAVAK MAH.","zip":"81652"},{"name":"KÜPLER KÖYÜ","zip":"81652"},{"name":"MELENAĞZI KÖYÜ","zip":"81652"},{"name":"MERKEZ MAH.","zip":"81652"},{"name":"MÜCAVİR MAH.","zip":"81652"},{"name":"NAZIMBEY KÖYÜ","zip":"81652"},{"name":"ORTANCA KÖYÜ","zip":"81652"},{"name":"PAŞALAR KÖYÜ","zip":"81652"},{"name":"SARIYAYLA KÖYÜ","zip":"81652"},{"name":"SUBAŞI KÖYÜ","zip":"81652"},{"name":"TAHİRLİ KÖYÜ","zip":"81652"},{"name":"TEPEKÖY KÖYÜ","zip":"81652"},{"name":"UĞURLU KÖYÜ","zip":"81652"},{"name":"YALI MAH.","zip":"81652"},{"name":"YENİCE KÖYÜ","zip":"81652"},{"name":"YEŞİLKÖY KÖYÜ","zip":"81652"}]},{"name":"CUMAYERİ","cityName":null,"quarters":[{"name":"MEHMET AKİF MAH.","zip":"81700"},{"name":"ORTA MAH.","zip":"81700"},{"name":"YAKA MAH.","zip":"81700"},{"name":"YENİ MAH.","zip":"81700"}]},{"name":"MERKEZKÖYLER","cityName":null,"quarters":[{"name":"ALİ USTA MAH.","zip":"81702"},{"name":"ALT MAH.","zip":"81702"},{"name":"ARİF MAH.","zip":"81702"},{"name":"AVLAYAN KÖYÜ","zip":"81702"},{"name":"BÜYÜKMELEN KÖYÜ","zip":"81702"},{"name":"CAMİ MAH.","zip":"81702"},{"name":"ÇAMLIPINAR KÖYÜ","zip":"81702"},{"name":"ÇELİKDERE KÖYÜ","zip":"81702"},{"name":"DEĞİRMEN MAH.","zip":"81702"},{"name":"DERE MAH.","zip":"81702"},{"name":"DOKUZDEĞİRMEN KÖYÜ","zip":"81702"},{"name":"ELMALIDERE MAH.","zip":"81702"},{"name":"ESENTEPE KÖYÜ","zip":"81702"},{"name":"ESKİOĞLU MAH.","zip":"81702"},{"name":"FIRINYANI MAH.","zip":"81702"},{"name":"GÜNEY MAH.","zip":"81702"},{"name":"HAMASCIK KÖYÜ","zip":"81702"},{"name":"HARMANKAYA KÖYÜ","zip":"81702"},{"name":"HATİPOĞLU MAH.","zip":"81702"},{"name":"IĞDIR KÖYÜ","zip":"81702"},{"name":"İMRİZ MAH.","zip":"81702"},{"name":"KABAÇAYIR MAH.","zip":"81702"},{"name":"KAŞALTI MAH.","zip":"81702"},{"name":"KERSEN DÜZÜ MAH.","zip":"81702"},{"name":"KIRAN MAH.","zip":"81702"},{"name":"KIZILÜZÜM KÖYÜ","zip":"81702"},{"name":"KORAZOĞLU MAH.","zip":"81702"},{"name":"KOZLAR MAH.","zip":"81702"},{"name":"KURU ALİ MAH.","zip":"81702"},{"name":"KUZ MAH.","zip":"81702"},{"name":"KÜREKLİK MAH.","zip":"81702"},{"name":"MERKEZ MAH.","zip":"81702"},{"name":"MISIRLIK KÖYÜ","zip":"81702"},{"name":"OKUL MAH.","zip":"81702"},{"name":"ORDULUKARADERE KÖYÜ","zip":"81702"},{"name":"ORTA MAH.","zip":"81702"},{"name":"OSMANCIK MAH.","zip":"81702"},{"name":"ÖREN KÖYÜ","zip":"81702"},{"name":"ÖREN MAH.","zip":"81702"},{"name":"ÖRENİÇİ MAH.","zip":"81702"},{"name":"SIRTPINAR KÖYÜ","zip":"81702"},{"name":"SIVAZOĞLU MAH.","zip":"81702"},{"name":"SUBAŞI KÖYÜ","zip":"81702"},{"name":"SÜLEYMAN HANCI MAH.","zip":"81702"},{"name":"ŞAKİR MAH.","zip":"81702"},{"name":"TAŞLIK KÖYÜ","zip":"81702"},{"name":"TOMAS MAH.","zip":"81702"},{"name":"ÜVEZBELİ KÖYÜ","zip":"81702"},{"name":"YENİTEPE KÖYÜ","zip":"81702"},{"name":"YEŞİLTEPE KÖYÜ","zip":"81702"},{"name":"YUKARIAVLAYAN KÖYÜ","zip":"81702"}]},{"name":"ÇİLİMLİ","cityName":null,"quarters":[{"name":"MAHİRAĞA MAH.","zip":"81750"},{"name":"ŞEREFİYE MAH.","zip":"81750"},{"name":"TOPÇULAR MAH.","zip":"81750"},{"name":"ULUCAMİ MAH.","zip":"81750"},{"name":"YEŞİL MAH.","zip":"81750"},{"name":"YEŞİLTEPE MAH.","zip":"81750"}]},{"name":"MERKEZKÖYLER","cityName":null,"quarters":[{"name":"ALİMLER MAH.","zip":"81752"},{"name":"BIÇKIBAŞI KÖYÜ","zip":"81752"},{"name":"ÇAKALLAR MAH.","zip":"81752"},{"name":"ÇALILIK KÖYÜ","zip":"81752"},{"name":"DİKMELİ KÖYÜ","zip":"81752"},{"name":"DİKMELİ MÜCAVİR MAH.","zip":"81752"},{"name":"DÖNGELLİ KÖYÜ","zip":"81752"},{"name":"ESENLİ KÖYÜ","zip":"81752"},{"name":"GÜLEBELER MAH.","zip":"81752"},{"name":"HIZARDERE KÖYÜ","zip":"81752"},{"name":"İSHAKLAR KÖYÜ","zip":"81752"},{"name":"KAFYAYLA KÖYÜ","zip":"81752"},{"name":"KANAL MAH.","zip":"81752"},{"name":"KARAÇÖRTLEN KÖYÜ","zip":"81752"},{"name":"KAVAKLIK MAH.","zip":"81752"},{"name":"KIRKHARMAN KÖYÜ","zip":"81752"},{"name":"KİRAZTARLA KÖYÜ","zip":"81752"},{"name":"KOCAVELİLER MAH.","zip":"81752"},{"name":"KUŞOĞLU KÖYÜ","zip":"81752"},{"name":"KÜLTÜR MAH.","zip":"81752"},{"name":"MERKEZ MAH.","zip":"81752"},{"name":"ORMAN MAH.","zip":"81752"},{"name":"ORMAN MÜCAVİR MAH.","zip":"81752"},{"name":"ORTA MAH.","zip":"81752"},{"name":"ÖMERCİKLER MAH.","zip":"81752"},{"name":"PIRPIR KÖYÜ","zip":"81752"},{"name":"SARIMEŞE KÖYÜ","zip":"81752"},{"name":"SÖĞÜTLÜ KÖYÜ","zip":"81752"},{"name":"SÖĞÜTLÜ MAH.","zip":"81752"},{"name":"TEPEKÖY KÖYÜ","zip":"81752"},{"name":"YENİ MAH.","zip":"81752"},{"name":"YENİKÖY KÖYÜ","zip":"81752"},{"name":"YENİVAKIF KÖYÜ","zip":"81752"},{"name":"YUKARIKARAKÖY KÖYÜ","zip":"81752"},{"name":"YUKARIKÖY MAH.","zip":"81752"}]},{"name":"GÖLYAKA","cityName":null,"quarters":[{"name":"CUMAKIRI MAH.","zip":"81800"},{"name":"ESEN MAH.","zip":"81800"},{"name":"FATİH MAH.","zip":"81800"},{"name":"İMAMLAR MAH.","zip":"81800"},{"name":"KUYUDÜZÜ MAH.","zip":"81800"},{"name":"KÜLTÜR MAH.","zip":"81800"},{"name":"YAZIPINAR MAH.","zip":"81800"},{"name":"YENİ MAH.","zip":"81800"},{"name":"YEŞİL MAH.","zip":"81800"}]},{"name":"MERKEZ KÖYLER","cityName":null,"quarters":[{"name":"AKSU KÖYÜ","zip":"81802"},{"name":"ALBAYRAK MAH.","zip":"81802"},{"name":"ALT MAH.","zip":"81802"},{"name":"BAKACAK KÖYÜ","zip":"81802"},{"name":"BALKAYA MAH.","zip":"81802"},{"name":"BEKİROĞLU KÖYÜ","zip":"81802"},{"name":"BIÇKI MAH.","zip":"81802"},{"name":"CEVİZLİK MAH.","zip":"81802"},{"name":"CİNO MAH.","zip":"81802"},{"name":"ÇAMLIBEL KÖYÜ","zip":"81802"},{"name":"ÇAY KÖYÜ","zip":"81802"},{"name":"DEĞİRMENTEPE KÖYÜ","zip":"81802"},{"name":"DELİ MEHMET MAH.","zip":"81802"},{"name":"DELİHÜSEYİN MAH.","zip":"81802"},{"name":"DERE MAH.","zip":"81802"},{"name":"DURSUNLU MAH.","zip":"81802"},{"name":"GÖLCÜK MAH.","zip":"81802"},{"name":"GÜNEY MAH.","zip":"81802"},{"name":"GÜZELDERE KÖYÜ","zip":"81802"},{"name":"HACIOĞLU MAH.","zip":"81802"},{"name":"HACISÜLEYMANBEY KÖYÜ","zip":"81802"},{"name":"HACIYAKUP KÖYÜ","zip":"81802"},{"name":"HAMAMÜSTÜ KÖYÜ","zip":"81802"},{"name":"İÇMELER KÖYÜ","zip":"81802"},{"name":"KARACA MAH.","zip":"81802"},{"name":"KARAMAHMUT MAH.","zip":"81802"},{"name":"KEMERYANI KÖYÜ","zip":"81802"},{"name":"KIRAN MAH.","zip":"81802"},{"name":"KIZILCIK MAH.","zip":"81802"},{"name":"KUM MAH.","zip":"81802"},{"name":"KURTDÜZÜ MAH.","zip":"81802"},{"name":"MERKEZ MAH.","zip":"81802"},{"name":"MUHAPDEDE KÖYÜ","zip":"81802"},{"name":"ORTA MAH.","zip":"81802"},{"name":"SAÇMALIPINAR KÖYÜ","zip":"81802"},{"name":"SARIDERE KÖYÜ","zip":"81802"},{"name":"ŞİMŞİRLİTEPE MAH.","zip":"81802"},{"name":"TAŞLIK KÖYÜ","zip":"81802"},{"name":"YANIK 1 MAH.","zip":"81802"},{"name":"YANIK 2 MAH.","zip":"81802"},{"name":"YAZLIK (MÜCAVİR) MAH.","zip":"81802"},{"name":"YAZLIK KÖYÜ","zip":"81802"},{"name":"YENİ MAH.","zip":"81802"},{"name":"YEŞİLOVA KÖYÜ","zip":"81802"},{"name":"YUNUSEFENDİ KÖYÜ","zip":"81802"},{"name":"ZEKERİYA KÖYÜ","zip":"81802"}]},{"name":"GÜMÜŞOVA","cityName":null,"quarters":[{"name":"HACILAR MAH.","zip":"81850"},{"name":"KIŞLA MAH.","zip":"81850"},{"name":"KÜLTÜR MAH.","zip":"81850"},{"name":"MERKEZ MAH.","zip":"81850"},{"name":"YENİ MAH.","zip":"81850"}]},{"name":"MERKEZKÖYLER","cityName":null,"quarters":[{"name":"ADAKÖYÜ MAH.","zip":"81852"},{"name":"ARDIÇDİBİ KÖYÜ","zip":"81852"},{"name":"ÇAYBÜKÜ KÖYÜ","zip":"81852"},{"name":"ÇAYBÜKÜ MAH.","zip":"81852"},{"name":"DEDEDÜZÜ KÖYÜ","zip":"81852"},{"name":"DEREKÖY KÖYÜ","zip":"81852"},{"name":"ELMACIK KÖYÜ","zip":"81852"},{"name":"HACIKADİRLER KÖYÜ","zip":"81852"},{"name":"HACIKADİRLER MAH.","zip":"81852"},{"name":"HALİLBEY KÖYÜ","zip":"81852"},{"name":"KAHVELERYANI KÖYÜ","zip":"81852"},{"name":"KAHVELERYANI MAH.","zip":"81852"},{"name":"KIYIKÖY KÖYÜ","zip":"81852"},{"name":"PAZARCIK KÖYÜ","zip":"81852"},{"name":"SELAMLAR KÖYÜ","zip":"81852"},{"name":"SELAMLAR MAH.","zip":"81852"},{"name":"SOĞUKSU KÖYÜ","zip":"81852"},{"name":"SULTANİYE KÖYÜ","zip":"81852"},{"name":"YAKABAŞI KÖYÜ","zip":"81852"},{"name":"YAKABAŞI MAH.","zip":"81852"},{"name":"YEŞİLYAYLA KÖYÜ","zip":"81852"},{"name":"YILDIZTEPE KÖYÜ","zip":"81852"},{"name":"YONGALIK KÖYÜ","zip":"81852"}]},{"name":"KAYNAŞLI","cityName":null,"quarters":[{"name":"ESKİKÖY MAH.","zip":"81900"},{"name":"KARAÇALI MAH.","zip":"81900"},{"name":"KUMLUCA MAH.","zip":"81900"},{"name":"MERKEZ MAH.","zip":"81900"},{"name":"SARIYER MAH.","zip":"81900"},{"name":"ŞİMŞİR MAH.","zip":"81900"}]},{"name":"MERKEZKÖYLER","cityName":null,"quarters":[{"name":"ALT MAH.","zip":"81902"},{"name":"ALTUNKÖY KÖYÜ","zip":"81902"},{"name":"BAŞYAZICIOĞLU DAĞ EVLERİ MAH.","zip":"81902"},{"name":"BEKTAŞLI MAH.","zip":"81902"},{"name":"BIÇKIYANI KÖYÜ","zip":"81902"},{"name":"BÜLBÜLDERE MAH.","zip":"81902"},{"name":"ÇAKIRSAYVAN KÖYÜ","zip":"81902"},{"name":"ÇAMLICA KÖYÜ","zip":"81902"},{"name":"ÇAMLIK MAH.","zip":"81902"},{"name":"ÇAMOLUK KÖYÜ","zip":"81902"},{"name":"ÇATALÇAM KÖYÜ","zip":"81902"},{"name":"ÇAYKARA MAH.","zip":"81902"},{"name":"ÇİLLİOĞLU MAH.","zip":"81902"},{"name":"ÇİMENLİKORULUK MAH.","zip":"81902"},{"name":"D-100 BOLUDAĞI KARAYOLU MAH.","zip":"81902"},{"name":"D-100 KARAYOLU MAH.","zip":"81902"},{"name":"DARIYERİ YÖRÜKLER KÖYÜ","zip":"81902"},{"name":"DARIYERİBAKACAK KÖYÜ","zip":"81902"},{"name":"DARIYERİHASANBEY KÖYÜ","zip":"81902"},{"name":"DARIYERİMENGENCİK KÖYÜ","zip":"81902"},{"name":"DEGİRMENYANI MAH.","zip":"81902"},{"name":"DERE MAH.","zip":"81902"},{"name":"DEREBOYU MAH.","zip":"81902"},{"name":"DİP MAH.","zip":"81902"},{"name":"DİPSİZGÖL KÖYÜ","zip":"81902"},{"name":"DOĞANTEPE MAH.","zip":"81902"},{"name":"DÜZGÖSTEK MAH.","zip":"81902"},{"name":"DÜZORMANI MAH.","zip":"81902"},{"name":"EĞRELTİLİ MAH.","zip":"81902"},{"name":"ELMALI MAH.","zip":"81902"},{"name":"FATİH MAH.","zip":"81902"},{"name":"FENERBAHÇE MAH.","zip":"81902"},{"name":"FINDIKLI KÖYÜ","zip":"81902"},{"name":"FINDIKLI MAH.","zip":"81902"},{"name":"GÜLDERE MAH.","zip":"81902"},{"name":"GÜNEY MAH.","zip":"81902"},{"name":"HACIAZİZLER KÖYÜ","zip":"81902"},{"name":"HACIMEHMET MAH.","zip":"81902"},{"name":"HAMZALI MAH.","zip":"81902"},{"name":"HENDANOĞLU MAH.","zip":"81902"},{"name":"İKİZLER MAH.","zip":"81902"},{"name":"İLHANLI MAH.","zip":"81902"},{"name":"KAHVECİ MAH.","zip":"81902"},{"name":"KARŞI MAH.","zip":"81902"},{"name":"KOYTAKLI MAH.","zip":"81902"},{"name":"KULUBEYANI MAH.","zip":"81902"},{"name":"KUZUMLU MAH.","zip":"81902"},{"name":"KÜLTÜR MAH.","zip":"81902"},{"name":"KÜTÜKLÜ MAH.","zip":"81902"},{"name":"MEHMETPINAR MAH.","zip":"81902"},{"name":"MERKEZ MAH.","zip":"81902"},{"name":"MERKEZYAYLA MAH.","zip":"81902"},{"name":"MEŞELİK MAH.","zip":"81902"},{"name":"MURATBEY KÖYÜ","zip":"81902"},{"name":"OFLU MAH.","zip":"81902"},{"name":"ONBAŞI MAH.","zip":"81902"},{"name":"ORTA MAH.","zip":"81902"},{"name":"OSMANÇAVUŞ MAH.","zip":"81902"},{"name":"SAĞLIK MAH.","zip":"81902"},{"name":"SAKARCA MAH.","zip":"81902"},{"name":"SARIÇÖKEK KÖYÜ","zip":"81902"},{"name":"SAZKÖY KÖYÜ","zip":"81902"},{"name":"SİNEKLİ MAH.","zip":"81902"},{"name":"SOĞUKSU MAH.","zip":"81902"},{"name":"ŞAFAK MAH.","zip":"81902"},{"name":"ŞEVKİ MAH.","zip":"81902"},{"name":"ŞİRİNEVLER MAH.","zip":"81902"},{"name":"TAHTALIK MAH.","zip":"81902"},{"name":"TAŞALTI MAH.","zip":"81902"},{"name":"TAVAK KÖYÜ","zip":"81902"},{"name":"TEKİRSU MAH.","zip":"81902"},{"name":"TÜTEKYATAK MAH.","zip":"81902"},{"name":"UFUK MAH.","zip":"81902"},{"name":"ÜÇKÖPRÜ KÖYÜ","zip":"81902"},{"name":"ÜST MAH.","zip":"81902"},{"name":"VELİOĞLU ALİOSMAN MAH.","zip":"81902"},{"name":"VEYSELUSTA MAH.","zip":"81902"},{"name":"YAĞCILAR BİLAL MAH.","zip":"81902"},{"name":"YENİDOĞAN MAH.","zip":"81902"},{"name":"YENİYURT KÖYÜ","zip":"81902"},{"name":"YEŞİLTEPE KÖYÜ","zip":"81902"}]},{"name":"AZİZİYEGÜNLÜ","cityName":null,"quarters":[{"name":"AKPINAR MAH.","zip":"81010"},{"name":"ARAPÇİFTLİĞİ MAH.","zip":"81010"},{"name":"AZİZİYE MAH.","zip":"81010"},{"name":"AZMİMİLLİ MAH.","zip":"81010"},{"name":"BURHANİYE MAH.","zip":"81010"},{"name":"CAMİKEBİR MAH.","zip":"81010"},{"name":"CEDİDİYE MAH.","zip":"81010"},{"name":"ÇAKIRLAR MAH.","zip":"81010"},{"name":"ÇAMKÖY MAH.","zip":"81010"},{"name":"ÇAVUŞLAR MAH.","zip":"81010"},{"name":"ÇAY MAH.","zip":"81010"},{"name":"DARICI MAH.","zip":"81010"},{"name":"DEDELER MAH.","zip":"81010"},{"name":"FEVZİÇAKMAK MAH.","zip":"81010"},{"name":"KAZUKOĞLU MAH.","zip":"81010"},{"name":"KİREMİTOCAĞI MAH.","zip":"81010"},{"name":"KOÇYAZI MAH.","zip":"81010"},{"name":"KUYUMCUHACIALİ MAH.","zip":"81010"},{"name":"MERGİÇ MAH.","zip":"81010"},{"name":"NALBANTOĞLU MAH.","zip":"81010"},{"name":"NUSRETTİN MAH.","zip":"81010"},{"name":"SALLAR MAH.","zip":"81010"},{"name":"SANCAKLAR MAH.","zip":"81010"},{"name":"SARAYYERİ MAH.","zip":"81010"},{"name":"SOĞUKPINAR MAH.","zip":"81010"},{"name":"ŞEREFİYE MAH.","zip":"81010"},{"name":"ŞIRALIK MAH.","zip":"81010"},{"name":"TOKUŞLAR MAH.","zip":"81010"},{"name":"UZUNMUSTAFA MAH.","zip":"81010"},{"name":"YAHYALAR MAH.","zip":"81010"},{"name":"YUKARI YAHYALAR MAH.","zip":"81010"}]},{"name":"BEYCİLER","cityName":null,"quarters":[{"name":"CUMHURİYET MAH.","zip":"81030"},{"name":"DERELİTÜTÜNCÜ MAH.","zip":"81030"},{"name":"FATİH MAH.","zip":"81030"},{"name":"HAMİDİYE MAH.","zip":"81030"},{"name":"KARA HACIMUSA MAH.","zip":"81030"},{"name":"KARACA MAH.","zip":"81030"},{"name":"KÖRPEŞLER MAH.","zip":"81030"},{"name":"YENİ MAH.","zip":"81030"}]},{"name":"BEYKÖY","cityName":null,"quarters":[{"name":"KÜLTÜR MAH.","zip":"81600"}]},{"name":"BOĞAZİÇİ","cityName":null,"quarters":[{"name":"ŞEHİT HÜSEYİN KIL MAH.","zip":"81620"},{"name":"ŞEHİT KEMAL IŞILDAK MAH.","zip":"81620"},{"name":"ŞEHİT MURAT DEMİR MAH.","zip":"81620"}]},{"name":"KALICIKONUTLAR","cityName":null,"quarters":[{"name":"ÇAMLIEVLER MAH.","zip":"81630"},{"name":"DEMETEVLER MAH.","zip":"81630"},{"name":"ESENTEPE MAH.","zip":"81630"},{"name":"GÜZELBAHÇE MAH.","zip":"81630"},{"name":"YEŞİLTEPE MAH.","zip":"81630"}]},{"name":"KONURALP","cityName":null,"quarters":[{"name":"AFANOĞLU MAH.","zip":"81060"},{"name":"AKBIYIKLAR KÖYÜ","zip":"81060"},{"name":"AKÇALAR MAH.","zip":"81060"},{"name":"AKTARLA KÖYÜ","zip":"81060"},{"name":"AKYAZI KÖYÜ","zip":"81060"},{"name":"ALAÇAM MAH.","zip":"81060"},{"name":"ALTINPINAR KÖYÜ","zip":"81060"},{"name":"ASAR KÖYÜ","zip":"81060"},{"name":"AŞAĞI MAH.","zip":"81060"},{"name":"AYBAŞI KÖYÜ","zip":"81060"},{"name":"AYDINPINAR KÖYÜ","zip":"81060"},{"name":"AYNALI KÖYÜ","zip":"81060"},{"name":"BAHÇE KÖYÜ","zip":"81060"},{"name":"BAHÇELİEVLER MAH.","zip":"81060"},{"name":"BALLAR MAH.","zip":"81060"},{"name":"BALLICA KÖYÜ","zip":"81060"},{"name":"BATAKLI ÇİFTLİK KÖYÜ","zip":"81060"},{"name":"BEYKÖY KÖYÜ","zip":"81060"},{"name":"BEYTEPE MAH.","zip":"81060"},{"name":"BOĞAZİÇİ KÖYÜ","zip":"81060"},{"name":"BOSTANLIK KÖYÜ","zip":"81060"},{"name":"BUCAKKURULU MAH.","zip":"81060"},{"name":"BÜK MAH.","zip":"81060"},{"name":"BÜYÜK AÇMA KÖYÜ","zip":"81060"},{"name":"BÜYÜKAÇMA MAH.","zip":"81060"},{"name":"CAPOĞLU MAH.","zip":"81060"},{"name":"CUMA MAH.","zip":"81060"},{"name":"CUMHURİYET MAH.","zip":"81060"},{"name":"CUMHURİYET OSB2 MAH.","zip":"81060"},{"name":"ÇAKIRHACI İBRAHİM KÖYÜ","zip":"81060"},{"name":"ÇAKMANLAR MAH.","zip":"81060"},{"name":"ÇALICUMA KÖYÜ","zip":"81060"},{"name":"ÇAM MAH.","zip":"81060"},{"name":"ÇAMLIK MAH.","zip":"81060"},{"name":"ÇAMLISU KÖYÜ","zip":"81060"},{"name":"ÇAYIRBAŞI MAH.","zip":"81060"},{"name":"ÇAYIRTARLA MAH.","zip":"81060"},{"name":"ÇINARDÜZÜ KÖYÜ","zip":"81060"},{"name":"ÇINARLI KÖYÜ","zip":"81060"},{"name":"ÇİÇEK MAH.","zip":"81060"},{"name":"ÇİFTEPINARLAR MAH.","zip":"81060"},{"name":"ÇİFTLİK KÖYÜ","zip":"81060"},{"name":"ÇİMEN MAH.","zip":"81060"},{"name":"ÇOBANOĞLU MAH.","zip":"81060"},{"name":"ÇORAK MAH.","zip":"81060"},{"name":"DAĞDİBİ KÖYÜ","zip":"81060"},{"name":"DEĞİRMEN MAH.","zip":"81060"},{"name":"DEĞİRMENBAŞI KÖYÜ","zip":"81060"},{"name":"DEĞİRMENÜSTÜ MAH.","zip":"81060"},{"name":"DEMİRCİLER MAH.","zip":"81060"},{"name":"DEPO MAH.","zip":"81060"},{"name":"DERDİN KÖYÜ","zip":"81060"},{"name":"DERE MAH.","zip":"81060"},{"name":"DEVELİ BESNİ KÖYÜ","zip":"81060"},{"name":"DEVELİ MAH.","zip":"81060"},{"name":"DİNLER MAH.","zip":"81060"},{"name":"DOĞANLI KÖYÜ","zip":"81060"},{"name":"DOĞANLI MÜCAVİR MAH.","zip":"81060"},{"name":"DOKUZPINAR MAH.","zip":"81060"},{"name":"DORUK MAH.","zip":"81060"},{"name":"DURAKLAR KÖYÜ","zip":"81060"},{"name":"DÜVERDÜZÜ KÖYÜ","zip":"81060"},{"name":"DÜZ KÖYÜ","zip":"81060"},{"name":"EFENDİ MAH.","zip":"81060"},{"name":"EMİNAÇMA KÖYÜ","zip":"81060"},{"name":"ERDEMLİ KÖYÜ","zip":"81060"},{"name":"ESENÇAM KÖYÜ","zip":"81060"},{"name":"ESENTEPE KÖYÜ","zip":"81060"},{"name":"ESKİ MENGENCİK KÖYÜ","zip":"81060"},{"name":"FABRİKA MAH.","zip":"81060"},{"name":"FINDIKÇUKURU MAH.","zip":"81060"},{"name":"FINDIKLI AKSU KÖYÜ","zip":"81060"},{"name":"GICIR MAH.","zip":"81060"},{"name":"GÖKÇE KÖYÜ","zip":"81060"},{"name":"GÖLORMANI KÖYÜ","zip":"81060"},{"name":"GÜLDERE KÖYÜ","zip":"81060"},{"name":"GÜMÜŞPINAR KÖYÜ","zip":"81060"},{"name":"GÜNBAŞI KÖYÜ","zip":"81060"},{"name":"GÜNBAŞI MÜCAVİR MAH.","zip":"81060"},{"name":"GÜNDOLAMASI KÖYÜ","zip":"81060"},{"name":"GÜVEN KÖYÜ","zip":"81060"},{"name":"HACI AHMETLER KÖYÜ","zip":"81060"},{"name":"HACI ALİLER KÖYÜ","zip":"81060"},{"name":"HACIMUSTAFADÜZÜ MAH.","zip":"81060"},{"name":"HACIYATAĞI MAH.","zip":"81060"},{"name":"HAKKI HOCA MAH.","zip":"81060"},{"name":"HAMAMDAĞI MAH.","zip":"81060"},{"name":"HAMAMÜSTÜ MAH.","zip":"81060"},{"name":"HAMZA MAH.","zip":"81060"},{"name":"HASANLAR KÖYÜ","zip":"81060"},{"name":"HATIPLAR MAH.","zip":"81060"},{"name":"HATİPLİ KETENCİLER KÖYÜ","zip":"81060"},{"name":"HATİPLİ MAH.","zip":"81060"},{"name":"HECİNLER MAH.","zip":"81060"},{"name":"HOCAOĞLU KÖYÜ","zip":"81060"},{"name":"HÜRRİYET MAH.","zip":"81060"},{"name":"İHSANİYE KÖYÜ","zip":"81060"},{"name":"İSLAHİYE KÖYÜ","zip":"81060"},{"name":"İSLAHİYE MÜCAVİR MAH.","zip":"81060"},{"name":"İSTİKLAL MAH.","zip":"81060"},{"name":"İSTİKLAL OSB1 MAH.","zip":"81060"},{"name":"İSTİLLİ KÖYÜ","zip":"81060"},{"name":"İZMİRLİ MAH.","zip":"81060"},{"name":"KABALAK KÖYÜ","zip":"81060"},{"name":"KADIOĞLU KÖYÜ","zip":"81060"},{"name":"KALEDİBİ KÖYÜ","zip":"81060"},{"name":"KALYONCU MAH.","zip":"81060"},{"name":"KARA AĞAÇ MAH.","zip":"81060"},{"name":"KARACALI MAH.","zip":"81060"},{"name":"KARAÇAVUŞ MAH.","zip":"81060"},{"name":"KARADERE HASANAĞA KÖYÜ","zip":"81060"},{"name":"KARAÖMER MAH.","zip":"81060"},{"name":"KARASAKAL MAH.","zip":"81060"},{"name":"KARDELEN MAH.","zip":"81060"},{"name":"KASIM MAH.","zip":"81060"},{"name":"KAVAKBIÇKI KÖYÜ","zip":"81060"},{"name":"KAVAKLAR MAH.","zip":"81060"},{"name":"KAYMAKÇI KÖYÜ","zip":"81060"},{"name":"KEMER MAH.","zip":"81060"},{"name":"KEMERKASIM KÖYÜ","zip":"81060"},{"name":"KETENCİLER MAH.","zip":"81060"},{"name":"KIRKACAK MAH.","zip":"81060"},{"name":"KIZILCIK KÖYÜ","zip":"81060"},{"name":"KİRAZLI KÖYÜ","zip":"81060"},{"name":"KİREÇKUYUSU MAH.","zip":"81060"},{"name":"KOCAYAYLA MAH.","zip":"81060"},{"name":"KONAKLI KÖYÜ","zip":"81060"},{"name":"KOZLUK KÖYÜ","zip":"81060"},{"name":"KÖPRÜBAŞI KÖYÜ","zip":"81060"},{"name":"KURTSUYU KÖYÜ","zip":"81060"},{"name":"KURUDERE MAH.","zip":"81060"},{"name":"KURULUK MAH.","zip":"81060"},{"name":"KURUOĞLU MAH.","zip":"81060"},{"name":"KUŞAÇMASI KÖYÜ","zip":"81060"},{"name":"KUŞYUVASI MAH.","zip":"81060"},{"name":"KUTLU KÖYÜ","zip":"81060"},{"name":"KÜÇÜKAHMET KÖYÜ","zip":"81060"},{"name":"KÜÇÜKMEHMET KÖYÜ","zip":"81060"},{"name":"KÜLTÜR MAH.","zip":"81060"},{"name":"KÜRT MAH.","zip":"81060"},{"name":"MAMURE KÖYÜ","zip":"81060"},{"name":"MERKEZ MAH.","zip":"81060"},{"name":"MEZARLIK MAH.","zip":"81060"},{"name":"MOLLAOĞLU MAH.","zip":"81060"},{"name":"MUNCURLU KÖYÜ","zip":"81060"},{"name":"MUNCURLU MÜCAVİR MAH.","zip":"81060"},{"name":"MURADİYE MAH.","zip":"81060"},{"name":"MURADİYE MENGENCİK KÖYÜ","zip":"81060"},{"name":"MUSABABA KÖYÜ","zip":"81060"},{"name":"MUSABABA MÜCAVİR MAH.","zip":"81060"},{"name":"NASIRLI KÖYÜ","zip":"81060"},{"name":"NUHLAR KÖYÜ","zip":"81060"},{"name":"NUHLAR MAH.","zip":"81060"},{"name":"NUSRET YILMAZ MAH.","zip":"81060"},{"name":"ORHANGAZİ MAH.","zip":"81060"},{"name":"ORTA MAH.","zip":"81060"},{"name":"OSMANCA KÖYÜ","zip":"81060"},{"name":"OTLAKLAR MAH.","zip":"81060"},{"name":"OTLUOĞLU KÖYÜ","zip":"81060"},{"name":"OVA MAH.","zip":"81060"},{"name":"OVAPINAR KÖYÜ","zip":"81060"},{"name":"OVAPINAR MAH.","zip":"81060"},{"name":"OZANLAR KÖYÜ","zip":"81060"},{"name":"ÖZYANIK KÖYÜ","zip":"81060"},{"name":"PAŞAKONAĞI KÖYÜ","zip":"81060"},{"name":"PAŞAORMANI KÖYÜ","zip":"81060"},{"name":"PETEKLİ MAH.","zip":"81060"},{"name":"PINARLAR KÖYÜ","zip":"81060"},{"name":"POYRAZ MAH.","zip":"81060"},{"name":"SADIK MAH.","zip":"81060"},{"name":"SAMANDERE KÖYÜ","zip":"81060"},{"name":"SANCAKDERE KÖYÜ","zip":"81060"},{"name":"SANTRAL MAH.","zip":"81060"},{"name":"SARIÇAM MAH.","zip":"81060"},{"name":"SARIKASIM MAH.","zip":"81060"},{"name":"SİNİRCİ KÖYÜ","zip":"81060"},{"name":"SUNCUK KÖYÜ","zip":"81060"},{"name":"ŞAZİYE KÖYÜ","zip":"81060"},{"name":"ŞEKERPINAR MAH.","zip":"81060"},{"name":"ŞOSE ALTI MAH.","zip":"81060"},{"name":"TANTAN KUYU MAH.","zip":"81060"},{"name":"TAŞKÖPRÜ KÖYÜ","zip":"81060"},{"name":"TATİL KÖYÜ MAH.","zip":"81060"},{"name":"TEKİRPINAR MAH.","zip":"81060"},{"name":"TEPE ALTI MAH.","zip":"81060"},{"name":"TERZİALİLER MAH.","zip":"81060"},{"name":"TINAZ MAH.","zip":"81060"},{"name":"TOKMAKTARLA MAH.","zip":"81060"},{"name":"TONYALI MAH.","zip":"81060"},{"name":"TURAPLAR KÖYÜ","zip":"81060"},{"name":"TÜTÜNLÜK MAH.","zip":"81060"},{"name":"UÇUK MAH.","zip":"81060"},{"name":"UĞUR KÖYÜ","zip":"81060"},{"name":"UZUNALİ MAH.","zip":"81060"},{"name":"ÜÇKESE MAH.","zip":"81060"},{"name":"ÜÇYOL KÖYÜ","zip":"81060"},{"name":"YAKA KÖYÜ","zip":"81060"},{"name":"YAMALI MAH.","zip":"81060"},{"name":"YANIK MAH.","zip":"81060"},{"name":"YAYAKBAŞI KÖYÜ","zip":"81060"},{"name":"YAYLA KÖYÜ","zip":"81060"},{"name":"YAYLAKAPI MAH.","zip":"81060"},{"name":"YAZLIK MAH.","zip":"81060"},{"name":"YENİ AYNALI KÖYÜ","zip":"81060"},{"name":"YENİ KARAKÖY KÖYÜ","zip":"81060"},{"name":"YENİ MAH.","zip":"81060"},{"name":"YENİ TAŞKÖPRÜ KÖYÜ","zip":"81060"},{"name":"YEŞİL MAH.","zip":"81060"},{"name":"YEŞİLÇAM KÖYÜ","zip":"81060"},{"name":"YEŞİLÇAM MÜCAVİR MAH.","zip":"81060"},{"name":"YEŞİLÇİMEN KÖYÜ","zip":"81060"},{"name":"YEŞİLKÖY MAH.","zip":"81060"},{"name":"YILANKAYA MAH.","zip":"81060"},{"name":"YÖRÜK KÖYÜ","zip":"81060"},{"name":"YUKARI MAH.","zip":"81060"},{"name":"YUNUSLAR MAH.","zip":"81060"}]},{"name":"MERKEZKÖYLER","cityName":null,"quarters":[{"name":"AKSAKLAR KÖYÜ","zip":"81952"},{"name":"AKSU MAH.","zip":"81952"},{"name":"ASAR KÖYÜ","zip":"81952"},{"name":"AŞAĞI MAH.","zip":"81952"},{"name":"AVUTLUK MAH.","zip":"81952"},{"name":"AYDIN MAH.","zip":"81952"},{"name":"AYDINYAYLA KÖYÜ","zip":"81952"},{"name":"BEKİRLER KÖYÜ","zip":"81952"},{"name":"BELEN MAH.","zip":"81952"},{"name":"ÇAKIL MAH.","zip":"81952"},{"name":"ÇAMLI KÖYÜ","zip":"81952"},{"name":"ÇAYIRCIK MAH.","zip":"81952"},{"name":"ÇIRNIK MAH.","zip":"81952"},{"name":"ÇİFTLİK KÖYÜ","zip":"81952"},{"name":"ÇORAK MAH.","zip":"81952"},{"name":"ÇUKURÖREN KÖYÜ","zip":"81952"},{"name":"DAĞ MAH.","zip":"81952"},{"name":"DEREİÇİ MAH.","zip":"81952"},{"name":"DİBEKTAŞ KÖYÜ","zip":"81952"},{"name":"DOĞANCILAR MAH.","zip":"81952"},{"name":"DOĞANLAR KÖYÜ","zip":"81952"},{"name":"DOKUZ MAH.","zip":"81952"},{"name":"DUTLAR KÖYÜ","zip":"81952"},{"name":"ELMAS MAH.","zip":"81952"},{"name":"GAZİLER KÖYÜ","zip":"81952"},{"name":"GELENÖZ KÖYÜ","zip":"81952"},{"name":"GERİŞ KÖYÜ","zip":"81952"},{"name":"GÖKÇEAĞAÇ KÖYÜ","zip":"81952"},{"name":"GÜNEY KÖYÜ","zip":"81952"},{"name":"GÜNEY MAH.","zip":"81952"},{"name":"GÜNEYALTI MAH.","zip":"81952"},{"name":"HACILAR KÖYÜ","zip":"81952"},{"name":"HACIYERİ KÖYÜ","zip":"81952"},{"name":"HEBELER KÖYÜ","zip":"81952"},{"name":"HOCAKÖY KÖYÜ","zip":"81952"},{"name":"HOCATMAN KÖYÜ","zip":"81952"},{"name":"HOŞAFOĞLU KÖYÜ","zip":"81952"},{"name":"İĞNELER KÖYÜ","zip":"81952"},{"name":"İSMAİLÇAYIRI MAH.","zip":"81952"},{"name":"KARAKAŞ KÖYÜ","zip":"81952"},{"name":"KARAKİRAZ MAH.","zip":"81952"},{"name":"KAZAKLAR MAH.","zip":"81952"},{"name":"KIRIK KÖYÜ","zip":"81952"},{"name":"KİRSEYANI MAH.","zip":"81952"},{"name":"KOCAOĞLU KÖYÜ","zip":"81952"},{"name":"KÖSELER KÖYÜ","zip":"81952"},{"name":"KÖSELER MAH.","zip":"81952"},{"name":"KURUCA MAH.","zip":"81952"},{"name":"KURUHÜSEYİN MAH.","zip":"81952"},{"name":"KUZEY MAH.","zip":"81952"},{"name":"MEHMETKÖY MAH.","zip":"81952"},{"name":"MELEN KIYISI MAH.","zip":"81952"},{"name":"MENGEN KÖYÜ","zip":"81952"},{"name":"MERKEZ MAH.","zip":"81952"},{"name":"NAŞLAR KÖYÜ","zip":"81952"},{"name":"ORHANGAZİ KÖYÜ","zip":"81952"},{"name":"ORTA MAH.","zip":"81952"},{"name":"OSMANCIK MAH.","zip":"81952"},{"name":"PINARCIK MAH.","zip":"81952"},{"name":"REDİFLER KÖYÜ","zip":"81952"},{"name":"RESULLER MAH.","zip":"81952"},{"name":"SALAVAT MAH.","zip":"81952"},{"name":"SARIKAYA KÖYÜ","zip":"81952"},{"name":"SETLİK MAH.","zip":"81952"},{"name":"ŞABAN MAH.","zip":"81952"},{"name":"ŞABANLAR MAH.","zip":"81952"},{"name":"ŞERENALTI MAH.","zip":"81952"},{"name":"TAVUKPINARI MAH.","zip":"81952"},{"name":"TIRAŞLAR KÖYÜ","zip":"81952"},{"name":"TUĞRUL KÖYÜ","zip":"81952"},{"name":"TURNACILAR MAH.","zip":"81952"},{"name":"VAYISLAR MAH.","zip":"81952"},{"name":"YAĞCILAR KÖYÜ","zip":"81952"},{"name":"YAPLAR MAH.","zip":"81952"},{"name":"YAYLATEPE KÖYÜ","zip":"81952"},{"name":"YENİYER KÖYÜ","zip":"81952"},{"name":"YILGIN KÖYÜ","zip":"81952"},{"name":"YOĞUNPELİT KÖYÜ","zip":"81952"},{"name":"YÖRÜKLER MAH.","zip":"81952"},{"name":"YUKARI AKÇAÖREN MAH.","zip":"81952"},{"name":"YUKARI MAH.","zip":"81952"}]},{"name":"YIĞILCA","cityName":null,"quarters":[{"name":"ATATÜRK MAH.","zip":"81950"},{"name":"MAREŞAL FEVZİ  ÇAKMAK MAH.","zip":"81950"},{"name":"ORHANGAZİ MAH.","zip":"81950"}]}]}]}