{"id":9,"name":"AYDIN","cities":[{"name":"city","districts":[{"name":"BOZDOĞAN","cityName":null,"quarters":[{"name":"ALAMUT MAH.","zip":"09760"},{"name":"ALHİSAR MAH.","zip":"09760"},{"name":"ALTINTAŞ MAH.","zip":"09760"},{"name":"AMASYA MAH.","zip":"09760"},{"name":"ASMA MAH.","zip":"09760"},{"name":"BAŞALAN MAH.","zip":"09760"},{"name":"CUMHURİYET MAH.","zip":"09760"},{"name":"ÇAMLIDERE MAH.","zip":"09760"},{"name":"ÇARŞI MAH.","zip":"09760"},{"name":"DÖMEN MAH.","zip":"09760"},{"name":"DUTAĞAÇ MAH.","zip":"09760"},{"name":"EYMİR MAH.","zip":"09760"},{"name":"GÜNEY MAH.","zip":"09760"},{"name":"GÜNEYYAKA MAH.","zip":"09760"},{"name":"GÜRE MAH.","zip":"09760"},{"name":"GÜVENİR MAH.","zip":"09760"},{"name":"HAYDERE MAH.","zip":"09760"},{"name":"HIDIRBABA MAH.","zip":"09760"},{"name":"HIŞIMLAR MAH.","zip":"09760"},{"name":"HİSAR MAH.","zip":"09760"},{"name":"KAKKALAN MAH.","zip":"09760"},{"name":"KAMIŞLAR MAH.","zip":"09760"},{"name":"KARAAHMETLER MAH.","zip":"09760"},{"name":"KAVAKLI MAH.","zip":"09760"},{"name":"KAZANDERE MAH.","zip":"09760"},{"name":"KEMER MAH.","zip":"09760"},{"name":"KILAVUZLAR MAH.","zip":"09760"},{"name":"KIZILCA MAH.","zip":"09760"},{"name":"KIZILTEPE MAH.","zip":"09760"},{"name":"KONAKLI MAH.","zip":"09760"},{"name":"KOYUNCULAR MAH.","zip":"09760"},{"name":"KÖRTEKE MAH.","zip":"09760"},{"name":"MADRAN MAH.","zip":"09760"},{"name":"OLUKBAŞI MAH.","zip":"09760"},{"name":"OSMANİYE MAH.","zip":"09760"},{"name":"ÖRENCİK MAH.","zip":"09760"},{"name":"ÖRENTAHT MAH.","zip":"09760"},{"name":"ÖRMEPINAR MAH.","zip":"09760"},{"name":"ÖRTÜLÜ MAH.","zip":"09760"},{"name":"PINARLI MAH.","zip":"09760"},{"name":"SEKİ MAH.","zip":"09760"},{"name":"SIRMA MAH.","zip":"09760"},{"name":"TÜTÜNCÜLER MAH.","zip":"09760"},{"name":"YAKA MAH.","zip":"09760"},{"name":"YAZIKENT MAH.","zip":"09760"},{"name":"YENİ MAH.","zip":"09760"},{"name":"YENİCE MAH.","zip":"09760"},{"name":"YENİKÖY MAH.","zip":"09760"},{"name":"YEŞİL YENİCE MAH.","zip":"09760"},{"name":"YEŞİLÇAM MAH.","zip":"09760"},{"name":"ZİYARETLİ MAH.","zip":"09760"}]},{"name":"ÇUBUKDAĞI","cityName":null,"quarters":[{"name":"FESLEK MAH.","zip":"09670"},{"name":"GELENBE MAH.","zip":"09670"},{"name":"GÜNDOĞAN MAH.","zip":"09670"},{"name":"İSTİKLAL MAH.","zip":"09670"},{"name":"KAMİLPAŞA MAH.","zip":"09670"},{"name":"KAYABURNU MAH.","zip":"09670"},{"name":"KIZILDERE MAH.","zip":"09670"},{"name":"MENDERES MAH.","zip":"09670"},{"name":"MURATDAĞI MAH.","zip":"09670"},{"name":"ORTAKÇI MAH.","zip":"09670"},{"name":"SAVCILLI MAH.","zip":"09670"},{"name":"ÜÇEYLÜL MAH.","zip":"09670"},{"name":"ZAFER MAH.","zip":"09670"}]},{"name":"ÇİNE","cityName":null,"quarters":[{"name":"AKDAM MAH.","zip":"09500"},{"name":"ALABAYIR MAH.","zip":"09500"},{"name":"ALTINABAT MAH.","zip":"09500"},{"name":"ALTINOVA MAH.","zip":"09500"},{"name":"BAĞLARBAŞI MAH.","zip":"09500"},{"name":"BAHÇEARASI MAH.","zip":"09500"},{"name":"BEDİRLER MAH.","zip":"09500"},{"name":"BEREKET MAH.","zip":"09500"},{"name":"BÖLÜNTÜ MAH.","zip":"09500"},{"name":"BUCAK MAH.","zip":"09500"},{"name":"CAMIZAĞILI MAH.","zip":"09500"},{"name":"CUMALI MAH.","zip":"09500"},{"name":"CUMHURİYET MAH.","zip":"09500"},{"name":"ÇALTI MAH.","zip":"09500"},{"name":"ÇATAK MAH.","zip":"09500"},{"name":"ÇÖĞÜRLÜK MAH.","zip":"09500"},{"name":"DERELİ MAH.","zip":"09500"},{"name":"DOĞANYURT MAH.","zip":"09500"},{"name":"DORUMLAR MAH.","zip":"09500"},{"name":"DUTLUOLUK MAH.","zip":"09500"},{"name":"ELDERESİ MAH.","zip":"09500"},{"name":"ESENTEPE MAH.","zip":"09500"},{"name":"ESKİÇİNE MAH.","zip":"09500"},{"name":"EVCİLER MAH.","zip":"09500"},{"name":"GÖKYAKA MAH.","zip":"09500"},{"name":"HACIPAŞALAR MAH.","zip":"09500"},{"name":"HALLAÇLAR MAH.","zip":"09500"},{"name":"HAMİTABAT MAH.","zip":"09500"},{"name":"HASANLAR MAH.","zip":"09500"},{"name":"İBRAHİMKAVAĞI MAH.","zip":"09500"},{"name":"KABALAR MAH.","zip":"09500"},{"name":"KABATAŞ MAH.","zip":"09500"},{"name":"KADILAR MAH.","zip":"09500"},{"name":"KAHRAMAN MAH.","zip":"09500"},{"name":"KARAHAYIT MAH.","zip":"09500"},{"name":"KARAKOLLAR MAH.","zip":"09500"},{"name":"KARANFİLLER MAH.","zip":"09500"},{"name":"KARĞI MAH.","zip":"09500"},{"name":"KASAR MAH.","zip":"09500"},{"name":"KAVŞIT MAH.","zip":"09500"},{"name":"KIRKIŞIK MAH.","zip":"09500"},{"name":"KIRKSAKALLAR MAH.","zip":"09500"},{"name":"KIZILGÜNEY MAH.","zip":"09500"},{"name":"KİRAZDERESİ MAH.","zip":"09500"},{"name":"KURUKÖY MAH.","zip":"09500"},{"name":"MUTAFLAR MAH.","zip":"09500"},{"name":"OVACIK MAH.","zip":"09500"},{"name":"ÖZEREN MAH.","zip":"09500"},{"name":"SAĞLIK MAH.","zip":"09500"},{"name":"SARAÇLAR MAH.","zip":"09500"},{"name":"SARIKÖY MAH.","zip":"09500"},{"name":"SARIOĞLU MAH.","zip":"09500"},{"name":"SARNIÇ MAH.","zip":"09500"},{"name":"SEFERLER MAH.","zip":"09500"},{"name":"SOĞANCILAR MAH.","zip":"09500"},{"name":"SOĞUKOLUK MAH.","zip":"09500"},{"name":"SÖĞÜTÇÜK MAH.","zip":"09500"},{"name":"SUBAŞI MAH.","zip":"09500"},{"name":"ŞEVKETİYE MAH.","zip":"09500"},{"name":"TAŞOLUK MAH.","zip":"09500"},{"name":"TATARMEMİŞLER MAH.","zip":"09500"},{"name":"TEPEKÖY MAH.","zip":"09500"},{"name":"TOPÇAM MAH.","zip":"09500"},{"name":"UMURKÖY MAH.","zip":"09500"},{"name":"ÜNLÜCE MAH.","zip":"09500"},{"name":"YAĞCILAR MAH.","zip":"09500"},{"name":"YENİ MAH.","zip":"09500"},{"name":"YENİKÖY MAH.","zip":"09500"},{"name":"YEŞİLKÖY MAH.","zip":"09500"},{"name":"YOLBOYU MAH.","zip":"09500"},{"name":"YÖRÜKLER MAH.","zip":"09500"}]},{"name":"AKYENİKÖY","cityName":null,"quarters":null},{"name":"YENİHİSAR","cityName":null,"quarters":[{"name":"AKKÖY MAH.","zip":"09270"},{"name":"ALTINKUM MAH.","zip":"09270"},{"name":"BALAT MAH.","zip":"09270"},{"name":"BATIKÖY MAH.","zip":"09270"},{"name":"CUMHURİYET MAH.","zip":"09270"},{"name":"ÇAMLIK MAH.","zip":"09270"},{"name":"DENİZKÖY MAH.","zip":"09270"},{"name":"EFELER MAH.","zip":"09270"},{"name":"FEVZİPAŞA MAH.","zip":"09270"},{"name":"HİSAR MAH.","zip":"09270"},{"name":"MAVİŞEHİR MAH.","zip":"09270"},{"name":"MERSİNDERE MAH.","zip":"09270"},{"name":"YALIKÖY MAH.","zip":"09270"},{"name":"YENİ MAH.","zip":"09270"}]},{"name":"ÇARŞI","cityName":null,"quarters":[{"name":"KEMER MAH.","zip":"09100"},{"name":"KÖPRÜLÜ-VEYSİPAŞA MAH.","zip":"09100"},{"name":"MESUDİYE MAH.","zip":"09100"},{"name":"MEŞRUTİYET MAH.","zip":"09100"},{"name":"MİMAR SİNAN MAH.","zip":"09100"}]},{"name":"ÇEŞTEPE","cityName":null,"quarters":null},{"name":"DALAMA","cityName":null,"quarters":[{"name":"DALAMA BUCAĞI YENİKÖY MAH.","zip":"09110"},{"name":"DALAMA MAH.","zip":"09110"},{"name":"DEREKÖY MAH.","zip":"09110"},{"name":"GÖDRENLİ MAH.","zip":"09110"},{"name":"HASANEFENDİ-RAMAZAN PAŞA MAH.","zip":"09110"},{"name":"KARAHAYIT MAH.","zip":"09110"},{"name":"KIRIKLAR MAH.","zip":"09110"},{"name":"KOZALAKLI MAH.","zip":"09110"},{"name":"KULOĞULLAR MAH.","zip":"09110"},{"name":"MERKEZ BUCAĞI YENİKÖY MAH.","zip":"09110"},{"name":"OVAEYMİR MAH.","zip":"09110"},{"name":"TEPECİK MAH.","zip":"09110"},{"name":"YAĞCILAR MAH.","zip":"09110"}]},{"name":"KURTULUŞ","cityName":null,"quarters":[{"name":"EFELER MAH.","zip":"09020"},{"name":"FATİH MAH.","zip":"09020"},{"name":"İSTİKLAL MAH.","zip":"09020"},{"name":"KURTULUŞ MAH.","zip":"09020"},{"name":"OSMAN YOZGATLI MAH.","zip":"09020"},{"name":"YEDİ EYLÜL MAH.","zip":"09020"},{"name":"ZEYBEK MAH.","zip":"09020"}]},{"name":"SANAYİ","cityName":null,"quarters":[{"name":"ALATEPE MAH.","zip":"09010"},{"name":"AMBARCIK MAH.","zip":"09010"},{"name":"ARMUTLU MAH.","zip":"09010"},{"name":"ATA MAH.","zip":"09010"},{"name":"ATAOSB MAH.","zip":"09010"},{"name":"BADEMLİ MAH.","zip":"09010"},{"name":"BALIKKÖY MAH.","zip":"09010"},{"name":"BALTAKÖY MAH.","zip":"09010"},{"name":"BÖCEK MAH.","zip":"09010"},{"name":"CUMA MAH.","zip":"09010"},{"name":"ÇİFTLİKKÖY MAH.","zip":"09010"},{"name":"DAĞEYMİRİ MAH.","zip":"09010"},{"name":"DANİŞMENT MAH.","zip":"09010"},{"name":"DOĞAN MAH.","zip":"09010"},{"name":"GÖLHİSAR MAH.","zip":"09010"},{"name":"GÖZPINAR MAH.","zip":"09010"},{"name":"GÜZELHİSAR MAH.","zip":"09010"},{"name":"HOROZKÖY MAH.","zip":"09010"},{"name":"ILICABAŞI MAH.","zip":"09010"},{"name":"IŞIKLI MAH.","zip":"09010"},{"name":"KADIKÖY MAH.","zip":"09010"},{"name":"KALFAKÖY MAH.","zip":"09010"},{"name":"KARAKÖY MAH.","zip":"09010"},{"name":"KARDEŞKÖY MAH.","zip":"09010"},{"name":"KENGER MAH.","zip":"09010"},{"name":"KIZILCAKÖY MAH.","zip":"09010"},{"name":"KONUKLU MAH.","zip":"09010"},{"name":"KUYULU MAH.","zip":"09010"},{"name":"MESUTLU MAH.","zip":"09010"},{"name":"ORTA MAH.","zip":"09010"},{"name":"SAVRANDERE MAH.","zip":"09010"},{"name":"SIRALILAR MAH.","zip":"09010"},{"name":"ŞAHNALI MAH.","zip":"09010"},{"name":"ŞEVKETİYE MAH.","zip":"09010"},{"name":"TEPEKÖY MAH.","zip":"09010"},{"name":"YILMAZKÖY MAH.","zip":"09010"},{"name":"ZAFER MAH.","zip":"09010"},{"name":"ZEYTİNKÖY MAH.","zip":"09010"}]},{"name":"UMURLU","cityName":null,"quarters":[{"name":"ÇAYYÜZÜ MAH.","zip":"09630"},{"name":"EĞRİKAVAK MAH.","zip":"09630"},{"name":"EMİRDOĞAN MAH.","zip":"09630"},{"name":"GÖLCÜK MAH.","zip":"09630"},{"name":"İLYASDERE MAH.","zip":"09630"},{"name":"İMAMKÖY MAH.","zip":"09630"},{"name":"KOCAGÜR MAH.","zip":"09630"},{"name":"KUYUCULAR MAH.","zip":"09630"},{"name":"MUSLUCA MAH.","zip":"09630"},{"name":"ORTAKÖY MAH.","zip":"09630"},{"name":"PINARDERE MAH.","zip":"09630"},{"name":"SERÇEKÖY MAH.","zip":"09630"},{"name":"TERZİLER MAH.","zip":"09630"},{"name":"UMURLU MAH.","zip":"09630"},{"name":"YUKARIKAYACIK MAH.","zip":"09630"}]},{"name":"GERMENCİK","cityName":null,"quarters":[{"name":"BOZKÖY MAH.","zip":"09700"},{"name":"CAMİKEBİR MAH.","zip":"09700"},{"name":"ÇAMKÖY MAH.","zip":"09700"},{"name":"ÇARIKLAR MAH.","zip":"09700"},{"name":"DAĞKARAAĞAÇ MAH.","zip":"09700"},{"name":"DAMPINAR MAH.","zip":"09700"},{"name":"HABİBLER MAH.","zip":"09700"},{"name":"HIDIRBEYLİ MAH.","zip":"09700"},{"name":"İSTASYON MAH.","zip":"09700"},{"name":"KARAAĞAÇLI MAH.","zip":"09700"},{"name":"KIZILCAGEDİK MAH.","zip":"09700"},{"name":"MESUDİYE MAH.","zip":"09700"},{"name":"MEŞELİ MAH.","zip":"09700"},{"name":"MURSALLI MAH.","zip":"09700"},{"name":"ORTAKLAR MAH.","zip":"09700"},{"name":"ÖMERBEYLİ MAH.","zip":"09700"},{"name":"PARK MAH.","zip":"09700"},{"name":"REİSKÖY MAH.","zip":"09700"},{"name":"TURANLAR MAH.","zip":"09700"},{"name":"ÜZÜMLÜ MAH.","zip":"09700"},{"name":"YEDİEYLÜL MAH.","zip":"09700"},{"name":"YENİ MAH.","zip":"09700"}]},{"name":"ORTAKLAR","cityName":null,"quarters":[{"name":"BALATÇIK MAH.","zip":"09330"},{"name":"DAĞYENİ MAH.","zip":"09330"},{"name":"DEREKÖY MAH.","zip":"09330"},{"name":"GÜMÜŞKÖY MAH.","zip":"09330"},{"name":"GÜMÜŞYENİKÖY MAH.","zip":"09330"},{"name":"KIZILCAPINAR MAH.","zip":"09330"},{"name":"MORALI MAH.","zip":"09330"},{"name":"NAİPLİ MAH.","zip":"09330"},{"name":"NEŞETİYE MAH.","zip":"09330"},{"name":"SELATİN MAH.","zip":"09330"},{"name":"TEKİN MAH.","zip":"09330"},{"name":"UZUNKUM MAH.","zip":"09330"}]},{"name":"İNCİRLİOVA","cityName":null,"quarters":[{"name":"AKÇEŞME MAH.","zip":"09600"},{"name":"ARPADERE MAH.","zip":"09600"},{"name":"ARZULAR MAH.","zip":"09600"},{"name":"ATATÜRK MAH.","zip":"09600"},{"name":"BEYKÖY MAH.","zip":"09600"},{"name":"CUMHURİYET MAH.","zip":"09600"},{"name":"DEREAĞZI MAH.","zip":"09600"},{"name":"EĞREK MAH.","zip":"09600"},{"name":"ERBEYLİ MAH.","zip":"09600"},{"name":"GERENKOVA MAH.","zip":"09600"},{"name":"HACIALİOBASI MAH.","zip":"09600"},{"name":"HAMİTLER MAH.","zip":"09600"},{"name":"HÜRRİYET MAH.","zip":"09600"},{"name":"İKİZDERE MAH.","zip":"09600"},{"name":"İSAFAKILAR MAH.","zip":"09600"},{"name":"İSTİKLAL MAH.","zip":"09600"},{"name":"KARABAĞ MAH.","zip":"09600"},{"name":"KARAGÖZLER MAH.","zip":"09600"},{"name":"KÖPRÜOVA MAH.","zip":"09600"},{"name":"KURTULUŞ MAH.","zip":"09600"},{"name":"OSMANBÜKÜ MAH.","zip":"09600"},{"name":"PALAMUTKÖY MAH.","zip":"09600"},{"name":"SANDIKLI MAH.","zip":"09600"},{"name":"SINIRTEKE MAH.","zip":"09600"},{"name":"ŞİRİNDERE MAH.","zip":"09600"},{"name":"YAZIDERE MAH.","zip":"09600"},{"name":"ZAFER MAH.","zip":"09600"}]},{"name":"KARACASU","cityName":null,"quarters":[{"name":"AŞAĞIGÖRLE MAH.","zip":"09370"},{"name":"ATAEYMİR MAH.","zip":"09370"},{"name":"ATAKÖY MAH.","zip":"09370"},{"name":"BAHÇEKÖY MAH.","zip":"09370"},{"name":"BEREKETLİ MAH.","zip":"09370"},{"name":"BİNGEÇ MAH.","zip":"09370"},{"name":"BÜYÜKDAĞLI MAH.","zip":"09370"},{"name":"CABİ MAH.","zip":"09370"},{"name":"CUMA MAH.","zip":"09370"},{"name":"ÇAMARASI MAH.","zip":"09370"},{"name":"ÇAMKÖY MAH.","zip":"09370"},{"name":"DEDELER MAH.","zip":"09370"},{"name":"DEREKÖY MAH.","zip":"09370"},{"name":"DİKMEN MAH.","zip":"09370"},{"name":"ESENÇAY MAH.","zip":"09370"},{"name":"GEYRE MAH.","zip":"09370"},{"name":"GÖRLE MAH.","zip":"09370"},{"name":"GÜZELBEYLİ MAH.","zip":"09370"},{"name":"GÜZELKÖY MAH.","zip":"09370"},{"name":"HACIHIDIRLAR MAH.","zip":"09370"},{"name":"IŞIKLAR MAH.","zip":"09370"},{"name":"KARABAĞLAR MAH.","zip":"09370"},{"name":"KARACAÖREN MAH.","zip":"09370"},{"name":"KÜÇÜKDAĞLI MAH.","zip":"09370"},{"name":"NARGEDİK MAH.","zip":"09370"},{"name":"PALAMUTÇUK MAH.","zip":"09370"},{"name":"TEKELİLER MAH.","zip":"09370"},{"name":"TEPECİK MAH.","zip":"09370"},{"name":"YAYKIN MAH.","zip":"09370"},{"name":"YAYLALI MAH.","zip":"09370"},{"name":"YAZIR MAH.","zip":"09370"},{"name":"YENİCE MAH.","zip":"09370"},{"name":"YENİKÖY MAH.","zip":"09370"},{"name":"YEŞİLKÖY MAH.","zip":"09370"},{"name":"YEŞİLYURT MAH.","zip":"09370"},{"name":"YOLALTI MAH.","zip":"09370"},{"name":"YOLÜSTÜ MAH.","zip":"09370"}]},{"name":"KARPUZLU","cityName":null,"quarters":[{"name":"AKÇAABAT MAH.","zip":"09540"},{"name":"BAYRAKTEPE MAH.","zip":"09540"},{"name":"CUMALAR MAH.","zip":"09540"},{"name":"ÇOBANİSA MAH.","zip":"09540"},{"name":"EKTİRLİ MAH.","zip":"09540"},{"name":"GÖLCÜK MAH.","zip":"09540"},{"name":"GÜNEY MAH.","zip":"09540"},{"name":"HATIPKIŞLA MAH.","zip":"09540"},{"name":"IŞIKLAR MAH.","zip":"09540"},{"name":"KOĞUK MAH.","zip":"09540"},{"name":"MERİÇLER MAH.","zip":"09540"},{"name":"MUTLUCA MAH.","zip":"09540"},{"name":"ORTA MAH.","zip":"09540"},{"name":"OVAPINARI MAH.","zip":"09540"},{"name":"ÖMERLER MAH.","zip":"09540"},{"name":"ŞENKÖY MAH.","zip":"09540"},{"name":"TEKELER MAH.","zip":"09540"},{"name":"TÜTÜNLÜK MAH.","zip":"09540"},{"name":"ULUKONAK MAH.","zip":"09540"},{"name":"UMCULAR MAH.","zip":"09540"},{"name":"YAĞŞILAR MAH.","zip":"09540"},{"name":"YENİ MAH.","zip":"09540"}]},{"name":"KOÇARLI","cityName":null,"quarters":[{"name":"AKMESCİT MAH.","zip":"09970"},{"name":"ATATÜRK MAH.","zip":"09970"},{"name":"BAĞARCIK MAH.","zip":"09970"},{"name":"BAĞCILAR MAH.","zip":"09970"},{"name":"BIYIKLI MAH.","zip":"09970"},{"name":"BİRCİ MAH.","zip":"09970"},{"name":"BOĞAZİÇİ MAH.","zip":"09970"},{"name":"BOYDERE MAH.","zip":"09970"},{"name":"BÜYÜKDERE MAH.","zip":"09970"},{"name":"CİNCİN MAH.","zip":"09970"},{"name":"ÇAKIRBEYLİ MAH.","zip":"09970"},{"name":"ÇAKMAR MAH.","zip":"09970"},{"name":"ÇALLI MAH.","zip":"09970"},{"name":"ÇEŞMEKÖY MAH.","zip":"09970"},{"name":"ÇULHALAR MAH.","zip":"09970"},{"name":"DEDEKÖY MAH.","zip":"09970"},{"name":"DEREKÖY MAH.","zip":"09970"},{"name":"ESENTEPE MAH.","zip":"09970"},{"name":"EVSEKLER MAH.","zip":"09970"},{"name":"GAFFARLAR MAH.","zip":"09970"},{"name":"GÖZKAYA MAH.","zip":"09970"},{"name":"GÜDÜŞLÜ MAH.","zip":"09970"},{"name":"GÜNDOĞAN MAH.","zip":"09970"},{"name":"HACIHAMZALAR MAH.","zip":"09970"},{"name":"HALİLBEYLİ MAH.","zip":"09970"},{"name":"HAYDARLI MAH.","zip":"09970"},{"name":"KARAAĞAÇ MAH.","zip":"09970"},{"name":"KARACAÖREN MAH.","zip":"09970"},{"name":"KARADUT MAH.","zip":"09970"},{"name":"KASAPLAR MAH.","zip":"09970"},{"name":"KIZILCABÖLÜK MAH.","zip":"09970"},{"name":"KIZILKAYA MAH.","zip":"09970"},{"name":"KULLAR MAH.","zip":"09970"},{"name":"KUŞLARBELEN MAH.","zip":"09970"},{"name":"MERSİNBELEN MAH.","zip":"09970"},{"name":"ORHANİYE MAH.","zip":"09970"},{"name":"ORTA MAH.","zip":"09970"},{"name":"SAPALAN MAH.","zip":"09970"},{"name":"SATILAR MAH.","zip":"09970"},{"name":"SOBUCA MAH.","zip":"09970"},{"name":"ŞAHİNCİLER MAH.","zip":"09970"},{"name":"ŞENKÖY MAH.","zip":"09970"},{"name":"TAŞKÖY MAH.","zip":"09970"},{"name":"TEKELİ MAH.","zip":"09970"},{"name":"TIĞILLAR MAH.","zip":"09970"},{"name":"TİMİNCİLER MAH.","zip":"09970"},{"name":"YAĞCIDERE MAH.","zip":"09970"},{"name":"YAĞHANLI MAH.","zip":"09970"},{"name":"YENİ MAH.","zip":"09970"},{"name":"YENİKÖY MAH.","zip":"09970"},{"name":"ZEYTİNKÖY MAH.","zip":"09970"}]},{"name":"KÖŞK","cityName":null,"quarters":[{"name":"AKÇAKÖY MAH.","zip":"09570"},{"name":"ALTIEYLÜL MAH.","zip":"09570"},{"name":"BAKLAKÖY MAH.","zip":"09570"},{"name":"BAŞÇAYIR MAH.","zip":"09570"},{"name":"BEYKÖY MAH.","zip":"09570"},{"name":"CUMADERE MAH.","zip":"09570"},{"name":"CUMAYANI MAH.","zip":"09570"},{"name":"ÇARŞI MAH.","zip":"09570"},{"name":"ÇİFTLİKKÖY MAH.","zip":"09570"},{"name":"GÖKKİRİŞ MAH.","zip":"09570"},{"name":"GÜNDOĞAN MAH.","zip":"09570"},{"name":"GÜZELKÖY MAH.","zip":"09570"},{"name":"ILIDAĞ MAH.","zip":"09570"},{"name":"KARATEPE MAH.","zip":"09570"},{"name":"KETENYERİ MAH.","zip":"09570"},{"name":"KIRAN MAH.","zip":"09570"},{"name":"KIZILCAKÖY MAH.","zip":"09570"},{"name":"KIZILCAYER MAH.","zip":"09570"},{"name":"KOÇAK MAH.","zip":"09570"},{"name":"MENTEŞELER MAH.","zip":"09570"},{"name":"MEZEKÖY MAH.","zip":"09570"},{"name":"OVAKÖY MAH.","zip":"09570"},{"name":"SARIÇAM MAH.","zip":"09570"},{"name":"SERDAROĞLU MAH.","zip":"09570"},{"name":"SOĞUKKUYU MAH.","zip":"09570"},{"name":"UZUNDERE MAH.","zip":"09570"},{"name":"YAVUZKÖY MAH.","zip":"09570"}]},{"name":"KUŞADASI","cityName":null,"quarters":[{"name":"BAYRAKLIDEDE MAH.","zip":"09400"},{"name":"CAFERLİ MAH.","zip":"09400"},{"name":"CAMİATİK MAH.","zip":"09400"},{"name":"CAMİKEBİR MAH.","zip":"09400"},{"name":"CUMHURİYET MAH.","zip":"09400"},{"name":"ÇINARKÖY MAH.","zip":"09400"},{"name":"DAĞ MAH.","zip":"09400"},{"name":"DAVUTLAR MAH.","zip":"09400"},{"name":"DEĞİRMENDERE MAH.","zip":"09400"},{"name":"EGE MAH.","zip":"09400"},{"name":"GÜZELÇAMLI MAH.","zip":"09400"},{"name":"HACIFEYZULLAH MAH.","zip":"09400"},{"name":"İKİÇEŞMELİK MAH.","zip":"09400"},{"name":"KADIKALESİ MAH.","zip":"09400"},{"name":"KADINLAR DENİZİ MAH.","zip":"09400"},{"name":"KARAOVA MAH.","zip":"09400"},{"name":"KİRAZLI MAH.","zip":"09400"},{"name":"SOĞUCAK MAH.","zip":"09400"},{"name":"TÜRKMEN MAH.","zip":"09400"},{"name":"YAVANSU MAH.","zip":"09400"},{"name":"YAYLAKÖY MAH.","zip":"09400"},{"name":"YENİKÖY MAH.","zip":"09400"}]},{"name":"KUYUCAK","cityName":null,"quarters":[{"name":"AYDINOĞLU MAH.","zip":"09930"},{"name":"AZİZABAT MAH.","zip":"09930"},{"name":"BAŞARAN MAH.","zip":"09930"},{"name":"BELENOVA MAH.","zip":"09930"},{"name":"BEŞEYLÜL (MERKEZ) MAH.","zip":"09930"},{"name":"BEŞEYLÜL MAH.","zip":"09930"},{"name":"BUCAKKÖY MAH.","zip":"09930"},{"name":"CUMHURİYET MAH.","zip":"09930"},{"name":"ÇAMDİBİ MAH.","zip":"09930"},{"name":"ÇOBANİSA MAH.","zip":"09930"},{"name":"DEREKÖY MAH.","zip":"09930"},{"name":"FATİH MAH.","zip":"09930"},{"name":"GENCELLİ MAH.","zip":"09930"},{"name":"GENCELLİDERE MAH.","zip":"09930"},{"name":"HORSUNLU MAH.","zip":"09930"},{"name":"İĞDECİK MAH.","zip":"09930"},{"name":"KARAPINAR MAH.","zip":"09930"},{"name":"KAYRAN MAH.","zip":"09930"},{"name":"KURTULUŞ (HORSUNLU) MAH.","zip":"09930"},{"name":"KURTULUŞ MAH.","zip":"09930"},{"name":"MUSAKOLU MAH.","zip":"09930"},{"name":"MUSTAFAPAŞA MAH.","zip":"09930"},{"name":"OVACIK MAH.","zip":"09930"},{"name":"ÖREN MAH.","zip":"09930"},{"name":"PAMUCAK MAH.","zip":"09930"},{"name":"PAMUKÖREN MAH.","zip":"09930"},{"name":"SARICAOVA MAH.","zip":"09930"},{"name":"TAŞOLUK MAH.","zip":"09930"},{"name":"YAKUPPAŞA MAH.","zip":"09930"},{"name":"YAMALAK MAH.","zip":"09930"},{"name":"YAYLALI MAH.","zip":"09930"},{"name":"YENİ MAH.","zip":"09930"},{"name":"YEŞİLDERE MAH.","zip":"09930"},{"name":"YÖRE MAH.","zip":"09930"},{"name":"YUKARIYAKACIK MAH.","zip":"09930"}]},{"name":"NAZİLLİ","cityName":null,"quarters":[{"name":"AKSU MAH.","zip":"09800"},{"name":"ALTINTAŞ MAH.","zip":"09800"},{"name":"APAKLAR MAH.","zip":"09800"},{"name":"ARSLANLI CUMHURİYET MAH.","zip":"09800"},{"name":"ARSLANLI HÜRRİYET MAH.","zip":"09800"},{"name":"ARSLANLI ZAFER MAH.","zip":"09800"},{"name":"AŞAĞIÖRENCİK MAH.","zip":"09800"},{"name":"AŞAĞIYAKACIK MAH.","zip":"09800"},{"name":"AYDOĞDU MAH.","zip":"09800"},{"name":"BAĞCILLI MAH.","zip":"09800"},{"name":"BAYINDIR MAH.","zip":"09800"},{"name":"BEĞERLİ MAH.","zip":"09800"},{"name":"BEKİRLER MAH.","zip":"09800"},{"name":"BEREKETLİ MAH.","zip":"09800"},{"name":"BOZYURT MAH.","zip":"09800"},{"name":"ÇATAK MAH.","zip":"09800"},{"name":"ÇAYLI MAH.","zip":"09800"},{"name":"ÇOBANLAR MAH.","zip":"09800"},{"name":"DALLICA MAH.","zip":"09800"},{"name":"DEMİRCİLER MAH.","zip":"09800"},{"name":"DEREAĞZI MAH.","zip":"09800"},{"name":"DEREBAŞI MAH.","zip":"09800"},{"name":"DUALAR MAH.","zip":"09800"},{"name":"DURASILLI MAH.","zip":"09800"},{"name":"ESENKÖY MAH.","zip":"09800"},{"name":"ESENTEPE MAH.","zip":"09800"},{"name":"EYCELLİ MAH.","zip":"09800"},{"name":"GEDİK MAH.","zip":"09800"},{"name":"GEDİKALTI MAH.","zip":"09800"},{"name":"GÜZELKÖY MAH.","zip":"09800"},{"name":"HAMİDİYE MAH.","zip":"09800"},{"name":"HAMZALLI MAH.","zip":"09800"},{"name":"HASKÖY MAH.","zip":"09800"},{"name":"HAYDARLI MAH.","zip":"09800"},{"name":"HİSARCIK MAH.","zip":"09800"},{"name":"IŞIKLAR MAH.","zip":"09800"},{"name":"İSABEYLİ MAH.","zip":"09800"},{"name":"İSTİKLAL MAH.","zip":"09800"},{"name":"KAHVEDERESİ MAH.","zip":"09800"},{"name":"KARAHALLI MAH.","zip":"09800"},{"name":"KARDEŞKÖY MAH.","zip":"09800"},{"name":"KAŞIKÇILAR MAH.","zip":"09800"},{"name":"KAVACIK MAH.","zip":"09800"},{"name":"KESTEL MAH.","zip":"09800"},{"name":"KETENDERE MAH.","zip":"09800"},{"name":"KETENOVA MAH.","zip":"09800"},{"name":"KIRCAKLI MAH.","zip":"09800"},{"name":"KIZILDERE MAH.","zip":"09800"},{"name":"KOCAKESİK MAH.","zip":"09800"},{"name":"KOZDERE MAH.","zip":"09800"},{"name":"KURTULUŞ MAH.","zip":"09800"},{"name":"KUŞÇULAR MAH.","zip":"09800"},{"name":"MESCİTLİ MAH.","zip":"09800"},{"name":"OCAKLI MAH.","zip":"09800"},{"name":"OVACIK MAH.","zip":"09800"},{"name":"PINARBAŞI MAH.","zip":"09800"},{"name":"PİRLİBEY MAH.","zip":"09800"},{"name":"PROF.MUAMMER AKSOY MAH.","zip":"09800"},{"name":"RAHMANLAR MAH.","zip":"09800"},{"name":"SAİLER MAH.","zip":"09800"},{"name":"SAMAİLLİ MAH.","zip":"09800"},{"name":"SEVİNDİKLİ MAH.","zip":"09800"},{"name":"ŞİMŞELLİ MAH.","zip":"09800"},{"name":"TOYGAR MAH.","zip":"09800"},{"name":"TURAN MAH.","zip":"09800"},{"name":"UZUNÇAM MAH.","zip":"09800"},{"name":"YALINKUYU MAH.","zip":"09800"},{"name":"YAYLAPINAR MAH.","zip":"09800"},{"name":"YAZIRLI MAH.","zip":"09800"},{"name":"YELLİCE MAH.","zip":"09800"},{"name":"YENİ MAH.","zip":"09800"},{"name":"YENİ SANAYİİ MAH.","zip":"09800"},{"name":"YEŞİL MAH.","zip":"09800"},{"name":"YILDIZTEPE MAH.","zip":"09800"},{"name":"YUKARIÖRENCİK MAH.","zip":"09800"},{"name":"ZAFER MAH.","zip":"09800"}]},{"name":"SÜMER","cityName":null,"quarters":[{"name":"ÇAPAHASAN MAH.","zip":"09900"},{"name":"DUMLUPINAR MAH.","zip":"09900"},{"name":"KARAÇAY MAH.","zip":"09900"},{"name":"NAZİLLİ OSB MAH.","zip":"09900"},{"name":"SÜMER MAH.","zip":"09900"},{"name":"ŞİRİNEVLER MAH.","zip":"09900"},{"name":"YEŞİLYURT MAH.","zip":"09900"}]},{"name":"SÖKE","cityName":null,"quarters":[{"name":"AKÇAKAYA MAH.","zip":"09200"},{"name":"AKÇAKONAK MAH.","zip":"09200"},{"name":"ARGAVLI MAH.","zip":"09200"},{"name":"ARSLANYAYLASI MAH.","zip":"09200"},{"name":"ATATÜRK MAH.","zip":"09200"},{"name":"ATBURGAZI MAH.","zip":"09200"},{"name":"AVCILAR MAH.","zip":"09200"},{"name":"AVŞAR MAH.","zip":"09200"},{"name":"BAĞARASI MAH.","zip":"09200"},{"name":"BAYIRDAMI MAH.","zip":"09200"},{"name":"BURUNKÖY MAH.","zip":"09200"},{"name":"CUMHURİYET MAH.","zip":"09200"},{"name":"ÇALIKÖY MAH.","zip":"09200"},{"name":"ÇALIŞLI MAH.","zip":"09200"},{"name":"ÇAVDAR MAH.","zip":"09200"},{"name":"ÇELTİKÇİ MAH.","zip":"09200"},{"name":"DEMİRÇAY MAH.","zip":"09200"},{"name":"DOĞANBEY MAH.","zip":"09200"},{"name":"FEVZİPAŞA MAH.","zip":"09200"},{"name":"GÖLBENT MAH.","zip":"09200"},{"name":"GÜLLÜBAHÇE MAH.","zip":"09200"},{"name":"GÜNEYYAKA MAH.","zip":"09200"},{"name":"GÜZELTEPE MAH.","zip":"09200"},{"name":"KARAATLI MAH.","zip":"09200"},{"name":"KARACAHAYIT MAH.","zip":"09200"},{"name":"KARAKAYA MAH.","zip":"09200"},{"name":"KAYGILLI MAH.","zip":"09200"},{"name":"KEMALPAŞA MAH.","zip":"09200"},{"name":"KİSİR MAH.","zip":"09200"},{"name":"KONAK MAH.","zip":"09200"},{"name":"KÖPRÜALAN MAH.","zip":"09200"},{"name":"NALBANTLAR MAH.","zip":"09200"},{"name":"ÖZBAŞI MAH.","zip":"09200"},{"name":"PAMUKÇULAR MAH.","zip":"09200"},{"name":"SARIKEMER MAH.","zip":"09200"},{"name":"SAVUCA MAH.","zip":"09200"},{"name":"SAYRAKÇI MAH.","zip":"09200"},{"name":"SAZLI MAH.","zip":"09200"},{"name":"SERÇİN MAH.","zip":"09200"},{"name":"SOFULAR MAH.","zip":"09200"},{"name":"SÖKE OSB MAH.","zip":"09200"},{"name":"TUZBURGAZI MAH.","zip":"09200"},{"name":"YAMAÇ MAH.","zip":"09200"},{"name":"YENİCAMİİ MAH.","zip":"09200"},{"name":"YENİDOĞAN MAH.","zip":"09200"},{"name":"YENİKENT MAH.","zip":"09200"},{"name":"YENİKÖY MAH.","zip":"09200"},{"name":"YEŞİLKÖY MAH.","zip":"09200"},{"name":"YUVACA MAH.","zip":"09200"}]},{"name":"SULTANHİSAR","cityName":null,"quarters":[{"name":"BEŞEYLÜL MAH.","zip":"09470"},{"name":"DEMİRHAN MAH.","zip":"09470"},{"name":"ESKİHİSAR MAH.","zip":"09470"},{"name":"GÜVENDİK MAH.","zip":"09470"},{"name":"HİSAR MAH.","zip":"09470"},{"name":"İNCEALAN MAH.","zip":"09470"},{"name":"KABACA MAH.","zip":"09470"},{"name":"KAVAKLI MAH.","zip":"09470"},{"name":"KILAVUZLAR MAH.","zip":"09470"},{"name":"KURTULUŞ MAH.","zip":"09470"},{"name":"MALGAÇEMİR MAH.","zip":"09470"},{"name":"MALGAÇMUSTAFA MAH.","zip":"09470"},{"name":"REKMEZ MAH.","zip":"09470"},{"name":"SALAVATLI MAH.","zip":"09470"},{"name":"UZUNLAR MAH.","zip":"09470"},{"name":"YAĞDERE MAH.","zip":"09470"},{"name":"ZAFER MAH.","zip":"09470"}]},{"name":"YENİPAZAR","cityName":null,"quarters":[{"name":"ALİOĞULLAR MAH.","zip":"09350"},{"name":"ÇARŞI MAH.","zip":"09350"},{"name":"ÇAVDAR MAH.","zip":"09350"},{"name":"ÇULHAN MAH.","zip":"09350"},{"name":"DEREKÖY MAH.","zip":"09350"},{"name":"DİRECİK MAH.","zip":"09350"},{"name":"DOĞU MAH.","zip":"09350"},{"name":"DONDURAN MAH.","zip":"09350"},{"name":"EĞRİDERE MAH.","zip":"09350"},{"name":"HACIKÖSELER MAH.","zip":"09350"},{"name":"HAMZABALİ MAH.","zip":"09350"},{"name":"HÜKÜMET MAH.","zip":"09350"},{"name":"KARACAÖREN MAH.","zip":"09350"},{"name":"KARAÇAKAL MAH.","zip":"09350"},{"name":"KOYUNLAR MAH.","zip":"09350"},{"name":"PAŞAKÖY MAH.","zip":"09350"},{"name":"YENİ MAH.","zip":"09350"}]}]}]}